{
  "office/insurance|A-MAX Auto Insurance": {
    "countryCodes": ["us"],
    "tags": {
      "brand": "A-MAX Auto Insurance",
      "brand:wikidata": "Q75767609",
      "name": "A-MAX Auto Insurance",
      "office": "insurance",
      "short_name": "A-MAX"
    }
  },
  "office/insurance|A-Plan Insurance": {
    "countryCodes": ["gb"],
    "tags": {
      "brand": "A-Plan Insurance",
      "brand:wikidata": "Q87070013",
      "name": "A-Plan Insurance",
      "office": "insurance"
    }
  },
  "office/insurance|AAA Insurance": {
    "countryCodes": ["us"],
    "matchNames": [
      "american automobile association"
    ],
    "nomatch": [
      "office/travel_agency|American Automobile Association"
    ],
    "tags": {
      "brand": "American Automobile Association",
      "brand:wikidata": "Q463436",
      "brand:wikipedia": "en:American Automobile Association",
      "name": "AAA Insurance",
      "office": "insurance",
      "short_name": "AAA"
    }
  },
  "office/insurance|AOK": {
    "countryCodes": ["de"],
    "tags": {
      "brand": "AOK",
      "brand:wikidata": "Q835141",
      "brand:wikipedia": "de:Allgemeine Ortskrankenkasse",
      "name": "AOK",
      "office": "insurance"
    }
  },
  "office/insurance|AXA": {
    "nomatch": ["amenity/bank|AXA"],
    "tags": {
      "brand": "AXA",
      "brand:wikidata": "Q160054",
      "brand:wikipedia": "en:AXA",
      "name": "AXA",
      "office": "insurance"
    }
  },
  "office/insurance|Allianz": {
    "tags": {
      "brand": "Allianz",
      "brand:wikidata": "Q487292",
      "brand:wikipedia": "en:Allianz",
      "name": "Allianz",
      "office": "insurance"
    }
  },
  "office/insurance|Allstate": {
    "countryCodes": ["us"],
    "matchNames": ["allstate insurance"],
    "tags": {
      "brand": "Allstate",
      "brand:wikidata": "Q2645636",
      "brand:wikipedia": "en:Allstate",
      "name": "Allstate",
      "office": "insurance"
    }
  },
  "office/insurance|American Family Insurance": {
    "countryCodes": ["us"],
    "matchNames": ["american family", "amfam"],
    "tags": {
      "brand": "American Family Insurance",
      "brand:wikidata": "Q4743730",
      "brand:wikipedia": "en:American Family Insurance",
      "name": "American Family Insurance",
      "office": "insurance"
    }
  },
  "office/insurance|Asepeyo": {
    "countryCodes": ["es"],
    "nomatch": ["amenity/clinic|Asepeyo"],
    "tags": {
      "brand": "Asepeyo",
      "brand:wikidata": "Q11906879",
      "brand:wikipedia": "es:Asepeyo",
      "name": "Asepeyo",
      "office": "insurance"
    }
  },
  "office/insurance|Assu 2000": {
    "countryCodes": ["fr"],
    "tags": {
      "brand": "Assu 2000",
      "name": "Assu 2000",
      "office": "insurance"
    }
  },
  "office/insurance|Aviva": {
    "countryCodes": ["fr", "ie", "pl"],
    "tags": {
      "brand": "Aviva",
      "brand:wikidata": "Q791179",
      "brand:wikipedia": "en:Aviva",
      "name": "Aviva",
      "office": "insurance"
    }
  },
  "office/insurance|BGV": {
    "countryCodes": ["de"],
    "tags": {
      "alt_name": "Badische Versicherungen",
      "brand": "BGV",
      "brand:wikidata": "Q795911",
      "brand:wikipedia": "de:BGV / Badische Versicherungen",
      "name": "BGV",
      "office": "insurance"
    }
  },
  "office/insurance|Banco do Brasil Seguridade": {
    "countryCodes": ["br"],
    "tags": {
      "brand": "Banco do Brasil Seguridade",
      "brand:wikidata": "Q18499520",
      "brand:wikipedia": "pt:BB Seguridade",
      "name": "Banco do Brasil Seguridade",
      "office": "insurance",
      "short_name": "BB Seguridade"
    }
  },
  "office/insurance|Bâloise": {
    "countryCodes": [
      "be",
      "ch",
      "de",
      "li",
      "lu"
    ],
    "tags": {
      "brand": "Bâloise",
      "brand:wikidata": "Q457912",
      "brand:wikipedia": "en:Bâloise",
      "name": "Bâloise",
      "office": "insurance"
    }
  },
  "office/insurance|CESCE": {
    "countryCodes": ["es"],
    "tags": {
      "brand": "CESCE",
      "brand:wikidata": "Q5737049",
      "brand:wikipedia": "es:CESCE",
      "name": "CESCE",
      "office": "insurance",
      "official_name": "Compañía Española de Seguros de Crédito a la Exportación"
    }
  },
  "office/insurance|CUK Ubezpieczenia": {
    "countryCodes": ["pl"],
    "tags": {
      "brand": "CUK Ubezpieczenia",
      "name": "CUK Ubezpieczenia",
      "office": "insurance"
    }
  },
  "office/insurance|Caser": {
    "countryCodes": ["es"],
    "tags": {
      "brand": "Caser",
      "brand:wikidata": "Q5756057",
      "brand:wikipedia": "es:Caser",
      "name": "Caser",
      "office": "insurance"
    }
  },
  "office/insurance|Catalana Occidente": {
    "countryCodes": ["es"],
    "tags": {
      "brand": "Catalana Occidente",
      "brand:wikidata": "Q5936881",
      "brand:wikipedia": "es:Catalana Occidente",
      "name": "Catalana Occidente",
      "office": "insurance"
    }
  },
  "office/insurance|DAK": {
    "countryCodes": ["de"],
    "tags": {
      "brand": "DAK",
      "brand:wikidata": "Q1151671",
      "brand:wikipedia": "de:DAK-Gesundheit",
      "name": "DAK",
      "office": "insurance"
    }
  },
  "office/insurance|DEVK": {
    "countryCodes": ["de"],
    "tags": {
      "brand": "DEVK",
      "brand:wikidata": "Q1153049",
      "brand:wikipedia": "de:DEVK",
      "name": "DEVK",
      "office": "insurance"
    }
  },
  "office/insurance|Debeka": {
    "countryCodes": ["de"],
    "tags": {
      "brand": "Debeka",
      "brand:wikidata": "Q1181452",
      "brand:wikipedia": "de:Debeka",
      "name": "Debeka",
      "office": "insurance"
    }
  },
  "office/insurance|ENSA": {
    "countryCodes": ["ao"],
    "tags": {
      "brand": "ENSA",
      "brand:wikidata": "Q5323726",
      "brand:wikipedia": "en:ENSA – Seguros de Angola",
      "name": "ENSA",
      "office": "insurance"
    }
  },
  "office/insurance|Erie Insurance": {
    "countryCodes": ["us"],
    "matchNames": ["erie"],
    "tags": {
      "brand": "Erie Insurance",
      "brand:wikidata": "Q5388314",
      "brand:wikipedia": "en:Erie Insurance Group",
      "name": "Erie Insurance",
      "office": "insurance"
    }
  },
  "office/insurance|Farmers Insurance": {
    "countryCodes": ["us"],
    "matchNames": ["farmers"],
    "tags": {
      "brand": "Farmers Insurance",
      "brand:wikidata": "Q1396863",
      "brand:wikipedia": "en:Farmers Insurance Group",
      "name": "Farmers Insurance",
      "office": "insurance"
    }
  },
  "office/insurance|Foyer": {
    "countryCodes": ["lu"],
    "tags": {
      "brand": "Foyer",
      "brand:wikidata": "Q1344573",
      "brand:wikipedia": "lb:Foyer",
      "name": "Foyer",
      "office": "insurance"
    }
  },
  "office/insurance|Fremap": {
    "countryCodes": ["es"],
    "tags": {
      "brand": "Fremap",
      "brand:wikidata": "Q5869232",
      "brand:wikipedia": "es:Fremap",
      "name": "Fremap",
      "office": "insurance"
    }
  },
  "office/insurance|GEICO": {
    "countryCodes": ["us"],
    "tags": {
      "brand": "GEICO",
      "brand:wikidata": "Q1498689",
      "brand:wikipedia": "en:GEICO",
      "name": "GEICO",
      "office": "insurance"
    }
  },
  "office/insurance|GMF": {
    "countryCodes": ["fr"],
    "tags": {
      "brand": "GMF",
      "brand:wikidata": "Q3095296",
      "brand:wikipedia": "fr:Garantie mutuelle des fonctionnaires",
      "name": "GMF",
      "office": "insurance"
    }
  },
  "office/insurance|Generali": {
    "tags": {
      "brand": "Generali",
      "brand:wikidata": "Q670482",
      "brand:wikipedia": "it:Assicurazioni Generali",
      "name": "Generali",
      "office": "insurance"
    }
  },
  "office/insurance|Grange Insurance": {
    "countryCodes": ["us"],
    "matchNames": ["grange"],
    "tags": {
      "brand": "Grange Insurance",
      "brand:wikidata": "Q17183481",
      "brand:wikipedia": "en:Grange Insurance",
      "name": "Grange Insurance",
      "office": "insurance"
    }
  },
  "office/insurance|Groupama": {
    "matchTags": ["amenity/bank|groupama"],
    "tags": {
      "brand": "Groupama",
      "brand:wikidata": "Q3083531",
      "brand:wikipedia": "fr:Groupama",
      "name": "Groupama",
      "office": "insurance",
      "official_name": "Groupe des Assurances Mutuelles Agricoles"
    }
  },
  "office/insurance|HUK-Coburg": {
    "countryCodes": ["de"],
    "tags": {
      "brand": "HUK-Coburg",
      "brand:wikidata": "Q1566111",
      "brand:wikipedia": "de:HUK-Coburg",
      "name": "HUK-Coburg",
      "office": "insurance"
    }
  },
  "office/insurance|Harmonie Mutuelle": {
    "countryCodes": ["fr"],
    "tags": {
      "brand": "Harmonie Mutuelle",
      "brand:wikidata": "Q3127528",
      "brand:wikipedia": "fr:Harmonie mutuelle",
      "name": "Harmonie Mutuelle",
      "office": "insurance"
    }
  },
  "office/insurance|Helvetia": {
    "countryCodes": [
      "at",
      "ch",
      "de",
      "es",
      "fr",
      "it"
    ],
    "tags": {
      "brand": "Helvetia",
      "brand:wikidata": "Q933766",
      "brand:wikipedia": "it:Helvetia Assicurazioni",
      "name": "Helvetia",
      "office": "insurance"
    }
  },
  "office/insurance|Knappschaft": {
    "countryCodes": ["de"],
    "tags": {
      "brand": "Knappschaft",
      "brand:wikidata": "Q1313465",
      "brand:wikipedia": "de:Knappschaft (Krankenkasse)",
      "name": "Knappschaft",
      "office": "insurance"
    }
  },
  "office/insurance|LaLux": {
    "countryCodes": ["lu"],
    "matchNames": ["la luxembourgeoise"],
    "tags": {
      "brand": "LaLux",
      "brand:wikidata": "Q13103680",
      "brand:wikipedia": "lb:La Luxembourgeoise",
      "name": "LaLux",
      "office": "insurance"
    }
  },
  "office/insurance|Liberty Seguros": {
    "countryCodes": ["es"],
    "tags": {
      "brand": "Liberty Seguros",
      "brand:wikidata": "Q3178929",
      "brand:wikipedia": "es:Liberty Seguros",
      "name": "Liberty Seguros",
      "office": "insurance"
    }
  },
  "office/insurance|Línea Directa": {
    "countryCodes": ["es"],
    "tags": {
      "brand": "Línea Directa",
      "brand:wikidata": "Q325156",
      "brand:wikipedia": "es:Línea Directa",
      "name": "Línea Directa",
      "office": "insurance"
    }
  },
  "office/insurance|MAAF": {
    "countryCodes": ["fr"],
    "tags": {
      "brand": "MAAF",
      "brand:wikidata": "Q3331028",
      "brand:wikipedia": "fr:Mutuelle d'assurance des artisans de France",
      "name": "MAAF",
      "office": "insurance"
    }
  },
  "office/insurance|MMA": {
    "countryCodes": ["fr"],
    "tags": {
      "brand": "MMA",
      "brand:wikidata": "Q3331046",
      "brand:wikipedia": "fr:MMA (assurance)",
      "name": "MMA",
      "office": "insurance",
      "official_name": "Mutuelles du Mans Assurances"
    }
  },
  "office/insurance|Macif": {
    "countryCodes": ["fr"],
    "tags": {
      "brand": "Macif",
      "brand:wikidata": "Q3331021",
      "brand:wikipedia": "fr:Mutuelle assurance des commerçants et industriels de France et des cadres et des salariés de l'industrie et du commerce",
      "name": "Macif",
      "office": "insurance"
    }
  },
  "office/insurance|Maif": {
    "countryCodes": ["fr"],
    "tags": {
      "brand": "Maif",
      "brand:wikidata": "Q3331029",
      "brand:wikipedia": "fr:Mutuelle d'assurance des instituteurs de France",
      "name": "Maif",
      "office": "insurance",
      "official_name": "Mutuelle d'assurance des instituteurs de France"
    }
  },
  "office/insurance|Mapfre": {
    "tags": {
      "brand": "Mapfre",
      "brand:wikidata": "Q544532",
      "brand:wikipedia": "en:Mapfre",
      "name": "Mapfre",
      "office": "insurance"
    }
  },
  "office/insurance|Matmut": {
    "countryCodes": ["fr"],
    "tags": {
      "brand": "Matmut",
      "brand:wikidata": "Q3299185",
      "brand:wikipedia": "fr:Matmut",
      "name": "Matmut",
      "office": "insurance"
    }
  },
  "office/insurance|Mutua Madrileña": {
    "countryCodes": ["es"],
    "tags": {
      "brand": "Mutua Madrileña",
      "brand:wikidata": "Q4888750",
      "brand:wikipedia": "es:Mutua Madrileña",
      "name": "Mutua Madrileña",
      "office": "insurance"
    }
  },
  "office/insurance|Nationwide": {
    "countryCodes": ["us"],
    "matchNames": ["nationwide insurance"],
    "nomatch": ["amenity/bank|Nationwide"],
    "tags": {
      "brand": "Nationwide",
      "brand:wikidata": "Q6979886",
      "brand:wikipedia": "en:Nationwide Mutual Insurance Company",
      "name": "Nationwide",
      "office": "insurance"
    }
  },
  "office/insurance|Ocaso": {
    "countryCodes": ["es", "gb"],
    "matchNames": [
      "ocaso seguros",
      "seguros ocaso"
    ],
    "tags": {
      "brand": "Ocaso",
      "brand:wikidata": "Q6123955",
      "brand:wikipedia": "es:Seguros Ocaso",
      "name": "Ocaso",
      "office": "insurance"
    }
  },
  "office/insurance|PZU": {
    "countryCodes": ["pl"],
    "tags": {
      "brand": "PZU",
      "brand:wikidata": "Q1807170",
      "brand:wikipedia": "pl:Powszechny Zakład Ubezpieczeń",
      "name": "PZU",
      "office": "insurance"
    }
  },
  "office/insurance|Pelayo": {
    "countryCodes": ["es"],
    "tags": {
      "brand": "Pelayo",
      "brand:wikidata": "Q16617805",
      "brand:wikipedia": "es:Pelayo Seguros",
      "name": "Pelayo",
      "office": "insurance"
    }
  },
  "office/insurance|Progressive": {
    "countryCodes": ["us"],
    "matchNames": ["progressive insurance"],
    "tags": {
      "brand": "Progressive",
      "brand:wikidata": "Q7248721",
      "brand:wikipedia": "en:Progressive Corporation",
      "name": "Progressive",
      "office": "insurance"
    }
  },
  "office/insurance|Provinzial": {
    "countryCodes": ["de"],
    "tags": {
      "brand": "Provinzial",
      "name": "Provinzial",
      "office": "insurance"
    }
  },
  "office/insurance|Reale": {
    "countryCodes": ["cl", "es", "it"],
    "matchNames": [
      "reale chile",
      "reale immobili",
      "reale mutua assicurazioni",
      "reale seguros",
      "seguros reale"
    ],
    "tags": {
      "brand": "Reale",
      "brand:wikidata": "Q3931092",
      "brand:wikipedia": "it:Reale Mutua Assicurazioni",
      "name": "Reale",
      "office": "insurance"
    }
  },
  "office/insurance|SV SparkassenVersicherung": {
    "countryCodes": ["de"],
    "tags": {
      "brand": "SV SparkassenVersicherung",
      "brand:wikidata": "Q2208645",
      "brand:wikipedia": "de:SV SparkassenVersicherung",
      "name": "SV SparkassenVersicherung",
      "office": "insurance"
    }
  },
  "office/insurance|Santa Lucía": {
    "countryCodes": ["es"],
    "tags": {
      "brand": "Santa Lucía",
      "brand:wikidata": "Q6120481",
      "brand:wikipedia": "es:Santa Lucía",
      "name": "Santa Lucía",
      "office": "insurance"
    }
  },
  "office/insurance|State Farm": {
    "countryCodes": ["us"],
    "matchNames": ["state farm insurance"],
    "tags": {
      "brand": "State Farm",
      "brand:wikidata": "Q2007336",
      "brand:wikipedia": "en:State Farm",
      "name": "State Farm",
      "office": "insurance"
    }
  },
  "office/insurance|Swinton": {
    "countryCodes": ["gb"],
    "tags": {
      "brand": "Swinton",
      "brand:wikidata": "Q7658785",
      "brand:wikipedia": "en:Swinton Insurance",
      "name": "Swinton",
      "office": "insurance"
    }
  },
  "office/insurance|Techniker Krankenkasse": {
    "countryCodes": ["de"],
    "tags": {
      "brand": "Techniker Krankenkasse",
      "brand:wikidata": "Q607531",
      "brand:wikipedia": "de:Techniker Krankenkasse",
      "name": "Techniker Krankenkasse",
      "office": "insurance"
    }
  },
  "office/insurance|The Co-operators": {
    "countryCodes": ["ca"],
    "tags": {
      "brand": "The Co-operators",
      "brand:wikidata": "Q3520320",
      "brand:wikipedia": "en:The Co-operators",
      "name": "The Co-operators",
      "office": "insurance"
    }
  },
  "office/insurance|Tranquilidade": {
    "countryCodes": ["pt"],
    "tags": {
      "brand": "Tranquilidade Seguros",
      "brand:wikidata": "Q7833457",
      "brand:wikipedia": "en:Tranquilidade",
      "name": "Tranquilidade",
      "office": "insurance"
    }
  },
  "office/insurance|Ubezpieczenia": {
    "tags": {
      "brand": "Ubezpieczenia",
      "name": "Ubezpieczenia",
      "office": "insurance"
    }
  },
  "office/insurance|VidaCaixa": {
    "countryCodes": ["es"],
    "tags": {
      "brand": "VidaCaixa",
      "brand:wikidata": "Q11705079",
      "brand:wikipedia": "es:VidaCaixa",
      "name": "VidaCaixa",
      "office": "insurance"
    }
  },
  "office/insurance|Württembergische": {
    "countryCodes": ["de"],
    "tags": {
      "brand": "Württembergische",
      "brand:wikidata": "Q1412465",
      "brand:wikipedia": "de:Württembergische Versicherung",
      "name": "Württembergische",
      "office": "insurance"
    }
  },
  "office/insurance|Wüstenrot": {
    "countryCodes": ["at", "cz", "de", "sk"],
    "tags": {
      "brand": "Wüstenrot",
      "brand:wikidata": "Q2597123",
      "brand:wikipedia": "en:Wüstenrot-Gruppe",
      "name": "Wüstenrot",
      "office": "insurance"
    }
  },
  "office/insurance|Zurich": {
    "tags": {
      "brand": "Zurich",
      "brand:wikidata": "Q230426",
      "brand:wikipedia": "en:Zurich Insurance Group",
      "name": "Zurich",
      "office": "insurance"
    }
  },
  "office/insurance|Белгосстрах": {
    "countryCodes": ["by"],
    "tags": {
      "brand": "Белгосстрах",
      "brand:be": "Белдзяржстрах",
      "brand:en": "Belgosstrakh",
      "brand:ru": "Белгосстрах",
      "brand:wikidata": "Q64606273",
      "name": "Белгосстрах",
      "name:be": "Белдзяржстрах",
      "name:en": "Belgosstrakh",
      "name:ru": "Белгосстрах",
      "office": "insurance"
    }
  },
  "office/insurance|Ингосстрах": {
    "countryCodes": ["ru"],
    "tags": {
      "brand": "Ингосстрах",
      "brand:en": "Ingosstrakh",
      "brand:ru": "Ингосстрах",
      "brand:wikidata": "Q4200631",
      "brand:wikipedia": "ru:Ингосстрах",
      "name": "Ингосстрах",
      "name:en": "Ingosstrakh",
      "name:ru": "Ингосстрах",
      "office": "insurance"
    }
  },
  "office/insurance|РЕСО-Гарантия": {
    "countryCodes": ["ru"],
    "tags": {
      "brand": "РЕСО-Гарантия",
      "brand:en": "RESO-Guarantee",
      "brand:ru": "РЕСО-Гарантия",
      "brand:wikidata": "Q4386516",
      "brand:wikipedia": "ru:РЕСО-Гарантия",
      "name": "РЕСО-Гарантия",
      "name:en": "RESO-Guarantee",
      "name:ru": "РЕСО-Гарантия",
      "office": "insurance"
    }
  },
  "office/insurance|Ренессанс страхование": {
    "tags": {
      "brand": "Ренессанс страхование",
      "name": "Ренессанс страхование",
      "office": "insurance"
    }
  },
  "office/insurance|Росгосстрах": {
    "countryCodes": ["ru"],
    "tags": {
      "brand": "Росгосстрах",
      "brand:wikidata": "Q4397745",
      "brand:wikipedia": "en:Rosgosstrakh",
      "name": "Росгосстрах",
      "office": "insurance"
    }
  },
  "office/insurance|Согласие": {
    "countryCodes": ["ru"],
    "tags": {
      "brand": "Согласие",
      "brand:en": "Soglasie",
      "brand:ru": "Согласие",
      "brand:wikidata": "Q4426689",
      "brand:wikipedia": "ru:Согласие (компания)",
      "name": "Согласие",
      "name:en": "Soglasie",
      "name:ru": "Согласие",
      "office": "insurance"
    }
  },
  "office/insurance|بیمه ایران": {
    "countryCodes": ["ir"],
    "tags": {
      "brand": "بیمه ایران",
      "brand:en": "Iran Insurance",
      "brand:fa": "بیمه ایران",
      "brand:wikidata": "Q5930269",
      "brand:wikipedia": "fa:بیمه ایران",
      "name": "بیمه ایران",
      "name:en": "Iran Insurance",
      "name:fa": "بیمه ایران",
      "office": "insurance"
    }
  },
  "office/insurance|日本生命": {
    "countryCodes": ["jp"],
    "tags": {
      "alt_name:en": "Nissay",
      "brand": "日本生命",
      "brand:en": "Nippon Life",
      "brand:ja": "日本生命",
      "brand:wikidata": "Q519611",
      "brand:wikipedia": "ja:日本生命保険",
      "name": "日本生命",
      "name:en": "Nippon Life",
      "name:ja": "日本生命",
      "office": "insurance"
    }
  },
  "office/insurance|明治安田生命": {
    "countryCodes": ["jp"],
    "tags": {
      "brand": "明治安田生命",
      "brand:en": "Meiji Yasuda Life",
      "brand:ja": "明治安田生命",
      "brand:wikidata": "Q174081",
      "brand:wikipedia": "ja:明治安田生命保険",
      "name": "明治安田生命",
      "name:en": "Meiji Yasuda Life",
      "name:ja": "明治安田生命",
      "office": "insurance"
    }
  },
  "office/insurance|第一生命": {
    "countryCodes": ["jp"],
    "tags": {
      "brand": "第一生命",
      "brand:en": "Dai-ichi Life",
      "brand:ja": "第一生命",
      "brand:wikidata": "Q595475",
      "brand:wikipedia": "ja:第一生命保険",
      "name": "第一生命",
      "name:en": "Dai-ichi Life",
      "name:ja": "第一生命",
      "office": "insurance"
    }
  }
}
