{
  "properties": {
    "path": "brands/healthcare/sample_collection",
    "exclude": {
      "generic": [
        "^laborato(ire|ry)( d'analyses médicales)?$",
        "^sample collection?$",
        "^поликлиника$",
        "^поліклініка$"
      ]
    }
  },
  "items": [
    {
      "displayName": "ALAB",
      "id": "alab-42d0f5",
      "locationSet": {"include": ["pl"]},
      "tags": {
        "brand": "ALAB",
        "brand:wikidata": "Q135953265",
        "healthcare": "sample_collection",
        "name": "ALAB"
      }
    },
    {
      "displayName": "Australian Clinical Labs",
      "id": "australianclinicallabs-b42694",
      "locationSet": {"include": ["au"]},
      "tags": {
        "brand": "Australian Clinical Labs",
        "brand:wikidata": "Q105256111",
        "healthcare": "sample_collection",
        "name": "Australian Clinical Labs"
      }
    },
    {
      "displayName": "Awanui Labs",
      "id": "awanuilabs-054605",
      "locationSet": {"include": ["nz"]},
      "matchNames": [
        "labtests",
        "medlab south",
        "northland pathology",
        "scl",
        "southern community laboratories"
      ],
      "tags": {
        "brand": "Awanui Labs",
        "brand:wikidata": "Q125354405",
        "healthcare": "sample_collection",
        "name": "Awanui Labs"
      }
    },
    {
      "displayName": "Bodimed",
      "id": "bodimed-271471",
      "locationSet": {"include": ["bg"]},
      "tags": {
        "brand": "Bodimed",
        "brand:wikidata": "Q110583446",
        "healthcare": "sample_collection",
        "name": "Bodimed",
        "name:bg": "Бодимед",
        "name:en": "Bodimed"
      }
    },
    {
      "displayName": "Cibalab",
      "id": "cibalab-271471",
      "locationSet": {"include": ["bg"]},
      "tags": {
        "brand": "Cibalab",
        "brand:wikidata": "Q110583364",
        "healthcare": "sample_collection",
        "name": "Cibalab",
        "name:bg": "Цибалаб",
        "name:en": "Cibalab"
      }
    },
    {
      "displayName": "Clinica Sante",
      "id": "clinicasante-9f4d9c",
      "locationSet": {"include": ["ro", "ua"]},
      "matchNames": ["sante"],
      "tags": {
        "brand": "Clinica Sante",
        "brand:wikidata": "Q121080834",
        "healthcare": "sample_collection",
        "name": "Clinica Sante"
      }
    },
    {
      "displayName": "CSD",
      "id": "csd-c54d89",
      "locationSet": {"include": ["ua"]},
      "matchNames": [
        "сі ес ді лаб",
        "тов сі ес ді лаб"
      ],
      "tags": {
        "brand": "CSD",
        "brand:wikidata": "Q117382737",
        "healthcare": "sample_collection",
        "name": "CSD"
      }
    },
    {
      "displayName": "Diagnostyka",
      "id": "diagnostyka-42d0f5",
      "locationSet": {"include": ["pl"]},
      "tags": {
        "brand": "Diagnostyka",
        "brand:wikidata": "Q118442310",
        "healthcare": "sample_collection",
        "name": "Diagnostyka"
      }
    },
    {
      "displayName": "Douglass Hanly Moir",
      "id": "douglasshanlymoir-b42694",
      "locationSet": {"include": ["au"]},
      "tags": {
        "brand": "Douglass Hanly Moir",
        "brand:wikidata": "Q30253740",
        "healthcare": "sample_collection",
        "name": "Douglass Hanly Moir",
        "short_name": "DHM"
      }
    },
    {
      "displayName": "Dr Lal Path Labs",
      "id": "drlalpathlabs-f3fd3c",
      "locationSet": {"include": ["in"]},
      "tags": {
        "brand": "Dr Lal Path Labs",
        "brand:wikidata": "Q23198401",
        "healthcare": "sample_collection"
      }
    },
    {
      "displayName": "Invivo (Україна)",
      "id": "invivo-c54d89",
      "locationSet": {"include": ["ua"]},
      "matchNames": ["інвіво"],
      "tags": {
        "brand": "Invivo",
        "brand:wikidata": "Q121898483",
        "healthcare": "sample_collection",
        "name": "Invivo"
      }
    },
    {
      "displayName": "Laverty Pathology",
      "id": "lavertypathology-b42694",
      "locationSet": {"include": ["au"]},
      "tags": {
        "brand": "Laverty Pathology",
        "brand:wikidata": "Q105256033",
        "healthcare": "sample_collection",
        "name": "Laverty Pathology"
      }
    },
    {
      "displayName": "LifeLabs",
      "id": "lifelabs-dfeab4",
      "locationSet": {"include": ["ca"]},
      "tags": {
        "brand": "LifeLabs",
        "brand:wikidata": "Q109319451",
        "healthcare": "sample_collection",
        "healthcare:speciality": "blood_check",
        "name": "LifeLabs"
      }
    },
    {
      "displayName": "Nikolab",
      "id": "nikolab-c54d89",
      "locationSet": {"include": ["ua"]},
      "matchNames": ["ніколаб"],
      "tags": {
        "brand": "Nikolab",
        "brand:wikidata": "Q116924642",
        "healthcare": "sample_collection",
        "name": "Nikolab"
      }
    },
    {
      "displayName": "Synevo",
      "id": "synevo-42d0f5",
      "locationSet": {"include": ["pl"]},
      "tags": {
        "brand": "Synevo",
        "brand:wikidata": "Q108474045",
        "healthcare": "sample_collection",
        "name": "Synevo"
      }
    },
    {
      "displayName": "Unilabs",
      "id": "unilabs-3c0828",
      "locationSet": {"include": ["cz", "sk"]},
      "preserveTags": ["^name"],
      "tags": {
        "brand": "Unilabs",
        "brand:wikidata": "Q134885714",
        "healthcare": "sample_collection",
        "name": "Unilabs"
      }
    },
    {
      "displayName": "Діла",
      "id": "dila-c54d89",
      "locationSet": {"include": ["ua"]},
      "matchNames": ["diла", "dіла"],
      "tags": {
        "brand": "Діла",
        "brand:wikidata": "Q116927709",
        "healthcare": "sample_collection",
        "name": "Діла",
        "name:en": "Dila",
        "name:ru": "Дила",
        "name:uk": "Діла"
      }
    },
    {
      "displayName": "Ескулаб",
      "id": "bd71fa-c54d89",
      "locationSet": {"include": ["ua"]},
      "tags": {
        "brand": "Ескулаб",
        "brand:wikidata": "Q108048285",
        "healthcare": "sample_collection",
        "name": "Ескулаб"
      }
    },
    {
      "displayName": "Медіс",
      "id": "medis-c54d89",
      "locationSet": {"include": ["ua"]},
      "tags": {
        "brand": "Медіс",
        "brand:en": "Medis",
        "brand:uk": "Медіс",
        "brand:wikidata": "Q122852637",
        "healthcare": "sample_collection",
        "name": "Медіс",
        "name:en": "Medis",
        "name:uk": "Медіс"
      }
    },
    {
      "displayName": "МедЛаб",
      "id": "medlab-c54d89",
      "locationSet": {"include": ["ua"]},
      "tags": {
        "brand": "МедЛаб",
        "brand:wikidata": "Q116924614",
        "healthcare": "sample_collection",
        "name": "МедЛаб",
        "name:en": "MedLab",
        "name:ru": "МедЛаб",
        "name:uk": "МедЛаб"
      }
    },
    {
      "displayName": "Рамус",
      "id": "ramus-271471",
      "locationSet": {"include": ["bg"]},
      "tags": {
        "brand": "Рамус",
        "brand:wikidata": "Q110583347",
        "healthcare": "sample_collection",
        "name": "Рамус",
        "name:bg": "Рамус",
        "name:en": "Ramus"
      }
    },
    {
      "displayName": "Синево (България)",
      "id": "synevo-271471",
      "locationSet": {"include": ["bg"]},
      "tags": {
        "brand": "Synevo",
        "brand:wikidata": "Q110583425",
        "healthcare": "sample_collection",
        "name": "Synevo",
        "name:bg": "Синево",
        "name:en": "Synevo"
      }
    },
    {
      "displayName": "Сінево",
      "id": "synevo-c54d89",
      "locationSet": {"include": ["ua"]},
      "matchNames": ["sinevo", "синево"],
      "tags": {
        "brand": "Сінево",
        "brand:en": "Synevo",
        "brand:uk": "Сінево",
        "brand:wikidata": "Q65133879",
        "healthcare": "sample_collection",
        "name": "Сінево",
        "name:en": "Synevo",
        "name:ru": "Синэво",
        "name:uk": "Сінево"
      }
    },
    {
      "displayName": "სინევო",
      "id": "synevo-5675a4",
      "locationSet": {"include": ["ge"]},
      "matchNames": ["სინევი"],
      "tags": {
        "brand": "სინევო",
        "brand:en": "Synevo",
        "brand:ka": "სინევო",
        "brand:ru": "Синево",
        "brand:wikidata": "Q117891346",
        "healthcare": "sample_collection",
        "name": "სინევო",
        "name:en": "Synevo",
        "name:ka": "სინევო",
        "name:ru": "Синево"
      }
    }
  ]
}
