{
  "shop/anime|まんだらけ": {
    "locationSet": {"include": ["jp"]},
    "tags": {
      "brand": "まんだらけ",
      "brand:en": "Mandarake",
      "brand:ja": "まんだらけ",
      "brand:wikidata": "Q6747833",
      "brand:wikipedia": "ja:まんだらけ",
      "name": "まんだらけ",
      "name:en": "Mandarake",
      "name:ja": "まんだらけ",
      "shop": "anime"
    }
  },
  "shop/anime|らしんばん": {
    "locationSet": {"include": ["jp"]},
    "tags": {
      "brand": "らしんばん",
      "brand:en": "Lashinbang",
      "brand:ja": "らしんばん",
      "brand:wikidata": "Q11281322",
      "brand:wikipedia": "ja:らしんばん",
      "name": "らしんばん",
      "name:en": "Lashinbang",
      "name:ja": "らしんばん",
      "shop": "anime"
    }
  },
  "shop/anime|ケイ・ブックス": {
    "locationSet": {"include": ["jp"]},
    "matchNames": ["k-books"],
    "matchTags": ["shop/books"],
    "tags": {
      "brand": "ケイ・ブックス",
      "brand:en": "K-BOOKS",
      "brand:ja": "ケイ・ブックス",
      "brand:wikidata": "Q8061680",
      "brand:wikipedia": "ja:K-BOOKS",
      "name": "ケイ・ブックス",
      "name:en": "K-BOOKS",
      "name:ja": "ケイ・ブックス",
      "shop": "anime"
    }
  }
}