{
  "brands/shop/beverages": [
    {
      "displayName": "50嵐",
      "id": "50嵐-447d41",
      "locationSet": {"include": ["cn", "tw"]},
      "oldid": "shop/beverages|50嵐",
      "tags": {
        "brand": "50嵐",
        "name": "50嵐",
        "shop": "beverages"
      }
    },
    {
      "displayName": "CoCo都可",
      "id": "coco都可-d2c341",
      "locationSet": {"include": ["001"]},
      "oldid": "shop/beverages|CoCo都可",
      "tags": {
        "brand": "CoCo都可",
        "name": "CoCo都可",
        "shop": "beverages"
      }
    },
    {
      "displayName": "Dursty",
      "id": "dursty-c4cb62",
      "locationSet": {"include": ["de"]},
      "oldid": "shop/beverages|Dursty",
      "tags": {
        "brand": "Dursty",
        "brand:wikidata": "Q1267518",
        "brand:wikipedia": "de:Dursty Getränkemärkte",
        "name": "Dursty",
        "shop": "beverages"
      }
    },
    {
      "displayName": "Edeka Getränkemarkt",
      "id": "edekagetrankemarkt-c4cb62",
      "locationSet": {"include": ["de"]},
      "oldid": "shop/beverages|Edeka Getränkemarkt",
      "tags": {
        "brand": "Edeka Getränkemarkt",
        "brand:wikidata": "Q57450576",
        "name": "Edeka Getränkemarkt",
        "shop": "beverages"
      }
    },
    {
      "displayName": "Fristo",
      "id": "fristo-650acc",
      "locationSet": {"include": ["at", "de"]},
      "matchNames": ["fristo getränkemarkt"],
      "oldid": "shop/beverages|Fristo",
      "tags": {
        "brand": "Fristo",
        "brand:wikidata": "Q1465151",
        "brand:wikipedia": "de:Fristo",
        "name": "Fristo",
        "shop": "beverages"
      }
    },
    {
      "displayName": "Getränke Hoffmann",
      "id": "getrankehoffmann-c4cb62",
      "locationSet": {"include": ["de"]},
      "oldid": "shop/beverages|Getränke Hoffmann",
      "tags": {
        "brand": "Getränke Hoffmann",
        "brand:wikidata": "Q19284021",
        "brand:wikipedia": "de:Getränke Hoffmann",
        "name": "Getränke Hoffmann",
        "shop": "beverages"
      }
    },
    {
      "displayName": "Getränke Quelle",
      "id": "getrankequelle-d2c341",
      "locationSet": {"include": ["001"]},
      "oldid": "shop/beverages|Getränke Quelle",
      "tags": {
        "brand": "Getränke Quelle",
        "name": "Getränke Quelle",
        "shop": "beverages"
      }
    },
    {
      "displayName": "Getränkeland",
      "id": "getrankeland-c4cb62",
      "locationSet": {"include": ["de"]},
      "oldid": "shop/beverages|Getränkeland",
      "tags": {
        "brand": "Getränkeland",
        "brand:wikidata": "Q62594849",
        "name": "Getränkeland",
        "shop": "beverages"
      }
    },
    {
      "displayName": "Hol'ab",
      "id": "holab-c4cb62",
      "locationSet": {"include": ["de"]},
      "oldid": "shop/beverages|Hol'ab",
      "tags": {
        "brand": "Hol'ab",
        "brand:wikidata": "Q57557270",
        "name": "Hol'ab",
        "shop": "beverages"
      }
    },
    {
      "displayName": "Markgrafen Getränkemarkt",
      "id": "markgrafengetrankemarkt-c4cb62",
      "locationSet": {"include": ["de"]},
      "oldid": "shop/beverages|Markgrafen Getränkemarkt",
      "tags": {
        "brand": "Markgrafen Getränkemarkt",
        "name": "Markgrafen Getränkemarkt",
        "shop": "beverages"
      }
    },
    {
      "displayName": "Orterer Getränkemarkt",
      "id": "orterergetrankemarkt-c4cb62",
      "locationSet": {"include": ["de"]},
      "oldid": "shop/beverages|Orterer Getränkemarkt",
      "tags": {
        "brand": "Orterer Getränkemarkt",
        "brand:wikidata": "Q23787118",
        "brand:wikipedia": "de:Orterer Gruppe",
        "name": "Orterer Getränkemarkt",
        "shop": "beverages"
      }
    },
    {
      "displayName": "Rewe Getränkemarkt",
      "id": "rewegetrankemarkt-c4cb62",
      "locationSet": {"include": ["de"]},
      "oldid": "shop/beverages|Rewe Getränkemarkt",
      "tags": {
        "brand": "Rewe Getränkemarkt",
        "brand:wikidata": "Q57519344",
        "name": "Rewe Getränkemarkt",
        "shop": "beverages"
      }
    },
    {
      "displayName": "Sagasser",
      "id": "sagasser-c4cb62",
      "locationSet": {"include": ["de"]},
      "oldid": "shop/beverages|Sagasser",
      "tags": {
        "brand": "Sagasser",
        "brand:wikidata": "Q30838417",
        "brand:wikipedia": "de:Sagasser",
        "name": "Sagasser",
        "shop": "beverages"
      }
    },
    {
      "displayName": "Sobi",
      "id": "sobi-c4cb62",
      "locationSet": {"include": ["de"]},
      "oldid": "shop/beverages|Sobi",
      "tags": {
        "brand": "Sobi",
        "brand:wikidata": "Q98509159",
        "name": "Sobi",
        "shop": "beverages"
      }
    },
    {
      "displayName": "Trink & Spare",
      "id": "trinkandspare-c4cb62",
      "locationSet": {"include": ["de"]},
      "oldid": "shop/beverages|Trink & Spare",
      "tags": {
        "brand": "Trink & Spare",
        "brand:wikidata": "Q99284521",
        "name": "Trink & Spare",
        "shop": "beverages"
      }
    },
    {
      "displayName": "Trinkgut",
      "id": "trinkgut-c4cb62",
      "locationSet": {"include": ["de"]},
      "oldid": "shop/beverages|Trinkgut",
      "tags": {
        "brand": "Trinkgut",
        "brand:wikidata": "Q2453627",
        "brand:wikipedia": "de:Trinkgut",
        "name": "Trinkgut",
        "shop": "beverages"
      }
    },
    {
      "displayName": "大苑子",
      "id": "大苑子-d2c341",
      "locationSet": {"include": ["001"]},
      "oldid": "shop/beverages|大苑子",
      "tags": {
        "brand": "大苑子",
        "brand:en": "DaYung's",
        "brand:wikidata": "Q67934123",
        "brand:wikipedia": "zh:大苑子",
        "brand:zh": "大苑子",
        "name": "大苑子",
        "name:en": "DaYung's",
        "name:zh": "大苑子",
        "shop": "beverages"
      }
    },
    {
      "displayName": "清心福全",
      "id": "清心福全-55bc47",
      "locationSet": {"include": ["tw"]},
      "oldid": "shop/beverages|清心福全",
      "tags": {
        "brand": "清心福全",
        "brand:en": "Ching Shin",
        "brand:wikidata": "Q10391229",
        "brand:wikipedia": "zh:清心福全冷飲站",
        "brand:zh": "清心福全",
        "name": "清心福全",
        "name:en": "Ching Shin",
        "name:zh": "清心福全",
        "shop": "beverages"
      }
    },
    {
      "displayName": "茶湯會",
      "id": "茶湯會-55bc47",
      "locationSet": {"include": ["tw"]},
      "oldid": "shop/beverages|茶湯會",
      "tags": {
        "brand": "茶湯會",
        "name": "茶湯會",
        "shop": "beverages"
      }
    },
    {
      "displayName": "茶的魔手",
      "id": "茶的魔手-d2c341",
      "locationSet": {"include": ["001"]},
      "oldid": "shop/beverages|茶的魔手",
      "tags": {
        "brand": "茶的魔手",
        "name": "茶的魔手",
        "shop": "beverages"
      }
    },
    {
      "displayName": "迷客夏",
      "id": "迷客夏-55bc47",
      "locationSet": {"include": ["tw"]},
      "oldid": "shop/beverages|迷客夏",
      "tags": {
        "brand": "迷客夏",
        "brand:en": "Milkshop",
        "brand:wikidata": "Q67934215",
        "brand:wikipedia": "zh:迷客夏",
        "brand:zh": "迷客夏",
        "name": "迷客夏",
        "name:en": "Milkshop",
        "name:zh": "迷客夏",
        "shop": "beverages"
      }
    },
    {
      "displayName": "鮮茶道",
      "id": "鮮茶道-d2c341",
      "locationSet": {"include": ["001"]},
      "oldid": "shop/beverages|鮮茶道",
      "tags": {
        "brand": "鮮茶道",
        "name": "鮮茶道",
        "shop": "beverages"
      }
    }
  ]
}