{
  "brands/shop/bicycle": [
    {
      "displayName": "Cycle Republic",
      "id": "cyclerepublic-3697a8",
      "locationSet": {"include": ["gb"]},
      "oldid": "shop/bicycle|Cycle Republic",
      "tags": {
        "brand": "Cycle Republic",
        "brand:wikidata": "Q65042920",
        "brand:wikipedia": "en:Cycle Republic",
        "name": "Cycle Republic",
        "shop": "bicycle"
      }
    },
    {
      "displayName": "Evans Cycles",
      "id": "evanscycles-3697a8",
      "locationSet": {"include": ["gb"]},
      "oldid": "shop/bicycle|Evans Cycles",
      "tags": {
        "brand": "Evans Cycles",
        "brand:wikidata": "Q5415901",
        "brand:wikipedia": "en:Evans Cycles",
        "name": "Evans Cycles",
        "shop": "bicycle"
      }
    },
    {
      "displayName": "Fri BikeShop",
      "id": "fribikeshop-e7ce4c",
      "locationSet": {"include": ["dk"]},
      "oldid": "shop/bicycle|Fri BikeShop",
      "tags": {
        "brand": "Fri BikeShop",
        "brand:wikidata": "Q26721030",
        "name": "Fri BikeShop",
        "shop": "bicycle"
      }
    },
    {
      "displayName": "Giant",
      "id": "giant-3628a9",
      "locationSet": {"include": ["001"]},
      "oldid": "shop/bicycle|Giant",
      "tags": {
        "brand": "Giant",
        "brand:wikidata": "Q703557",
        "brand:wikipedia": "en:Giant Bicycles",
        "name": "Giant",
        "shop": "bicycle"
      }
    },
    {
      "displayName": "Stella",
      "id": "stella-b62f16",
      "locationSet": {
        "include": ["be", "de", "nl"]
      },
      "oldid": "shop/bicycle|Stella",
      "tags": {
        "brand": "Stella",
        "brand:wikidata": "Q98299138",
        "name": "Stella",
        "shop": "bicycle"
      }
    },
    {
      "displayName": "Trek",
      "id": "trek-3628a9",
      "locationSet": {"include": ["001"]},
      "matchNames": ["treck", "trek bicycle"],
      "oldid": "shop/bicycle|Trek",
      "tags": {
        "alt_name": "Trek Bicycle Store",
        "brand": "Trek",
        "brand:wikidata": "Q1067617",
        "brand:wikipedia": "en:Trek Bicycle Corporation",
        "name": "Trek",
        "shop": "bicycle"
      }
    },
    {
      "displayName": "イオンバイク",
      "id": "aeonbike-1d9d0f",
      "locationSet": {"include": ["jp"]},
      "oldid": "shop/bicycle|イオンバイク",
      "tags": {
        "brand": "イオンバイク",
        "brand:en": "Aeon Bike",
        "brand:ja": "イオンバイク",
        "brand:wikidata": "Q11286054",
        "brand:wikipedia": "ja:イオンバイク",
        "name": "イオンバイク",
        "name:en": "Aeon Bike",
        "name:ja": "イオンバイク",
        "official_name": "イオンサイクルショップ",
        "official_name:en": "Aeon Bike Shop",
        "official_name:ja": "イオンサイクルショップ",
        "shop": "bicycle"
      }
    },
    {
      "displayName": "サイクルスポット",
      "id": "cyclespot-1d9d0f",
      "locationSet": {"include": ["jp"]},
      "oldid": "shop/bicycle|サイクルスポット",
      "tags": {
        "brand": "サイクルスポット",
        "brand:en": "Cycle Spot",
        "brand:ja": "サイクルスポット",
        "brand:wikidata": "Q93620124",
        "name": "サイクルスポット",
        "name:en": "Cycle Spot",
        "name:ja": "サイクルスポット",
        "shop": "bicycle"
      }
    },
    {
      "displayName": "サイクルベースあさひ",
      "id": "cyclebaseasahi-1d9d0f",
      "locationSet": {"include": ["jp"]},
      "oldid": "shop/bicycle|サイクルベースあさひ",
      "tags": {
        "brand": "サイクルベースあさひ",
        "brand:en": "Cycle Base Asahi",
        "brand:ja": "サイクルベースあさひ",
        "brand:wikidata": "Q11257202",
        "brand:wikipedia": "ja:あさひ (企業)",
        "name": "サイクルベースあさひ",
        "name:en": "Cycle Base Asahi",
        "name:ja": "サイクルベースあさひ",
        "shop": "bicycle"
      }
    }
  ]
}