{
  "shop/bookmaker|Betfred": {
    "count": 465,
    "countryCodes": ["gb"],
    "tags": {
      "brand": "Betfred",
      "brand:wikidata": "Q4897425",
      "brand:wikipedia": "en:Betfred",
      "name": "Betfred",
      "shop": "bookmaker"
    }
  },
  "shop/bookmaker|Coral": {
    "count": 575,
    "countryCodes": ["gb"],
    "tags": {
      "brand": "Coral",
      "brand:wikidata": "Q54621344",
      "brand:wikipedia": "en:Coral (bookmaker)",
      "name": "Coral",
      "shop": "bookmaker"
    }
  },
  "shop/bookmaker|Fortuna": {
    "count": 81,
    "countryCodes": [
      "cz",
      "hr",
      "pl",
      "ro",
      "sk"
    ],
    "tags": {
      "brand": "Fortuna",
      "brand:wikidata": "Q25857973",
      "brand:wikipedia": "en:Fortuna Entertainment Group",
      "name": "Fortuna",
      "shop": "bookmaker"
    }
  },
  "shop/bookmaker|Ladbrokes": {
    "count": 772,
    "countryCodes": ["gb"],
    "tags": {
      "brand": "Ladbrokes",
      "brand:wikidata": "Q1799875",
      "brand:wikipedia": "en:Ladbrokes Coral",
      "name": "Ladbrokes",
      "shop": "bookmaker"
    }
  },
  "shop/bookmaker|Paddy Power": {
    "count": 187,
    "countryCodes": ["gb", "ie"],
    "tags": {
      "brand": "Paddy Power",
      "brand:wikidata": "Q3888718",
      "brand:wikipedia": "en:Paddy Power",
      "name": "Paddy Power",
      "shop": "bookmaker"
    }
  },
  "shop/bookmaker|Tipico": {
    "count": 65,
    "countryCodes": [
      "at",
      "co",
      "de",
      "gi",
      "hr",
      "mt"
    ],
    "tags": {
      "brand": "Tipico",
      "brand:wikidata": "Q15851003",
      "brand:wikipedia": "en:Tipico",
      "name": "Tipico",
      "shop": "bookmaker"
    }
  },
  "shop/bookmaker|William Hill": {
    "count": 816,
    "countryCodes": ["gb"],
    "tags": {
      "brand": "William Hill",
      "brand:wikidata": "Q4053147",
      "brand:wikipedia": "en:William Hill (bookmaker)",
      "name": "William Hill",
      "shop": "bookmaker"
    }
  },
  "shop/bookmaker|ΟΠΑΠ": {
    "count": 231,
    "countryCodes": ["gr"],
    "tags": {
      "brand": "ΟΠΑΠ",
      "brand:el": "ΟΠΑΠ",
      "brand:en": "OPAP",
      "brand:wikidata": "Q2007823",
      "brand:wikipedia": "en:OPAP",
      "name": "ΟΠΑΠ",
      "name:el": "ΟΠΑΠ",
      "name:en": "OPAP",
      "shop": "bookmaker"
    }
  },
  "shop/bookmaker|Лига ставок": {
    "count": 53,
    "countryCodes": ["ru"],
    "tags": {
      "brand": "Лига ставок",
      "brand:en": "Liga Stavok",
      "brand:ru": "Лига ставок",
      "brand:wikidata": "Q6545804",
      "brand:wikipedia": "ru:Лига Ставок",
      "name": "Лига ставок",
      "name:en": "Liga Stavok",
      "name:ru": "Лига ставок",
      "shop": "bookmaker"
    }
  },
  "shop/bookmaker|Фонбет": {
    "count": 71,
    "countryCodes": ["ru"],
    "tags": {
      "brand": "Фонбет",
      "brand:en": "Fonbet",
      "brand:ru": "Фонбет",
      "brand:wikidata": "Q49137910",
      "brand:wikipedia": "ru:Фонбет",
      "name": "Фонбет",
      "name:en": "Fonbet",
      "name:ru": "Фонбет",
      "shop": "bookmaker"
    }
  }
}