{
  "shop/car|Alfa Romeo": {
    "locationSet": {"include": ["001"]},
    "tags": {
      "brand": "Alfa Romeo",
      "brand:wikidata": "Q26921",
      "brand:wikipedia": "en:Alfa Romeo",
      "name": "Alfa Romeo",
      "shop": "car"
    }
  },
  "shop/car|Aston Martin": {
    "locationSet": {"include": ["001"]},
    "tags": {
      "brand": "Aston Martin",
      "brand:wikidata": "Q27074",
      "brand:wikipedia": "en:Aston Martin",
      "name": "Aston Martin",
      "shop": "car"
    }
  },
  "shop/car|Audi": {
    "locationSet": {"include": ["001"]},
    "tags": {
      "brand": "Audi",
      "brand:wikidata": "Q23317",
      "brand:wikipedia": "en:Audi",
      "name": "Audi",
      "shop": "car"
    }
  },
  "shop/car|BMW": {
    "locationSet": {"include": ["001"]},
    "tags": {
      "brand": "BMW",
      "brand:wikidata": "Q26678",
      "brand:wikipedia": "en:BMW",
      "name": "BMW",
      "shop": "car"
    }
  },
  "shop/car|Bentley": {
    "locationSet": {"include": ["001"]},
    "nomatch": ["shop/bag|Bentley"],
    "tags": {
      "brand": "Bentley",
      "brand:wikidata": "Q27224",
      "brand:wikipedia": "en:Bentley",
      "name": "Bentley",
      "shop": "car"
    }
  },
  "shop/car|Buick": {
    "locationSet": {
      "include": ["ca", "cn", "mx", "us"]
    },
    "tags": {
      "brand": "Buick",
      "brand:wikidata": "Q27415",
      "brand:wikipedia": "en:Buick",
      "name": "Buick",
      "shop": "car"
    }
  },
  "shop/car|Cadillac": {
    "locationSet": {"include": ["001"]},
    "tags": {
      "brand": "Cadillac",
      "brand:wikidata": "Q27436",
      "brand:wikipedia": "en:Cadillac",
      "name": "Cadillac",
      "shop": "car"
    }
  },
  "shop/car|CarMax": {
    "locationSet": {"include": ["us"]},
    "tags": {
      "brand": "CarMax",
      "brand:wikidata": "Q5037190",
      "brand:wikipedia": "en:CarMax",
      "name": "CarMax",
      "second_hand": "only",
      "shop": "car"
    }
  },
  "shop/car|Chevrolet": {
    "locationSet": {"include": ["001"]},
    "tags": {
      "brand": "Chevrolet",
      "brand:wikidata": "Q29570",
      "brand:wikipedia": "en:Chevrolet",
      "name": "Chevrolet",
      "shop": "car"
    }
  },
  "shop/car|Chrysler": {
    "locationSet": {"include": ["001"]},
    "tags": {
      "brand": "Chrysler",
      "brand:wikidata": "Q181114",
      "brand:wikipedia": "en:Chrysler",
      "name": "Chrysler",
      "shop": "car"
    }
  },
  "shop/car|Citroën": {
    "locationSet": {"include": ["001"]},
    "nomatch": ["shop/car_repair|Citroën"],
    "tags": {
      "brand": "Citroën",
      "brand:wikidata": "Q6746",
      "brand:wikipedia": "fr:Citroën",
      "name": "Citroën",
      "shop": "car"
    }
  },
  "shop/car|Dacia": {
    "locationSet": {"include": ["001"]},
    "tags": {
      "brand": "Dacia",
      "brand:wikidata": "Q27460",
      "brand:wikipedia": "en:Automobile Dacia",
      "name": "Dacia",
      "shop": "car"
    }
  },
  "shop/car|Dodge": {
    "locationSet": {"include": ["001"]},
    "tags": {
      "brand": "Dodge",
      "brand:wikidata": "Q27564",
      "brand:wikipedia": "en:Dodge",
      "name": "Dodge",
      "shop": "car"
    }
  },
  "shop/car|DriveTime": {
    "locationSet": {"include": ["us"]},
    "tags": {
      "brand": "DriveTime",
      "brand:wikidata": "Q5307879",
      "brand:wikipedia": "en:DriveTime",
      "name": "DriveTime",
      "second_hand": "only",
      "shop": "car"
    }
  },
  "shop/car|Fiat": {
    "locationSet": {"include": ["001"]},
    "tags": {
      "brand": "Fiat",
      "brand:wikidata": "Q27597",
      "brand:wikipedia": "en:Fiat Automobiles",
      "name": "Fiat",
      "shop": "car"
    }
  },
  "shop/car|Ford": {
    "locationSet": {"include": ["001"]},
    "nomatch": ["shop/car_repair|Ford"],
    "tags": {
      "brand": "Ford",
      "brand:wikidata": "Q44294",
      "brand:wikipedia": "en:Ford Motor Company",
      "name": "Ford",
      "shop": "car"
    }
  },
  "shop/car|Freightliner": {
    "locationSet": {"include": ["001"]},
    "tags": {
      "brand": "Freightliner",
      "brand:wikidata": "Q1420724",
      "brand:wikipedia": "en:Freightliner Trucks",
      "name": "Freightliner",
      "shop": "car"
    }
  },
  "shop/car|GMC": {
    "locationSet": {"include": ["001"]},
    "tags": {
      "brand": "GMC",
      "brand:wikidata": "Q28993",
      "brand:wikipedia": "en:GMC (automobile)",
      "name": "GMC",
      "shop": "car"
    }
  },
  "shop/car|Holden": {
    "locationSet": {"include": ["au", "nz"]},
    "tags": {
      "brand": "Holden",
      "brand:wikidata": "Q29281",
      "brand:wikipedia": "en:Holden",
      "name": "Holden",
      "shop": "car"
    }
  },
  "shop/car|Honda": {
    "locationSet": {"include": ["001"]},
    "matchNames": ["honda cars"],
    "nomatch": ["shop/motorcycle|Honda"],
    "tags": {
      "brand": "Honda",
      "brand:wikidata": "Q9584",
      "brand:wikipedia": "en:Honda",
      "name": "Honda",
      "shop": "car"
    }
  },
  "shop/car|Hyundai": {
    "locationSet": {"include": ["001"]},
    "tags": {
      "brand": "Hyundai",
      "brand:wikidata": "Q55931",
      "brand:wikipedia": "en:Hyundai Motor Company",
      "name": "Hyundai",
      "shop": "car"
    }
  },
  "shop/car|Isuzu": {
    "locationSet": {"include": ["001"]},
    "tags": {
      "brand": "Isuzu",
      "brand:wikidata": "Q29803",
      "brand:wikipedia": "en:Isuzu Motors",
      "name": "Isuzu",
      "shop": "car"
    }
  },
  "shop/car|Jaguar": {
    "locationSet": {"include": ["001"]},
    "tags": {
      "brand": "Jaguar",
      "brand:wikidata": "Q26742231",
      "name": "Jaguar",
      "shop": "car"
    }
  },
  "shop/car|Jeep": {
    "locationSet": {"include": ["001"]},
    "tags": {
      "brand": "Jeep",
      "brand:wikidata": "Q30113",
      "brand:wikipedia": "en:Jeep",
      "name": "Jeep",
      "shop": "car"
    }
  },
  "shop/car|Kia": {
    "locationSet": {"include": ["001"]},
    "matchNames": ["kia motors"],
    "tags": {
      "brand": "Kia",
      "brand:wikidata": "Q35349",
      "brand:wikipedia": "en:Kia Motors",
      "name": "Kia",
      "shop": "car"
    }
  },
  "shop/car|Lada": {
    "locationSet": {"include": ["001"]},
    "tags": {
      "brand": "Lada",
      "brand:en": "Lada",
      "brand:ru": "Лада",
      "brand:wikidata": "Q35676",
      "brand:wikipedia": "en:Lada",
      "name": "Lada",
      "name:en": "Lada",
      "name:ru": "Лада",
      "shop": "car"
    }
  },
  "shop/car|Land Rover": {
    "locationSet": {"include": ["001"]},
    "tags": {
      "brand": "Land Rover",
      "brand:wikidata": "Q26777551",
      "name": "Land Rover",
      "shop": "car"
    }
  },
  "shop/car|Lexus": {
    "locationSet": {"include": ["001"]},
    "tags": {
      "brand": "Lexus",
      "brand:wikidata": "Q35919",
      "brand:wikipedia": "en:Lexus",
      "name": "Lexus",
      "shop": "car"
    }
  },
  "shop/car|Lincoln": {
    "locationSet": {"include": ["001"]},
    "tags": {
      "brand": "Lincoln",
      "brand:wikidata": "Q216796",
      "brand:wikipedia": "en:Lincoln Motor Company",
      "name": "Lincoln",
      "shop": "car"
    }
  },
  "shop/car|Mazda": {
    "locationSet": {"include": ["001"]},
    "tags": {
      "brand": "Mazda",
      "brand:wikidata": "Q35996",
      "brand:wikipedia": "en:Mazda",
      "name": "Mazda",
      "shop": "car"
    }
  },
  "shop/car|Mercedes-Benz": {
    "locationSet": {"include": ["001"]},
    "matchNames": ["mercedes"],
    "tags": {
      "brand": "Mercedes-Benz",
      "brand:wikidata": "Q36008",
      "brand:wikipedia": "en:Mercedes-Benz",
      "name": "Mercedes-Benz",
      "shop": "car"
    }
  },
  "shop/car|Mini": {
    "locationSet": {"include": ["001"]},
    "tags": {
      "brand": "Mini",
      "name": "Mini",
      "shop": "car"
    }
  },
  "shop/car|Mitsubishi": {
    "locationSet": {"include": ["001"]},
    "matchNames": ["mitsubishi motors"],
    "tags": {
      "brand": "Mitsubishi",
      "brand:wikidata": "Q36033",
      "brand:wikipedia": "en:Mitsubishi Motors",
      "name": "Mitsubishi",
      "shop": "car"
    }
  },
  "shop/car|Netz": {
    "locationSet": {"include": ["jp"]},
    "tags": {
      "brand": "Netz",
      "brand:wikidata": "Q11325416",
      "brand:wikipedia": "ja:ネッツ店",
      "name": "Netz",
      "shop": "car"
    }
  },
  "shop/car|Nissan": {
    "locationSet": {"include": ["001"]},
    "tags": {
      "brand": "Nissan",
      "brand:wikidata": "Q20165",
      "brand:wikipedia": "ja:日産自動車",
      "name": "Nissan",
      "shop": "car"
    }
  },
  "shop/car|Opel": {
    "locationSet": {"include": ["001"]},
    "tags": {
      "brand": "Opel",
      "brand:wikidata": "Q40966",
      "brand:wikipedia": "en:Opel",
      "name": "Opel",
      "shop": "car"
    }
  },
  "shop/car|Peterbilt": {
    "locationSet": {"include": ["001"]},
    "tags": {
      "brand": "Peterbilt",
      "brand:wikidata": "Q944640",
      "brand:wikipedia": "en:Peterbilt",
      "name": "Peterbilt",
      "shop": "car"
    }
  },
  "shop/car|Peugeot": {
    "locationSet": {"include": ["001"]},
    "nomatch": ["shop/car_repair|Peugeot"],
    "tags": {
      "brand": "Peugeot",
      "brand:wikidata": "Q6742",
      "brand:wikipedia": "en:Peugeot",
      "name": "Peugeot",
      "shop": "car"
    }
  },
  "shop/car|Porsche": {
    "locationSet": {"include": ["001"]},
    "tags": {
      "brand": "Porsche",
      "brand:wikidata": "Q40993",
      "brand:wikipedia": "en:Porsche",
      "name": "Porsche",
      "shop": "car"
    }
  },
  "shop/car|Proton": {
    "locationSet": {
      "include": [
        "cl",
        "eg",
        "id",
        "my",
        "sg",
        "th"
      ]
    },
    "tags": {
      "brand": "Proton",
      "brand:wikidata": "Q827306",
      "brand:wikipedia": "en:PROTON Holdings",
      "name": "Proton",
      "shop": "car"
    }
  },
  "shop/car|Ram": {
    "locationSet": {"include": ["001"]},
    "tags": {
      "brand": "Ram",
      "brand:wikidata": "Q165708",
      "brand:wikipedia": "en:Ram Trucks",
      "name": "Ram",
      "shop": "car"
    }
  },
  "shop/car|Renault": {
    "locationSet": {"include": ["001"]},
    "nomatch": ["shop/car_repair|Renault"],
    "tags": {
      "brand": "Renault",
      "brand:wikidata": "Q6686",
      "brand:wikipedia": "fr:Renault",
      "name": "Renault",
      "shop": "car"
    }
  },
  "shop/car|Seat": {
    "locationSet": {"include": ["001"]},
    "tags": {
      "brand": "Seat",
      "brand:wikidata": "Q188217",
      "brand:wikipedia": "en:SEAT",
      "name": "Seat",
      "shop": "car"
    }
  },
  "shop/car|Subaru": {
    "locationSet": {"include": ["001"]},
    "tags": {
      "brand": "Subaru",
      "brand:wikidata": "Q172741",
      "brand:wikipedia": "en:Subaru",
      "name": "Subaru",
      "shop": "car"
    }
  },
  "shop/car|Suzuki": {
    "locationSet": {"include": ["001"]},
    "nomatch": ["shop/motorcycle|Suzuki"],
    "tags": {
      "brand": "Suzuki",
      "brand:wikidata": "Q181642",
      "brand:wikipedia": "en:Suzuki",
      "name": "Suzuki",
      "shop": "car"
    }
  },
  "shop/car|Tesla": {
    "locationSet": {"include": ["001"]},
    "matchNames": ["tesla motors"],
    "tags": {
      "brand": "Tesla",
      "brand:wikidata": "Q478214",
      "brand:wikipedia": "en:Tesla, Inc.",
      "name": "Tesla",
      "shop": "car"
    }
  },
  "shop/car|Toyota": {
    "locationSet": {"include": ["001"]},
    "nomatch": ["shop/car_repair|Toyota"],
    "tags": {
      "brand": "Toyota",
      "brand:wikidata": "Q53268",
      "brand:wikipedia": "en:Toyota",
      "name": "Toyota",
      "shop": "car"
    }
  },
  "shop/car|Volkswagen": {
    "locationSet": {"include": ["001"]},
    "matchNames": ["vw"],
    "tags": {
      "brand": "Volkswagen",
      "brand:wikidata": "Q246",
      "brand:wikipedia": "en:Volkswagen",
      "name": "Volkswagen",
      "shop": "car"
    }
  },
  "shop/car|Volvo": {
    "locationSet": {"include": ["001"]},
    "tags": {
      "brand": "Volvo",
      "brand:wikidata": "Q215293",
      "brand:wikipedia": "en:Volvo Cars",
      "name": "Volvo",
      "shop": "car"
    }
  },
  "shop/car|Škoda": {
    "locationSet": {"include": ["001"]},
    "tags": {
      "brand": "Škoda",
      "brand:wikidata": "Q29637",
      "brand:wikipedia": "en:Škoda Auto",
      "name": "Škoda",
      "shop": "car"
    }
  },
  "shop/car|Автомир": {
    "locationSet": {"include": ["ru"]},
    "matchTags": ["shop/car_parts"],
    "tags": {
      "brand": "Автомир",
      "brand:en": "Autoworld",
      "brand:ru": "Автомир",
      "brand:wikidata": "Q4056321",
      "brand:wikipedia": "ru:Автомир (автодилер)",
      "name": "Автомир",
      "name:en": "Autoworld",
      "name:ru": "Автомир",
      "shop": "car"
    }
  },
  "shop/car|سایپا": {
    "locationSet": {"include": ["ir"]},
    "tags": {
      "brand": "سایپا",
      "brand:en": "Saipa",
      "brand:fa": "سایپا",
      "brand:wikidata": "Q116234",
      "brand:wikipedia": "en:Saipa",
      "name": "سایپا",
      "name:en": "Saipa",
      "name:fa": "سایپا",
      "shop": "car"
    }
  },
  "shop/car|ガリバー": {
    "locationSet": {"include": ["jp"]},
    "tags": {
      "brand": "ガリバー",
      "brand:en": "Gulliver",
      "brand:ja": "ガリバー",
      "brand:wikidata": "Q11296264",
      "brand:wikipedia": "ja:IDOM",
      "name": "ガリバー",
      "name:en": "Gulliver",
      "name:ja": "ガリバー",
      "shop": "car"
    }
  },
  "shop/car|ダイハツ": {
    "locationSet": {"include": ["jp"]},
    "tags": {
      "brand": "ダイハツ",
      "brand:en": "Daihatsu",
      "brand:ja": "ダイハツ",
      "brand:wikidata": "Q27511",
      "brand:wikipedia": "ja:ダイハツ工業",
      "name": "ダイハツ",
      "name:en": "Daihatsu",
      "name:ja": "ダイハツ",
      "shop": "car"
    }
  },
  "shop/car|トヨタ": {
    "locationSet": {"include": ["jp"]},
    "matchNames": ["トヨタカローラ", "トヨタ自動車"],
    "tags": {
      "brand": "トヨタ",
      "brand:en": "Toyota",
      "brand:ja": "トヨタ",
      "brand:wikidata": "Q53268",
      "brand:wikipedia": "ja:トヨタ自動車",
      "name": "トヨタ",
      "name:en": "Toyota",
      "name:ja": "トヨタ",
      "shop": "car"
    }
  },
  "shop/car|ホンダ": {
    "locationSet": {"include": ["jp"]},
    "tags": {
      "brand": "ホンダ",
      "brand:en": "Honda",
      "brand:ja": "ホンダ",
      "brand:wikidata": "Q9584",
      "brand:wikipedia": "ja:本田技研工業",
      "name": "ホンダ",
      "name:en": "Honda",
      "name:ja": "ホンダ",
      "shop": "car"
    }
  }
}