{
  "shop/computer|DNS": {
    "countryCodes": ["ru", "ua"],
    "tags": {
      "alt_name": "ДНС",
      "brand": "DNS",
      "brand:en": "DNS",
      "brand:ru": "ДНС",
      "brand:wikidata": "Q4036922",
      "brand:wikipedia": "ru:DNS (компания)",
      "name": "DNS",
      "name:en": "DNS",
      "name:ru": "ДНС",
      "shop": "computer"
    }
  },
  "shop/computer|PCデポ": {
    "countryCodes": ["jp"],
    "matchNames": ["pc depot", "ピーシーデポ"],
    "tags": {
      "brand": "PCデポ",
      "brand:en": "PC Depot",
      "brand:ja": "PCデポ",
      "brand:wikidata": "Q11331723",
      "brand:wikipedia": "ja:ピーシーデポコーポレーション",
      "name": "PCデポ",
      "name:en": "PC Depot",
      "name:ja": "PCデポ",
      "shop": "computer"
    }
  },
  "shop/computer|じゃんぱら": {
    "countryCodes": ["jp"],
    "tags": {
      "brand": "じゃんぱら",
      "brand:en": "Janpara",
      "brand:ja": "じゃんぱら",
      "brand:wikidata": "Q11306198",
      "brand:wikipedia": "ja:じゃんぱら",
      "name": "じゃんぱら",
      "name:en": "Janpara",
      "name:ja": "じゃんぱら",
      "shop": "computer"
    }
  },
  "shop/computer|イオシス": {
    "countryCodes": ["jp"],
    "tags": {
      "brand": "イオシス",
      "brand:en": "IOSYS",
      "brand:ja": "イオシス",
      "brand:wikidata": "Q17988651",
      "brand:wikipedia": "ja:イオシス (株式会社)",
      "name": "イオシス",
      "name:en": "IOSYS",
      "name:ja": "イオシス",
      "shop": "computer"
    }
  }
}