{
  "shop/confectionery|Adyar Ananda Bhavan": {
    "locationSet": {"include": ["in"]},
    "matchTags": ["amenity/restaurant"],
    "tags": {
      "brand": "Adyar Ananda Bhavan",
      "brand:wikidata": "Q15178238",
      "brand:wikipedia": "en:Adyar Ananda Bhavan",
      "name": "Adyar Ananda Bhavan",
      "shop": "confectionery"
    }
  },
  "shop/confectionery|Hemmakvall": {
    "locationSet": {"include": ["se"]},
    "tags": {
      "brand": "Hemmakväll",
      "brand:wikidata": "Q10521791",
      "brand:wikipedia": "sv:Hemmakväll",
      "name": "Hemmakväll",
      "shop": "confectionery"
    }
  },
  "shop/confectionery|Hotel Chocolat": {
    "locationSet": {"include": ["gb"]},
    "tags": {
      "brand": "Hotel Chocolat",
      "brand:wikidata": "Q5911369",
      "brand:wikipedia": "en:Hotel Chocolat",
      "name": "Hotel Chocolat",
      "shop": "confectionery"
    }
  },
  "shop/confectionery|Hussel": {
    "locationSet": {"include": ["at", "de"]},
    "tags": {
      "brand": "Hussel",
      "brand:wikidata": "Q17123688",
      "brand:wikipedia": "de:Hussel",
      "name": "Hussel",
      "shop": "confectionery"
    }
  },
  "shop/confectionery|Jamin": {
    "locationSet": {"include": ["nl"]},
    "tags": {
      "brand": "Jamin",
      "brand:wikidata": "Q2291848",
      "brand:wikipedia": "nl:Jamin",
      "name": "Jamin",
      "shop": "confectionery"
    }
  },
  "shop/confectionery|Kilwins": {
    "locationSet": {"include": ["us"]},
    "matchTags": ["amenity/ice_cream"],
    "tags": {
      "brand": "Kilwins",
      "brand:wikidata": "Q38250832",
      "brand:wikipedia": "en:Kilwins",
      "cuisine": "chocolate;ice_cream;popcorn",
      "name": "Kilwins",
      "shop": "confectionery"
    }
  },
  "shop/confectionery|Rocky Mountain Chocolate Factory": {
    "locationSet": {"include": ["ca", "us"]},
    "tags": {
      "brand": "Rocky Mountain Chocolate Factory",
      "brand:wikidata": "Q7355878",
      "brand:wikipedia": "en:Rocky Mountain Chocolate Factory",
      "name": "Rocky Mountain Chocolate Factory",
      "shop": "confectionery"
    }
  },
  "shop/confectionery|See's Candies": {
    "locationSet": {"include": ["us"]},
    "matchNames": ["sees candy"],
    "tags": {
      "brand": "See's Candies",
      "brand:wikidata": "Q2103510",
      "brand:wikipedia": "en:See's Candies",
      "name": "See's Candies",
      "shop": "confectionery"
    }
  },
  "shop/confectionery|T. SN": {
    "locationSet": {"include": ["ec"]},
    "tags": {
      "brand": "T. SN",
      "name": "T. SN",
      "shop": "confectionery"
    }
  },
  "shop/confectionery|Thorntons": {
    "locationSet": {"include": ["gb"]},
    "tags": {
      "brand": "Thorntons",
      "brand:wikidata": "Q683102",
      "brand:wikipedia": "en:Thorntons",
      "name": "Thorntons",
      "shop": "confectionery"
    }
  },
  "shop/confectionery|Вацак": {
    "locationSet": {"include": ["ua"]},
    "tags": {
      "brand": "Вацак",
      "brand:wikidata": "Q30966576",
      "brand:wikipedia": "uk:Кондитерський Дім «Вацак»",
      "name": "Вацак",
      "shop": "confectionery"
    }
  },
  "shop/confectionery|Красный пищевик": {
    "locationSet": {"include": ["by"]},
    "matchTags": ["shop/pastry"],
    "tags": {
      "brand": "Красный пищевик",
      "brand:wikidata": "Q61742027",
      "brand:wikipedia": "ru:Красный пищевик",
      "name": "Красный пищевик",
      "shop": "confectionery"
    }
  },
  "shop/confectionery|Лакомка": {
    "locationSet": {"include": ["001"]},
    "tags": {
      "brand": "Лакомка",
      "name": "Лакомка",
      "shop": "confectionery"
    }
  },
  "shop/confectionery|おかしのまちおか": {
    "locationSet": {"include": ["jp"]},
    "tags": {
      "brand": "おかしのまちおか",
      "brand:ja": "おかしのまちおか",
      "name": "おかしのまちおか",
      "name:ja": "おかしのまちおか",
      "shop": "confectionery"
    }
  },
  "shop/confectionery|シャトレーゼ": {
    "locationSet": {"include": ["jp"]},
    "tags": {
      "brand": "シャトレーゼ",
      "brand:en": "Chateraise",
      "brand:ja": "シャトレーゼ",
      "brand:wikidata": "Q11307696",
      "brand:wikipedia": "ja:シャトレーゼ",
      "name": "シャトレーゼ",
      "name:en": "Chateraise",
      "name:ja": "シャトレーゼ",
      "shop": "confectionery"
    }
  },
  "shop/confectionery|不二家": {
    "locationSet": {"include": ["jp"]},
    "tags": {
      "brand": "不二家",
      "brand:en": "Fujiya",
      "brand:ja": "不二家",
      "brand:wikidata": "Q858452",
      "brand:wikipedia": "ja:不二家",
      "name": "不二家",
      "name:en": "Fujiya",
      "name:ja": "不二家",
      "shop": "confectionery"
    }
  },
  "shop/confectionery|銀座コージーコーナー": {
    "locationSet": {"include": ["jp"]},
    "matchNames": ["コージーコーナー"],
    "tags": {
      "brand": "銀座コージーコーナー",
      "brand:en": "Ginza Cozy Corner",
      "brand:ja": "銀座コージーコーナー",
      "brand:wikidata": "Q11649983",
      "brand:wikipedia": "ja:銀座コージーコーナー",
      "name": "銀座コージーコーナー",
      "name:en": "Ginza Cozy Corner",
      "name:ja": "銀座コージーコーナー",
      "shop": "confectionery"
    }
  },
  "shop/confectionery|El Rincón": {
    "locationSet": {"include": ["es"]},
    "matchNames": ["Frutos Secos El Rincón"],
    "tags": {
      "brand": "El Rincón",
      "brand:wikidata": "Q98456614",
      "name": "El Rincón",
      "shop": "confectionery"
    }
  },
  "shop/confectionery|El Rincón & Coffee": {
    "locationSet": {"include": ["es"]},
    "tags": {
      "amenity": "cafe",
      "brand": "El Rincón",
      "brand:wikidata": "Q98456614",
      "name": "El Rincón & Coffee",
      "shop": "confectionery"
    }
  }
}
