{
  "brands/shop/deli": [
    {
      "displayName": "さぼてん",
      "id": "さぼてん-39c92c",
      "locationSet": {"include": ["jp"]},
      "oldid": "shop/deli|さぼてん",
      "tags": {
        "brand": "さぼてん",
        "brand:en": "Saboten",
        "brand:ja": "さぼてん",
        "brand:wikidata": "Q93277389",
        "name": "さぼてん",
        "name:en": "Saboten",
        "name:ja": "さぼてん",
        "official_name": "新宿さぼてん",
        "official_name:en": "Shinjuku Saboten",
        "official_name:ja": "新宿さぼてん",
        "shop": "deli"
      }
    },
    {
      "displayName": "ほっともっと",
      "id": "ほっともっと-39c92c",
      "locationSet": {"include": ["jp"]},
      "oldid": "shop/deli|ほっともっと",
      "tags": {
        "brand": "ほっともっと",
        "brand:en": "Hotto Motto",
        "brand:ja": "ほっともっと",
        "brand:wikidata": "Q10850949",
        "brand:wikipedia": "ja:ほっともっと",
        "name": "ほっともっと",
        "name:en": "Hotto Motto",
        "name:ja": "ほっともっと",
        "shop": "deli"
      }
    },
    {
      "displayName": "京樽",
      "id": "京樽-39c92c",
      "locationSet": {"include": ["jp"]},
      "matchTags": ["amenity/fast_food"],
      "oldid": "shop/deli|京樽",
      "tags": {
        "brand": "京樽",
        "brand:en": "Kyotaru",
        "brand:ja": "京樽",
        "brand:wikidata": "Q11374503",
        "brand:wikipedia": "ja:京樽",
        "name": "京樽",
        "name:en": "Kyotaru",
        "name:ja": "京樽",
        "shop": "deli"
      }
    }
  ]
}