{
  "shop/department_store|Barneys New York": {
    "countryCodes": ["us"],
    "matchNames": ["barneys"],
    "tags": {
      "brand": "Barneys New York",
      "brand:wikidata": "Q59465",
      "brand:wikipedia": "en:Barneys New York",
      "name": "Barneys New York",
      "shop": "department_store"
    }
  },
  "shop/department_store|Bealls~(Florida-based)": {
    "countryCodes": ["us"],
    "tags": {
      "brand": "Bealls",
      "brand:wikidata": "Q4876153",
      "brand:wikipedia": "en:Bealls (Florida)",
      "name": "Bealls",
      "shop": "department_store"
    }
  },
  "shop/department_store|Bealls~(Texas-based)": {
    "countryCodes": ["us"],
    "tags": {
      "brand": "Bealls",
      "brand:wikidata": "Q4876156",
      "brand:wikipedia": "en:Bealls (Texas)",
      "name": "Bealls",
      "shop": "department_store"
    }
  },
  "shop/department_store|Belk": {
    "countryCodes": ["us"],
    "tags": {
      "brand": "Belk",
      "brand:wikidata": "Q127428",
      "brand:wikipedia": "en:Belk",
      "name": "Belk",
      "shop": "department_store"
    }
  },
  "shop/department_store|Bi-Mart": {
    "countryCodes": ["us"],
    "tags": {
      "brand": "Bi-Mart",
      "brand:wikidata": "Q4902331",
      "brand:wikipedia": "en:Bi-Mart",
      "name": "Bi-Mart",
      "shop": "department_store"
    }
  },
  "shop/department_store|Big Lots": {
    "countryCodes": ["us"],
    "matchTags": ["shop/variety_store"],
    "tags": {
      "brand": "Big Lots",
      "brand:wikidata": "Q4905973",
      "brand:wikipedia": "en:Big Lots",
      "name": "Big Lots",
      "shop": "department_store"
    }
  },
  "shop/department_store|Big W": {
    "countryCodes": ["au"],
    "tags": {
      "brand": "Big W",
      "brand:wikidata": "Q4906646",
      "brand:wikipedia": "en:Big W",
      "name": "Big W",
      "shop": "department_store"
    }
  },
  "shop/department_store|Bloomingdale's": {
    "countryCodes": ["us"],
    "tags": {
      "brand": "Bloomingdale's",
      "brand:wikidata": "Q283383",
      "brand:wikipedia": "en:Bloomingdale's",
      "name": "Bloomingdale's",
      "shop": "department_store"
    }
  },
  "shop/department_store|Boscov's": {
    "countryCodes": ["us"],
    "tags": {
      "brand": "Boscov's",
      "brand:wikidata": "Q4947190",
      "brand:wikipedia": "en:Boscov's",
      "name": "Boscov's",
      "shop": "department_store"
    }
  },
  "shop/department_store|Boyes": {
    "countryCodes": ["gb"],
    "tags": {
      "brand": "Boyes",
      "brand:wikidata": "Q7958471",
      "brand:wikipedia": "en:Boyes (department chain)",
      "name": "Boyes",
      "shop": "department_store"
    }
  },
  "shop/department_store|Canadian Tire": {
    "countryCodes": ["ca"],
    "matchTags": ["shop/doityourself"],
    "nomatch": ["amenity/fuel|Canadian Tire"],
    "tags": {
      "brand": "Canadian Tire",
      "brand:wikidata": "Q1032400",
      "brand:wikipedia": "en:Canadian Tire",
      "name": "Canadian Tire",
      "shop": "department_store"
    }
  },
  "shop/department_store|Casas Bahia": {
    "countryCodes": ["br"],
    "tags": {
      "brand": "Casas Bahia",
      "brand:wikidata": "Q5048048",
      "brand:wikipedia": "en:Casas Bahia",
      "name": "Casas Bahia",
      "shop": "department_store"
    }
  },
  "shop/department_store|Century 21": {
    "countryCodes": ["us"],
    "matchNames": ["c21"],
    "nomatch": ["office/estate_agent|Century 21"],
    "tags": {
      "brand": "Century 21",
      "brand:wikidata": "Q5063125",
      "brand:wikipedia": "en:Century 21 (department store)",
      "name": "Century 21",
      "shop": "department_store"
    }
  },
  "shop/department_store|Coppel": {
    "tags": {
      "brand": "Coppel",
      "brand:wikidata": "Q2497795",
      "brand:wikipedia": "en:Coppel",
      "name": "Coppel",
      "shop": "department_store"
    }
  },
  "shop/department_store|David Jones": {
    "countryCodes": ["au"],
    "tags": {
      "brand": "David Jones",
      "brand:wikidata": "Q5235753",
      "brand:wikipedia": "en:David Jones Limited",
      "name": "David Jones",
      "shop": "department_store"
    }
  },
  "shop/department_store|Debenhams": {
    "countryCodes": ["gb", "ie"],
    "tags": {
      "brand": "Debenhams",
      "brand:wikidata": "Q1181484",
      "brand:wikipedia": "en:Debenhams",
      "name": "Debenhams",
      "shop": "department_store"
    }
  },
  "shop/department_store|Dillard's": {
    "countryCodes": ["us"],
    "tags": {
      "brand": "Dillard's",
      "brand:wikidata": "Q844805",
      "brand:wikipedia": "en:Dillard's",
      "name": "Dillard's",
      "shop": "department_store"
    }
  },
  "shop/department_store|El Corte Inglés": {
    "countryCodes": ["es"],
    "matchNames": ["corte ingles"],
    "tags": {
      "brand": "El Corte Inglés",
      "brand:wikidata": "Q623133",
      "brand:wikipedia": "en:El Corte Inglés",
      "name": "El Corte Inglés",
      "shop": "department_store"
    }
  },
  "shop/department_store|Falabella": {
    "matchNames": ["saga falabella"],
    "nomatch": ["amenity/bank|Banco Falabella"],
    "tags": {
      "brand": "Falabella",
      "brand:wikidata": "Q5135229",
      "brand:wikipedia": "en:Falabella (retail store)",
      "name": "Falabella",
      "shop": "department_store"
    }
  },
  "shop/department_store|Galeria Kaufhof": {
    "countryCodes": ["de"],
    "tags": {
      "brand": "Galeria Kaufhof",
      "brand:wikidata": "Q322598",
      "brand:wikipedia": "en:Galeria Kaufhof",
      "name": "Galeria Kaufhof",
      "shop": "department_store"
    }
  },
  "shop/department_store|Giant Tiger": {
    "countryCodes": ["ca"],
    "tags": {
      "brand": "Giant Tiger",
      "brand:wikidata": "Q5558429",
      "brand:wikipedia": "en:Giant Tiger",
      "name": "Giant Tiger",
      "shop": "department_store"
    }
  },
  "shop/department_store|Goody's": {
    "countryCodes": ["us"],
    "tags": {
      "brand": "Goody's",
      "brand:wikidata": "Q5583733",
      "brand:wikipedia": "en:Goody's (store)",
      "name": "Goody's",
      "shop": "department_store"
    }
  },
  "shop/department_store|Gordmans": {
    "countryCodes": ["us"],
    "tags": {
      "brand": "Gordmans",
      "brand:wikidata": "Q5584725",
      "brand:wikipedia": "en:Gordmans",
      "name": "Gordmans",
      "shop": "department_store"
    }
  },
  "shop/department_store|HEMA": {
    "countryCodes": ["be", "de", "lu", "nl"],
    "tags": {
      "brand": "HEMA",
      "brand:wikidata": "Q903805",
      "brand:wikipedia": "en:HEMA (store)",
      "name": "HEMA",
      "shop": "department_store"
    }
  },
  "shop/department_store|Harvey Norman": {
    "countryCodes": ["au", "nz"],
    "tags": {
      "brand": "Harvey Norman",
      "brand:wikidata": "Q4040441",
      "brand:wikipedia": "en:Harvey Norman",
      "name": "Harvey Norman",
      "shop": "department_store"
    }
  },
  "shop/department_store|Havan": {
    "countryCodes": ["br"],
    "tags": {
      "brand": "Havan",
      "brand:wikidata": "Q61968827",
      "name": "Havan",
      "shop": "department_store"
    }
  },
  "shop/department_store|Hudson's Bay": {
    "countryCodes": ["ca", "nl"],
    "tags": {
      "alt_name": "The Bay",
      "brand": "Hudson's Bay",
      "brand:wikidata": "Q641129",
      "brand:wikipedia": "en:Hudson's Bay (retailer)",
      "name": "Hudson's Bay",
      "shop": "department_store"
    }
  },
  "shop/department_store|JCPenney": {
    "countryCodes": ["us"],
    "matchNames": ["jcpenny"],
    "tags": {
      "brand": "JCPenney",
      "brand:wikidata": "Q920037",
      "brand:wikipedia": "en:J. C. Penney",
      "name": "JCPenney",
      "official_name": "J.C. Penney Company",
      "shop": "department_store"
    }
  },
  "shop/department_store|John Lewis": {
    "countryCodes": ["gb"],
    "tags": {
      "brand": "John Lewis",
      "brand:wikidata": "Q1918981",
      "brand:wikipedia": "en:John Lewis & Partners",
      "name": "John Lewis",
      "shop": "department_store"
    }
  },
  "shop/department_store|Karstadt": {
    "countryCodes": ["de"],
    "tags": {
      "brand": "Karstadt",
      "brand:wikidata": "Q182910",
      "brand:wikipedia": "en:Karstadt",
      "name": "Karstadt",
      "shop": "department_store"
    }
  },
  "shop/department_store|Kmart~(Australia)": {
    "countryCodes": ["au"],
    "matchTags": ["shop/supermarket"],
    "nomatch": [
      "shop/department_store|Kmart~(USA)"
    ],
    "tags": {
      "brand": "Kmart",
      "brand:wikidata": "Q6421682",
      "brand:wikipedia": "en:Kmart Australia",
      "name": "Kmart",
      "shop": "department_store"
    }
  },
  "shop/department_store|Kmart~(USA)": {
    "countryCodes": ["us"],
    "matchNames": ["k-mart"],
    "matchTags": ["shop/supermarket"],
    "nomatch": [
      "shop/department_store|Kmart~(Australia)"
    ],
    "tags": {
      "brand": "Kmart",
      "brand:wikidata": "Q1753080",
      "brand:wikipedia": "en:Kmart",
      "name": "Kmart",
      "shop": "department_store"
    }
  },
  "shop/department_store|Kohl's": {
    "countryCodes": ["us"],
    "tags": {
      "brand": "Kohl's",
      "brand:wikidata": "Q967265",
      "brand:wikipedia": "en:Kohl's",
      "name": "Kohl's",
      "shop": "department_store"
    }
  },
  "shop/department_store|Lojas Americanas": {
    "countryCodes": ["br"],
    "tags": {
      "brand": "Lojas Americanas",
      "brand:wikidata": "Q3064093",
      "brand:wikipedia": "en:Lojas Americanas",
      "name": "Lojas Americanas",
      "shop": "department_store"
    }
  },
  "shop/department_store|Lord & Taylor": {
    "countryCodes": ["us"],
    "tags": {
      "brand": "Lord & Taylor",
      "brand:wikidata": "Q2749082",
      "brand:wikipedia": "en:Lord & Taylor",
      "name": "Lord & Taylor",
      "shop": "department_store"
    }
  },
  "shop/department_store|Lotte Department Store": {
    "matchNames": ["lotte"],
    "tags": {
      "brand": "Lotte Department Store",
      "brand:wikidata": "Q489905",
      "brand:wikipedia": "en:Lotte Department Store",
      "name": "Lotte Department Store",
      "shop": "department_store"
    }
  },
  "shop/department_store|M&S Outlet": {
    "matchNames": ["marks & spencer outlet"],
    "matchTags": ["shop/supermarket"],
    "tags": {
      "brand": "M&S Outlet",
      "brand:wikidata": "Q714491",
      "brand:wikipedia": "en:Marks & Spencer",
      "name": "M&S Outlet",
      "shop": "department_store"
    }
  },
  "shop/department_store|Macy's": {
    "countryCodes": ["us"],
    "tags": {
      "brand": "Macy's",
      "brand:wikidata": "Q629269",
      "brand:wikipedia": "en:Macy's",
      "name": "Macy's",
      "shop": "department_store"
    }
  },
  "shop/department_store|Manor": {
    "countryCodes": ["ch"],
    "tags": {
      "brand": "Manor",
      "brand:wikidata": "Q382686",
      "brand:wikipedia": "en:Manor (department store)",
      "name": "Manor",
      "shop": "department_store"
    }
  },
  "shop/department_store|Marks & Spencer": {
    "countryCodes": ["gb", "gr", "ie"],
    "matchNames": ["m and s"],
    "matchTags": ["shop/supermarket"],
    "tags": {
      "brand": "Marks & Spencer",
      "brand:wikidata": "Q714491",
      "brand:wikipedia": "en:Marks & Spencer",
      "name": "Marks & Spencer",
      "shop": "department_store"
    }
  },
  "shop/department_store|Marshalls": {
    "countryCodes": ["ca", "us"],
    "tags": {
      "brand": "Marshalls",
      "brand:wikidata": "Q15903261",
      "brand:wikipedia": "en:Marshalls",
      "name": "Marshalls",
      "shop": "department_store"
    }
  },
  "shop/department_store|Muji": {
    "countryCodes": ["it"],
    "tags": {
      "brand": "Muji",
      "brand:en": "Muji",
      "brand:ja": "無印良品",
      "brand:wikidata": "Q708789",
      "brand:wikipedia": "en:Muji",
      "name": "Muji",
      "name:en": "Muji",
      "name:ja": "無印良品",
      "shop": "department_store"
    }
  },
  "shop/department_store|Myer": {
    "countryCodes": ["au"],
    "tags": {
      "brand": "Myer",
      "brand:wikidata": "Q1110323",
      "brand:wikipedia": "en:Myer",
      "name": "Myer",
      "shop": "department_store"
    }
  },
  "shop/department_store|Neiman Marcus": {
    "countryCodes": ["us"],
    "tags": {
      "brand": "Neiman Marcus",
      "brand:wikidata": "Q743497",
      "brand:wikipedia": "en:Neiman Marcus",
      "name": "Neiman Marcus",
      "shop": "department_store"
    }
  },
  "shop/department_store|Nordstrom": {
    "countryCodes": ["ca", "us"],
    "tags": {
      "brand": "Nordstrom",
      "brand:wikidata": "Q174310",
      "brand:wikipedia": "en:Nordstrom",
      "name": "Nordstrom",
      "shop": "department_store"
    }
  },
  "shop/department_store|Oechsle": {
    "countryCodes": ["pe"],
    "tags": {
      "brand": "Oechsle",
      "brand:wikidata": "Q6049096",
      "brand:wikipedia": "es:Oechsle",
      "name": "Oechsle",
      "shop": "department_store"
    }
  },
  "shop/department_store|París": {
    "countryCodes": ["cl", "pe"],
    "tags": {
      "brand": "París",
      "brand:wikidata": "Q20812805",
      "brand:wikipedia": "en:París (retail store)",
      "name": "París",
      "shop": "department_store"
    }
  },
  "shop/department_store|Printemps": {
    "countryCodes": [
      "ad",
      "cn",
      "fr",
      "jp",
      "sa"
    ],
    "tags": {
      "brand": "Printemps",
      "brand:wikidata": "Q1535260",
      "brand:wikipedia": "fr:Printemps (grands magasins)",
      "name": "Printemps",
      "shop": "department_store"
    }
  },
  "shop/department_store|Ripley": {
    "countryCodes": ["cl", "pe"],
    "tags": {
      "brand": "Ripley",
      "brand:wikidata": "Q3433040",
      "brand:wikipedia": "en:Ripley S.A.",
      "name": "Ripley",
      "shop": "department_store"
    }
  },
  "shop/department_store|Ross": {
    "countryCodes": ["us"],
    "tags": {
      "brand": "Ross",
      "brand:wikidata": "Q3442791",
      "brand:wikipedia": "en:Ross Stores",
      "name": "Ross",
      "official_name": "Ross Dress for Less",
      "shop": "department_store"
    }
  },
  "shop/department_store|Saks Fifth Avenue": {
    "countryCodes": ["ca", "us"],
    "tags": {
      "brand": "Saks Fifth Avenue",
      "brand:wikidata": "Q2723882",
      "brand:wikipedia": "en:Saks Fifth Avenue",
      "name": "Saks Fifth Avenue",
      "shop": "department_store"
    }
  },
  "shop/department_store|Saks Off 5th": {
    "countryCodes": ["ca", "us"],
    "tags": {
      "brand": "Saks Off 5th",
      "brand:wikidata": "Q2723882",
      "brand:wikipedia": "en:Saks Fifth Avenue",
      "name": "Saks Off 5th",
      "shop": "department_store"
    }
  },
  "shop/department_store|Sears": {
    "countryCodes": ["mx", "us"],
    "nomatch": [
      "shop/car_repair|Sears Auto Center"
    ],
    "tags": {
      "brand": "Sears",
      "brand:wikidata": "Q6499202",
      "brand:wikipedia": "en:Sears",
      "name": "Sears",
      "shop": "department_store"
    }
  },
  "shop/department_store|Sears Hometown": {
    "countryCodes": ["us"],
    "matchNames": [
      "sears hometown store",
      "sears hometown stores"
    ],
    "tags": {
      "brand": "Sears Hometown",
      "brand:wikidata": "Q69926963",
      "name": "Sears Hometown",
      "shop": "department_store"
    }
  },
  "shop/department_store|Sears Outlet": {
    "countryCodes": ["us"],
    "matchNames": [
      "sears outlet store",
      "sears outlet stores"
    ],
    "tags": {
      "brand": "Sears Outlet",
      "brand:wikidata": "Q20080412",
      "name": "Sears Outlet",
      "shop": "department_store"
    }
  },
  "shop/department_store|Shopko": {
    "countryCodes": ["us"],
    "tags": {
      "brand": "Shopko",
      "brand:wikidata": "Q7501155",
      "brand:wikipedia": "en:Shopko",
      "name": "Shopko",
      "shop": "department_store"
    }
  },
  "shop/department_store|Shoppers Stop": {
    "countryCodes": ["in"],
    "tags": {
      "brand": "Shoppers Stop",
      "brand:wikidata": "Q7501155",
      "brand:wikipedia": "en:Shoppers Stop",
      "name": "Shoppers Stop",
      "shop": "department_store"
    }
  },
  "shop/department_store|Stein Mart": {
    "countryCodes": ["us"],
    "tags": {
      "brand": "Stein Mart",
      "brand:wikidata": "Q7606770",
      "brand:wikipedia": "en:Stein Mart",
      "name": "Stein Mart",
      "shop": "department_store"
    }
  },
  "shop/department_store|Stockmann": {
    "countryCodes": ["fi"],
    "tags": {
      "brand": "Stockmann",
      "brand:wikidata": "Q1543093",
      "brand:wikipedia": "fi:Stockmann",
      "name": "Stockmann",
      "shop": "department_store"
    }
  },
  "shop/department_store|TJ Maxx": {
    "countryCodes": ["us"],
    "tags": {
      "brand": "TJ Maxx",
      "brand:wikidata": "Q10860683",
      "brand:wikipedia": "en:TJ Maxx",
      "name": "TJ Maxx",
      "shop": "department_store"
    }
  },
  "shop/department_store|TK Maxx": {
    "tags": {
      "brand": "TK Maxx",
      "brand:wikidata": "Q23823668",
      "brand:wikipedia": "en:TK Maxx",
      "name": "TK Maxx",
      "shop": "department_store"
    }
  },
  "shop/department_store|Target~(Australia)": {
    "countryCodes": ["au"],
    "matchTags": ["shop/supermarket"],
    "nomatch": [
      "shop/department_store|Target~(USA)"
    ],
    "tags": {
      "brand": "Target",
      "brand:wikidata": "Q7685854",
      "brand:wikipedia": "en:Target Australia",
      "name": "Target",
      "shop": "department_store"
    }
  },
  "shop/department_store|Target~(USA)": {
    "countryCodes": ["us"],
    "matchNames": ["Super Target"],
    "matchTags": ["shop/supermarket"],
    "nomatch": [
      "shop/department_store|Target~(Australia)"
    ],
    "tags": {
      "brand": "Target",
      "brand:wikidata": "Q1046951",
      "brand:wikipedia": "en:Target Corporation",
      "name": "Target",
      "shop": "department_store"
    }
  },
  "shop/department_store|The Warehouse": {
    "countryCodes": ["nz"],
    "tags": {
      "brand": "The Warehouse",
      "brand:wikidata": "Q3566291",
      "brand:wikipedia": "en:The Warehouse Group",
      "name": "The Warehouse",
      "shop": "department_store"
    }
  },
  "shop/department_store|Walmart": {
    "matchTags": ["shop/supermarket"],
    "tags": {
      "brand": "Walmart",
      "brand:wikidata": "Q483551",
      "brand:wikipedia": "en:Walmart",
      "name": "Walmart",
      "shop": "department_store"
    }
  },
  "shop/department_store|Woolworth": {
    "countryCodes": ["de"],
    "tags": {
      "brand": "Woolworth",
      "brand:wikidata": "Q183538",
      "brand:wikipedia": "de:Woolworth Deutschland",
      "name": "Woolworth",
      "shop": "department_store"
    }
  },
  "shop/department_store|Åhléns": {
    "countryCodes": ["se"],
    "tags": {
      "brand": "Åhléns",
      "brand:wikidata": "Q270851",
      "brand:wikipedia": "sv:Åhléns",
      "name": "Åhléns",
      "shop": "department_store"
    }
  },
  "shop/department_store|Épicerie": {
    "countryCodes": ["ma"],
    "tags": {
      "brand": "Épicerie",
      "name": "Épicerie",
      "shop": "department_store"
    }
  },
  "shop/department_store|Éxito": {
    "countryCodes": ["co"],
    "matchTags": ["shop/supermarket"],
    "tags": {
      "brand": "Éxito",
      "name": "Éxito",
      "shop": "department_store"
    }
  },
  "shop/department_store|東急ハンズ": {
    "countryCodes": ["jp"],
    "tags": {
      "brand": "東急ハンズ",
      "brand:en": "Tokyu Hands",
      "brand:ja": "東急ハンズ",
      "brand:wikidata": "Q859212",
      "brand:wikipedia": "ja:東急ハンズ",
      "name": "東急ハンズ",
      "name:en": "Tokyu Hands",
      "name:ja": "東急ハンズ",
      "shop": "department_store"
    }
  },
  "shop/department_store|無印良品": {
    "countryCodes": ["jp", "tw"],
    "tags": {
      "brand": "無印良品",
      "brand:en": "Muji",
      "brand:ja": "無印良品",
      "brand:wikidata": "Q708789",
      "brand:wikipedia": "ja:無印良品",
      "name": "無印良品",
      "name:en": "Muji",
      "name:ja": "無印良品",
      "shop": "department_store"
    }
  },
  "shop/department_store|롯데백화점": {
    "countryCodes": ["kr"],
    "tags": {
      "brand": "롯데백화점",
      "brand:ko": "롯데백화점",
      "brand:wikidata": "Q489905",
      "brand:wikipedia": "ko:롯데백화점",
      "name": "롯데백화점",
      "name:en": "Lotte Department Store",
      "name:ko": "롯데백화점",
      "shop": "department_store"
    }
  }
}