{
  "shop/doityourself|Ace Hardware": {
    "locationSet": {"include": ["001"]},
    "tags": {
      "brand": "Ace Hardware",
      "brand:wikidata": "Q4672981",
      "brand:wikipedia": "en:Ace Hardware",
      "name": "Ace Hardware",
      "shop": "doityourself"
    }
  },
  "shop/doityourself|B&Q": {
    "locationSet": {"include": ["001"]},
    "tags": {
      "brand": "B&Q",
      "brand:wikidata": "Q707602",
      "brand:wikipedia": "en:B&Q",
      "name": "B&Q",
      "shop": "doityourself"
    }
  },
  "shop/doityourself|Bauhaus": {
    "locationSet": {
      "include": [
        "at",
        "bg",
        "ch",
        "cz",
        "de",
        "dk",
        "ee",
        "es",
        "fi",
        "hr",
        "hu",
        "is",
        "lu",
        "nl",
        "no",
        "se",
        "si",
        "sk",
        "tr"
      ]
    },
    "tags": {
      "brand": "Bauhaus",
      "brand:wikidata": "Q672043",
      "brand:wikipedia": "en:Bauhaus (company)",
      "name": "Bauhaus",
      "shop": "doityourself"
    }
  },
  "shop/doityourself|Biltema": {
    "locationSet": {
      "include": ["dk", "fi", "no", "se"]
    },
    "tags": {
      "brand": "Biltema",
      "brand:wikidata": "Q3355552",
      "brand:wikipedia": "en:Biltema",
      "name": "Biltema",
      "shop": "doityourself"
    }
  },
  "shop/doityourself|Brico": {
    "locationSet": {
      "include": ["be", "fr", "it"]
    },
    "tags": {
      "brand": "Brico",
      "brand:wikidata": "Q2510786",
      "brand:wikipedia": "en:Brico",
      "name": "Brico",
      "shop": "doityourself"
    }
  },
  "shop/doityourself|Brico Dépôt": {
    "locationSet": {
      "include": ["es", "fr", "pt", "ro"]
    },
    "tags": {
      "brand": "Brico Dépôt",
      "brand:wikidata": "Q2889702",
      "brand:wikipedia": "fr:Brico Dépôt",
      "name": "Brico Dépôt",
      "shop": "doityourself"
    }
  },
  "shop/doityourself|Bricoman": {
    "locationSet": {
      "include": ["fr", "it", "pl"]
    },
    "tags": {
      "brand": "Bricoman",
      "brand:wikidata": "Q2925142",
      "brand:wikipedia": "it:Bricoman",
      "name": "Bricoman",
      "shop": "doityourself"
    }
  },
  "shop/doityourself|Bricomarché": {
    "locationSet": {
      "include": ["fr", "pl", "pt"]
    },
    "tags": {
      "brand": "Bricomarché",
      "brand:wikidata": "Q2925147",
      "brand:wikipedia": "en:Bricomarché",
      "name": "Bricomarché",
      "shop": "doityourself"
    }
  },
  "shop/doityourself|Bricorama": {
    "locationSet": {"include": ["es", "fr"]},
    "tags": {
      "brand": "Bricorama",
      "brand:wikidata": "Q2925146",
      "brand:wikipedia": "en:Bricorama",
      "name": "Bricorama",
      "shop": "doityourself"
    }
  },
  "shop/doityourself|Bunnings Warehouse": {
    "locationSet": {"include": ["au", "nz"]},
    "tags": {
      "brand": "Bunnings Warehouse",
      "brand:wikidata": "Q4997829",
      "brand:wikipedia": "en:Bunnings Warehouse",
      "name": "Bunnings Warehouse",
      "shop": "doityourself"
    }
  },
  "shop/doityourself|Castorama": {
    "locationSet": {
      "include": ["fr", "pl", "ru"]
    },
    "tags": {
      "brand": "Castorama",
      "brand:wikidata": "Q966971",
      "brand:wikipedia": "en:Castorama",
      "name": "Castorama",
      "shop": "doityourself"
    }
  },
  "shop/doityourself|Chausson Matériaux": {
    "locationSet": {"include": ["fr"]},
    "tags": {
      "brand": "Chausson Matériaux",
      "name": "Chausson Matériaux",
      "shop": "doityourself"
    }
  },
  "shop/doityourself|Clas Ohlson": {
    "locationSet": {
      "include": ["fi", "no", "se"]
    },
    "tags": {
      "brand": "Clas Ohlson",
      "brand:wikidata": "Q3356220",
      "brand:wikipedia": "en:Clas Ohlson",
      "name": "Clas Ohlson",
      "shop": "doityourself"
    }
  },
  "shop/doityourself|Easy": {
    "locationSet": {
      "include": ["ar", "cl", "co"]
    },
    "tags": {
      "brand": "Easy",
      "brand:wikidata": "Q5331091",
      "brand:wikipedia": "en:Easy (store)",
      "name": "Easy",
      "shop": "doityourself"
    }
  },
  "shop/doityourself|Gamma": {
    "locationSet": {"include": ["be", "nl"]},
    "tags": {
      "brand": "Gamma",
      "brand:wikidata": "Q2294120",
      "brand:wikipedia": "en:Gamma (store)",
      "name": "Gamma",
      "shop": "doityourself"
    }
  },
  "shop/doityourself|Gedimat": {
    "locationSet": {"include": ["fr"]},
    "tags": {
      "brand": "Gedimat",
      "name": "Gedimat",
      "shop": "doityourself"
    }
  },
  "shop/doityourself|Globus Baumarkt": {
    "locationSet": {"include": ["de", "lu"]},
    "tags": {
      "brand": "Globus Baumarkt",
      "brand:wikidata": "Q457503",
      "brand:wikipedia": "de:Globus Holding",
      "name": "Globus Baumarkt",
      "shop": "doityourself"
    }
  },
  "shop/doityourself|Hagebaumarkt": {
    "locationSet": {
      "include": [
        "at",
        "be",
        "ch",
        "de",
        "es",
        "fr",
        "lu",
        "nl"
      ]
    },
    "matchNames": ["hagebau"],
    "tags": {
      "brand": "Hagebaumarkt",
      "brand:wikidata": "Q1568279",
      "brand:wikipedia": "de:Hagebau",
      "name": "Hagebaumarkt",
      "shop": "doityourself"
    }
  },
  "shop/doityourself|Hammer": {
    "locationSet": {"include": ["de"]},
    "tags": {
      "brand": "Hammer",
      "brand:wikidata": "Q52159668",
      "brand:wikipedia": "de:Hammer (Fachmarktkette)",
      "name": "Hammer",
      "shop": "doityourself"
    }
  },
  "shop/doityourself|Hellweg": {
    "locationSet": {"include": ["at", "de"]},
    "tags": {
      "brand": "Hellweg",
      "brand:wikidata": "Q1603084",
      "brand:wikipedia": "de:Hellweg (Baumarkt)",
      "name": "Hellweg",
      "shop": "doityourself"
    }
  },
  "shop/doityourself|Home Building Centre~(Canada)": {
    "locationSet": {"include": ["ca"]},
    "nomatch": [
      "shop/hardware|Home Hardware Building Centre"
    ],
    "tags": {
      "brand": "Home Hardware",
      "brand:wikidata": "Q3139611",
      "brand:wikipedia": "en:Home Hardware",
      "name": "Home Building Centre",
      "shop": "doityourself"
    }
  },
  "shop/doityourself|Home Hardware Building Centre~(Canada)": {
    "locationSet": {"include": ["ca"]},
    "matchNames": ["home hardware"],
    "nomatch": ["shop/hardware|Home Hardware"],
    "tags": {
      "brand": "Home Hardware",
      "brand:wikidata": "Q3139611",
      "brand:wikipedia": "en:Home Hardware",
      "name": "Home Hardware Building Centre",
      "shop": "doityourself"
    }
  },
  "shop/doityourself|Home Timber & Hardware~(Australia)": {
    "locationSet": {"include": ["au"]},
    "tags": {
      "alt_name": "Home Hardware",
      "brand": "Home Timber & Hardware",
      "brand:wikidata": "Q17006984",
      "brand:wikipedia": "en:Home Timber & Hardware",
      "name": "Home Timber & Hardware",
      "shop": "doityourself",
      "short_name": "Home"
    }
  },
  "shop/doityourself|Homebase": {
    "locationSet": {"include": ["gb", "ie"]},
    "tags": {
      "brand": "Homebase",
      "brand:wikidata": "Q9293447",
      "brand:wikipedia": "en:Homebase",
      "name": "Homebase",
      "shop": "doityourself"
    }
  },
  "shop/doityourself|Hornbach": {
    "locationSet": {
      "include": [
        "at",
        "ch",
        "cz",
        "de",
        "lu",
        "nl",
        "ro",
        "se",
        "sk"
      ]
    },
    "tags": {
      "brand": "Hornbach",
      "brand:wikidata": "Q685926",
      "brand:wikipedia": "en:Hornbach (retailer)",
      "name": "Hornbach",
      "shop": "doityourself"
    }
  },
  "shop/doityourself|Hubo": {
    "locationSet": {"include": ["be", "nl"]},
    "tags": {
      "brand": "Hubo",
      "brand:wikidata": "Q3142153",
      "brand:wikipedia": "en:Hubo Belgium",
      "name": "Hubo",
      "shop": "doityourself"
    }
  },
  "shop/doityourself|Jewson": {
    "locationSet": {"include": ["gb"]},
    "tags": {
      "brand": "Jewson",
      "brand:wikidata": "Q6190226",
      "brand:wikipedia": "en:Jewson",
      "name": "Jewson",
      "shop": "doityourself"
    }
  },
  "shop/doityourself|Jula": {
    "locationSet": {
      "include": ["no", "pl", "se"]
    },
    "tags": {
      "brand": "Jula",
      "brand:wikidata": "Q10541151",
      "brand:wikipedia": "sv:Jula (företag)",
      "name": "Jula",
      "shop": "doityourself"
    }
  },
  "shop/doityourself|Karwei": {
    "locationSet": {"include": ["nl"]},
    "tags": {
      "brand": "Karwei",
      "brand:wikidata": "Q2097480",
      "brand:wikipedia": "en:Karwei",
      "name": "Karwei",
      "shop": "doityourself"
    }
  },
  "shop/doityourself|Lapeyre": {
    "locationSet": {"include": ["fr"]},
    "tags": {
      "brand": "Lapeyre",
      "brand:wikidata": "Q3117467",
      "brand:wikipedia": "fr:Groupe Lapeyre",
      "name": "Lapeyre",
      "shop": "doityourself"
    }
  },
  "shop/doityourself|Leroy Merlin": {
    "locationSet": {"include": ["001"]},
    "tags": {
      "brand": "Leroy Merlin",
      "brand:wikidata": "Q889624",
      "brand:wikipedia": "en:Leroy Merlin",
      "name": "Leroy Merlin",
      "shop": "doityourself"
    }
  },
  "shop/doityourself|Lowe's": {
    "locationSet": {
      "include": ["ca", "mx", "us"]
    },
    "matchNames": ["lowes home improvement"],
    "nomatch": [
      "shop/clothes|Lowes",
      "shop/supermarket|Lowe's Market",
      "shop/supermarket|Lowes Foods"
    ],
    "tags": {
      "brand": "Lowe's",
      "brand:wikidata": "Q1373493",
      "brand:wikipedia": "en:Lowe's",
      "name": "Lowe's",
      "shop": "doityourself"
    }
  },
  "shop/doityourself|MR.DIY": {
    "locationSet": {"include": ["001"]},
    "tags": {
      "brand": "MR.DIY",
      "brand:wikidata": "Q95676208",
      "brand:wikipedia": "ms:MR.DIY",
      "name": "MR.DIY",
      "shop": "doityourself"
    }
  },
  "shop/doityourself|Menards": {
    "locationSet": {"include": ["us"]},
    "tags": {
      "brand": "Menards",
      "brand:wikidata": "Q1639897",
      "brand:wikipedia": "en:Menards",
      "name": "Menards",
      "shop": "doityourself"
    }
  },
  "shop/doityourself|Merkury Market": {
    "locationSet": {"include": ["pl", "sk"]},
    "tags": {
      "brand": "Merkury Market",
      "brand:wikidata": "Q93070134",
      "name": "Merkury Market",
      "shop": "doityourself"
    }
  },
  "shop/doityourself|Mitre 10": {
    "locationSet": {"include": ["au"]},
    "tags": {
      "brand": "Mitre 10",
      "brand:wikidata": "Q6882393",
      "brand:wikipedia": "en:Mitre 10",
      "name": "Mitre 10",
      "shop": "doityourself"
    }
  },
  "shop/doityourself|Mr.Bricolage": {
    "locationSet": {"include": ["be", "fr"]},
    "tags": {
      "brand": "Mr.Bricolage",
      "brand:wikidata": "Q3141657",
      "brand:wikipedia": "fr:Mr Bricolage",
      "name": "Mr.Bricolage",
      "shop": "doityourself"
    }
  },
  "shop/doityourself|OBI": {
    "locationSet": {"include": ["001"]},
    "tags": {
      "brand": "OBI",
      "brand:wikidata": "Q300518",
      "brand:wikipedia": "en:Obi (store)",
      "name": "OBI",
      "shop": "doityourself"
    }
  },
  "shop/doityourself|PSB Mrówka": {
    "locationSet": {"include": ["001"]},
    "tags": {
      "brand": "PSB Mrówka",
      "name": "PSB Mrówka",
      "shop": "doityourself"
    }
  },
  "shop/doityourself|Point P": {
    "locationSet": {"include": ["fr"]},
    "tags": {
      "brand": "Point P",
      "name": "Point P",
      "shop": "doityourself"
    }
  },
  "shop/doityourself|Praktiker": {
    "locationSet": {
      "include": ["bg", "gr", "hu", "ro"]
    },
    "tags": {
      "brand": "Praktiker",
      "brand:wikidata": "Q680214",
      "brand:wikipedia": "en:Praktiker",
      "name": "Praktiker",
      "shop": "doityourself"
    }
  },
  "shop/doityourself|Praxis": {
    "locationSet": {"include": ["nl"]},
    "tags": {
      "brand": "Praxis",
      "brand:wikidata": "Q2741995",
      "brand:wikipedia": "nl:Praxis (winkel)",
      "name": "Praxis",
      "shop": "doityourself"
    }
  },
  "shop/doityourself|Promart": {
    "locationSet": {"include": ["pe"]},
    "tags": {
      "brand": "Promart",
      "brand:wikidata": "Q17626095",
      "brand:wikipedia": "en:Promart",
      "name": "Promart",
      "shop": "doityourself"
    }
  },
  "shop/doityourself|Rona": {
    "locationSet": {"include": ["ca"]},
    "tags": {
      "brand": "Rona",
      "brand:wikidata": "Q3415283",
      "brand:wikipedia": "en:Rona, Inc.",
      "name": "Rona",
      "shop": "doityourself"
    }
  },
  "shop/doityourself|SUPER VIVA Home": {
    "locationSet": {"include": ["jp"]},
    "tags": {
      "brand": "VIVA Home",
      "brand:en": "VIVA Home",
      "brand:ja": "ビバホーム",
      "brand:wikidata": "Q11229278",
      "brand:wikipedia": "ja:LIXILビバ",
      "name": "SUPER VIVA Home",
      "name:en": "SUPER VIVA Home",
      "name:ja": "スーパービバホーム",
      "shop": "doityourself",
      "short_name:en": "SVH"
    }
  },
  "shop/doityourself|Screwfix": {
    "locationSet": {"include": ["de", "gb"]},
    "tags": {
      "brand": "Screwfix",
      "brand:wikidata": "Q7439115",
      "brand:wikipedia": "en:Screwfix",
      "name": "Screwfix",
      "shop": "doityourself"
    }
  },
  "shop/doityourself|Sodimac": {
    "locationSet": {
      "include": [
        "ar",
        "br",
        "cl",
        "co",
        "mx",
        "pe",
        "uy"
      ]
    },
    "matchNames": ["sodimac constructor"],
    "tags": {
      "brand": "Sodimac",
      "brand:wikidata": "Q7553274",
      "brand:wikipedia": "es:Sodimac",
      "name": "Sodimac",
      "shop": "doityourself"
    }
  },
  "shop/doityourself|Sonderpreis Baumarkt": {
    "locationSet": {"include": ["de"]},
    "tags": {
      "brand": "Sonderpreis Baumarkt",
      "name": "Sonderpreis Baumarkt",
      "shop": "doityourself"
    }
  },
  "shop/doityourself|Tekzen": {
    "locationSet": {"include": ["tr"]},
    "tags": {
      "brand": "Tekzen",
      "brand:wikidata": "Q25475379",
      "brand:wikipedia": "tr:Tekzen",
      "name": "Tekzen",
      "shop": "doityourself"
    }
  },
  "shop/doityourself|The Home Depot": {
    "locationSet": {
      "include": ["ca", "mx", "us"]
    },
    "tags": {
      "alt_name": "Home Depot",
      "brand": "The Home Depot",
      "brand:wikidata": "Q864407",
      "brand:wikipedia": "en:The Home Depot",
      "name": "The Home Depot",
      "shop": "doityourself"
    }
  },
  "shop/doityourself|Toolstation": {
    "locationSet": {
      "include": ["fr", "gb", "nl"]
    },
    "tags": {
      "brand": "Toolstation",
      "brand:wikidata": "Q7824103",
      "brand:wikipedia": "en:Toolstation",
      "name": "Toolstation",
      "shop": "doityourself"
    }
  },
  "shop/doityourself|Toom Baumarkt": {
    "locationSet": {"include": ["de"]},
    "matchNames": ["toom"],
    "tags": {
      "brand": "Toom Baumarkt",
      "brand:wikidata": "Q2442970",
      "brand:wikipedia": "de:Toom Baumarkt",
      "name": "Toom Baumarkt",
      "shop": "doityourself"
    }
  },
  "shop/doityourself|Travis Perkins": {
    "locationSet": {"include": ["gb"]},
    "tags": {
      "brand": "Travis Perkins",
      "brand:wikidata": "Q2450664",
      "brand:wikipedia": "en:Travis Perkins",
      "name": "Travis Perkins",
      "shop": "doityourself"
    }
  },
  "shop/doityourself|VIVA Home": {
    "locationSet": {"include": ["jp"]},
    "tags": {
      "brand": "VIVA Home",
      "brand:en": "VIVA Home",
      "brand:ja": "ビバホーム",
      "brand:wikidata": "Q11229278",
      "brand:wikipedia": "ja:LIXILビバ",
      "name": "VIVA Home",
      "name:en": "VIVA Home",
      "name:ja": "ビバホーム",
      "shop": "doityourself",
      "short_name:en": "VH"
    }
  },
  "shop/doityourself|Weldom": {
    "locationSet": {"include": ["fr"]},
    "tags": {
      "brand": "Weldom",
      "brand:wikidata": "Q16683226",
      "brand:wikipedia": "fr:Weldom",
      "name": "Weldom",
      "shop": "doityourself"
    }
  },
  "shop/doityourself|Wickes": {
    "locationSet": {"include": ["gb"]},
    "tags": {
      "brand": "Wickes",
      "brand:wikidata": "Q7998350",
      "brand:wikipedia": "en:Wickes",
      "name": "Wickes",
      "shop": "doityourself"
    }
  },
  "shop/doityourself|jem & fix": {
    "locationSet": {"include": ["dk"]},
    "tags": {
      "brand": "jem & fix",
      "brand:wikidata": "Q12319200",
      "brand:wikipedia": "da:Jem & fix",
      "name": "jem & fix",
      "shop": "doityourself"
    }
  },
  "shop/doityourself|Леруа Мерлен": {
    "locationSet": {"include": ["ru", "ua"]},
    "tags": {
      "brand": "Леруа Мерлен",
      "brand:en": "Leroy Merlin",
      "brand:wikidata": "Q889624",
      "brand:wikipedia": "en:Leroy Merlin",
      "name": "Леруа Мерлен",
      "name:en": "Leroy Merlin",
      "shop": "doityourself"
    }
  },
  "shop/doityourself|Мастер": {
    "locationSet": {
      "include": ["by", "kz", "ru", "ua"]
    },
    "tags": {
      "brand": "Мастер",
      "name": "Мастер",
      "shop": "doityourself"
    }
  },
  "shop/doityourself|Строитель": {
    "locationSet": {
      "include": ["by", "ru", "ua"]
    },
    "tags": {
      "brand": "Строитель",
      "name": "Строитель",
      "shop": "doityourself"
    }
  },
  "shop/doityourself|アマノ": {
    "locationSet": {"include": ["jp"]},
    "tags": {
      "brand": "アマノ",
      "brand:en": "Amano",
      "brand:ja": "アマノ",
      "brand:wikidata": "Q11284890",
      "brand:wikipedia": "ja:アマノ",
      "name": "アマノ",
      "name:en": "Amano",
      "name:ja": "アマノ",
      "shop": "doityourself"
    }
  },
  "shop/doityourself|カインズホーム": {
    "locationSet": {"include": ["jp"]},
    "tags": {
      "brand": "カインズホーム",
      "brand:en": "Cainz Home",
      "brand:ja": "カインズホーム",
      "brand:wikidata": "Q11293852",
      "brand:wikipedia": "ja:カインズ",
      "name": "カインズホーム",
      "name:en": "Cainz Home",
      "name:ja": "カインズホーム",
      "shop": "doityourself"
    }
  },
  "shop/doityourself|ケーヨー": {
    "locationSet": {"include": ["jp"]},
    "tags": {
      "brand": "ケーヨー",
      "brand:en": "Keiyo",
      "brand:ja": "ケーヨー",
      "brand:wikidata": "Q11301462",
      "brand:wikipedia": "ja:ケーヨー",
      "name": "ケーヨー",
      "name:en": "Keiyo",
      "name:ja": "ケーヨー",
      "shop": "doityourself"
    }
  },
  "shop/doityourself|ケーヨーデイツー": {
    "locationSet": {"include": ["jp"]},
    "tags": {
      "brand": "ケーヨーデイツー",
      "brand:ja": "ケーヨーデイツー",
      "name": "ケーヨーデイツー",
      "name:ja": "ケーヨーデイツー",
      "shop": "doityourself"
    }
  },
  "shop/doityourself|コメリ": {
    "locationSet": {"include": ["jp"]},
    "tags": {
      "brand": "コメリ",
      "brand:en": "Komeri",
      "brand:ja": "コメリ",
      "brand:wikidata": "Q11302690",
      "brand:wikipedia": "ja:コメリ",
      "name": "コメリ",
      "name:en": "Komeri",
      "name:ja": "コメリ",
      "shop": "doityourself"
    }
  },
  "shop/doityourself|コーナン": {
    "locationSet": {"include": ["jp"]},
    "tags": {
      "brand": "コーナン",
      "brand:en": "Kohnan",
      "brand:ja": "コーナン",
      "brand:wikidata": "Q11303403",
      "brand:wikipedia": "ja:コーナン",
      "name": "コーナン",
      "name:en": "Kohnan",
      "name:ja": "コーナン",
      "shop": "doityourself"
    }
  },
  "shop/doityourself|ナフコ": {
    "locationSet": {"include": ["jp"]},
    "tags": {
      "brand": "ナフコ",
      "brand:en": "Nafco",
      "brand:ja": "ナフコ",
      "brand:wikidata": "Q11323981",
      "brand:wikipedia": "ja:ナフコ (ホームセンター)",
      "name": "ナフコ",
      "name:en": "Nafco",
      "name:ja": "ナフコ",
      "shop": "doityourself"
    }
  }
}