{
  "brands/shop/dry_cleaning": [
    {
      "displayName": "5àsec",
      "id": "5asec-e2c813",
      "locationSet": {"include": ["001"]},
      "oldid": "shop/dry_cleaning|5àsec",
      "tags": {
        "brand": "5àsec",
        "brand:wikidata": "Q2817899",
        "brand:wikipedia": "fr:5àsec",
        "name": "5àsec",
        "shop": "dry_cleaning"
      }
    },
    {
      "displayName": "Johnsons",
      "id": "johnsons-a4fd49",
      "locationSet": {"include": ["gb"]},
      "matchNames": [
        "johnson",
        "johnsons cleaners"
      ],
      "oldid": "shop/dry_cleaning|Johnsons",
      "tags": {
        "brand": "Johnsons",
        "brand:wikidata": "Q6268527",
        "brand:wikipedia": "en:Johnsons Cleaners UK",
        "name": "Johnsons",
        "shop": "dry_cleaning"
      }
    },
    {
      "displayName": "Martinizing Dry Cleaning",
      "id": "martinizingdrycleaning-e2c813",
      "locationSet": {"include": ["001"]},
      "oldid": "shop/dry_cleaning|Martinizing Dry Cleaning",
      "tags": {
        "brand": "Martinizing Dry Cleaning",
        "brand:wikidata": "Q6777169",
        "brand:wikipedia": "en:Martinizing Dry Cleaning",
        "name": "Martinizing Dry Cleaning",
        "shop": "dry_cleaning"
      }
    },
    {
      "displayName": "Tide Cleaners",
      "id": "tidecleaners-1b6f6c",
      "locationSet": {"include": ["us"]},
      "matchNames": ["tide", "tide dry cleaners"],
      "oldid": "shop/dry_cleaning|Tide Cleaners",
      "tags": {
        "brand": "Tide Cleaners",
        "brand:wikidata": "Q66048841",
        "name": "Tide Cleaners",
        "shop": "dry_cleaning"
      }
    },
    {
      "displayName": "Диана",
      "id": "диана-1a9348",
      "locationSet": {"include": ["ru"]},
      "oldid": "shop/dry_cleaning|Диана",
      "tags": {
        "brand": "Диана",
        "brand:wikidata": "Q62105088",
        "name": "Диана",
        "shop": "dry_cleaning"
      }
    },
    {
      "displayName": "うさちゃんクリーニング",
      "id": "うさちゃんクリーニング-3105a6",
      "locationSet": {"include": ["jp"]},
      "oldid": "shop/dry_cleaning|うさちゃんクリーニング",
      "tags": {
        "brand": "うさちゃんクリーニング",
        "brand:en": "Usachan Cleaning",
        "brand:ja": "うさちゃんクリーニング",
        "brand:wikidata": "Q93641593",
        "name": "うさちゃんクリーニング",
        "name:en": "Usachan Cleaning",
        "name:ja": "うさちゃんクリーニング",
        "shop": "dry_cleaning"
      }
    },
    {
      "displayName": "ダイヤクリーニング",
      "id": "ダイヤクリーニング-3105a6",
      "locationSet": {"include": ["jp"]},
      "oldid": "shop/dry_cleaning|ダイヤクリーニング",
      "tags": {
        "brand": "ダイヤクリーニング",
        "brand:en": "Dia Cleaning",
        "brand:ja": "ダイヤクリーニング",
        "brand:wikidata": "Q11316968",
        "brand:wikipedia": "ja:ダイヤクリーニング",
        "name": "ダイヤクリーニング",
        "name:en": "Dia Cleaning",
        "name:ja": "ダイヤクリーニング",
        "shop": "dry_cleaning"
      }
    },
    {
      "displayName": "タカケンサンシャイン",
      "id": "タカケンサンシャイン-3105a6",
      "locationSet": {"include": ["jp"]},
      "matchNames": ["タカケンクリーング"],
      "oldid": "shop/dry_cleaning|タカケンサンシャイン",
      "tags": {
        "brand": "タカケンサンシャイン",
        "brand:en": "Takaken Sunshine",
        "brand:ja": "タカケンサンシャイン",
        "brand:wikidata": "Q11315914",
        "brand:wikipedia": "ja:タカケンサンシャイン",
        "name": "タカケンサンシャイン",
        "name:en": "Takaken Sunshine",
        "name:ja": "タカケンサンシャイン",
        "shop": "dry_cleaning"
      }
    },
    {
      "displayName": "ポニー",
      "id": "ポニー-3105a6",
      "locationSet": {"include": ["jp"]},
      "oldid": "shop/dry_cleaning|ポニー",
      "tags": {
        "brand": "ポニー",
        "brand:en": "Pony",
        "brand:ja": "ポニー",
        "brand:wikidata": "Q88012241",
        "name": "ポニー",
        "name:en": "Pony",
        "name:ja": "ポニー",
        "official_name": "ポニークリーニング",
        "official_name:en": "Pony Cleaning",
        "official_name:ja": "ポニークリーニング",
        "shop": "dry_cleaning"
      }
    },
    {
      "displayName": "ホワイト急便",
      "id": "ホワイト急便-3105a6",
      "locationSet": {"include": ["jp"]},
      "oldid": "shop/dry_cleaning|ホワイト急便",
      "tags": {
        "brand": "ホワイト急便",
        "brand:en": "White Kyuubin",
        "brand:ja": "ホワイト急便",
        "brand:wikidata": "Q11505557",
        "brand:wikipedia": "ja:日本さわやかグループ",
        "name": "ホワイト急便",
        "name:en": "White Kyuubin",
        "name:ja": "ホワイト急便",
        "shop": "dry_cleaning"
      }
    },
    {
      "displayName": "ヤングドライ",
      "id": "ヤングドライ-3105a6",
      "locationSet": {"include": ["jp"]},
      "oldid": "shop/dry_cleaning|ヤングドライ",
      "tags": {
        "brand": "ヤングドライ",
        "brand:en": "Young Dry",
        "brand:ja": "ヤングドライ",
        "brand:wikidata": "Q11345434",
        "brand:wikipedia": "ja:ヤングドライ",
        "name": "ヤングドライ",
        "name:en": "Young Dry",
        "name:ja": "ヤングドライ",
        "shop": "dry_cleaning"
      }
    },
    {
      "displayName": "白洋舎",
      "id": "白洋舎-3105a6",
      "locationSet": {"include": ["jp"]},
      "oldid": "shop/dry_cleaning|白洋舎",
      "tags": {
        "brand": "白洋舎",
        "brand:en": "Hakuyosha",
        "brand:ja": "白洋舎",
        "brand:wikidata": "Q11579995",
        "brand:wikipedia": "ja:白洋舎",
        "name": "白洋舎",
        "name:en": "Hakuyosha",
        "name:ja": "白洋舎",
        "shop": "dry_cleaning"
      }
    }
  ]
}