{
  "shop/funeral_directors|PFG": {
    "locationSet": {"include": ["fr"]},
    "tags": {
      "brand": "PFG",
      "brand:wikidata": "Q3396087",
      "brand:wikipedia": "fr:Pompes funèbres générales",
      "name": "PFG",
      "official_name": "Pompes Funèbres Générales",
      "shop": "funeral_directors"
    }
  },
  "shop/funeral_directors|Roblot": {
    "locationSet": {"include": ["fr"]},
    "tags": {
      "brand": "Roblot",
      "brand:wikidata": "Q63247414",
      "name": "Roblot",
      "shop": "funeral_directors"
    }
  },
  "shop/funeral_directors|Roc-Eclerc": {
    "locationSet": {"include": ["fr"]},
    "tags": {
      "brand": "Roc-Eclerc",
      "brand:wikidata": "Q62558102",
      "name": "Roc-Eclerc",
      "shop": "funeral_directors"
    }
  },
  "shop/funeral_directors|The Co-operative Funeralcare": {
    "locationSet": {"include": ["gb"]},
    "tags": {
      "brand": "The Co-operative Funeralcare",
      "brand:wikidata": "Q7726521",
      "brand:wikipedia": "en:Co-op Funeralcare",
      "name": "The Co-operative Funeralcare",
      "shop": "funeral_directors"
    }
  },
  "shop/funeral_directors|セレマ": {
    "locationSet": {"include": ["jp"]},
    "tags": {
      "brand": "セレマ",
      "brand:en": "Cerema",
      "brand:ja": "セレマ",
      "brand:wikidata": "Q65240269",
      "brand:wikipedia": "ja:セレマ (冠婚葬祭)",
      "name": "セレマ",
      "name:en": "Cerema",
      "name:ja": "セレマ",
      "shop": "funeral_directors"
    }
  },
  "shop/funeral_directors|ティア": {
    "locationSet": {"include": ["jp"]},
    "tags": {
      "brand": "ティア",
      "brand:en": "Tear",
      "brand:ja": "ティア",
      "brand:wikidata": "Q11318901",
      "brand:wikipedia": "ja:ティア (企業)",
      "name": "ティア",
      "name:en": "Tear",
      "name:ja": "ティア",
      "shop": "funeral_directors"
    }
  },
  "shop/funeral_directors|公益社": {
    "locationSet": {"include": ["jp"]},
    "tags": {
      "brand": "公益社",
      "brand:en": "Koekisha",
      "brand:ja": "公益社",
      "brand:wikidata": "Q93128848",
      "name": "公益社",
      "name:en": "Koekisha",
      "name:ja": "公益社",
      "shop": "funeral_directors"
    }
  }
}