{
  "shop/hairdresser|Art of Hair": {
    "locationSet": {"include": ["001"]},
    "tags": {
      "brand": "Art of Hair",
      "name": "Art of Hair",
      "shop": "hairdresser"
    }
  },
  "shop/hairdresser|Camille Albane": {
    "locationSet": {"include": ["fr"]},
    "tags": {
      "brand": "Camille Albane",
      "brand:wikidata": "Q62965183",
      "name": "Camille Albane",
      "shop": "hairdresser"
    }
  },
  "shop/hairdresser|Celly's": {
    "locationSet": {"include": ["gb"]},
    "tags": {
      "brand": "Celly's",
      "brand:wikidata": "Q86837698",
      "name": "Celly's",
      "shop": "hairdresser"
    }
  },
  "shop/hairdresser|Coiff&Co": {
    "locationSet": {"include": ["fr"]},
    "tags": {
      "brand": "Coiff&Co",
      "name": "Coiff&Co",
      "shop": "hairdresser"
    }
  },
  "shop/hairdresser|Cost Cutters": {
    "locationSet": {"include": ["us"]},
    "tags": {
      "brand": "Cost Cutters",
      "brand:wikidata": "Q62029366",
      "name": "Cost Cutters",
      "shop": "hairdresser"
    }
  },
  "shop/hairdresser|Dessange": {
    "locationSet": {"include": ["001"]},
    "tags": {
      "brand": "Dessange",
      "brand:wikidata": "Q62979914",
      "name": "Dessange",
      "shop": "hairdresser"
    }
  },
  "shop/hairdresser|Fantastic Sams": {
    "locationSet": {"include": ["us"]},
    "tags": {
      "brand": "Fantastic Sams",
      "brand:wikidata": "Q5434222",
      "brand:wikipedia": "en:Fantastic Sams",
      "name": "Fantastic Sams",
      "shop": "hairdresser"
    }
  },
  "shop/hairdresser|Ferber": {
    "locationSet": {"include": ["lu"]},
    "tags": {
      "brand": "Ferber",
      "brand:wikidata": "Q88180887",
      "name": "Ferber",
      "shop": "hairdresser"
    }
  },
  "shop/hairdresser|First Choice Haircutters": {
    "locationSet": {"include": ["ca"]},
    "tags": {
      "brand": "First Choice Haircutters",
      "brand:wikidata": "Q5452622",
      "brand:wikipedia": "en:First Choice Haircutters",
      "name": "First Choice Haircutters",
      "shop": "hairdresser"
    }
  },
  "shop/hairdresser|Franck Provost": {
    "locationSet": {
      "include": ["be", "fr", "lu", "pl"]
    },
    "tags": {
      "brand": "Franck Provost",
      "brand:wikidata": "Q62805922",
      "brand:wikipedia": "fr:Franck Provost (Salons de coiffure)",
      "name": "Franck Provost",
      "shop": "hairdresser"
    }
  },
  "shop/hairdresser|Gidor": {
    "locationSet": {"include": ["001"]},
    "tags": {
      "brand": "Gidor",
      "name": "Gidor",
      "shop": "hairdresser"
    }
  },
  "shop/hairdresser|Great Clips": {
    "locationSet": {"include": ["ca", "us"]},
    "tags": {
      "brand": "Great Clips",
      "brand:wikidata": "Q5598967",
      "brand:wikipedia": "en:Great Clips",
      "name": "Great Clips",
      "shop": "hairdresser"
    }
  },
  "shop/hairdresser|Hair Cuttery": {
    "locationSet": {"include": ["us"]},
    "tags": {
      "brand": "Hair Cuttery",
      "brand:wikidata": "Q5639484",
      "brand:wikipedia": "en:Hair Cuttery",
      "name": "Hair Cuttery",
      "shop": "hairdresser"
    }
  },
  "shop/hairdresser|Hair Express": {
    "locationSet": {"include": ["de", "us"]},
    "tags": {
      "brand": "Hair Express",
      "brand:wikidata": "Q57550814",
      "name": "Hair Express",
      "shop": "hairdresser"
    }
  },
  "shop/hairdresser|Hair Studio": {
    "locationSet": {"include": ["001"]},
    "tags": {
      "brand": "Hair Studio",
      "name": "Hair Studio",
      "shop": "hairdresser"
    }
  },
  "shop/hairdresser|Hairkiller": {
    "locationSet": {
      "include": ["at", "de", "lu"]
    },
    "tags": {
      "brand": "Hairkiller",
      "brand:wikidata": "Q58305998",
      "name": "Hairkiller",
      "shop": "hairdresser"
    }
  },
  "shop/hairdresser|Igorance": {
    "locationSet": {"include": ["lu"]},
    "tags": {
      "brand": "Igorance",
      "brand:wikidata": "Q88181481",
      "name": "Igorance",
      "shop": "hairdresser"
    }
  },
  "shop/hairdresser|Jean Louis David": {
    "locationSet": {
      "include": ["es", "fr", "it", "pl"]
    },
    "tags": {
      "brand": "Jean Louis David",
      "brand:wikidata": "Q64445174",
      "name": "Jean Louis David",
      "shop": "hairdresser"
    }
  },
  "shop/hairdresser|Kirpykla": {
    "locationSet": {"include": ["lt"]},
    "tags": {
      "brand": "Kirpykla",
      "name": "Kirpykla",
      "shop": "hairdresser"
    }
  },
  "shop/hairdresser|Klier": {
    "locationSet": {
      "include": ["at", "cz", "de", "sk"]
    },
    "tags": {
      "brand": "Klier",
      "brand:wikidata": "Q1465159",
      "brand:wikipedia": "de:Frisör Klier",
      "name": "Klier",
      "shop": "hairdresser"
    }
  },
  "shop/hairdresser|Klipp": {
    "locationSet": {"include": ["at"]},
    "tags": {
      "brand": "Klipp",
      "brand:wikidata": "Q1737304",
      "brand:wikipedia": "de:Klipp Frisör",
      "name": "Klipp",
      "shop": "hairdresser"
    }
  },
  "shop/hairdresser|Magicuts": {
    "locationSet": {"include": ["ca"]},
    "tags": {
      "brand": "Magicuts",
      "name": "Magicuts",
      "shop": "hairdresser"
    }
  },
  "shop/hairdresser|Marco Aldany": {
    "locationSet": {"include": ["001"]},
    "tags": {
      "brand": "Marco Aldany",
      "name": "Marco Aldany",
      "shop": "hairdresser"
    }
  },
  "shop/hairdresser|Mastercuts": {
    "locationSet": {"include": ["ca", "us"]},
    "tags": {
      "brand": "Mastercuts",
      "brand:wikidata": "Q64026258",
      "name": "Mastercuts",
      "shop": "hairdresser"
    }
  },
  "shop/hairdresser|Pascal Coste": {
    "locationSet": {"include": ["fr"]},
    "tags": {
      "brand": "Pascal Coste",
      "brand:wikidata": "Q66555630",
      "name": "Pascal Coste",
      "shop": "hairdresser"
    }
  },
  "shop/hairdresser|QBハウス": {
    "locationSet": {"include": ["jp"]},
    "matchNames": ["qb", "キュービーハウス"],
    "tags": {
      "brand": "QBハウス",
      "brand:en": "QB HOUSE",
      "brand:ja": "QBハウス",
      "brand:wikidata": "Q11297528",
      "brand:wikipedia": "ja:キュービーネット",
      "name": "QBハウス",
      "name:en": "QB HOUSE",
      "name:ja": "QBハウス",
      "shop": "hairdresser"
    }
  },
  "shop/hairdresser|Ryanhair": {
    "locationSet": {"include": ["lu"]},
    "tags": {
      "brand": "Ryanhair",
      "brand:wikidata": "Q88180487",
      "name": "Ryanhair",
      "shop": "hairdresser"
    }
  },
  "shop/hairdresser|Saint Algue": {
    "locationSet": {"include": ["001"]},
    "tags": {
      "brand": "Saint Algue",
      "brand:wikidata": "Q62973210",
      "name": "Saint Algue",
      "shop": "hairdresser"
    }
  },
  "shop/hairdresser|Sport Clips": {
    "locationSet": {"include": ["ca", "us"]},
    "matchNames": [
      "sport clips haircuts",
      "sports clips"
    ],
    "tags": {
      "brand": "Sport Clips",
      "brand:wikidata": "Q7579310",
      "name": "Sport Clips",
      "shop": "hairdresser"
    }
  },
  "shop/hairdresser|Super Cut": {
    "locationSet": {"include": ["de"]},
    "tags": {
      "brand": "Super Cut",
      "brand:wikidata": "Q64139077",
      "name": "Super Cut",
      "shop": "hairdresser"
    }
  },
  "shop/hairdresser|Supercuts": {
    "locationSet": {
      "include": ["ca", "gb", "us"]
    },
    "tags": {
      "brand": "Supercuts",
      "brand:wikidata": "Q7643239",
      "brand:wikipedia": "en:Supercuts",
      "name": "Supercuts",
      "shop": "hairdresser"
    }
  },
  "shop/hairdresser|Tchip": {
    "locationSet": {"include": ["fr"]},
    "tags": {
      "brand": "Tchip",
      "brand:wikidata": "Q62871250",
      "name": "Tchip",
      "shop": "hairdresser"
    }
  },
  "shop/hairdresser|The Salon at Ulta Beauty": {
    "locationSet": {"include": ["us"]},
    "tags": {
      "alt_name": "Ulta Salon",
      "brand": "Ulta Beauty",
      "brand:wikidata": "Q7880076",
      "brand:wikipedia": "en:Ulta Beauty",
      "name": "The Salon at Ulta Beauty",
      "shop": "hairdresser"
    }
  },
  "shop/hairdresser|Toni & Guy": {
    "locationSet": {"include": ["001"]},
    "tags": {
      "brand": "Toni & Guy",
      "brand:wikidata": "Q324784",
      "brand:wikipedia": "en:Toni & Guy",
      "name": "Toni & Guy",
      "shop": "hairdresser"
    }
  },
  "shop/hairdresser|Top Hair": {
    "locationSet": {"include": ["de"]},
    "tags": {
      "brand": "Top Hair",
      "brand:wikidata": "Q62523343",
      "name": "Top Hair",
      "shop": "hairdresser"
    }
  },
  "shop/hairdresser|Виктория": {
    "locationSet": {"include": ["001"]},
    "nomatch": [
      "amenity/cafe|Виктория",
      "shop/supermarket|Виктория"
    ],
    "tags": {
      "brand": "Виктория",
      "name": "Виктория",
      "shop": "hairdresser"
    }
  },
  "shop/hairdresser|Елена": {
    "locationSet": {
      "include": ["by", "kz", "ru"]
    },
    "tags": {
      "brand": "Елена",
      "name": "Елена",
      "shop": "hairdresser"
    }
  },
  "shop/hairdresser|Имидж": {
    "locationSet": {"include": ["001"]},
    "tags": {
      "brand": "Имидж",
      "name": "Имидж",
      "shop": "hairdresser"
    }
  },
  "shop/hairdresser|Каприз": {
    "locationSet": {"include": ["ru", "ua"]},
    "tags": {
      "brand": "Каприз",
      "name": "Каприз",
      "shop": "hairdresser"
    }
  },
  "shop/hairdresser|Фея": {
    "locationSet": {"include": ["ru", "ua"]},
    "tags": {
      "brand": "Фея",
      "name": "Фея",
      "shop": "hairdresser"
    }
  },
  "shop/hairdresser|Чио Чио": {
    "locationSet": {"include": ["001"]},
    "tags": {
      "brand": "Чио Чио",
      "name": "Чио Чио",
      "shop": "hairdresser"
    }
  },
  "shop/hairdresser|カットコムズ": {
    "locationSet": {"include": ["jp"]},
    "tags": {
      "brand": "カットコムズ",
      "brand:en": "Cutcomz",
      "brand:ja": "カットコムズ",
      "brand:wikidata": "Q91104902",
      "name": "カットコムズ",
      "name:en": "Cutcomz",
      "name:ja": "カットコムズ",
      "shop": "hairdresser"
    }
  },
  "shop/hairdresser|カットファクトリー": {
    "locationSet": {"include": ["jp"]},
    "tags": {
      "brand": "カットファクトリー",
      "brand:en": "Cut Factory",
      "brand:ja": "カットファクトリー",
      "brand:wikidata": "Q91102312",
      "name": "カットファクトリー",
      "name:en": "Cut Factory",
      "name:ja": "カットファクトリー",
      "shop": "hairdresser"
    }
  },
  "shop/hairdresser|ファミリーカット1000": {
    "locationSet": {"include": ["jp"]},
    "matchNames": ["ファミリーカット"],
    "tags": {
      "brand": "ファミリーカット1000",
      "brand:en": "Family Cut 1000",
      "brand:ja": "ファミリーカット1000",
      "brand:wikidata": "Q91108482",
      "name": "ファミリーカット1000",
      "name:en": "Family Cut 1000",
      "name:ja": "ファミリーカット1000",
      "shop": "hairdresser"
    }
  }
}