{
  "shop/hobby|アニメイト": {
    "countryCodes": ["jp"],
    "tags": {
      "brand": "アニメイト",
      "brand:en": "Animate",
      "brand:ja": "アニメイト",
      "brand:wikidata": "Q1041890",
      "brand:wikipedia": "ja:アニメイト",
      "name": "アニメイト",
      "name:en": "Animate",
      "name:ja": "アニメイト",
      "shop": "hobby"
    }
  },
  "shop/hobby|イエロー・サブマリン": {
    "countryCodes": ["jp"],
    "tags": {
      "brand": "イエロー・サブマリン",
      "brand:en": "Yellow Submarine",
      "brand:ja": "イエロー・サブマリン",
      "brand:wikidata": "Q11668496",
      "brand:wikipedia": "ja:ホビーベースイエローサブマリン",
      "name": "イエロー・サブマリン",
      "name:en": "Yellow Submarine",
      "name:ja": "イエロー・サブマリン",
      "shop": "hobby"
    }
  },
  "shop/hobby|ジャンプショップ": {
    "countryCodes": ["jp"],
    "matchNames": ["ジャンプ"],
    "tags": {
      "brand": "ジャンプショップ",
      "brand:en": "Jump Shop",
      "brand:ja": "ジャンプショップ",
      "brand:wikidata": "Q11310200",
      "brand:wikipedia": "ja:ジャンプショップ",
      "name": "ジャンプショップ",
      "name:en": "Jump Shop",
      "name:ja": "ジャンプショップ",
      "shop": "hobby"
    }
  },
  "shop/hobby|ポケモンセンター": {
    "countryCodes": ["jp"],
    "tags": {
      "brand": "ポケモンセンター",
      "brand:en": "Pokémon Center",
      "brand:ja": "ポケモンセンター",
      "brand:wikidata": "Q14618314",
      "brand:wikipedia": "ja:ポケモンセンター",
      "name": "ポケモンセンター",
      "name:en": "Pokémon Center",
      "name:ja": "ポケモンセンター",
      "shop": "hobby"
    }
  },
  "shop/hobby|駿河屋": {
    "countryCodes": ["jp"],
    "tags": {
      "brand": "駿河屋",
      "brand:en": "Surugaya",
      "brand:ja": "駿河屋",
      "brand:wikidata": "Q88485610",
      "name": "駿河屋",
      "name:en": "Surugaya",
      "name:ja": "駿河屋",
      "shop": "hobby"
    }
  }
}