{
  "brands/shop/jewelry": [
    {
      "displayName": "Alex and Ani",
      "id": "alexandani-70f101",
      "locationSet": {"include": ["us"]},
      "oldid": "shop/jewelry|Alex and Ani",
      "tags": {
        "brand": "Alex and Ani",
        "brand:wikidata": "Q16198810",
        "brand:wikipedia": "en:Alex and Ani",
        "name": "Alex and Ani",
        "shop": "jewelry"
      }
    },
    {
      "displayName": "Apart",
      "id": "apart-0f1493",
      "locationSet": {"include": ["pl"]},
      "oldid": "shop/jewelry|Apart",
      "tags": {
        "brand": "Apart",
        "brand:wikidata": "Q11686561",
        "brand:wikipedia": "pl:Apart",
        "name": "Apart",
        "shop": "jewelry"
      }
    },
    {
      "displayName": "Beaverbrooks",
      "id": "beaverbrooks-f07ca3",
      "locationSet": {"include": ["gb"]},
      "oldid": "shop/jewelry|Beaverbrooks",
      "tags": {
        "brand": "Beaverbrooks",
        "brand:wikidata": "Q4878226",
        "brand:wikipedia": "en:Beaverbrooks",
        "name": "Beaverbrooks",
        "shop": "jewelry"
      }
    },
    {
      "displayName": "Bijou Brigitte",
      "id": "bijoubrigitte-a038d2",
      "locationSet": {"include": ["001"]},
      "oldid": "shop/jewelry|Bijou Brigitte",
      "tags": {
        "brand": "Bijou Brigitte",
        "brand:wikidata": "Q599545",
        "brand:wikipedia": "de:Bijou Brigitte",
        "name": "Bijou Brigitte",
        "shop": "jewelry"
      }
    },
    {
      "displayName": "Cartier",
      "id": "cartier-a038d2",
      "locationSet": {"include": ["001"]},
      "oldid": "shop/jewelry|Cartier",
      "tags": {
        "brand": "Cartier",
        "brand:wikidata": "Q538587",
        "brand:wikipedia": "en:Cartier (jeweler)",
        "name": "Cartier",
        "shop": "jewelry"
      }
    },
    {
      "displayName": "Charm Diamond Centres",
      "id": "charmdiamondcentres-7fc58d",
      "locationSet": {"include": ["ca"]},
      "matchNames": [
        "charm diamond",
        "charm diamond centre"
      ],
      "oldid": "shop/jewelry|Charm Diamond Centres",
      "tags": {
        "brand": "Charm Diamond Centres",
        "brand:wikidata": "Q5086396",
        "brand:wikipedia": "en:Charm Diamond Centres",
        "name": "Charm Diamond Centres",
        "shop": "jewelry"
      }
    },
    {
      "displayName": "Chisholm Hunter",
      "id": "chisholmhunter-f07ca3",
      "locationSet": {"include": ["gb"]},
      "oldid": "shop/jewelry|Chisholm Hunter",
      "tags": {
        "brand": "Chisholm Hunter",
        "brand:wikidata": "Q66662001",
        "name": "Chisholm Hunter",
        "shop": "jewelry"
      }
    },
    {
      "displayName": "Christ",
      "id": "christ-953894",
      "locationSet": {
        "include": ["ch", "de", "nl"]
      },
      "oldid": "shop/jewelry|Christ",
      "tags": {
        "brand": "Christ",
        "brand:wikidata": "Q1077957",
        "brand:wikipedia": "de:Christ (Juwelier)",
        "name": "Christ",
        "shop": "jewelry"
      }
    },
    {
      "displayName": "David Yurman",
      "id": "davidyurman-70f101",
      "locationSet": {"include": ["us"]},
      "oldid": "shop/jewelry|David Yurman",
      "tags": {
        "brand": "David Yurman",
        "brand:wikidata": "Q5241390",
        "brand:wikipedia": "en:David Yurman",
        "name": "David Yurman",
        "shop": "jewelry"
      }
    },
    {
      "displayName": "Ernest Jones",
      "id": "ernestjones-f07ca3",
      "locationSet": {"include": ["gb"]},
      "oldid": "shop/jewelry|Ernest Jones",
      "tags": {
        "brand": "Ernest Jones",
        "brand:wikidata": "Q5393358",
        "brand:wikipedia": "en:Ernest Jones (retailer)",
        "name": "Ernest Jones",
        "shop": "jewelry"
      }
    },
    {
      "displayName": "F.Hinds",
      "id": "fhinds-f07ca3",
      "locationSet": {"include": ["gb"]},
      "oldid": "shop/jewelry|F.Hinds",
      "tags": {
        "brand": "F.Hinds",
        "brand:wikidata": "Q5423915",
        "brand:wikipedia": "en:F. Hinds",
        "name": "F.Hinds",
        "shop": "jewelry"
      }
    },
    {
      "displayName": "Fred Meyer",
      "id": "fredmeyer-70f101",
      "locationSet": {"include": ["us"]},
      "oldid": "shop/jewelry|Fred Meyer",
      "tags": {
        "brand": "Fred Meyer",
        "brand:wikidata": "Q5495932",
        "brand:wikipedia": "en:Fred Meyer",
        "name": "Fred Meyer",
        "shop": "jewelry"
      }
    },
    {
      "displayName": "Goldsmiths",
      "id": "goldsmiths-f07ca3",
      "locationSet": {"include": ["gb"]},
      "oldid": "shop/jewelry|Goldsmiths",
      "tags": {
        "brand": "Goldsmiths",
        "brand:wikidata": "Q16993095",
        "brand:wikipedia": "en:Goldsmiths (retailer)",
        "name": "Goldsmiths",
        "shop": "jewelry"
      }
    },
    {
      "displayName": "Guldfynd",
      "id": "guldfynd-57004a",
      "locationSet": {"include": ["se"]},
      "oldid": "shop/jewelry|Guldfynd",
      "tags": {
        "brand": "Guldfynd",
        "brand:wikidata": "Q49099223",
        "brand:wikipedia": "sv:Guldfynd",
        "name": "Guldfynd",
        "shop": "jewelry"
      }
    },
    {
      "displayName": "H.Samuel",
      "id": "hsamuel-f07ca3",
      "locationSet": {"include": ["gb"]},
      "oldid": "shop/jewelry|H.Samuel",
      "tags": {
        "brand": "H.Samuel",
        "brand:wikidata": "Q5628558",
        "brand:wikipedia": "en:H. Samuel",
        "name": "H.Samuel",
        "shop": "jewelry"
      }
    },
    {
      "displayName": "Helzberg Diamonds",
      "id": "helzbergdiamonds-70f101",
      "locationSet": {"include": ["us"]},
      "oldid": "shop/jewelry|Helzberg Diamonds",
      "tags": {
        "brand": "Helzberg Diamonds",
        "brand:wikidata": "Q16995161",
        "brand:wikipedia": "en:Helzberg Diamonds",
        "name": "Helzberg Diamonds",
        "shop": "jewelry"
      }
    },
    {
      "displayName": "Histoire d'Or",
      "id": "histoiredor-b9270b",
      "locationSet": {
        "include": ["be", "fr", "it", "nl"]
      },
      "oldid": "shop/jewelry|Histoire d'Or",
      "tags": {
        "brand": "Histoire d'Or",
        "brand:wikidata": "Q62529245",
        "name": "Histoire d'Or",
        "shop": "jewelry"
      }
    },
    {
      "displayName": "Icing",
      "id": "icing-30e94f",
      "locationSet": {"include": ["ca", "us"]},
      "oldid": "shop/jewelry|Icing",
      "tags": {
        "brand": "Icing",
        "name": "Icing",
        "shop": "jewelry"
      }
    },
    {
      "displayName": "James Avery Jewelry",
      "id": "jamesaveryjewelry-70f101",
      "locationSet": {"include": ["us"]},
      "oldid": "shop/jewelry|James Avery Jewelry",
      "tags": {
        "brand": "James Avery Jewelry",
        "brand:wikidata": "Q6129024",
        "brand:wikipedia": "en:James Avery Artisan Jewelry",
        "name": "James Avery Jewelry",
        "shop": "jewelry"
      }
    },
    {
      "displayName": "Jared",
      "id": "jared-70f101",
      "locationSet": {"include": ["us"]},
      "oldid": "shop/jewelry|Jared",
      "tags": {
        "brand": "Jared",
        "brand:wikidata": "Q62029282",
        "name": "Jared",
        "shop": "jewelry"
      }
    },
    {
      "displayName": "Julien d'Orcel",
      "id": "juliendorcel-05afc6",
      "locationSet": {"include": ["fr"]},
      "oldid": "shop/jewelry|Julien d'Orcel",
      "tags": {
        "brand": "Julien d'Orcel",
        "brand:wikidata": "Q62497463",
        "name": "Julien d'Orcel",
        "shop": "jewelry"
      }
    },
    {
      "displayName": "Kay Jewelers",
      "id": "kayjewelers-70f101",
      "locationSet": {"include": ["us"]},
      "oldid": "shop/jewelry|Kay Jewelers",
      "tags": {
        "brand": "Kay Jewelers",
        "brand:wikidata": "Q62029290",
        "name": "Kay Jewelers",
        "shop": "jewelry"
      }
    },
    {
      "displayName": "Lucardi",
      "id": "lucardi-dad0f4",
      "locationSet": {"include": ["nl"]},
      "oldid": "shop/jewelry|Lucardi",
      "tags": {
        "brand": "Lucardi",
        "brand:wikidata": "Q13774940",
        "brand:wikipedia": "nl:Lucardi",
        "name": "Lucardi",
        "shop": "jewelry"
      }
    },
    {
      "displayName": "Michael Hill",
      "id": "michaelhill-4ffa40",
      "locationSet": {
        "include": ["au", "ca", "nz", "us"]
      },
      "oldid": "shop/jewelry|Michael Hill",
      "tags": {
        "brand": "Michael Hill",
        "brand:wikidata": "Q3308250",
        "brand:wikipedia": "en:Michael Hill Jeweller",
        "name": "Michael Hill",
        "shop": "jewelry"
      }
    },
    {
      "displayName": "Pandora",
      "id": "pandora-a038d2",
      "locationSet": {"include": ["001"]},
      "oldid": "shop/jewelry|Pandora",
      "tags": {
        "brand": "Pandora",
        "brand:wikidata": "Q2241604",
        "brand:wikipedia": "en:Pandora (jewelry)",
        "name": "Pandora",
        "shop": "jewelry"
      }
    },
    {
      "displayName": "Peoples Jewellers",
      "id": "peoplesjewellers-7fc58d",
      "locationSet": {"include": ["ca"]},
      "oldid": "shop/jewelry|Peoples Jewellers",
      "tags": {
        "brand": "Peoples Jewellers",
        "brand:wikidata": "Q64995558",
        "name": "Peoples Jewellers",
        "shop": "jewelry"
      }
    },
    {
      "displayName": "Piercing Pagoda",
      "id": "piercingpagoda-70f101",
      "locationSet": {"include": ["us"]},
      "oldid": "shop/jewelry|Piercing Pagoda",
      "tags": {
        "brand": "Piercing Pagoda",
        "name": "Piercing Pagoda",
        "shop": "jewelry"
      }
    },
    {
      "displayName": "PNJ",
      "id": "pnj-a9c8da",
      "locationSet": {"include": ["vn"]},
      "oldid": "shop/jewelry|PNJ",
      "tags": {
        "brand": "PNJ",
        "brand:wikidata": "Q61129183",
        "brand:wikipedia": "vi:PNJ",
        "name": "PNJ",
        "shop": "jewelry"
      }
    },
    {
      "displayName": "Swarovski",
      "id": "swarovski-a038d2",
      "locationSet": {"include": ["001"]},
      "oldid": "shop/jewelry|Swarovski",
      "tags": {
        "brand": "Swarovski",
        "brand:wikidata": "Q611115",
        "brand:wikipedia": "en:Swarovski",
        "name": "Swarovski",
        "shop": "jewelry"
      }
    },
    {
      "displayName": "Thomas Sabo",
      "id": "thomassabo-a038d2",
      "locationSet": {"include": ["001"]},
      "oldid": "shop/jewelry|Thomas Sabo",
      "tags": {
        "brand": "Thomas Sabo",
        "brand:wikidata": "Q13415716",
        "brand:wikipedia": "en:Thomas Sabo",
        "name": "Thomas Sabo",
        "shop": "jewelry"
      }
    },
    {
      "displayName": "Tiffany & Company",
      "id": "tiffanyandcompany-a038d2",
      "locationSet": {"include": ["001"]},
      "matchNames": ["tiffany", "tiffany's"],
      "oldid": "shop/jewelry|Tiffany & Company",
      "tags": {
        "brand": "Tiffany & Company",
        "brand:wikidata": "Q1066858",
        "brand:wikipedia": "en:Tiffany & Co.",
        "name": "Tiffany & Company",
        "official_name": "Tiffany & Co.",
        "shop": "jewelry"
      }
    },
    {
      "displayName": "Tous",
      "id": "tous-a038d2",
      "locationSet": {"include": ["001"]},
      "oldid": "shop/jewelry|Tous",
      "tags": {
        "brand": "Tous",
        "brand:wikidata": "Q3815128",
        "brand:wikipedia": "en:Tous (company)",
        "name": "Tous",
        "shop": "jewelry"
      }
    },
    {
      "displayName": "Warren James",
      "id": "warrenjames-f07ca3",
      "locationSet": {"include": ["gb"]},
      "oldid": "shop/jewelry|Warren James",
      "tags": {
        "brand": "Warren James",
        "brand:wikidata": "Q19604616",
        "brand:wikipedia": "en:Warren James Jewellers",
        "name": "Warren James",
        "shop": "jewelry"
      }
    },
    {
      "displayName": "Zales",
      "id": "zales-70f101",
      "locationSet": {"include": ["us"]},
      "oldid": "shop/jewelry|Zales",
      "tags": {
        "brand": "Zales",
        "brand:wikidata": "Q8065305",
        "brand:wikipedia": "en:Zale Corporation",
        "name": "Zales",
        "shop": "jewelry"
      }
    },
    {
      "displayName": "Ziko",
      "id": "ziko-a038d2",
      "locationSet": {"include": ["001"]},
      "oldid": "shop/jewelry|Ziko",
      "tags": {
        "brand": "Ziko",
        "name": "Ziko",
        "shop": "jewelry"
      }
    },
    {
      "displayName": "Адамас",
      "id": "адамас-ee45ea",
      "locationSet": {"include": ["ru"]},
      "oldid": "shop/jewelry|Адамас",
      "tags": {
        "brand": "Адамас",
        "brand:en": "Adamas",
        "brand:ru": "Адамас",
        "brand:wikidata": "Q62393709",
        "name": "Адамас",
        "name:en": "Adamas",
        "name:ru": "Адамас",
        "shop": "jewelry"
      }
    },
    {
      "displayName": "Золотая мечта",
      "id": "зоnотаямечта-007daa",
      "locationSet": {"include": ["by"]},
      "oldid": "shop/jewelry|Золотая мечта",
      "tags": {
        "brand": "Золотая мечта",
        "brand:en": "Gold Dream",
        "brand:ru": "Золотая мечта",
        "name": "Золотая мечта",
        "name:en": "Gold Dream",
        "name:ru": "Золотая мечта",
        "shop": "jewelry"
      }
    },
    {
      "displayName": "Золотий вік",
      "id": "зоnотийвік-a038d2",
      "locationSet": {"include": ["001"]},
      "oldid": "shop/jewelry|Золотий вік",
      "tags": {
        "brand": "Золотий вік",
        "name": "Золотий вік",
        "shop": "jewelry"
      }
    },
    {
      "displayName": "ツツミ",
      "id": "ツツミ-36e4b3",
      "locationSet": {"include": ["jp"]},
      "oldid": "shop/jewelry|ツツミ",
      "tags": {
        "brand": "ツツミ",
        "brand:en": "Tsutsumi",
        "brand:ja": "ツツミ",
        "brand:wikidata": "Q11318759",
        "brand:wikipedia": "ja:ツツミ",
        "name": "ツツミ",
        "name:en": "Tsutsumi",
        "name:ja": "ツツミ",
        "official_name": "ジュエリーツツミ",
        "official_name:en": "Jewelry Tsutsumi",
        "official_name:ja": "ジュエリーツツミ",
        "shop": "jewelry"
      }
    },
    {
      "displayName": "六福珠宝",
      "id": "六福珠宝-b792ed",
      "locationSet": {
        "include": [
          "au",
          "ca",
          "cn",
          "kh",
          "my",
          "sg",
          "us"
        ]
      },
      "oldid": "shop/jewelry|六福珠宝",
      "tags": {
        "brand": "六福珠宝",
        "brand:en": "LukFook Jewellery",
        "brand:wikidata": "Q10893397",
        "brand:wikipedia": "en:LukFook",
        "brand:zh": "六福珠宝",
        "name": "六福珠宝",
        "name:en": "LukFook Jewellery",
        "name:zh": "六福珠宝",
        "shop": "jewelry"
      }
    },
    {
      "displayName": "周大福",
      "id": "周大福-9d8a9e",
      "locationSet": {
        "include": [
          "cn",
          "jp",
          "kr",
          "my",
          "sg",
          "tw",
          "us"
        ]
      },
      "oldid": "shop/jewelry|周大福",
      "tags": {
        "brand": "周大福",
        "brand:en": "Chow Tai Fook",
        "brand:wikidata": "Q48880993",
        "brand:wikipedia": "en:Chow Tai Fook",
        "brand:zh": "周大福",
        "name": "周大福",
        "name:en": "Chow Tai Fook",
        "name:zh": "周大福",
        "shop": "jewelry"
      }
    },
    {
      "displayName": "周生生",
      "id": "周生生-d54b30",
      "locationSet": {"include": ["cn", "tw"]},
      "oldid": "shop/jewelry|周生生",
      "tags": {
        "brand": "周生生",
        "brand:en": "Chow Sang Sang",
        "brand:wikidata": "Q10920877",
        "brand:wikipedia": "en:Chow Sang Sang",
        "brand:zh": "周生生",
        "name": "周生生",
        "name:en": "Chow Sang Sang",
        "name:zh": "周生生",
        "shop": "jewelry"
      }
    },
    {
      "displayName": "老凤祥",
      "id": "老凤祥-c03559",
      "locationSet": {
        "include": ["au", "ca", "cn", "us"]
      },
      "oldid": "shop/jewelry|老凤祥",
      "tags": {
        "brand": "老凤祥",
        "brand:en": "Lao Feng Xiang",
        "brand:wikidata": "Q15910313",
        "brand:wikipedia": "en:Lao Feng Xiang",
        "brand:zh": "老凤祥",
        "name": "老凤祥",
        "name:en": "Lao Feng Xiang",
        "name:zh": "老凤祥",
        "shop": "jewelry"
      }
    }
  ]
}