{
  "shop/newsagent|Cigo": {
    "countryCodes": ["de", "nl"],
    "tags": {
      "brand": "Cigo",
      "brand:wikidata": "Q62391977",
      "name": "Cigo",
      "shop": "newsagent"
    }
  },
  "shop/newsagent|Hudson": {
    "matchNames": ["hudson news"],
    "tags": {
      "brand": "Hudson",
      "brand:wikidata": "Q5928682",
      "brand:wikipedia": "en:Hudson Group",
      "name": "Hudson",
      "shop": "newsagent"
    }
  },
  "shop/newsagent|Inmedio": {
    "countryCodes": ["hu", "pl", "ro"],
    "tags": {
      "brand": "Inmedio",
      "name": "Inmedio",
      "shop": "newsagent"
    }
  },
  "shop/newsagent|Kolporter": {
    "countryCodes": ["pl"],
    "matchTags": ["shop/kiosk"],
    "tags": {
      "brand": "Kolporter",
      "brand:wikidata": "Q6427874",
      "brand:wikipedia": "pl:Kolporter (przedsiębiorstwo)",
      "name": "Kolporter",
      "shop": "newsagent"
    }
  },
  "shop/newsagent|Mag Presse": {
    "tags": {
      "brand": "Mag Presse",
      "name": "Mag Presse",
      "shop": "newsagent"
    }
  },
  "shop/newsagent|Maison de la Presse": {
    "countryCodes": ["fr"],
    "matchTags": ["shop/books"],
    "tags": {
      "brand": "Maison de la Presse",
      "brand:wikidata": "Q62085960",
      "name": "Maison de la Presse",
      "shop": "newsagent"
    }
  },
  "shop/newsagent|Martin's": {
    "countryCodes": ["gb"],
    "matchTags": ["shop/convenience"],
    "tags": {
      "brand": "Martin's",
      "brand:wikidata": "Q16997477",
      "brand:wikipedia": "en:McColl's",
      "name": "Martin's",
      "shop": "newsagent"
    }
  },
  "shop/newsagent|Primera": {
    "countryCodes": ["nl"],
    "tags": {
      "brand": "Primera",
      "brand:wikidata": "Q2176149",
      "brand:wikipedia": "nl:Primera (winkelketen)",
      "name": "Primera",
      "shop": "newsagent"
    }
  },
  "shop/newsagent|Relay": {
    "matchTags": ["shop/kiosk"],
    "tags": {
      "brand": "Relay",
      "brand:wikidata": "Q3424298",
      "brand:wikipedia": "en:Relay (shop)",
      "name": "Relay",
      "shop": "newsagent"
    }
  },
  "shop/newsagent|WHSmith": {
    "matchTags": [
      "shop/convenience",
      "shop/kiosk",
      "shop/stationery"
    ],
    "nomatch": ["shop/books|WHSmith"],
    "tags": {
      "brand": "WHSmith",
      "brand:wikidata": "Q1548712",
      "brand:wikipedia": "en:WHSmith",
      "name": "WHSmith",
      "shop": "newsagent"
    }
  },
  "shop/newsagent|k kiosk": {
    "countryCodes": ["ch"],
    "nomatch": ["shop/kiosk|k kiosk"],
    "tags": {
      "brand": "k kiosk",
      "brand:wikidata": "Q60381703",
      "brand:wikipedia": "it:K Kiosk",
      "name": "k kiosk",
      "shop": "newsagent"
    }
  },
  "shop/newsagent|Белсоюзпечать": {
    "countryCodes": ["by"],
    "matchTags": ["shop/kiosk"],
    "nomatch": [
      "shop/newsagent|Витебскоблсоюзпечать",
      "shop/newsagent|Союзпечать"
    ],
    "tags": {
      "brand": "Белсоюзпечать",
      "brand:wikidata": "Q67723214",
      "name": "Белсоюзпечать",
      "shop": "newsagent"
    }
  },
  "shop/newsagent|Витебскоблсоюзпечать": {
    "countryCodes": ["by"],
    "matchTags": ["shop/kiosk"],
    "nomatch": [
      "shop/newsagent|Белсоюзпечать",
      "shop/newsagent|Союзпечать"
    ],
    "tags": {
      "brand": "Витебскоблсоюзпечать",
      "brand:wikidata": "Q67723214",
      "name": "Витебскоблсоюзпечать",
      "shop": "newsagent"
    }
  },
  "shop/newsagent|Первая полоса": {
    "countryCodes": ["ru"],
    "tags": {
      "brand": "Первая полоса",
      "brand:wikidata": "Q62736412",
      "name": "Первая полоса",
      "shop": "newsagent"
    }
  },
  "shop/newsagent|Роспечать": {
    "tags": {
      "brand": "Роспечать",
      "name": "Роспечать",
      "shop": "newsagent"
    }
  },
  "shop/newsagent|Союзпечать": {
    "countryCodes": ["ru", "ua"],
    "matchTags": ["shop/kiosk"],
    "nomatch": [
      "shop/newsagent|Белсоюзпечать",
      "shop/newsagent|Витебскоблсоюзпечать"
    ],
    "tags": {
      "brand": "Союзпечать",
      "brand:wikidata": "Q4430611",
      "brand:wikipedia": "ru:Союзпечать",
      "name": "Союзпечать",
      "shop": "newsagent"
    }
  },
  "shop/newsagent|日本経済新聞": {
    "countryCodes": ["jp"],
    "matchNames": ["日経新聞"],
    "tags": {
      "brand": "日本経済新聞",
      "brand:en": "The Nikkei",
      "brand:ja": "日本経済新聞",
      "brand:wikidata": "Q1077694",
      "brand:wikipedia": "ja:日本経済新聞",
      "name": "日本経済新聞",
      "name:en": "The Nikkei",
      "name:ja": "日本経済新聞",
      "shop": "newsagent"
    }
  },
  "shop/newsagent|朝日新聞": {
    "tags": {
      "brand": "朝日新聞",
      "brand:en": "Asahi Shimbun",
      "brand:wikidata": "Q720503",
      "brand:wikipedia": "ja:朝日新聞",
      "name": "朝日新聞",
      "name:en": "Asahi Shimbun",
      "shop": "newsagent"
    }
  },
  "shop/newsagent|毎日新聞": {
    "countryCodes": ["jp"],
    "tags": {
      "brand": "毎日新聞",
      "brand:en": "Mainichi Shimbun",
      "brand:ja": "毎日新聞",
      "brand:wikidata": "Q1136866",
      "brand:wikipedia": "ja:毎日新聞",
      "name": "毎日新聞",
      "name:en": "Mainichi Shimbun",
      "name:ja": "毎日新聞",
      "shop": "newsagent"
    }
  },
  "shop/newsagent|産経新聞": {
    "countryCodes": ["jp"],
    "matchNames": ["サンケイ新聞"],
    "tags": {
      "brand": "産経新聞",
      "brand:en": "Sankei Shimbun",
      "brand:ja": "産経新聞",
      "brand:wikidata": "Q1197261",
      "brand:wikipedia": "ja:産経新聞",
      "name": "産経新聞",
      "name:en": "Sankei Shimbun",
      "name:ja": "産経新聞",
      "shop": "newsagent"
    }
  },
  "shop/newsagent|読売新聞": {
    "countryCodes": ["jp"],
    "tags": {
      "brand": "読売新聞",
      "brand:en": "Yomiuri Shimbun",
      "brand:wikidata": "Q645218",
      "brand:wikipedia": "en:Yomiuri Shimbun",
      "name": "読売新聞",
      "name:en": "Yomiuri Shimbun",
      "shop": "newsagent"
    }
  }
}