{
  "shop/optician|Alain Afflelou": {
    "locationSet": {
      "include": ["be", "ch", "es", "fr", "pt"]
    },
    "tags": {
      "brand": "Alain Afflelou",
      "brand:wikidata": "Q2829511",
      "brand:wikipedia": "fr:Alain Afflelou (entreprise)",
      "name": "Alain Afflelou",
      "shop": "optician"
    }
  },
  "shop/optician|America's Best Contacts & Eyeglasses": {
    "locationSet": {"include": ["us"]},
    "tags": {
      "brand": "America's Best Contacts & Eyeglasses",
      "brand:wikidata": "Q4742504",
      "brand:wikipedia": "en:America's Best Contacts & Eyeglasses",
      "name": "America's Best Contacts & Eyeglasses",
      "shop": "optician",
      "short_name": "America's Best"
    }
  },
  "shop/optician|Apollo-Optik": {
    "locationSet": {"include": ["de"]},
    "nomatch": [
      "amenity/pharmacy|Apollo Pharmacy"
    ],
    "tags": {
      "brand": "Apollo-Optik",
      "brand:wikidata": "Q618940",
      "brand:wikipedia": "de:Apollo-Optik",
      "name": "Apollo-Optik",
      "shop": "optician",
      "short_name": "Apollo"
    }
  },
  "shop/optician|Atol": {
    "locationSet": {"include": ["fr"]},
    "tags": {
      "brand": "Atol",
      "brand:wikidata": "Q2869542",
      "brand:wikipedia": "fr:Atol (opticien)",
      "name": "Atol",
      "shop": "optician"
    }
  },
  "shop/optician|Boots Opticians": {
    "locationSet": {"include": ["gb"]},
    "tags": {
      "brand": "Boots Opticians",
      "brand:wikidata": "Q4944037",
      "brand:wikipedia": "en:Boots Opticians",
      "name": "Boots Opticians",
      "shop": "optician",
      "short_name": "Boots"
    }
  },
  "shop/optician|Clarkson Eyecare": {
    "locationSet": {"include": ["us"]},
    "tags": {
      "brand": "Clarkson Eyecare",
      "brand:wikidata": "Q64027001",
      "healthcare": "optometrist",
      "name": "Clarkson Eyecare",
      "shop": "optician",
      "short_name": "Clarkson"
    }
  },
  "shop/optician|Cohen's Fashion Optical": {
    "locationSet": {"include": ["us"]},
    "matchNames": ["cohen's optical"],
    "tags": {
      "brand": "Cohen's Fashion Optical",
      "brand:wikidata": "Q5141313",
      "brand:wikipedia": "en:Cohen's Fashion Optical",
      "healthcare": "optometrist",
      "name": "Cohen's Fashion Optical",
      "shop": "optician",
      "short_name": "Cohen's"
    }
  },
  "shop/optician|Die Brille": {
    "locationSet": {"include": ["de"]},
    "tags": {
      "brand": "Die Brille",
      "name": "Die Brille",
      "shop": "optician"
    }
  },
  "shop/optician|Eye Wish": {
    "locationSet": {"include": ["nl"]},
    "tags": {
      "brand": "Eye Wish",
      "brand:wikidata": "Q62391641",
      "name": "Eye Wish",
      "shop": "optician"
    }
  },
  "shop/optician|Fielmann": {
    "locationSet": {
      "include": [
        "at",
        "by",
        "ch",
        "de",
        "it",
        "lt",
        "lu",
        "lv",
        "nl",
        "pl",
        "ru",
        "ua"
      ]
    },
    "tags": {
      "brand": "Fielmann",
      "brand:wikidata": "Q457822",
      "brand:wikipedia": "de:Fielmann",
      "name": "Fielmann",
      "shop": "optician"
    }
  },
  "shop/optician|GMO": {
    "locationSet": {
      "include": ["cl", "co", "ec", "pe"]
    },
    "tags": {
      "brand": "GMO",
      "name": "GMO",
      "shop": "optician"
    }
  },
  "shop/optician|General Óptica": {
    "locationSet": {"include": ["es"]},
    "tags": {
      "brand": "General Óptica",
      "brand:wikidata": "Q62391672",
      "name": "General Óptica",
      "shop": "optician"
    }
  },
  "shop/optician|Grand Optical": {
    "locationSet": {"include": ["fr", "sk"]},
    "tags": {
      "brand": "Grand Optical",
      "brand:wikidata": "Q3113677",
      "brand:wikipedia": "fr:Grand Optical",
      "name": "Grand Optical",
      "shop": "optician"
    }
  },
  "shop/optician|Générale d'Optique": {
    "locationSet": {"include": ["fr"]},
    "tags": {
      "brand": "Générale d'Optique",
      "brand:wikidata": "Q62391701",
      "name": "Générale d'Optique",
      "shop": "optician"
    }
  },
  "shop/optician|Hakim Optical": {
    "locationSet": {"include": ["ca"]},
    "tags": {
      "brand": "Hakim Optical",
      "brand:wikidata": "Q28232761",
      "brand:wikipedia": "en:Hakim Optical",
      "name": "Hakim Optical",
      "shop": "optician"
    }
  },
  "shop/optician|Hans Anders": {
    "locationSet": {
      "include": ["be", "fr", "nl"]
    },
    "tags": {
      "brand": "Hans Anders",
      "brand:wikidata": "Q1884976",
      "brand:wikipedia": "nl:Hans Anders",
      "name": "Hans Anders",
      "shop": "optician"
    }
  },
  "shop/optician|Instrumentarium": {
    "locationSet": {"include": ["fi"]},
    "tags": {
      "brand": "Instrumentarium",
      "brand:wikidata": "Q11864937",
      "brand:wikipedia": "fi:Instrumentarium",
      "name": "Instrumentarium",
      "shop": "optician"
    }
  },
  "shop/optician|Krys": {
    "locationSet": {"include": ["fr"]},
    "tags": {
      "brand": "Krys",
      "brand:wikidata": "Q3119538",
      "brand:wikipedia": "fr:Krys Group",
      "name": "Krys",
      "shop": "optician"
    }
  },
  "shop/optician|LensCrafters": {
    "locationSet": {"include": ["ca", "us"]},
    "tags": {
      "brand": "LensCrafters",
      "brand:wikidata": "Q6523209",
      "brand:wikipedia": "en:LensCrafters",
      "name": "LensCrafters",
      "shop": "optician"
    }
  },
  "shop/optician|Lenskart": {
    "locationSet": {"include": ["in"]},
    "tags": {
      "brand": "Lenskart",
      "brand:wikidata": "Q17068753",
      "name": "Lenskart",
      "shop": "optician"
    }
  },
  "shop/optician|Les Opticiens Mutualistes": {
    "locationSet": {"include": ["fr"]},
    "matchNames": ["opticiens mutualistes"],
    "tags": {
      "brand": "Les Opticiens Mutualistes",
      "brand:wikidata": "Q18414551",
      "brand:wikipedia": "fr:Les Opticiens Mutualistes",
      "name": "Les Opticiens Mutualistes",
      "shop": "optician"
    }
  },
  "shop/optician|Lissac": {
    "locationSet": {"include": ["fr"]},
    "tags": {
      "brand": "Lissac",
      "brand:wikidata": "Q63102559",
      "name": "Lissac",
      "shop": "optician"
    }
  },
  "shop/optician|Lynx Optique": {
    "locationSet": {"include": ["fr"]},
    "tags": {
      "brand": "Lynx Optique",
      "brand:wikidata": "Q25387428",
      "brand:wikipedia": "fr:Lynx Optique",
      "name": "Lynx Optique",
      "shop": "optician"
    }
  },
  "shop/optician|Multiópticas~(Portugal)": {
    "locationSet": {"include": ["pt"]},
    "tags": {
      "brand": "Multiópticas",
      "brand:wikidata": "Q62391722",
      "name": "Multiópticas",
      "shop": "optician"
    }
  },
  "shop/optician|Multiópticas~(Spain)": {
    "locationSet": {"include": ["es"]},
    "tags": {
      "brand": "Multiópticas",
      "brand:wikidata": "Q62391719",
      "name": "Multiópticas",
      "shop": "optician"
    }
  },
  "shop/optician|Nissen": {
    "locationSet": {"include": ["fi"]},
    "tags": {
      "brand": "Nissen",
      "name": "Nissen",
      "shop": "optician"
    }
  },
  "shop/optician|Oakley": {
    "locationSet": {"include": ["us"]},
    "matchTags": ["shop/clothes", "shop/sports"],
    "tags": {
      "brand": "Oakley",
      "brand:wikidata": "Q161906",
      "brand:wikipedia": "en:Oakley, Inc.",
      "name": "Oakley",
      "shop": "optician"
    }
  },
  "shop/optician|Oliver Peoples": {
    "locationSet": {"include": ["001"]},
    "tags": {
      "brand": "Oliver Peoples",
      "brand:wikidata": "Q7087746",
      "brand:wikipedia": "en:Oliver Peoples",
      "name": "Oliver Peoples",
      "shop": "optician"
    }
  },
  "shop/optician|Optic 2000": {
    "locationSet": {"include": ["ch", "fr"]},
    "tags": {
      "brand": "Optic 2000",
      "brand:wikidata": "Q3354445",
      "brand:wikipedia": "fr:Optic 2000",
      "name": "Optic 2000",
      "shop": "optician"
    }
  },
  "shop/optician|Optical Center": {
    "locationSet": {"include": ["001"]},
    "tags": {
      "brand": "Optical Center",
      "brand:wikidata": "Q3354448",
      "brand:wikipedia": "fr:Optical Center",
      "name": "Optical Center",
      "shop": "optician"
    }
  },
  "shop/optician|Optical Express": {
    "locationSet": {"include": ["gb"]},
    "tags": {
      "brand": "Optical Express",
      "brand:wikidata": "Q7098810",
      "brand:wikipedia": "en:Optical Express",
      "name": "Optical Express",
      "shop": "optician"
    }
  },
  "shop/optician|Opticalia": {
    "locationSet": {"include": ["001"]},
    "tags": {
      "brand": "Opticalia",
      "brand:wikidata": "Q62082114",
      "name": "Opticalia",
      "shop": "optician"
    }
  },
  "shop/optician|Pearle": {
    "locationSet": {"include": ["be", "nl"]},
    "tags": {
      "brand": "Pearle",
      "brand:wikidata": "Q2231148",
      "brand:wikipedia": "nl:Pearle",
      "name": "Pearle",
      "shop": "optician"
    }
  },
  "shop/optician|Pearle Vision": {
    "locationSet": {"include": ["ca", "us"]},
    "tags": {
      "brand": "Pearle Vision",
      "brand:wikidata": "Q2231148",
      "brand:wikipedia": "en:Pearle Vision",
      "name": "Pearle Vision",
      "shop": "optician",
      "short_name": "Pearle"
    }
  },
  "shop/optician|Scrivens": {
    "locationSet": {"include": ["gb"]},
    "tags": {
      "brand": "Scrivens",
      "brand:wikidata": "Q79424133",
      "name": "Scrivens",
      "shop": "optician"
    }
  },
  "shop/optician|Silmäasema": {
    "locationSet": {"include": ["fi"]},
    "tags": {
      "brand": "Silmäasema",
      "brand:wikidata": "Q15994200",
      "brand:wikipedia": "fi:Silmäasema",
      "name": "Silmäasema",
      "shop": "optician"
    }
  },
  "shop/optician|Solaris": {
    "locationSet": {"include": ["fr"]},
    "tags": {
      "brand": "Solaris",
      "brand:wikidata": "Q3489229",
      "brand:wikipedia": "fr:Solaris (magasin)",
      "name": "Solaris",
      "shop": "optician"
    }
  },
  "shop/optician|Solstice Sunglasses": {
    "locationSet": {"include": ["001"]},
    "tags": {
      "brand": "Solstice Sunglasses",
      "name": "Solstice Sunglasses",
      "shop": "optician",
      "short_name": "Solstice"
    }
  },
  "shop/optician|Specsavers": {
    "locationSet": {"include": ["001"]},
    "tags": {
      "brand": "Specsavers",
      "brand:wikidata": "Q2000610",
      "brand:wikipedia": "en:Specsavers",
      "name": "Specsavers",
      "shop": "optician"
    }
  },
  "shop/optician|Sunglass Hut": {
    "locationSet": {"include": ["001"]},
    "matchTags": ["shop/sunglasses"],
    "tags": {
      "brand": "Sunglass Hut",
      "brand:wikidata": "Q136311",
      "brand:wikipedia": "en:Sunglass Hut",
      "name": "Sunglass Hut",
      "shop": "optician"
    }
  },
  "shop/optician|Synoptik": {
    "locationSet": {"include": ["se"]},
    "tags": {
      "brand": "Synoptik",
      "brand:wikidata": "Q10687541",
      "brand:wikipedia": "sv:Synoptik",
      "name": "Synoptik",
      "shop": "optician"
    }
  },
  "shop/optician|Synsam": {
    "locationSet": {
      "include": ["fi", "no", "se"]
    },
    "tags": {
      "brand": "Synsam",
      "brand:wikidata": "Q12004589",
      "brand:wikipedia": "sv:Synsam",
      "name": "Synsam",
      "shop": "optician"
    }
  },
  "shop/optician|Target Optical": {
    "locationSet": {"include": ["us"]},
    "tags": {
      "brand": "Target Optical",
      "brand:wikidata": "Q19903688",
      "brand:wikipedia": "en:Target Optical",
      "name": "Target Optical",
      "shop": "optician"
    }
  },
  "shop/optician|Vision Express": {
    "locationSet": {"include": ["001"]},
    "tags": {
      "brand": "Vision Express",
      "brand:wikidata": "Q7936150",
      "brand:wikipedia": "en:Vision Express",
      "name": "Vision Express",
      "shop": "optician"
    }
  },
  "shop/optician|Vision Plus": {
    "locationSet": {"include": ["fr"]},
    "tags": {
      "brand": "Vision Plus",
      "brand:wikidata": "Q23752663",
      "name": "Vision Plus",
      "shop": "optician"
    }
  },
  "shop/optician|Visionworks": {
    "locationSet": {"include": ["us"]},
    "tags": {
      "brand": "Visionworks",
      "brand:wikidata": "Q5422607",
      "brand:wikipedia": "en:Visionworks",
      "name": "Visionworks",
      "shop": "optician"
    }
  },
  "shop/optician|Warby Parker": {
    "locationSet": {"include": ["ca", "us"]},
    "tags": {
      "brand": "Warby Parker",
      "brand:wikidata": "Q7968882",
      "brand:wikipedia": "en:Warby Parker",
      "name": "Warby Parker",
      "shop": "optician"
    }
  },
  "shop/optician|Люксоптика": {
    "locationSet": {"include": ["001"]},
    "tags": {
      "brand": "Люксоптика",
      "name": "Люксоптика",
      "shop": "optician"
    }
  },
  "shop/optician|Оптимист Оптика": {
    "locationSet": {"include": ["ru"]},
    "tags": {
      "brand": "Оптимист Оптика",
      "name": "Оптимист Оптика",
      "shop": "optician"
    }
  },
  "shop/optician|Счастливый взгляд": {
    "locationSet": {"include": ["ru"]},
    "tags": {
      "brand": "Счастливый взгляд",
      "name": "Счастливый взгляд",
      "shop": "optician"
    }
  },
  "shop/optician|แว่นท็อปเจริญ": {
    "locationSet": {"include": ["th"]},
    "tags": {
      "brand": "แว่นท็อปเจริญ",
      "brand:th": "แว่นท็อปเจริญ",
      "brand:wikidata": "Q62391732",
      "name": "แว่นท็อปเจริญ",
      "name:th": "แว่นท็อปเจริญ",
      "shop": "optician"
    }
  },
  "shop/optician|ジンズ": {
    "locationSet": {"include": ["jp"]},
    "tags": {
      "brand": "ジンズ",
      "brand:en": "JINS",
      "brand:ja": "ジンズ",
      "brand:wikidata": "Q11308974",
      "brand:wikipedia": "ja:ジンズ",
      "name": "ジンズ",
      "name:en": "JINS",
      "name:ja": "ジンズ",
      "shop": "optician"
    }
  },
  "shop/optician|ゾフ": {
    "locationSet": {"include": ["jp"]},
    "tags": {
      "brand": "ゾフ",
      "brand:en": "Zoff",
      "brand:ja": "ゾフ",
      "brand:wikidata": "Q11255932",
      "brand:wikipedia": "ja:Zoff",
      "name": "ゾフ",
      "name:en": "Zoff",
      "name:ja": "ゾフ",
      "shop": "optician"
    }
  },
  "shop/optician|メガネの三城": {
    "locationSet": {"include": ["jp"]},
    "tags": {
      "alt_name:en": "Megane no Miki",
      "brand": "メガネの三城",
      "brand:en": "Paris Miki",
      "brand:ja": "メガネの三城",
      "brand:wikidata": "Q11354808",
      "brand:wikipedia": "jp:三城ホールディングス",
      "name": "メガネの三城",
      "name:en": "Paris Miki",
      "name:ja": "メガネの三城",
      "shop": "optician"
    }
  },
  "shop/optician|メガネストアー": {
    "locationSet": {"include": ["jp"]},
    "tags": {
      "brand": "メガネストアー",
      "brand:en": "Megane Store",
      "brand:ja": "メガネストアー",
      "brand:wikidata": "Q11343503",
      "brand:wikipedia": "jp:メガネストアー",
      "name": "メガネストアー",
      "name:en": "Megane Store",
      "name:ja": "メガネストアー",
      "shop": "optician"
    }
  },
  "shop/optician|メガネスーパー": {
    "locationSet": {"include": ["jp"]},
    "tags": {
      "brand": "メガネスーパー",
      "brand:en": "Meganesuper",
      "brand:ja": "メガネスーパー",
      "brand:wikidata": "Q11343504",
      "brand:wikipedia": "ja:メガネスーパー",
      "name": "メガネスーパー",
      "name:en": "Meganesuper",
      "name:ja": "メガネスーパー",
      "shop": "optician"
    }
  },
  "shop/optician|メガネドラッグ": {
    "locationSet": {"include": ["jp"]},
    "tags": {
      "brand": "メガネドラッグ",
      "brand:en": "Megane Drug",
      "brand:ja": "メガネドラッグ",
      "brand:wikidata": "Q11343507",
      "brand:wikipedia": "ja:メガネドラッグ",
      "name": "メガネドラッグ",
      "name:en": "Megane Drug",
      "name:ja": "メガネドラッグ",
      "shop": "optician"
    }
  },
  "shop/optician|寶島眼鏡": {
    "locationSet": {"include": ["tw"]},
    "tags": {
      "brand": "寶島眼鏡",
      "brand:wikidata": "Q62391741",
      "name": "寶島眼鏡",
      "shop": "optician"
    }
  },
  "shop/optician|眼鏡市場": {
    "locationSet": {"include": ["jp"]},
    "tags": {
      "brand": "眼鏡市場",
      "brand:en": "Megane Ichiba",
      "brand:wikidata": "Q11343506",
      "brand:wikipedia": "ja:メガネトップ",
      "name": "眼鏡市場",
      "name:en": "Megane Ichiba",
      "shop": "optician"
    }
  }
}