{
  "shop/supermarket|8 à Huit": {
    "locationSet": {"include": ["001"]},
    "nomatch": [
      "amenity/fuel|8 à Huit",
      "shop/convenience|8 à Huit"
    ],
    "tags": {
      "brand": "8 à Huit",
      "brand:wikidata": "Q2818601",
      "brand:wikipedia": "fr:8 à Huit",
      "name": "8 à Huit",
      "shop": "supermarket"
    }
  },
  "shop/supermarket|99 Ranch Market": {
    "locationSet": {"include": ["us"]},
    "matchNames": ["99 ranch", "ranch 99"],
    "tags": {
      "brand": "99 Ranch Market",
      "brand:wikidata": "Q4646307",
      "brand:wikipedia": "en:99 Ranch Market",
      "cuisine": "asian",
      "name": "99 Ranch Market",
      "name:en": "99 Ranch Market",
      "name:zh-Hans": "大华超级市场",
      "name:zh-Hant": "大華超級市場",
      "shop": "supermarket"
    }
  },
  "shop/supermarket|A&O": {
    "locationSet": {"include": ["it"]},
    "tags": {
      "brand": "A&O",
      "brand:wikidata": "Q3600279",
      "brand:wikipedia": "it:A&O",
      "name": "A&O",
      "shop": "supermarket"
    }
  },
  "shop/supermarket|A101": {
    "locationSet": {"include": ["tr"]},
    "tags": {
      "brand": "A101",
      "brand:wikidata": "Q6034496",
      "brand:wikipedia": "tr:A101",
      "name": "A101",
      "shop": "supermarket"
    }
  },
  "shop/supermarket|AD Delhaize": {
    "locationSet": {"include": ["be", "lu"]},
    "tags": {
      "brand": "AD Delhaize",
      "brand:wikidata": "Q1184173",
      "brand:wikipedia": "fr:Delhaize",
      "name": "AD Delhaize",
      "shop": "supermarket"
    }
  },
  "shop/supermarket|ADEG": {
    "locationSet": {"include": ["at"]},
    "tags": {
      "brand": "ADEG",
      "brand:wikidata": "Q290211",
      "brand:wikipedia": "de:ADEG Österreich",
      "name": "ADEG",
      "shop": "supermarket"
    }
  },
  "shop/supermarket|AEON BiG": {
    "locationSet": {"include": ["my"]},
    "tags": {
      "alt_name": "ÆON BiG",
      "brand": "AEON BiG",
      "brand:wikidata": "Q8077280",
      "brand:wikipedia": "ms:ÆON BiG",
      "name": "AEON BiG",
      "shop": "supermarket"
    }
  },
  "shop/supermarket|Acme": {
    "locationSet": {"include": ["us"]},
    "tags": {
      "brand": "Acme",
      "brand:wikidata": "Q341975",
      "brand:wikipedia": "en:Acme Markets",
      "name": "Acme",
      "shop": "supermarket"
    }
  },
  "shop/supermarket|Ahorramás": {
    "locationSet": {"include": ["es"]},
    "tags": {
      "brand": "Ahorramás",
      "brand:wikidata": "Q58221883",
      "name": "Ahorramás",
      "shop": "supermarket"
    }
  },
  "shop/supermarket|Albert": {
    "locationSet": {"include": ["cz"]},
    "tags": {
      "brand": "Albert",
      "brand:wikidata": "Q9144241",
      "brand:wikipedia": "cs:Albert (obchodní řetězec)",
      "name": "Albert",
      "shop": "supermarket"
    }
  },
  "shop/supermarket|Albert Heijn": {
    "locationSet": {"include": ["be", "nl"]},
    "tags": {
      "brand": "Albert Heijn",
      "brand:wikidata": "Q1653985",
      "brand:wikipedia": "nl:Albert Heijn (supermarkt)",
      "name": "Albert Heijn",
      "shop": "supermarket"
    }
  },
  "shop/supermarket|Albert Heijn XL": {
    "locationSet": {"include": ["nl"]},
    "tags": {
      "brand": "Albert Heijn XL",
      "brand:wikidata": "Q78163765",
      "brand:wikipedia": "nl:Albert Heijn (supermarkt)",
      "name": "Albert Heijn XL",
      "shop": "supermarket"
    }
  },
  "shop/supermarket|Albertsons": {
    "locationSet": {"include": ["us"]},
    "matchNames": ["albertsons supermarket"],
    "tags": {
      "brand": "Albertsons",
      "brand:wikidata": "Q4712282",
      "brand:wikipedia": "en:Albertsons",
      "name": "Albertsons",
      "shop": "supermarket"
    }
  },
  "shop/supermarket|Alcampo": {
    "locationSet": {"include": ["es"]},
    "tags": {
      "brand": "Alcampo",
      "brand:wikidata": "Q2832081",
      "brand:wikipedia": "es:Alcampo",
      "name": "Alcampo",
      "shop": "supermarket"
    }
  },
  "shop/supermarket|Aldi": {
    "locationSet": {"include": ["001"]},
    "tags": {
      "brand": "Aldi",
      "brand:wikidata": "Q125054",
      "brand:wikipedia": "en:Aldi",
      "name": "Aldi",
      "shop": "supermarket"
    }
  },
  "shop/supermarket|Aldi Nord": {
    "locationSet": {"include": ["de"]},
    "tags": {
      "brand": "Aldi Nord",
      "brand:wikidata": "Q41171373",
      "brand:wikipedia": "en:Aldi",
      "name": "Aldi Nord",
      "shop": "supermarket"
    }
  },
  "shop/supermarket|Aldi Süd": {
    "locationSet": {"include": ["de"]},
    "tags": {
      "brand": "Aldi Süd",
      "brand:wikidata": "Q41171672",
      "brand:wikipedia": "en:Aldi",
      "name": "Aldi Süd",
      "shop": "supermarket"
    }
  },
  "shop/supermarket|Alfamart": {
    "locationSet": {"include": ["id", "ph"]},
    "matchTags": ["shop/convenience"],
    "tags": {
      "brand": "Alfamart",
      "brand:wikidata": "Q23745600",
      "brand:wikipedia": "en:Alfamart",
      "name": "Alfamart",
      "shop": "supermarket"
    }
  },
  "shop/supermarket|Alimerka": {
    "locationSet": {"include": ["es"]},
    "tags": {
      "brand": "Alimerka",
      "brand:wikidata": "Q16482738",
      "brand:wikipedia": "es:Alimerka",
      "name": "Alimerka",
      "shop": "supermarket"
    }
  },
  "shop/supermarket|Alnatura": {
    "locationSet": {"include": ["ch", "de"]},
    "tags": {
      "brand": "Alnatura",
      "brand:wikidata": "Q876811",
      "brand:wikipedia": "en:Alnatura",
      "name": "Alnatura",
      "organic": "only",
      "shop": "supermarket"
    }
  },
  "shop/supermarket|Alvo": {
    "locationSet": {"include": ["be", "lu"]},
    "tags": {
      "brand": "Alvo",
      "brand:wikidata": "Q16068936",
      "brand:wikipedia": "nl:Alvo (supermarkt)",
      "name": "Alvo",
      "shop": "supermarket"
    }
  },
  "shop/supermarket|Amigo": {
    "locationSet": {"include": ["us"]},
    "matchNames": [
      "amigo puerto rico",
      "amigo supermarket",
      "supermercado amigo"
    ],
    "tags": {
      "alt_name": "Supermercados Amigo",
      "brand": "Amigo",
      "brand:wikidata": "Q4746234",
      "brand:wikipedia": "en:Amigo Supermarkets",
      "name": "Amigo",
      "shop": "supermarket"
    }
  },
  "shop/supermarket|Ara": {
    "locationSet": {"include": ["co"]},
    "tags": {
      "brand": "Ara",
      "brand:wikidata": "Q63148677",
      "brand:wikipedia": "de:Tiendas Ara",
      "name": "Ara",
      "shop": "supermarket"
    }
  },
  "shop/supermarket|Asda": {
    "locationSet": {"include": ["gb"]},
    "nomatch": [
      "amenity/fuel|Asda",
      "shop/houseware|Asda Living"
    ],
    "tags": {
      "brand": "Asda",
      "brand:wikidata": "Q297410",
      "brand:wikipedia": "en:Asda",
      "name": "Asda",
      "shop": "supermarket"
    }
  },
  "shop/supermarket|Assaí Atacadista": {
    "locationSet": {"include": ["br"]},
    "tags": {
      "brand": "Assaí Atacadista",
      "brand:wikidata": "Q28679415",
      "brand:wikipedia": "pt:Assaí Atacadista",
      "name": "Assaí Atacadista",
      "shop": "supermarket"
    }
  },
  "shop/supermarket|Atacadão": {
    "locationSet": {"include": ["br"]},
    "tags": {
      "brand": "Atacadão",
      "brand:wikidata": "Q2868739",
      "brand:wikipedia": "en:Atacadão",
      "name": "Atacadão",
      "shop": "supermarket"
    }
  },
  "shop/supermarket|Auchan": {
    "locationSet": {"include": ["001"]},
    "nomatch": ["amenity/fuel|Auchan"],
    "tags": {
      "brand": "Auchan",
      "brand:wikidata": "Q758603",
      "brand:wikipedia": "en:Auchan",
      "name": "Auchan",
      "shop": "supermarket"
    }
  },
  "shop/supermarket|Auchan Drive": {
    "locationSet": {"include": ["fr", "lu"]},
    "tags": {
      "brand": "Auchan Drive",
      "brand:wikidata": "Q2870659",
      "brand:wikipedia": "fr:Auchan Drive",
      "name": "Auchan Drive",
      "shop": "supermarket"
    }
  },
  "shop/supermarket|BI-LO": {
    "locationSet": {"include": ["us"]},
    "tags": {
      "brand": "BI-LO",
      "brand:wikidata": "Q4835620",
      "brand:wikipedia": "en:BI-LO (United States)",
      "name": "BI-LO",
      "shop": "supermarket"
    }
  },
  "shop/supermarket|BM": {
    "locationSet": {"include": ["es"]},
    "tags": {
      "brand": "BM",
      "brand:wikidata": "Q62073462",
      "name": "BM",
      "shop": "supermarket"
    }
  },
  "shop/supermarket|Bashas'": {
    "locationSet": {"include": ["us"]},
    "tags": {
      "brand": "Bashas'",
      "brand:wikidata": "Q4866786",
      "brand:wikipedia": "en:Bashas'",
      "name": "Bashas'",
      "shop": "supermarket"
    }
  },
  "shop/supermarket|Biedronka": {
    "locationSet": {"include": ["pl"]},
    "tags": {
      "brand": "Biedronka",
      "brand:wikidata": "Q857182",
      "brand:wikipedia": "pl:Biedronka (sieć handlowa)",
      "name": "Biedronka",
      "shop": "supermarket"
    }
  },
  "shop/supermarket|Big Bazaar": {
    "locationSet": {"include": ["in"]},
    "tags": {
      "brand": "Big Bazaar",
      "brand:wikidata": "Q3631008",
      "brand:wikipedia": "en:Big Bazaar",
      "name": "Big Bazaar",
      "shop": "supermarket"
    }
  },
  "shop/supermarket|Big C": {
    "locationSet": {"include": ["th", "vn"]},
    "tags": {
      "brand": "Big C",
      "brand:wikidata": "Q858665",
      "brand:wikipedia": "en:Big C",
      "name": "Big C",
      "shop": "supermarket"
    }
  },
  "shop/supermarket|Big Market": {
    "locationSet": {"include": ["al"]},
    "tags": {
      "brand": "Big Market",
      "brand:wikidata": "Q28135235",
      "brand:wikipedia": "sq:Big Market",
      "name": "Big Market",
      "shop": "supermarket"
    }
  },
  "shop/supermarket|Big-A": {
    "locationSet": {"include": ["jp"]},
    "tags": {
      "brand": "Big-A",
      "brand:en": "Big-A",
      "brand:ja": "ビッグ・エー",
      "brand:wikidata": "Q11330804",
      "brand:wikipedia": "jp:ビッグ・エー",
      "name": "Big-A",
      "name:en": "Big-A",
      "name:ja": "ビッグ・エー",
      "shop": "supermarket"
    }
  },
  "shop/supermarket|Billa": {
    "locationSet": {"include": ["001"]},
    "tags": {
      "brand": "Billa",
      "brand:wikidata": "Q537781",
      "brand:wikipedia": "en:Billa (supermarket)",
      "name": "Billa",
      "shop": "supermarket"
    }
  },
  "shop/supermarket|Bim": {
    "locationSet": {"include": ["ma", "tr"]},
    "tags": {
      "brand": "Bim",
      "brand:wikidata": "Q1022075",
      "brand:wikipedia": "en:Bim (company)",
      "name": "Bim",
      "shop": "supermarket"
    }
  },
  "shop/supermarket|Bingo": {
    "locationSet": {"include": ["ba"]},
    "tags": {
      "brand": "Bingo",
      "brand:wikidata": "Q16842066",
      "brand:wikipedia": "bs:Bingo (kompanija)",
      "name": "Bingo",
      "shop": "supermarket"
    }
  },
  "shop/supermarket|Bio C' Bon": {
    "locationSet": {
      "include": ["es", "fr", "jp"]
    },
    "tags": {
      "brand": "Bio C' Bon",
      "brand:wikidata": "Q54312551",
      "brand:wikipedia": "fr:Bio c'bon",
      "name": "Bio C' Bon",
      "shop": "supermarket"
    }
  },
  "shop/supermarket|Bio Company": {
    "locationSet": {"include": ["de"]},
    "tags": {
      "brand": "Bio Company",
      "brand:wikidata": "Q864179",
      "brand:wikipedia": "de:Bio Company",
      "name": "Bio Company",
      "organic": "only",
      "shop": "supermarket"
    }
  },
  "shop/supermarket|Biocoop": {
    "locationSet": {"include": ["fr"]},
    "tags": {
      "brand": "Biocoop",
      "brand:wikidata": "Q2904039",
      "brand:wikipedia": "fr:Biocoop",
      "name": "Biocoop",
      "shop": "supermarket"
    }
  },
  "shop/supermarket|Bodega Aurrera": {
    "locationSet": {"include": ["mx"]},
    "nomatch": [
      "shop/convenience|Bodega Aurrera Express"
    ],
    "tags": {
      "brand": "Bodega Aurrera",
      "brand:wikidata": "Q3365858",
      "brand:wikipedia": "en:Bodega Aurrerá",
      "name": "Bodega Aurrera",
      "shop": "supermarket"
    }
  },
  "shop/supermarket|BonArea": {
    "locationSet": {"include": ["es"]},
    "tags": {
      "brand": "Bon Area",
      "brand:wikidata": "Q11924743",
      "brand:wikipedia": "ca:Grup Alimentari Guissona",
      "name": "Bon Area",
      "shop": "supermarket"
    }
  },
  "shop/supermarket|Bonpreu": {
    "locationSet": {"include": ["es"]},
    "tags": {
      "brand": "Bonpreu",
      "brand:wikidata": "Q11924747",
      "brand:wikipedia": "ca:Grup Bon Preu",
      "name": "Bonpreu",
      "shop": "supermarket"
    }
  },
  "shop/supermarket|Booths": {
    "locationSet": {"include": ["gb"]},
    "tags": {
      "brand": "Booths",
      "brand:wikidata": "Q4943949",
      "brand:wikipedia": "en:Booths",
      "name": "Booths",
      "shop": "supermarket"
    }
  },
  "shop/supermarket|Bravo": {
    "locationSet": {"include": ["us"]},
    "tags": {
      "brand": "Bravo",
      "brand:wikidata": "Q16985159",
      "brand:wikipedia": "en:Bravo (supermarket)",
      "name": "Bravo",
      "shop": "supermarket"
    }
  },
  "shop/supermarket|Brookshire Brothers": {
    "locationSet": {"include": ["us"]},
    "tags": {
      "brand": "Brookshire Brothers",
      "brand:wikidata": "Q4975084",
      "brand:wikipedia": "en:Brookshire Brothers",
      "name": "Brookshire Brothers",
      "shop": "supermarket"
    }
  },
  "shop/supermarket|Brookshire's": {
    "locationSet": {"include": ["us"]},
    "tags": {
      "brand": "Brookshire's",
      "brand:wikidata": "Q4975085",
      "brand:wikipedia": "en:Brookshire Grocery Company",
      "name": "Brookshire's",
      "shop": "supermarket"
    }
  },
  "shop/supermarket|Budgens": {
    "locationSet": {"include": ["gb"]},
    "nomatch": ["shop/convenience|Budgens"],
    "tags": {
      "brand": "Budgens",
      "brand:wikidata": "Q4985016",
      "brand:wikipedia": "en:Budgens",
      "name": "Budgens",
      "shop": "supermarket"
    }
  },
  "shop/supermarket|Bulk Barn": {
    "locationSet": {"include": ["ca"]},
    "tags": {
      "brand": "Bulk Barn",
      "brand:wikidata": "Q4996466",
      "name": "Bulk Barn",
      "shop": "supermarket"
    }
  },
  "shop/supermarket|Bunnpris": {
    "locationSet": {"include": ["no"]},
    "tags": {
      "brand": "Bunnpris",
      "brand:wikidata": "Q1774634",
      "brand:wikipedia": "en:Bunnpris",
      "name": "Bunnpris",
      "shop": "supermarket"
    }
  },
  "shop/supermarket|Bónus": {
    "locationSet": {"include": ["fo", "is"]},
    "tags": {
      "brand": "Bónus",
      "brand:wikidata": "Q3480158",
      "brand:wikipedia": "en:Bónus",
      "name": "Bónus",
      "shop": "supermarket"
    }
  },
  "shop/supermarket|C-Town Supermarkets": {
    "locationSet": {"include": ["us"]},
    "tags": {
      "brand": "C-Town Supermarkets",
      "brand:wikidata": "Q5005929",
      "brand:wikipedia": "en:C-Town Supermarkets",
      "name": "C-Town",
      "shop": "supermarket"
    }
  },
  "shop/supermarket|CAP-Markt": {
    "locationSet": {"include": ["de"]},
    "matchNames": ["cap"],
    "tags": {
      "brand": "CAP",
      "brand:wikidata": "Q1022827",
      "brand:wikipedia": "de:CAP (Markt)",
      "name": "CAP-Markt",
      "shop": "supermarket"
    }
  },
  "shop/supermarket|CBA": {
    "locationSet": {"include": ["001"]},
    "nomatch": ["shop/convenience|CBA"],
    "tags": {
      "brand": "CBA",
      "brand:wikidata": "Q779845",
      "brand:wikipedia": "en:CBA (food retail)",
      "name": "CBA",
      "shop": "supermarket"
    }
  },
  "shop/supermarket|COOP Jednota": {
    "locationSet": {"include": ["cz", "sk"]},
    "matchNames": ["jednota"],
    "nomatch": ["shop/convenience|COOP Jednota"],
    "tags": {
      "brand": "COOP Jednota",
      "brand:wikidata": "Q41629254",
      "brand:wikipedia": "sk:COOP Jednota Slovensko",
      "name": "COOP Jednota",
      "shop": "supermarket"
    }
  },
  "shop/supermarket|Cactus": {
    "locationSet": {"include": ["lu"]},
    "tags": {
      "brand": "Cactus",
      "brand:wikidata": "Q466918",
      "brand:wikipedia": "lb:Cactus",
      "name": "Cactus",
      "shop": "supermarket"
    }
  },
  "shop/supermarket|Caprabo": {
    "locationSet": {"include": ["ad", "es"]},
    "tags": {
      "brand": "Caprabo",
      "brand:wikidata": "Q1980781",
      "brand:wikipedia": "en:Caprabo",
      "name": "Caprabo",
      "shop": "supermarket"
    }
  },
  "shop/supermarket|Cardenas": {
    "locationSet": {"include": ["us"]},
    "matchNames": [
      "mi pueblo",
      "mi pueblo food center"
    ],
    "tags": {
      "brand": "Cardenas",
      "brand:wikidata": "Q64149543",
      "brand:wikipedia": "en:Cardenas (supermarket)",
      "cuisine": "latin_american",
      "name": "Cardenas",
      "shop": "supermarket"
    }
  },
  "shop/supermarket|Cargills Food City~(Sri Lanka)": {
    "locationSet": {"include": ["lk"]},
    "nomatch": [
      "shop/supermarket|Food City~(USA)"
    ],
    "tags": {
      "brand": "Cargills Food City",
      "brand:wikidata": "Q58353955",
      "name": "Cargills Food City",
      "shop": "supermarket"
    }
  },
  "shop/supermarket|Carrefour": {
    "locationSet": {"include": ["001"]},
    "nomatch": [
      "amenity/fuel|Carrefour",
      "shop/convenience|Carrefour Express"
    ],
    "tags": {
      "brand": "Carrefour",
      "brand:wikidata": "Q217599",
      "brand:wikipedia": "fr:Carrefour (enseigne)",
      "name": "Carrefour",
      "shop": "supermarket"
    }
  },
  "shop/supermarket|Carrefour City": {
    "locationSet": {"include": ["be", "fr"]},
    "matchTags": ["shop/convenience"],
    "tags": {
      "brand": "Carrefour City",
      "brand:wikidata": "Q2940187",
      "brand:wikipedia": "fr:Carrefour City",
      "name": "Carrefour City",
      "shop": "supermarket"
    }
  },
  "shop/supermarket|Carrefour Contact": {
    "locationSet": {"include": ["fr"]},
    "tags": {
      "brand": "Carrefour Contact",
      "brand:wikidata": "Q2940188",
      "brand:wikipedia": "fr:Carrefour Contact",
      "name": "Carrefour Contact",
      "shop": "supermarket"
    }
  },
  "shop/supermarket|Carrefour Market": {
    "locationSet": {"include": ["001"]},
    "tags": {
      "brand": "Carrefour Market",
      "brand:wikidata": "Q2689639",
      "brand:wikipedia": "fr:Carrefour Market",
      "name": "Carrefour Market",
      "shop": "supermarket"
    }
  },
  "shop/supermarket|Carulla": {
    "locationSet": {"include": ["co"]},
    "tags": {
      "brand": "Carulla",
      "brand:wikidata": "Q5047480",
      "brand:wikipedia": "en:Carulla",
      "name": "Carulla",
      "shop": "supermarket"
    }
  },
  "shop/supermarket|Casino": {
    "locationSet": {"include": ["fr"]},
    "nomatch": [
      "amenity/fuel|Casino",
      "shop/convenience|Casino Shop",
      "shop/convenience|Le Petit Casino",
      "shop/supermarket|Géant Casino"
    ],
    "tags": {
      "brand": "Casino",
      "brand:wikidata": "Q89029184",
      "name": "Casino",
      "shop": "supermarket"
    }
  },
  "shop/supermarket|Centra": {
    "locationSet": {"include": ["001"]},
    "tags": {
      "brand": "Centra",
      "name": "Centra",
      "shop": "supermarket"
    }
  },
  "shop/supermarket|Centre Commercial E. Leclerc": {
    "locationSet": {"include": ["fr", "pl"]},
    "tags": {
      "brand": "Centre Commercial E. Leclerc",
      "brand:wikidata": "Q1273376",
      "brand:wikipedia": "fr:E.Leclerc",
      "name": "Centre Commercial E. Leclerc",
      "shop": "supermarket"
    }
  },
  "shop/supermarket|Charter": {
    "locationSet": {"include": ["es"]},
    "tags": {
      "brand": "Charter",
      "brand:wikidata": "Q95916752",
      "name": "Charter",
      "shop": "supermarket"
    }
  },
  "shop/supermarket|Chata Polska": {
    "locationSet": {"include": ["pl"]},
    "nomatch": ["shop/convenience|Chata Polska"],
    "tags": {
      "brand": "Chata Polska",
      "brand:wikidata": "Q61994406",
      "name": "Chata Polska",
      "shop": "supermarket"
    }
  },
  "shop/supermarket|Checkers": {
    "locationSet": {
      "include": ["bw", "na", "za"]
    },
    "nomatch": ["amenity/fast_food|Checkers"],
    "tags": {
      "brand": "Checkers",
      "brand:wikidata": "Q5089126",
      "brand:wikipedia": "en:Checkers (supermarket chain)",
      "name": "Checkers",
      "shop": "supermarket"
    }
  },
  "shop/supermarket|Chedraui": {
    "locationSet": {"include": ["mx"]},
    "tags": {
      "brand": "Chedraui",
      "brand:wikidata": "Q2961952",
      "brand:wikipedia": "en:Chedraui",
      "name": "Chedraui",
      "shop": "supermarket"
    }
  },
  "shop/supermarket|Choppies": {
    "locationSet": {"include": ["001"]},
    "tags": {
      "brand": "Choppies",
      "name": "Choppies",
      "shop": "supermarket"
    }
  },
  "shop/supermarket|City Market": {
    "locationSet": {"include": ["001"]},
    "tags": {
      "brand": "City Market",
      "brand:wikidata": "Q5123299",
      "brand:wikipedia": "en:City Market (US grocery store chain)",
      "name": "City Market",
      "shop": "supermarket"
    }
  },
  "shop/supermarket|Co-op Food": {
    "locationSet": {"include": ["gb"]},
    "matchNames": [
      "coop",
      "cooperative food",
      "the co-operative food",
      "the cooperative"
    ],
    "nomatch": [
      "amenity/fuel|Co-op~(Canada)",
      "shop/convenience|Co-op Food",
      "shop/convenience|Co-op~(Canada)",
      "shop/convenience|Coop~(Schweiz)",
      "shop/supermarket|Co-op~(Canada)",
      "shop/supermarket|Coop~(Schweiz)"
    ],
    "tags": {
      "brand": "Co-op Food",
      "brand:wikidata": "Q3277439",
      "brand:wikipedia": "en:Co-op Food",
      "name": "Co-op Food",
      "shop": "supermarket"
    }
  },
  "shop/supermarket|Co-op~(Canada)": {
    "locationSet": {"include": ["ca"]},
    "nomatch": [
      "amenity/fuel|Co-op~(Canada)",
      "shop/convenience|Co-op Food",
      "shop/convenience|Co-op~(Canada)",
      "shop/convenience|Coop~(Schweiz)",
      "shop/supermarket|Co-op Food",
      "shop/supermarket|Coop~(Schweiz)"
    ],
    "tags": {
      "brand": "Federated Co-operatives",
      "brand:wikidata": "Q5440676",
      "brand:wikipedia": "en:Federated Co-operatives",
      "name": "Co-op",
      "shop": "supermarket"
    }
  },
  "shop/supermarket|Coccinelle Express": {
    "locationSet": {"include": ["fr"]},
    "tags": {
      "brand": "Coccinelle Express",
      "brand:wikidata": "Q90020479",
      "name": "Coccinelle Express",
      "shop": "supermarket"
    }
  },
  "shop/supermarket|Coccinelle Supermarché": {
    "locationSet": {"include": ["fr"]},
    "tags": {
      "brand": "Coccinelle Supermarché",
      "brand:wikidata": "Q90020459",
      "name": "Coccinelle Supermarché",
      "shop": "supermarket"
    }
  },
  "shop/supermarket|Coles": {
    "locationSet": {"include": ["au", "gb"]},
    "nomatch": [
      "amenity/fuel|Coles Express",
      "shop/books|Coles",
      "shop/convenience|Coles Express"
    ],
    "tags": {
      "brand": "Coles",
      "brand:wikidata": "Q1108172",
      "brand:wikipedia": "en:Coles Supermarkets",
      "name": "Coles",
      "shop": "supermarket"
    }
  },
  "shop/supermarket|Colruyt": {
    "locationSet": {
      "include": ["be", "fr", "lu"]
    },
    "tags": {
      "brand": "Colruyt",
      "brand:wikidata": "Q2363991",
      "brand:wikipedia": "en:Colruyt (supermarket)",
      "name": "Colruyt",
      "shop": "supermarket"
    }
  },
  "shop/supermarket|Combi": {
    "locationSet": {"include": ["de"]},
    "tags": {
      "brand": "Combi",
      "brand:wikidata": "Q1113618",
      "brand:wikipedia": "de:Combi (Einkaufsmarkt)",
      "name": "Combi",
      "shop": "supermarket"
    }
  },
  "shop/supermarket|Comercial Mexicana": {
    "locationSet": {"include": ["mx"]},
    "tags": {
      "brand": "Comercial Mexicana",
      "brand:wikidata": "Q2985173",
      "brand:wikipedia": "es:Comercial Mexicana",
      "name": "Comercial Mexicana",
      "shop": "supermarket"
    }
  },
  "shop/supermarket|Conad": {
    "locationSet": {"include": ["al", "it"]},
    "tags": {
      "brand": "Conad",
      "brand:wikidata": "Q639075",
      "brand:wikipedia": "it:Conad",
      "name": "Conad",
      "shop": "supermarket"
    }
  },
  "shop/supermarket|Conad City": {
    "locationSet": {"include": ["it"]},
    "tags": {
      "brand": "Conad City",
      "brand:wikidata": "Q57543102",
      "name": "Conad City",
      "shop": "supermarket"
    }
  },
  "shop/supermarket|Conad Superstore": {
    "locationSet": {"include": ["001"]},
    "tags": {
      "brand": "Conad Superstore",
      "name": "Conad Superstore",
      "shop": "supermarket"
    }
  },
  "shop/supermarket|Condis": {
    "locationSet": {"include": ["es"]},
    "tags": {
      "brand": "Condis",
      "brand:wikidata": "Q57417581",
      "name": "Condis",
      "shop": "supermarket"
    }
  },
  "shop/supermarket|Consum": {
    "locationSet": {"include": ["es"]},
    "tags": {
      "brand": "Consum",
      "brand:wikidata": "Q8350308",
      "brand:wikipedia": "es:Consum",
      "name": "Consum",
      "shop": "supermarket"
    }
  },
  "shop/supermarket|Continente": {
    "locationSet": {"include": ["pt"]},
    "tags": {
      "brand": "Continente",
      "brand:wikidata": "Q2995683",
      "brand:wikipedia": "en:Continente (Supermarket)",
      "name": "Continente",
      "shop": "supermarket"
    }
  },
  "shop/supermarket|Coop Eesti": {
    "locationSet": {"include": ["ee"]},
    "tags": {
      "brand": "Coop Eesti",
      "brand:wikidata": "Q12361460",
      "brand:wikipedia": "ee:Coop Eesti",
      "name": "Coop",
      "shop": "supermarket"
    }
  },
  "shop/supermarket|Coop Konsum": {
    "locationSet": {"include": ["se"]},
    "tags": {
      "brand": "Coop Konsum",
      "name": "Coop Konsum",
      "shop": "supermarket"
    }
  },
  "shop/supermarket|Coop Prix": {
    "locationSet": {"include": ["no"]},
    "tags": {
      "brand": "Coop Prix",
      "brand:wikidata": "Q5167705",
      "brand:wikipedia": "no:Coop Prix",
      "name": "Coop Prix",
      "shop": "supermarket"
    }
  },
  "shop/supermarket|Cooperativa Obrera": {
    "locationSet": {"include": ["ar"]},
    "tags": {
      "brand": "Cooperativa Obrera",
      "name": "Cooperativa Obrera",
      "shop": "supermarket"
    }
  },
  "shop/supermarket|Coop~(Schweiz)": {
    "locationSet": {"include": ["ch"]},
    "nomatch": [
      "amenity/fuel|Co-op~(Canada)",
      "shop/convenience|Co-op Food",
      "shop/convenience|Co-op~(Canada)",
      "shop/convenience|Coop~(Schweiz)",
      "shop/supermarket|Co-op Food",
      "shop/supermarket|Co-op~(Canada)"
    ],
    "tags": {
      "brand": "Coop",
      "brand:wikidata": "Q432564",
      "brand:wikipedia": "de:Coop (Schweiz)",
      "name": "Coop",
      "shop": "supermarket"
    }
  },
  "shop/supermarket|Cora": {
    "locationSet": {
      "include": ["be", "fr", "lu", "ro"]
    },
    "nomatch": [
      "amenity/restaurant|Cora~(Quebec)",
      "amenity/restaurant|Cora~(non-Quebec)"
    ],
    "tags": {
      "brand": "Cora",
      "brand:wikidata": "Q686643",
      "brand:wikipedia": "en:Cora (hypermarket)",
      "name": "Cora",
      "shop": "supermarket"
    }
  },
  "shop/supermarket|Costcutter": {
    "locationSet": {"include": ["001"]},
    "matchNames": ["costcutters"],
    "nomatch": ["shop/convenience|Costcutter"],
    "tags": {
      "brand": "Costcutter",
      "brand:wikidata": "Q5175072",
      "brand:wikipedia": "en:Costcutter",
      "name": "Costcutter",
      "shop": "supermarket"
    }
  },
  "shop/supermarket|Coto": {
    "locationSet": {"include": ["ar"]},
    "tags": {
      "brand": "Coto",
      "brand:wikidata": "Q5175411",
      "brand:wikipedia": "es:Coto (supermercado)",
      "name": "Coto",
      "shop": "supermarket"
    }
  },
  "shop/supermarket|Countdown": {
    "locationSet": {"include": ["nz"]},
    "tags": {
      "brand": "Countdown",
      "brand:wikidata": "Q5176845",
      "brand:wikipedia": "en:Countdown (supermarket)",
      "name": "Countdown",
      "shop": "supermarket"
    }
  },
  "shop/supermarket|Covirán": {
    "locationSet": {"include": ["es", "pt"]},
    "tags": {
      "brand": "Covirán",
      "brand:wikidata": "Q61070539",
      "brand:wikipedia": "eu:Covirán",
      "name": "Covirán",
      "name:pt": "Coviran",
      "shop": "supermarket"
    }
  },
  "shop/supermarket|Crai": {
    "locationSet": {"include": ["ch", "it"]},
    "tags": {
      "brand": "Crai",
      "name": "Crai",
      "shop": "supermarket"
    }
  },
  "shop/supermarket|Cub Foods": {
    "locationSet": {"include": ["us"]},
    "tags": {
      "brand": "Cub Foods",
      "brand:wikidata": "Q5191916",
      "brand:wikipedia": "en:Cub Foods",
      "name": "Cub Foods",
      "shop": "supermarket"
    }
  },
  "shop/supermarket|Côté Nature": {
    "locationSet": {"include": ["fr"]},
    "tags": {
      "brand": "Côté Nature",
      "brand:wikidata": "Q90016283",
      "name": "Côté Nature",
      "organic": "only",
      "shop": "supermarket"
    }
  },
  "shop/supermarket|D'Agostino": {
    "locationSet": {"include": ["us"]},
    "tags": {
      "brand": "D'Agostino",
      "brand:wikidata": "Q20656844",
      "brand:wikipedia": "en:D'Agostino Supermarkets",
      "name": "D'Agostino",
      "shop": "supermarket"
    }
  },
  "shop/supermarket|D1": {
    "locationSet": {"include": ["co"]},
    "tags": {
      "brand": "D1",
      "brand:wikidata": "Q43403418",
      "brand:wikipedia": "es:Tiendas D1",
      "name": "D1",
      "shop": "supermarket"
    }
  },
  "shop/supermarket|Dagli'Brugsen": {
    "locationSet": {"include": ["dk"]},
    "tags": {
      "brand": "Dagli'Brugsen",
      "brand:wikidata": "Q12307017",
      "brand:wikipedia": "en:Dagli'Brugsen",
      "name": "Dagli'Brugsen",
      "shop": "supermarket"
    }
  },
  "shop/supermarket|Decò": {
    "locationSet": {"include": ["it"]},
    "tags": {
      "brand": "Decò",
      "brand:wikidata": "Q65127915",
      "brand:wikipedia": "it:Decò",
      "name": "Decò",
      "shop": "supermarket"
    }
  },
  "shop/supermarket|Deen": {
    "locationSet": {"include": ["nl"]},
    "tags": {
      "brand": "Deen",
      "brand:wikidata": "Q13571727",
      "brand:wikipedia": "nl:Deen (supermarkt)",
      "name": "Deen",
      "shop": "supermarket"
    }
  },
  "shop/supermarket|Delhaize": {
    "locationSet": {"include": ["be", "lu"]},
    "tags": {
      "brand": "Delhaize",
      "brand:wikidata": "Q1184173",
      "brand:wikipedia": "fr:Delhaize",
      "name": "Delhaize",
      "shop": "supermarket"
    }
  },
  "shop/supermarket|Delikatesy Centrum": {
    "locationSet": {"include": ["pl"]},
    "nomatch": [
      "shop/convenience|Delikatesy Centrum"
    ],
    "tags": {
      "brand": "Delikatesy Centrum",
      "brand:wikidata": "Q11693824",
      "brand:wikipedia": "pl:Delikatesy Centrum",
      "name": "Delikatesy Centrum",
      "shop": "supermarket"
    }
  },
  "shop/supermarket|Denner": {
    "locationSet": {"include": ["ch", "li"]},
    "tags": {
      "brand": "Denner",
      "brand:wikidata": "Q379911",
      "brand:wikipedia": "en:Denner (supermarket)",
      "name": "Denner",
      "shop": "supermarket"
    }
  },
  "shop/supermarket|Despar": {
    "locationSet": {"include": ["it"]},
    "tags": {
      "brand": "Spar",
      "brand:wikidata": "Q610492",
      "brand:wikipedia": "en:Spar (retailer)",
      "name": "Despar",
      "shop": "supermarket"
    }
  },
  "shop/supermarket|Despensa Familiar": {
    "locationSet": {
      "include": ["gt", "hn", "sv"]
    },
    "tags": {
      "brand": "Despensa Familiar",
      "brand:wikidata": "Q61994849",
      "name": "Despensa Familiar",
      "shop": "supermarket"
    }
  },
  "shop/supermarket|Dia": {
    "locationSet": {"include": ["001"]},
    "matchNames": ["supermercado dia"],
    "tags": {
      "brand": "Dia",
      "brand:wikidata": "Q925132",
      "brand:wikipedia": "es:Supermercados DIA",
      "name": "Dia",
      "shop": "supermarket"
    }
  },
  "shop/supermarket|Dia Market": {
    "locationSet": {"include": ["001"]},
    "tags": {
      "brand": "Dia Market",
      "brand:wikidata": "Q925132",
      "brand:wikipedia": "es:Supermercados DIA",
      "name": "Dia Market",
      "shop": "supermarket"
    }
  },
  "shop/supermarket|Dierbergs": {
    "locationSet": {"include": ["us"]},
    "tags": {
      "brand": "Dierbergs",
      "brand:wikidata": "Q5274978",
      "brand:wikipedia": "en:Dierbergs Markets",
      "name": "Dierbergs",
      "shop": "supermarket"
    }
  },
  "shop/supermarket|Dino": {
    "locationSet": {"include": ["pl"]},
    "tags": {
      "brand": "Dino",
      "brand:wikidata": "Q11694239",
      "brand:wikipedia": "pl:Dino Polska",
      "name": "Dino",
      "shop": "supermarket"
    }
  },
  "shop/supermarket|Dirk van den Broek": {
    "locationSet": {"include": ["nl"]},
    "tags": {
      "brand": "Dirk van den Broek",
      "brand:wikidata": "Q17502722",
      "brand:wikipedia": "en:Dirk (supermarket)",
      "name": "Dirk van den Broek",
      "shop": "supermarket"
    }
  },
  "shop/supermarket|Disco~(Argentina)": {
    "locationSet": {"include": ["ar"]},
    "tags": {
      "brand": "Disco",
      "brand:wikidata": "Q6135978",
      "brand:wikipedia": "es:Disco (supermercado de Argentina)",
      "name": "Disco",
      "shop": "supermarket"
    }
  },
  "shop/supermarket|Disco~(Uruguay)": {
    "locationSet": {"include": ["uy"]},
    "tags": {
      "brand": "Disco",
      "brand:wikidata": "Q16636819",
      "brand:wikipedia": "es:Disco (supermercado de Uruguay)",
      "name": "Disco",
      "shop": "supermarket"
    }
  },
  "shop/supermarket|Diska": {
    "locationSet": {"include": ["de"]},
    "tags": {
      "brand": "Diska",
      "brand:wikidata": "Q62390177",
      "name": "Diska",
      "shop": "supermarket"
    }
  },
  "shop/supermarket|Dollar General Market": {
    "locationSet": {"include": ["us"]},
    "matchTags": [
      "shop/convenience",
      "shop/variet_store"
    ],
    "nomatch": [
      "amenity/bank|Dollar Bank",
      "amenity/car_rental|Dollar",
      "shop/variety_store|Dollar General",
      "shop/variety_store|Dollar Tree",
      "shop/variety_store|Dollarama",
      "shop/variety_store|Family Dollar"
    ],
    "tags": {
      "brand": "Dollar General Market",
      "brand:wikidata": "Q145168",
      "brand:wikipedia": "en:Dollar General",
      "name": "Dollar General Market",
      "shop": "supermarket"
    }
  },
  "shop/supermarket|Dunnes Stores": {
    "locationSet": {"include": ["gb", "ie"]},
    "tags": {
      "brand": "Dunnes Stores",
      "brand:wikidata": "Q1266203",
      "brand:wikipedia": "en:Dunnes Stores",
      "name": "Dunnes Stores",
      "shop": "supermarket"
    }
  },
  "shop/supermarket|E-Center": {
    "locationSet": {"include": ["de"]},
    "tags": {
      "brand": "E-Center",
      "brand:wikidata": "Q701755",
      "brand:wikipedia": "de:Edeka",
      "name": "E-Center",
      "shop": "supermarket"
    }
  },
  "shop/supermarket|E. Leclerc": {
    "locationSet": {
      "include": ["es", "fr", "pl", "pt"]
    },
    "tags": {
      "brand": "E. Leclerc",
      "brand:wikidata": "Q1273376",
      "brand:wikipedia": "en:E.Leclerc",
      "name": "E. Leclerc",
      "shop": "supermarket"
    }
  },
  "shop/supermarket|E. Leclerc Drive": {
    "locationSet": {"include": ["fr"]},
    "matchNames": ["leclerc drive"],
    "tags": {
      "brand": "E. Leclerc Drive",
      "brand:wikidata": "Q1273376",
      "brand:wikipedia": "fr:E.Leclerc",
      "name": "E. Leclerc Drive",
      "shop": "supermarket"
    }
  },
  "shop/supermarket|EMTÉ": {
    "locationSet": {"include": ["nl"]},
    "tags": {
      "brand": "EMTÉ",
      "brand:wikidata": "Q3119122",
      "brand:wikipedia": "en:EMTÉ",
      "name": "EMTÉ",
      "shop": "supermarket"
    }
  },
  "shop/supermarket|Econsave": {
    "locationSet": {"include": ["my"]},
    "tags": {
      "brand": "Econsave",
      "brand:en": "Econsave",
      "brand:wikidata": "Q61776608",
      "brand:wikipedia": "ms:Econsave",
      "brand:zh": "宜康省",
      "name": "Econsave",
      "name:en": "Econsave",
      "name:zh": "宜康省",
      "shop": "supermarket"
    }
  },
  "shop/supermarket|Edeka": {
    "locationSet": {"include": ["de"]},
    "matchNames": ["edeka neukauf"],
    "tags": {
      "brand": "Edeka",
      "brand:wikidata": "Q701755",
      "brand:wikipedia": "de:Edeka",
      "name": "Edeka",
      "shop": "supermarket"
    }
  },
  "shop/supermarket|Edeka xpress": {
    "locationSet": {"include": ["de"]},
    "tags": {
      "brand": "Edeka",
      "brand:wikidata": "Q701755",
      "brand:wikipedia": "de:Edeka",
      "name": "Edeka xpress",
      "shop": "supermarket"
    }
  },
  "shop/supermarket|Eko": {
    "locationSet": {"include": ["pl"]},
    "nomatch": [
      "amenity/fuel|EKO~(Canada)",
      "amenity/fuel|EKO~(Greece)"
    ],
    "tags": {
      "brand": "Eko",
      "brand:wikidata": "Q9251859",
      "brand:wikipedia": "pl:Eko Holding",
      "name": "Eko",
      "shop": "supermarket"
    }
  },
  "shop/supermarket|Ekom": {
    "locationSet": {"include": ["it"]},
    "tags": {
      "brand": "Ekom",
      "brand:wikidata": "Q62073442",
      "name": "Ekom",
      "shop": "supermarket"
    }
  },
  "shop/supermarket|Ekono": {
    "locationSet": {"include": ["cl"]},
    "tags": {
      "brand": "Ekono",
      "brand:wikidata": "Q2842729",
      "brand:wikipedia": "es:Ekono",
      "name": "Ekono",
      "shop": "supermarket"
    }
  },
  "shop/supermarket|Eroski": {
    "locationSet": {"include": ["es", "gi"]},
    "matchNames": ["eroski center"],
    "tags": {
      "brand": "Eroski",
      "brand:wikidata": "Q1361349",
      "brand:wikipedia": "en:Eroski",
      "name": "Eroski",
      "shop": "supermarket"
    }
  },
  "shop/supermarket|Eroski City": {
    "locationSet": {"include": ["es"]},
    "tags": {
      "brand": "Eroski",
      "brand:wikidata": "Q1361349",
      "brand:wikipedia": "en:Eroski",
      "name": "Eroski City",
      "shop": "supermarket"
    }
  },
  "shop/supermarket|Esselunga": {
    "locationSet": {"include": ["it"]},
    "tags": {
      "brand": "Esselunga",
      "brand:wikidata": "Q1059636",
      "brand:wikipedia": "en:Esselunga",
      "name": "Esselunga",
      "shop": "supermarket"
    }
  },
  "shop/supermarket|EuroSpin": {
    "locationSet": {"include": ["it", "si"]},
    "tags": {
      "brand": "EuroSpin",
      "brand:wikidata": "Q1374674",
      "brand:wikipedia": "it:Eurospin",
      "name": "EuroSpin",
      "shop": "supermarket"
    }
  },
  "shop/supermarket|Eurospar": {
    "locationSet": {"include": ["001"]},
    "tags": {
      "brand": "Eurospar",
      "brand:wikidata": "Q12309283",
      "brand:wikipedia": "da:Eurospar",
      "name": "Eurospar",
      "shop": "supermarket"
    }
  },
  "shop/supermarket|Extra": {
    "locationSet": {"include": ["001"]},
    "matchNames": ["coop extra"],
    "matchTags": ["shop/convenience"],
    "tags": {
      "brand": "Extra",
      "brand:wikidata": "Q11964085",
      "brand:wikipedia": "no:Extra (Coop)",
      "name": "Extra",
      "shop": "supermarket"
    }
  },
  "shop/supermarket|Famila": {
    "locationSet": {"include": ["de", "it"]},
    "tags": {
      "brand": "Famila",
      "brand:wikidata": "Q1395108",
      "brand:wikipedia": "de:Famila",
      "name": "Famila",
      "shop": "supermarket"
    }
  },
  "shop/supermarket|Family Fare": {
    "locationSet": {"include": ["us"]},
    "tags": {
      "brand": "Family Fare",
      "brand:wikidata": "Q19868045",
      "brand:wikipedia": "en:Family Fare",
      "name": "Family Fare",
      "shop": "supermarket"
    }
  },
  "shop/supermarket|Fareway": {
    "locationSet": {"include": ["us"]},
    "tags": {
      "brand": "Fareway",
      "brand:wikidata": "Q5434998",
      "brand:wikipedia": "en:Fareway",
      "name": "Fareway",
      "shop": "supermarket"
    }
  },
  "shop/supermarket|Farm Boy": {
    "locationSet": {"include": ["ca"]},
    "tags": {
      "brand": "Farm Boy",
      "brand:wikidata": "Q5435469",
      "brand:wikipedia": "en:Farm Boy",
      "name": "Farm Boy",
      "shop": "supermarket"
    }
  },
  "shop/supermarket|Feneberg": {
    "locationSet": {"include": ["at", "de"]},
    "tags": {
      "brand": "Feneberg",
      "brand:wikidata": "Q5345378",
      "brand:wikipedia": "de:Feneberg Lebensmittel",
      "name": "Feneberg",
      "shop": "supermarket"
    }
  },
  "shop/supermarket|Food 4 Less": {
    "locationSet": {"include": ["us"]},
    "tags": {
      "brand": "Food 4 Less",
      "brand:wikidata": "Q5465282",
      "brand:wikipedia": "en:Food 4 Less",
      "name": "Food 4 Less",
      "shop": "supermarket"
    }
  },
  "shop/supermarket|Food Basics": {
    "locationSet": {"include": ["001"]},
    "tags": {
      "brand": "Food Basics",
      "brand:wikidata": "Q5465300",
      "brand:wikipedia": "en:Food Basics",
      "name": "Food Basics",
      "shop": "supermarket"
    }
  },
  "shop/supermarket|Food City~(USA)": {
    "locationSet": {"include": ["us"]},
    "nomatch": [
      "shop/supermarket|Cargills Food City~(Sri Lanka)"
    ],
    "tags": {
      "brand": "Food City",
      "brand:wikidata": "Q16981107",
      "brand:wikipedia": "en:Food City (K-VA-T)",
      "name": "Food City",
      "shop": "supermarket"
    }
  },
  "shop/supermarket|Food Lion": {
    "locationSet": {"include": ["es", "us"]},
    "tags": {
      "brand": "Food Lion",
      "brand:wikidata": "Q1435950",
      "brand:wikipedia": "en:Food Lion",
      "name": "Food Lion",
      "shop": "supermarket"
    }
  },
  "shop/supermarket|FoodLand~(USA)": {
    "locationSet": {"include": ["us"]},
    "nomatch": [
      "shop/supermarket|Foodland~(Australia)",
      "shop/supermarket|Foodland~(Canada)",
      "shop/supermarket|Foodland~(Hawaii)"
    ],
    "tags": {
      "brand": "FoodLand",
      "brand:wikidata": "Q5465271",
      "brand:wikipedia": "en:FoodLand",
      "name": "FoodLand",
      "shop": "supermarket"
    }
  },
  "shop/supermarket|FoodMaxx": {
    "locationSet": {"include": ["us"]},
    "tags": {
      "brand": "FoodMaxx",
      "brand:wikidata": "Q61894844",
      "name": "FoodMaxx",
      "shop": "supermarket"
    }
  },
  "shop/supermarket|Foodland~(Australia)": {
    "locationSet": {"include": ["au"]},
    "nomatch": [
      "shop/supermarket|Foodland~(Canada)",
      "shop/supermarket|Foodland~(Hawaii)",
      "shop/supermarket|Foodland~(USA)"
    ],
    "tags": {
      "brand": "Foodland",
      "brand:wikidata": "Q5465555",
      "brand:wikipedia": "en:Foodland (South Australia)",
      "name": "Foodland",
      "shop": "supermarket"
    }
  },
  "shop/supermarket|Foodland~(Canada)": {
    "locationSet": {"include": ["ca"]},
    "nomatch": [
      "shop/supermarket|Foodland~(Australia)",
      "shop/supermarket|Foodland~(Hawaii)",
      "shop/supermarket|Foodland~(USA)"
    ],
    "tags": {
      "brand": "Foodland",
      "brand:wikidata": "Q5465554",
      "brand:wikipedia": "en:Foodland (Canada)",
      "name": "Foodland",
      "shop": "supermarket"
    }
  },
  "shop/supermarket|Foodland~(Hawaii)": {
    "locationSet": {"include": ["us"]},
    "nomatch": [
      "shop/supermarket|Foodland~(Australia)",
      "shop/supermarket|Foodland~(Canada)",
      "shop/supermarket|Foodland~(USA)"
    ],
    "tags": {
      "brand": "Foodland",
      "brand:wikidata": "Q5465560",
      "brand:wikipedia": "en:Foodland Hawaii",
      "name": "Foodland",
      "shop": "supermarket"
    }
  },
  "shop/supermarket|Foodworks": {
    "locationSet": {"include": ["au"]},
    "tags": {
      "brand": "Foodworks",
      "brand:wikidata": "Q5465579",
      "brand:wikipedia": "en:FoodWorks",
      "name": "Foodworks",
      "shop": "supermarket"
    }
  },
  "shop/supermarket|Fortinos": {
    "locationSet": {"include": ["ca"]},
    "tags": {
      "brand": "Fortinos",
      "brand:wikidata": "Q5472662",
      "brand:wikipedia": "en:Fortinos",
      "name": "Fortinos",
      "shop": "supermarket"
    }
  },
  "shop/supermarket|Four Square": {
    "locationSet": {"include": ["nz"]},
    "tags": {
      "brand": "Four Square",
      "brand:wikidata": "Q5475558",
      "brand:wikipedia": "en:Four Square (supermarket)",
      "name": "Four Square",
      "shop": "supermarket"
    }
  },
  "shop/supermarket|Fred Meyer": {
    "locationSet": {"include": ["us"]},
    "matchTags": ["shop/department_store"],
    "tags": {
      "brand": "Fred Meyer",
      "brand:wikidata": "Q5495932",
      "brand:wikipedia": "en:Fred Meyer",
      "name": "Fred Meyer",
      "shop": "supermarket"
    }
  },
  "shop/supermarket|Fresh Plus": {
    "locationSet": {"include": ["sk"]},
    "tags": {
      "brand": "Fresh Plus",
      "brand:wikidata": "Q50737403",
      "brand:wikipedia": "sk:Fresh",
      "name": "Fresh Plus",
      "shop": "supermarket"
    }
  },
  "shop/supermarket|Fresh Thyme": {
    "locationSet": {"include": ["us"]},
    "matchNames": ["fresh thyme farmers market"],
    "tags": {
      "brand": "Fresh Thyme",
      "brand:wikidata": "Q64132791",
      "name": "Fresh Thyme",
      "shop": "supermarket"
    }
  },
  "shop/supermarket|FreshCo": {
    "locationSet": {"include": ["ca"]},
    "tags": {
      "brand": "FreshCo",
      "brand:wikidata": "Q5502915",
      "brand:wikipedia": "en:FreshCo",
      "name": "FreshCo",
      "shop": "supermarket"
    }
  },
  "shop/supermarket|Froiz": {
    "locationSet": {"include": ["es", "pt"]},
    "tags": {
      "brand": "Froiz",
      "brand:wikidata": "Q17070775",
      "brand:wikipedia": "en:Froiz",
      "name": "Froiz",
      "shop": "supermarket"
    }
  },
  "shop/supermarket|Fry's Food and Drug": {
    "locationSet": {"include": ["us"]},
    "matchNames": ["frys"],
    "nomatch": [
      "shop/electronics|Fry's Electronics"
    ],
    "tags": {
      "brand": "Fry's Food and Drug",
      "brand:wikidata": "Q5506547",
      "brand:wikipedia": "en:Fry's Food and Drug",
      "name": "Fry's Food and Drug",
      "shop": "supermarket"
    }
  },
  "shop/supermarket|Føtex": {
    "locationSet": {"include": ["dk"]},
    "tags": {
      "brand": "Føtex",
      "brand:wikidata": "Q1480395",
      "brand:wikipedia": "en:Føtex",
      "name": "Føtex",
      "shop": "supermarket"
    }
  },
  "shop/supermarket|G20": {
    "locationSet": {"include": ["fr"]},
    "tags": {
      "brand": "G20",
      "brand:wikidata": "Q3504731",
      "brand:wikipedia": "fr:Supermarchés G20",
      "name": "G20",
      "shop": "supermarket"
    }
  },
  "shop/supermarket|GBarbosa": {
    "locationSet": {"include": ["br"]},
    "tags": {
      "brand": "GBarbosa",
      "brand:wikidata": "Q10287817",
      "brand:wikipedia": "pt:GBarbosa",
      "name": "GBarbosa",
      "shop": "supermarket"
    }
  },
  "shop/supermarket|Gadis": {
    "locationSet": {"include": ["es"]},
    "tags": {
      "brand": "Gadis",
      "brand:wikidata": "Q12389151",
      "brand:wikipedia": "gl:Gadisa",
      "name": "Gadis",
      "shop": "supermarket"
    }
  },
  "shop/supermarket|Giant Eagle": {
    "locationSet": {"include": ["us"]},
    "matchNames": ["giant eagle supermarket"],
    "tags": {
      "brand": "Giant Eagle",
      "brand:wikidata": "Q1522721",
      "brand:wikipedia": "en:Giant Eagle",
      "name": "Giant Eagle",
      "shop": "supermarket"
    }
  },
  "shop/supermarket|Giant Hypermarket": {
    "locationSet": {
      "include": ["id", "my", "sg", "vn"]
    },
    "tags": {
      "brand": "Giant Hypermarket",
      "brand:wikidata": "Q4217013",
      "brand:wikipedia": "en:Giant Hypermarket",
      "name": "Giant Hypermarket",
      "shop": "supermarket"
    }
  },
  "shop/supermarket|Giant~(Carlisle)": {
    "locationSet": {"include": ["us"]},
    "nomatch": [
      "amenity/fuel|Giant~(Carlisle)",
      "shop/bicycle|Giant",
      "shop/supermarket|Giant~(Landover)"
    ],
    "tags": {
      "brand": "Giant",
      "brand:wikidata": "Q5558332",
      "brand:wikipedia": "en:Giant Food Stores",
      "name": "Giant",
      "shop": "supermarket"
    }
  },
  "shop/supermarket|Giant~(Landover)": {
    "locationSet": {"include": ["us"]},
    "nomatch": [
      "amenity/fuel|Giant~(Carlisle)",
      "shop/bicycle|Giant",
      "shop/supermarket|Giant~(Carlisle)"
    ],
    "tags": {
      "brand": "Giant",
      "brand:wikidata": "Q5558336",
      "brand:wikipedia": "en:Giant Food (Landover)",
      "name": "Giant",
      "shop": "supermarket"
    }
  },
  "shop/supermarket|Globus": {
    "locationSet": {"include": ["001"]},
    "tags": {
      "brand": "Globus",
      "brand:wikidata": "Q457503",
      "brand:wikipedia": "en:Globus (hypermarket)",
      "name": "Globus",
      "shop": "supermarket"
    }
  },
  "shop/supermarket|Gordon Food Service": {
    "locationSet": {"include": ["ca", "us"]},
    "tags": {
      "brand": "Gordon Food Service",
      "brand:wikidata": "Q1538006",
      "brand:wikipedia": "en:Gordon Food Service",
      "name": "Gordon Food Service",
      "shop": "supermarket"
    }
  },
  "shop/supermarket|Grand Frais": {
    "locationSet": {"include": ["fr"]},
    "tags": {
      "brand": "Grand Frais",
      "brand:wikidata": "Q3114675",
      "brand:wikipedia": "fr:Grand Frais",
      "name": "Grand Frais",
      "shop": "supermarket"
    }
  },
  "shop/supermarket|Grocery Outlet": {
    "locationSet": {"include": ["us"]},
    "tags": {
      "brand": "Grocery Outlet",
      "brand:wikidata": "Q5609934",
      "brand:wikipedia": "en:Grocery Outlet",
      "name": "Grocery Outlet",
      "official_name": "Grocery Outlet Bargain Market",
      "shop": "supermarket"
    }
  },
  "shop/supermarket|Groszek": {
    "locationSet": {"include": ["pl"]},
    "nomatch": ["shop/convenience|Groszek"],
    "tags": {
      "brand": "Groszek",
      "brand:wikidata": "Q9280965",
      "brand:wikipedia": "pl:Groszek (sieć sklepów)",
      "name": "Groszek",
      "shop": "supermarket"
    }
  },
  "shop/supermarket|Géant Casino": {
    "locationSet": {"include": ["cg", "fr"]},
    "nomatch": [
      "amenity/fuel|Casino",
      "shop/convenience|Casino Shop",
      "shop/convenience|Le Petit Casino",
      "shop/supermarket|Casino"
    ],
    "tags": {
      "brand": "Géant Casino",
      "brand:wikidata": "Q1380537",
      "name": "Géant Casino",
      "shop": "supermarket"
    }
  },
  "shop/supermarket|H Mart": {
    "locationSet": {
      "include": ["ca", "gb", "us"]
    },
    "tags": {
      "alt_name:ko": "H 마트",
      "brand": "H Mart",
      "brand:wikidata": "Q5636306",
      "brand:wikipedia": "en:H Mart",
      "cuisine": "asian",
      "name": "H Mart",
      "name:en": "H Mart",
      "name:ko": "한아름",
      "name:zh-Hans": "韩亚龙",
      "name:zh-Hant": "韓亞龍",
      "shop": "supermarket"
    }
  },
  "shop/supermarket|H-E-B": {
    "locationSet": {"include": ["mx", "us"]},
    "tags": {
      "brand": "H-E-B",
      "brand:wikidata": "Q830621",
      "brand:wikipedia": "en:H-E-B",
      "name": "H-E-B",
      "shop": "supermarket"
    }
  },
  "shop/supermarket|HIT": {
    "locationSet": {"include": ["de"]},
    "tags": {
      "brand": "HIT",
      "brand:wikidata": "Q1548713",
      "brand:wikipedia": "de:HIT Handelsgruppe",
      "name": "HIT",
      "shop": "supermarket"
    }
  },
  "shop/supermarket|Hakmar": {
    "locationSet": {"include": ["001"]},
    "tags": {
      "brand": "Hakmar",
      "name": "Hakmar",
      "shop": "supermarket"
    }
  },
  "shop/supermarket|HalpaHalli": {
    "locationSet": {
      "include": ["ee", "fi", "ru"]
    },
    "tags": {
      "brand": "HalpaHalli",
      "brand:wikidata": "Q11861256",
      "brand:wikipedia": "fi:HalpaHalli",
      "name": "HalpaHalli",
      "shop": "supermarket"
    }
  },
  "shop/supermarket|Hannaford": {
    "locationSet": {"include": ["us"]},
    "tags": {
      "brand": "Hannaford",
      "brand:wikidata": "Q5648760",
      "brand:wikipedia": "en:Hannaford Brothers Company",
      "name": "Hannaford",
      "shop": "supermarket"
    }
  },
  "shop/supermarket|Harris Teeter": {
    "locationSet": {"include": ["us"]},
    "tags": {
      "brand": "Harris Teeter",
      "brand:wikidata": "Q5665067",
      "brand:wikipedia": "en:Harris Teeter",
      "name": "Harris Teeter",
      "shop": "supermarket"
    }
  },
  "shop/supermarket|Hemköp": {
    "locationSet": {"include": ["se"]},
    "tags": {
      "brand": "Hemköp",
      "brand:wikidata": "Q10521746",
      "brand:wikipedia": "sv:Hemköp",
      "name": "Hemköp",
      "shop": "supermarket"
    }
  },
  "shop/supermarket|Hero Supermarket": {
    "locationSet": {"include": ["id"]},
    "tags": {
      "brand": "Hero Supermarket",
      "brand:wikidata": "Q12485604",
      "brand:wikipedia": "en:Hero Supermarket",
      "name": "Hero Supermarket",
      "shop": "supermarket"
    }
  },
  "shop/supermarket|Heron Foods": {
    "locationSet": {"include": ["gb"]},
    "tags": {
      "brand": "Heron Foods",
      "brand:wikidata": "Q5743472",
      "brand:wikipedia": "en:Heron Foods",
      "name": "Heron Foods",
      "shop": "supermarket"
    }
  },
  "shop/supermarket|Hiper Simply": {
    "locationSet": {"include": ["es"]},
    "tags": {
      "brand": "Hiper Simply",
      "brand:wikidata": "Q5643014",
      "brand:wikipedia": "es:Sabeco",
      "name": "Hiper Simply",
      "shop": "supermarket"
    }
  },
  "shop/supermarket|Hipermaxi": {
    "locationSet": {"include": ["bo"]},
    "tags": {
      "brand": "Hipermaxi",
      "brand:wikidata": "Q81968262",
      "name": "Hipermaxi",
      "shop": "supermarket"
    }
  },
  "shop/supermarket|Hofer": {
    "locationSet": {"include": ["at", "si"]},
    "nomatch": ["amenity/fuel|Hofer"],
    "tags": {
      "brand": "Hofer",
      "brand:wikidata": "Q15815751",
      "brand:wikipedia": "de:Hofer KG",
      "name": "Hofer",
      "shop": "supermarket"
    }
  },
  "shop/supermarket|Hoogvliet": {
    "locationSet": {"include": ["nl"]},
    "tags": {
      "brand": "Hoogvliet",
      "brand:wikidata": "Q2770647",
      "brand:wikipedia": "nl:Hoogvliet (supermarkt)",
      "name": "Hoogvliet",
      "shop": "supermarket"
    }
  },
  "shop/supermarket|Hruška": {
    "locationSet": {"include": ["cz"]},
    "nomatch": ["shop/convenience|Hruška"],
    "tags": {
      "brand": "Hruška",
      "brand:wikidata": "Q58196374",
      "name": "Hruška",
      "shop": "supermarket"
    }
  },
  "shop/supermarket|Hy-Vee": {
    "locationSet": {"include": ["us"]},
    "nomatch": ["amenity/fuel|Hy-Vee Gas"],
    "tags": {
      "brand": "Hy-Vee",
      "brand:wikidata": "Q1639719",
      "brand:wikipedia": "en:Hy-Vee",
      "name": "Hy-Vee",
      "shop": "supermarket"
    }
  },
  "shop/supermarket|Hyper U": {
    "locationSet": {"include": ["fr"]},
    "nomatch": [
      "amenity/fuel|Super U",
      "shop/convenience|Utile",
      "shop/supermarket|Super U",
      "shop/supermarket|U Express"
    ],
    "tags": {
      "brand": "Hyper U",
      "brand:wikidata": "Q2529029",
      "brand:wikipedia": "en:Système U",
      "name": "Hyper U",
      "shop": "supermarket"
    }
  },
  "shop/supermarket|IC Norte": {
    "locationSet": {"include": ["bo"]},
    "tags": {
      "brand": "IC Norte",
      "brand:wikidata": "Q81967653",
      "name": "IC Norte",
      "shop": "supermarket"
    }
  },
  "shop/supermarket|ICA": {
    "locationSet": {"include": ["no", "se"]},
    "matchNames": ["ica supermarket"],
    "nomatch": [
      "shop/supermarket|ICA Kvantum",
      "shop/supermarket|ICA Maxi"
    ],
    "tags": {
      "brand": "ICA",
      "brand:wikidata": "Q1663776",
      "brand:wikipedia": "sv:Ica",
      "name": "ICA",
      "shop": "supermarket"
    }
  },
  "shop/supermarket|ICA Kvantum": {
    "locationSet": {"include": ["se"]},
    "nomatch": [
      "shop/supermarket|ICA",
      "shop/supermarket|ICA Maxi"
    ],
    "tags": {
      "brand": "ICA Kvantum",
      "brand:wikidata": "Q1663776",
      "brand:wikipedia": "sv:Ica",
      "name": "ICA Kvantum",
      "shop": "supermarket"
    }
  },
  "shop/supermarket|ICA Maxi": {
    "locationSet": {"include": ["no", "se"]},
    "nomatch": [
      "shop/supermarket|ICA",
      "shop/supermarket|ICA Kvantum"
    ],
    "tags": {
      "brand": "ICA Maxi",
      "brand:wikidata": "Q1663776",
      "brand:wikipedia": "sv:Ica",
      "name": "ICA Maxi",
      "shop": "supermarket"
    }
  },
  "shop/supermarket|IDEA": {
    "locationSet": {"include": ["rs"]},
    "tags": {
      "brand": "IDEA",
      "brand:wikidata": "Q23461622",
      "brand:wikipedia": "en:Idea (supermarkets)",
      "name": "IDEA",
      "shop": "supermarket"
    }
  },
  "shop/supermarket|IGA": {
    "locationSet": {
      "include": ["au", "ca", "us"]
    },
    "tags": {
      "brand": "IGA",
      "brand:wikidata": "Q3146662",
      "brand:wikipedia": "en:IGA (supermarkets)",
      "name": "IGA",
      "shop": "supermarket"
    }
  },
  "shop/supermarket|Ingles": {
    "locationSet": {"include": ["us"]},
    "tags": {
      "brand": "Ingles",
      "brand:wikidata": "Q6032595",
      "brand:wikipedia": "en:Ingles",
      "name": "Ingles",
      "shop": "supermarket"
    }
  },
  "shop/supermarket|Intermarché": {
    "locationSet": {"include": ["001"]},
    "tags": {
      "brand": "Intermarché",
      "brand:wikidata": "Q3153200",
      "brand:wikipedia": "fr:Intermarché",
      "name": "Intermarché",
      "shop": "supermarket"
    }
  },
  "shop/supermarket|Intermarché Super": {
    "locationSet": {
      "include": ["be", "fr", "pl", "pt"]
    },
    "tags": {
      "brand": "Intermarché Super",
      "brand:wikidata": "Q3153200",
      "brand:wikipedia": "fr:Intermarché",
      "name": "Intermarché Super",
      "shop": "supermarket"
    }
  },
  "shop/supermarket|Interspar": {
    "locationSet": {"include": ["at"]},
    "tags": {
      "brand": "Interspar",
      "brand:wikidata": "Q15820339",
      "brand:wikipedia": "de:Interspar (Österreich)",
      "name": "Interspar",
      "shop": "supermarket"
    }
  },
  "shop/supermarket|Ipercoop": {
    "locationSet": {"include": ["001"]},
    "tags": {
      "brand": "Ipercoop",
      "name": "Ipercoop",
      "shop": "supermarket"
    }
  },
  "shop/supermarket|Irma": {
    "locationSet": {"include": ["dk"]},
    "tags": {
      "brand": "Irma",
      "brand:wikidata": "Q797150",
      "brand:wikipedia": "en:Irma (supermarket)",
      "name": "Irma",
      "shop": "supermarket"
    }
  },
  "shop/supermarket|Jack's": {
    "locationSet": {"include": ["gb"]},
    "nomatch": ["amenity/fast_food|Jack's"],
    "tags": {
      "brand": "Jack's",
      "brand:wikidata": "Q60741213",
      "brand:wikipedia": "en:Jack's (store)",
      "name": "Jack's",
      "shop": "supermarket"
    }
  },
  "shop/supermarket|Jan Linders": {
    "locationSet": {"include": ["nl"]},
    "tags": {
      "brand": "Jan Linders",
      "brand:wikidata": "Q2200982",
      "brand:wikipedia": "nl:Jan Linders Supermarkten",
      "name": "Jan Linders",
      "shop": "supermarket"
    }
  },
  "shop/supermarket|Jewel-Osco": {
    "locationSet": {"include": ["us"]},
    "tags": {
      "brand": "Jewel-Osco",
      "brand:wikidata": "Q3178470",
      "brand:wikipedia": "en:Jewel (supermarket)",
      "name": "Jewel-Osco",
      "shop": "supermarket"
    }
  },
  "shop/supermarket|Jumbo": {
    "locationSet": {"include": ["001"]},
    "tags": {
      "brand": "Jumbo",
      "brand:wikidata": "Q2262314",
      "brand:wikipedia": "en:Jumbo (supermarket)",
      "name": "Jumbo",
      "shop": "supermarket"
    }
  },
  "shop/supermarket|K+K": {
    "locationSet": {"include": ["de"]},
    "tags": {
      "brand": "K+K",
      "brand:wikidata": "Q1718009",
      "brand:wikipedia": "de:K+K Klaas & Kock",
      "name": "K+K",
      "shop": "supermarket"
    }
  },
  "shop/supermarket|K-Citymarket": {
    "locationSet": {"include": ["fi"]},
    "tags": {
      "brand": "K-Citymarket",
      "brand:wikidata": "Q11868561",
      "brand:wikipedia": "fi:K-Citymarket",
      "name": "K-Citymarket",
      "shop": "supermarket"
    }
  },
  "shop/supermarket|K-Supermarket": {
    "locationSet": {"include": ["fi"]},
    "tags": {
      "brand": "K-Supermarket",
      "brand:wikidata": "Q5408668",
      "brand:wikipedia": "fi:K-Supermarket",
      "name": "K-Supermarket",
      "shop": "supermarket"
    }
  },
  "shop/supermarket|Kaufland": {
    "locationSet": {
      "include": [
        "bg",
        "cz",
        "de",
        "hr",
        "pl",
        "ro",
        "sk"
      ]
    },
    "tags": {
      "brand": "Kaufland",
      "brand:wikidata": "Q685967",
      "brand:wikipedia": "en:Kaufland",
      "name": "Kaufland",
      "shop": "supermarket"
    }
  },
  "shop/supermarket|Ketal": {
    "locationSet": {"include": ["bo"]},
    "tags": {
      "brand": "Ketal",
      "brand:wikidata": "Q81967299",
      "name": "Ketal",
      "shop": "supermarket"
    }
  },
  "shop/supermarket|King Soopers": {
    "locationSet": {"include": ["us"]},
    "nomatch": ["amenity/fuel|King Soopers"],
    "tags": {
      "brand": "King Soopers",
      "brand:wikidata": "Q6412065",
      "brand:wikipedia": "en:King Soopers",
      "name": "King Soopers",
      "shop": "supermarket"
    }
  },
  "shop/supermarket|Kings": {
    "locationSet": {"include": ["us"]},
    "tags": {
      "brand": "Kings",
      "brand:wikidata": "Q6412914",
      "brand:wikipedia": "en:Kings Food Markets",
      "name": "Kings",
      "shop": "supermarket"
    }
  },
  "shop/supermarket|Kiwi": {
    "locationSet": {"include": ["dk", "no"]},
    "tags": {
      "brand": "Kiwi",
      "brand:wikidata": "Q1613639",
      "brand:wikipedia": "en:Kiwi (store)",
      "name": "Kiwi",
      "shop": "supermarket"
    }
  },
  "shop/supermarket|Konsum": {
    "locationSet": {
      "include": ["de", "ee", "se"]
    },
    "tags": {
      "brand": "Konsum",
      "name": "Konsum",
      "shop": "supermarket"
    }
  },
  "shop/supermarket|Konzum~(Balkans)": {
    "locationSet": {
      "include": ["ba", "hr", "rs"]
    },
    "nomatch": [
      "shop/convenience|Konzum~(Balkans)",
      "shop/convenience|Konzum~(Czechia)",
      "shop/supermarket|Konzum~(Czechia)"
    ],
    "tags": {
      "brand": "Konzum",
      "brand:wikidata": "Q518563",
      "brand:wikipedia": "hr:Konzum",
      "name": "Konzum",
      "shop": "supermarket"
    }
  },
  "shop/supermarket|Konzum~(Czechia)": {
    "locationSet": {"include": ["cz", "sk"]},
    "nomatch": [
      "shop/convenience|Konzum~(Balkans)",
      "shop/convenience|Konzum~(Czechia)",
      "shop/supermarket|Konzum~(Balkans)"
    ],
    "tags": {
      "brand": "Konzum",
      "name": "Konzum",
      "shop": "supermarket"
    }
  },
  "shop/supermarket|Kroger": {
    "locationSet": {"include": ["001"]},
    "matchNames": [
      "kroger food and drug",
      "krogers"
    ],
    "nomatch": ["amenity/fuel|Kroger"],
    "tags": {
      "brand": "Kroger",
      "brand:wikidata": "Q153417",
      "brand:wikipedia": "en:Kroger",
      "name": "Kroger",
      "shop": "supermarket"
    }
  },
  "shop/supermarket|Kroger Marketplace": {
    "locationSet": {"include": ["us"]},
    "nomatch": ["amenity/fuel|Kroger"],
    "tags": {
      "brand": "Kroger Marketplace",
      "brand:wikidata": "Q153417",
      "brand:wikipedia": "en:Kroger",
      "name": "Kroger Marketplace",
      "shop": "supermarket"
    }
  },
  "shop/supermarket|Krónan": {
    "locationSet": {"include": ["is"]},
    "tags": {
      "brand": "Krónan",
      "brand:wikidata": "Q16419327",
      "brand:wikipedia": "is:Krónan (verslun)",
      "name": "Krónan",
      "shop": "supermarket"
    }
  },
  "shop/supermarket|Kvickly": {
    "locationSet": {"include": ["dk"]},
    "tags": {
      "brand": "Kvickly",
      "brand:wikidata": "Q7061148",
      "brand:wikipedia": "en:Kvickly",
      "name": "Kvickly",
      "shop": "supermarket"
    }
  },
  "shop/supermarket|La Anónima": {
    "locationSet": {"include": ["ar"]},
    "tags": {
      "brand": "La Anónima",
      "brand:wikidata": "Q6135985",
      "brand:wikipedia": "es:La Anónima",
      "name": "La Anónima",
      "shop": "supermarket"
    }
  },
  "shop/supermarket|La Comer": {
    "locationSet": {"include": ["mx"]},
    "tags": {
      "brand": "La Comer",
      "brand:wikidata": "Q26765126",
      "brand:wikipedia": "es:La Comer",
      "name": "La Comer",
      "shop": "supermarket"
    }
  },
  "shop/supermarket|La Michoacana Meat Market": {
    "locationSet": {"include": ["us"]},
    "tags": {
      "brand": "La Michoacana Meat Market",
      "brand:wikidata": "Q6463872",
      "brand:wikipedia": "en:La Michoacana Meat Market",
      "cuisine": "latin_american",
      "name": "La Michoacana Meat Market",
      "shop": "supermarket",
      "short_name": "La Michoacana"
    }
  },
  "shop/supermarket|La Plaza de DIA": {
    "locationSet": {"include": ["es"]},
    "tags": {
      "brand": "La Plaza de DIA",
      "brand:wikidata": "Q58904673",
      "name": "La Plaza de DIA",
      "shop": "supermarket"
    }
  },
  "shop/supermarket|La Sirena": {
    "locationSet": {"include": ["es"]},
    "tags": {
      "brand": "La Sirena",
      "brand:wikidata": "Q21034458",
      "brand:wikipedia": "ca:La Sirena",
      "name": "La Sirena",
      "shop": "supermarket"
    }
  },
  "shop/supermarket|La Vie Claire": {
    "locationSet": {"include": ["fr"]},
    "nomatch": ["shop/convenience|La Vie Claire"],
    "tags": {
      "brand": "La Vie Claire",
      "brand:wikidata": "Q3213589",
      "brand:wikipedia": "fr:La Vie Claire",
      "name": "La Vie Claire",
      "organic": "only",
      "shop": "supermarket"
    }
  },
  "shop/supermarket|Landi": {
    "locationSet": {"include": ["ch"]},
    "tags": {
      "brand": "Landi",
      "brand:wikidata": "Q1803010",
      "brand:wikipedia": "de:Landi (Unternehmen)",
      "name": "Landi",
      "shop": "supermarket"
    }
  },
  "shop/supermarket|Leader Price": {
    "locationSet": {"include": ["001"]},
    "tags": {
      "brand": "Leader Price",
      "brand:wikidata": "Q2181426",
      "brand:wikipedia": "fr:Leader Price",
      "name": "Leader Price",
      "shop": "supermarket"
    }
  },
  "shop/supermarket|Lewiatan": {
    "locationSet": {"include": ["pl"]},
    "nomatch": ["shop/convenience|Lewiatan"],
    "tags": {
      "brand": "Lewiatan",
      "brand:wikidata": "Q11755396",
      "brand:wikipedia": "pl:Lewiatan (sieć handlowa)",
      "name": "Lewiatan",
      "shop": "supermarket"
    }
  },
  "shop/supermarket|Lider": {
    "locationSet": {"include": ["cl"]},
    "nomatch": ["shop/supermarket|Lider Express"],
    "tags": {
      "brand": "Lider",
      "brand:wikidata": "Q6711261",
      "brand:wikipedia": "es:Líder (supermercado)",
      "name": "Lider",
      "shop": "supermarket"
    }
  },
  "shop/supermarket|Lider Express": {
    "locationSet": {"include": ["cl"]},
    "nomatch": ["shop/supermarket|Lider"],
    "tags": {
      "brand": "Lider",
      "brand:wikidata": "Q6711261",
      "brand:wikipedia": "es:Líder (supermercado)",
      "name": "Lider Express",
      "shop": "supermarket"
    }
  },
  "shop/supermarket|Lidl": {
    "locationSet": {"include": ["001"]},
    "tags": {
      "brand": "Lidl",
      "brand:wikidata": "Q151954",
      "brand:wikipedia": "en:Lidl",
      "name": "Lidl",
      "shop": "supermarket"
    }
  },
  "shop/supermarket|Lincolnshire Co-op": {
    "locationSet": {"include": ["gb"]},
    "tags": {
      "brand": "Lincolnshire Co-op",
      "brand:wikidata": "Q6551231",
      "brand:wikipedia": "en:Lincolnshire Co-operative",
      "name": "Lincolnshire Co-op",
      "shop": "supermarket"
    }
  },
  "shop/supermarket|Linella": {
    "locationSet": {"include": ["md"]},
    "tags": {
      "brand": "Linella",
      "brand:wikidata": "Q61085990",
      "brand:wikipedia": "ro:Linella",
      "name": "Linella",
      "shop": "supermarket"
    }
  },
  "shop/supermarket|Loblaws": {
    "locationSet": {"include": ["ca"]},
    "matchNames": ["loblaws great food"],
    "tags": {
      "brand": "Loblaws",
      "brand:wikidata": "Q3257626",
      "brand:wikipedia": "en:Loblaws",
      "name": "Loblaws",
      "shop": "supermarket"
    }
  },
  "shop/supermarket|Londis~(Ireland)": {
    "locationSet": {"include": ["ie"]},
    "nomatch": [
      "shop/convenience|Londis~(Ireland)",
      "shop/convenience|Londis~(UK)",
      "shop/supermarket|Londis~(UK)"
    ],
    "tags": {
      "brand": "Londis",
      "brand:wikidata": "Q21015800",
      "brand:wikipedia": "en:Londis (Ireland)",
      "name": "Londis",
      "shop": "supermarket"
    }
  },
  "shop/supermarket|Londis~(UK)": {
    "locationSet": {"include": ["gb"]},
    "nomatch": [
      "shop/convenience|Londis~(Ireland)",
      "shop/convenience|Londis~(UK)",
      "shop/supermarket|Londis~(Ireland)"
    ],
    "tags": {
      "brand": "Londis",
      "brand:wikidata": "Q21008564",
      "brand:wikipedia": "en:Londis (United Kingdom)",
      "name": "Londis",
      "shop": "supermarket"
    }
  },
  "shop/supermarket|Lotte Mart": {
    "locationSet": {"include": ["id", "kr"]},
    "tags": {
      "brand": "Lotte Mart",
      "brand:wikidata": "Q326715",
      "brand:wikipedia": "en:Lotte Mart",
      "name": "Lotte Mart",
      "shop": "supermarket"
    }
  },
  "shop/supermarket|Lowe's Market": {
    "locationSet": {"include": ["us"]},
    "nomatch": [
      "shop/clothes|Lowes",
      "shop/doityourself|Lowe's",
      "shop/supermarket|Lowes Foods"
    ],
    "tags": {
      "brand": "Lowe's Market",
      "brand:wikidata": "Q6693107",
      "brand:wikipedia": "en:Lowe's Market",
      "name": "Lowe's Market",
      "shop": "supermarket"
    }
  },
  "shop/supermarket|Lowes Foods": {
    "locationSet": {"include": ["us"]},
    "nomatch": [
      "shop/clothes|Lowes",
      "shop/doityourself|Lowe's",
      "shop/supermarket|Lowe's Market"
    ],
    "tags": {
      "brand": "Lowes Foods",
      "brand:wikidata": "Q6693991",
      "brand:wikipedia": "en:Lowes Foods",
      "name": "Lowes Foods",
      "shop": "supermarket"
    }
  },
  "shop/supermarket|Lucky": {
    "locationSet": {"include": ["us"]},
    "matchNames": ["luckys"],
    "tags": {
      "brand": "Lucky",
      "brand:wikidata": "Q6698032",
      "brand:wikipedia": "en:Lucky Stores",
      "name": "Lucky",
      "shop": "supermarket"
    }
  },
  "shop/supermarket|Lupa": {
    "locationSet": {"include": ["es"]},
    "tags": {
      "brand": "Lupa",
      "brand:wikidata": "Q58044048",
      "name": "Lupa",
      "shop": "supermarket"
    }
  },
  "shop/supermarket|M&S Foodhall": {
    "locationSet": {"include": ["001"]},
    "matchNames": ["marks & spencer foodhall"],
    "tags": {
      "brand": "M&S Foodhall",
      "brand:wikidata": "Q714491",
      "brand:wikipedia": "en:Marks & Spencer",
      "name": "M&S Foodhall",
      "shop": "supermarket"
    }
  },
  "shop/supermarket|M&S Simply Food": {
    "locationSet": {"include": ["001"]},
    "matchNames": ["marks & spencer simply food"],
    "nomatch": [
      "shop/convenience|M&S Simply Food"
    ],
    "tags": {
      "brand": "M&S Simply Food",
      "brand:wikidata": "Q714491",
      "brand:wikipedia": "en:Marks & Spencer",
      "name": "M&S Simply Food",
      "shop": "supermarket"
    }
  },
  "shop/supermarket|MD": {
    "locationSet": {"include": ["it"]},
    "matchNames": ["md discount"],
    "tags": {
      "brand": "MD",
      "brand:wikidata": "Q3841263",
      "brand:wikipedia": "en:MD Discount",
      "name": "MD",
      "shop": "supermarket"
    }
  },
  "shop/supermarket|MEGAドン・キホーテ": {
    "locationSet": {"include": ["jp"]},
    "matchNames": ["メガ・ドン・キホーテ"],
    "matchTags": [
      "amenity/general",
      "amenity/retail",
      "amenity/variety_store"
    ],
    "nomatch": ["amenity/variety_store|ドン・キホーテ"],
    "tags": {
      "brand": "ドン・キホーテ",
      "brand:en": "Don Quijote",
      "brand:ja": "ドン・キホーテ",
      "brand:wikidata": "Q1185381",
      "brand:wikipedia": "ja:ドン・キホーテ (企業)",
      "name": "MEGAドン・キホーテ",
      "name:en": "MEGA Don Quijote",
      "name:ja": "MEGAドン・キホーテ",
      "opening_hours": "24/7",
      "shop": "supermarket",
      "short_name": "MEGAドンキ",
      "short_name:en": "MegaDonki",
      "short_name:ja": "MEGAドンキ"
    }
  },
  "shop/supermarket|MPREIS": {
    "locationSet": {"include": ["at", "it"]},
    "tags": {
      "brand": "MPREIS",
      "brand:wikidata": "Q873491",
      "brand:wikipedia": "de:MPreis",
      "name": "MPREIS",
      "shop": "supermarket"
    }
  },
  "shop/supermarket|Marc's": {
    "locationSet": {"include": ["us"]},
    "nomatch": ["amenity/pharmacy|Marc's"],
    "tags": {
      "brand": "Marc's",
      "brand:wikidata": "Q17080259",
      "brand:wikipedia": "en:Marc's",
      "name": "Marc's",
      "shop": "supermarket"
    }
  },
  "shop/supermarket|Markant": {
    "locationSet": {"include": ["de"]},
    "tags": {
      "brand": "Markant",
      "brand:wikidata": "Q57523365",
      "name": "Markant",
      "shop": "supermarket"
    }
  },
  "shop/supermarket|Market Basket": {
    "locationSet": {"include": ["001"]},
    "tags": {
      "brand": "Market Basket",
      "brand:wikidata": "Q2079198",
      "brand:wikipedia": "en:Market Basket (New England)",
      "name": "Market Basket",
      "shop": "supermarket"
    }
  },
  "shop/supermarket|Market In": {
    "locationSet": {"include": ["001"]},
    "tags": {
      "brand": "Market In",
      "name": "Market In",
      "shop": "supermarket"
    }
  },
  "shop/supermarket|Marktkauf": {
    "locationSet": {"include": ["de"]},
    "tags": {
      "brand": "Marktkauf",
      "brand:wikidata": "Q1533254",
      "brand:wikipedia": "de:Marktkauf Holding",
      "name": "Marktkauf",
      "shop": "supermarket"
    }
  },
  "shop/supermarket|Martin's Super Markets": {
    "locationSet": {"include": ["us"]},
    "tags": {
      "brand": "Martin's Super Markets",
      "brand:wikidata": "Q6774803",
      "brand:wikipedia": "en:Martin's Super Markets",
      "name": "Martin's Super Markets",
      "shop": "supermarket"
    }
  },
  "shop/supermarket|Masymas": {
    "locationSet": {"include": ["es"]},
    "tags": {
      "brand": "Masymas",
      "brand:wikidata": "Q6135987",
      "brand:wikipedia": "es:Supermercados Masymas",
      "name": "Masymas",
      "shop": "supermarket"
    }
  },
  "shop/supermarket|Match": {
    "locationSet": {
      "include": ["be", "fr", "hu", "lu"]
    },
    "tags": {
      "brand": "Match",
      "brand:wikidata": "Q513977",
      "brand:wikipedia": "en:Match (supermarket)",
      "name": "Match",
      "shop": "supermarket"
    }
  },
  "shop/supermarket|Maxi Dia": {
    "locationSet": {"include": ["es"]},
    "tags": {
      "brand": "Maxi Dia",
      "brand:wikidata": "Q925132",
      "brand:wikipedia": "es:Supermercados DIA",
      "name": "Maxi Dia",
      "shop": "supermarket"
    }
  },
  "shop/supermarket|Maxima X": {
    "locationSet": {
      "include": ["bg", "ee", "lt", "lv"]
    },
    "nomatch": [
      "shop/supermarket|Maxima XX",
      "shop/supermarket|Maxima XXX"
    ],
    "tags": {
      "brand": "Maxima X",
      "brand:wikidata": "Q1881222",
      "brand:wikipedia": "en:Maxima Group",
      "name": "Maxima X",
      "shop": "supermarket"
    }
  },
  "shop/supermarket|Maxima XX": {
    "locationSet": {
      "include": ["bg", "ee", "lt", "lv", "pl"]
    },
    "nomatch": [
      "shop/supermarket|Maxima X",
      "shop/supermarket|Maxima XXX"
    ],
    "tags": {
      "brand": "Maxima XX",
      "brand:wikidata": "Q1881222",
      "brand:wikipedia": "en:Maxima Group",
      "name": "Maxima XX",
      "shop": "supermarket"
    }
  },
  "shop/supermarket|Maxima XXX": {
    "locationSet": {
      "include": ["bg", "ee", "lt", "lv", "pl"]
    },
    "matchNames": ["maxima"],
    "nomatch": [
      "shop/supermarket|Maxima X",
      "shop/supermarket|Maxima XX"
    ],
    "tags": {
      "brand": "Maxima XXX",
      "brand:wikidata": "Q1881222",
      "brand:wikipedia": "en:Maxima Group",
      "name": "Maxima XXX",
      "shop": "supermarket"
    }
  },
  "shop/supermarket|Maximarkt": {
    "locationSet": {"include": ["at"]},
    "tags": {
      "brand": "Maximarkt",
      "brand:wikidata": "Q55524814",
      "brand:wikipedia": "de:Maximarkt",
      "name": "Maximarkt",
      "shop": "supermarket"
    }
  },
  "shop/supermarket|Maxi~(Canada)": {
    "locationSet": {"include": ["ca"]},
    "nomatch": ["shop/supermarket|Maxi~(Serbia)"],
    "tags": {
      "brand": "Maxi",
      "brand:wikidata": "Q3302441",
      "brand:wikipedia": "fr:Maxi (supermarché)",
      "name": "Maxi",
      "shop": "supermarket"
    }
  },
  "shop/supermarket|Maxi~(Serbia)": {
    "locationSet": {"include": ["rs"]},
    "nomatch": ["shop/supermarket|Maxi~(Canada)"],
    "tags": {
      "brand": "Maxi",
      "brand:wikidata": "Q6795490",
      "brand:wikipedia": "en:Maxi (Serbian supermarket)",
      "name": "Maxi",
      "shop": "supermarket"
    }
  },
  "shop/supermarket|Mega Image": {
    "locationSet": {"include": ["ro"]},
    "tags": {
      "brand": "Mega Image",
      "brand:wikidata": "Q6808085",
      "brand:wikipedia": "en:Mega Image",
      "name": "Mega Image",
      "shop": "supermarket"
    }
  },
  "shop/supermarket|Mego": {
    "locationSet": {"include": ["lv"]},
    "tags": {
      "brand": "Mego",
      "brand:wikidata": "Q16363314",
      "brand:wikipedia": "lv:Mego",
      "name": "Mego",
      "shop": "supermarket"
    }
  },
  "shop/supermarket|Meijer": {
    "locationSet": {"include": ["us"]},
    "tags": {
      "brand": "Meijer",
      "brand:wikidata": "Q1917753",
      "brand:wikipedia": "en:Meijer",
      "name": "Meijer",
      "shop": "supermarket"
    }
  },
  "shop/supermarket|Meny": {
    "locationSet": {"include": ["dk", "no"]},
    "tags": {
      "brand": "Meny",
      "brand:wikidata": "Q10581720",
      "brand:wikipedia": "en:Meny",
      "name": "Meny",
      "shop": "supermarket"
    }
  },
  "shop/supermarket|Mercadona": {
    "locationSet": {"include": ["es", "pt"]},
    "tags": {
      "brand": "Mercadona",
      "brand:wikidata": "Q377705",
      "brand:wikipedia": "en:Mercadona",
      "name": "Mercadona",
      "shop": "supermarket"
    }
  },
  "shop/supermarket|Mercator": {
    "locationSet": {
      "include": ["ba", "hr", "me", "rs", "si"]
    },
    "nomatch": ["shop/convenience|Mercator"],
    "tags": {
      "brand": "Mercator",
      "brand:wikidata": "Q738412",
      "brand:wikipedia": "en:Mercator (retail)",
      "name": "Mercator",
      "shop": "supermarket"
    }
  },
  "shop/supermarket|Merkur": {
    "locationSet": {"include": ["at"]},
    "tags": {
      "brand": "Merkur",
      "brand:wikidata": "Q1921857",
      "brand:wikipedia": "de:Merkur (Österreich)",
      "name": "Merkur",
      "shop": "supermarket"
    }
  },
  "shop/supermarket|Metro~(Ontario)": {
    "locationSet": {"include": ["ca"]},
    "nomatch": [
      "amenity/bank|Metro Bank~(UK)",
      "amenity/bank|Metrobank~(Philippines)",
      "shop/mobile_phone|MetroPCS",
      "shop/supermarket|Metro~(Peru)",
      "shop/supermarket|Metro~(Quebec)",
      "shop/wholesale|Metro"
    ],
    "tags": {
      "brand": "Metro",
      "brand:wikidata": "Q1145669",
      "brand:wikipedia": "en:Metro Inc.",
      "name": "Metro",
      "shop": "supermarket"
    }
  },
  "shop/supermarket|Metro~(Peru)": {
    "locationSet": {"include": ["pe"]},
    "nomatch": [
      "amenity/bank|Metro Bank~(UK)",
      "amenity/bank|Metrobank~(Philippines)",
      "shop/mobile_phone|MetroPCS",
      "shop/supermarket|Metro~(Ontario)",
      "shop/supermarket|Metro~(Quebec)",
      "shop/wholesale|Metro"
    ],
    "tags": {
      "brand": "Metro",
      "brand:wikidata": "Q16640217",
      "brand:wikipedia": "en:Tiendas Metro",
      "name": "Metro",
      "shop": "supermarket"
    }
  },
  "shop/supermarket|Metro~(Quebec)": {
    "locationSet": {"include": ["ca"]},
    "nomatch": [
      "amenity/bank|Metro Bank~(UK)",
      "amenity/bank|Metrobank~(Philippines)",
      "shop/mobile_phone|MetroPCS",
      "shop/supermarket|Metro~(Ontario)",
      "shop/supermarket|Metro~(Peru)",
      "shop/wholesale|Metro"
    ],
    "tags": {
      "brand": "Metro",
      "brand:wikidata": "Q1145669",
      "brand:wikipedia": "fr:Metro (entreprise québécoise)",
      "name": "Metro",
      "shop": "supermarket"
    }
  },
  "shop/supermarket|Migros": {
    "locationSet": {"include": ["001"]},
    "tags": {
      "brand": "Migros",
      "brand:wikidata": "Q680727",
      "brand:wikipedia": "en:Migros",
      "name": "Migros",
      "shop": "supermarket"
    }
  },
  "shop/supermarket|Mila": {
    "locationSet": {"include": ["pl"]},
    "tags": {
      "brand": "Mila",
      "brand:wikidata": "Q48844636",
      "brand:wikipedia": "pl:Mila (sieć sklepów)",
      "name": "Mila",
      "shop": "supermarket"
    }
  },
  "shop/supermarket|Milk-Agro": {
    "locationSet": {"include": ["sk"]},
    "nomatch": ["shop/convenience|Milk-Agro"],
    "tags": {
      "brand": "Milk-Agro",
      "brand:wikidata": "Q64173785",
      "name": "Milk-Agro",
      "shop": "supermarket"
    }
  },
  "shop/supermarket|Minipreço": {
    "locationSet": {"include": ["001"]},
    "tags": {
      "brand": "Minipreço",
      "brand:wikidata": "Q3042224",
      "brand:wikipedia": "en:Minipreço",
      "name": "Minipreço",
      "shop": "supermarket"
    }
  },
  "shop/supermarket|Mix Markt": {
    "locationSet": {
      "include": [
        "at",
        "be",
        "cy",
        "cz",
        "de",
        "es",
        "fr",
        "gb",
        "gr",
        "it",
        "me",
        "nl",
        "pt"
      ]
    },
    "matchTags": ["shop/convenience"],
    "nomatch": ["shop/convenience|Mini Mix"],
    "tags": {
      "brand": "Mix Markt",
      "brand:wikidata": "Q327854",
      "brand:wikipedia": "de:Mix Markt",
      "name": "Mix Markt",
      "shop": "supermarket"
    }
  },
  "shop/supermarket|Monoprix": {
    "locationSet": {
      "include": ["ad", "fr", "tn"]
    },
    "tags": {
      "brand": "Monoprix",
      "brand:wikidata": "Q3321241",
      "brand:wikipedia": "en:Monoprix",
      "name": "Monoprix",
      "shop": "supermarket"
    }
  },
  "shop/supermarket|More": {
    "locationSet": {"include": ["in"]},
    "tags": {
      "brand": "More",
      "brand:wikidata": "Q6910891",
      "brand:wikipedia": "en:More (store)",
      "name": "More",
      "shop": "supermarket"
    }
  },
  "shop/supermarket|Morrisons": {
    "locationSet": {"include": ["gb"]},
    "nomatch": ["amenity/fuel|Morrisons"],
    "tags": {
      "brand": "Morrisons",
      "brand:wikidata": "Q922344",
      "brand:wikipedia": "en:Morrisons",
      "name": "Morrisons",
      "shop": "supermarket"
    }
  },
  "shop/supermarket|My Basket": {
    "locationSet": {"include": ["jp"]},
    "tags": {
      "brand": "My Basket",
      "name": "My Basket",
      "shop": "supermarket"
    }
  },
  "shop/supermarket|My market": {
    "locationSet": {"include": ["001"]},
    "tags": {
      "brand": "My market",
      "name": "My market",
      "shop": "supermarket"
    }
  },
  "shop/supermarket|Mydin": {
    "locationSet": {"include": ["my"]},
    "tags": {
      "brand": "Mydin",
      "brand:wikidata": "Q6947269",
      "brand:wikipedia": "en:Mydin",
      "name": "Mydin",
      "shop": "supermarket"
    }
  },
  "shop/supermarket|NP": {
    "locationSet": {"include": ["001"]},
    "matchNames": ["np-markt"],
    "nomatch": ["amenity/fuel|NP"],
    "tags": {
      "brand": "NP",
      "brand:wikidata": "Q15836148",
      "brand:wikipedia": "de:NP-Markt",
      "name": "NP",
      "shop": "supermarket"
    }
  },
  "shop/supermarket|NTUC Fairprice": {
    "locationSet": {"include": ["sg"]},
    "tags": {
      "brand": "NTUC Fairprice",
      "brand:wikidata": "Q6955519",
      "brand:wikipedia": "en:NTUC FairPrice",
      "name": "NTUC Fairprice",
      "shop": "supermarket"
    }
  },
  "shop/supermarket|Nah & Frisch": {
    "locationSet": {"include": ["at", "de"]},
    "matchNames": ["nah und frisch"],
    "tags": {
      "brand": "Nah & Frisch",
      "brand:wikidata": "Q1963643",
      "brand:wikipedia": "de:Nah & Frisch",
      "name": "Nah & Frisch",
      "shop": "supermarket"
    }
  },
  "shop/supermarket|Nahkauf": {
    "locationSet": {"include": ["de"]},
    "tags": {
      "brand": "Nahkauf",
      "brand:wikidata": "Q57515238",
      "name": "Nahkauf",
      "shop": "supermarket"
    }
  },
  "shop/supermarket|Natural Grocers": {
    "locationSet": {"include": ["us"]},
    "tags": {
      "brand": "Natural Grocers",
      "name": "Natural Grocers",
      "shop": "supermarket"
    }
  },
  "shop/supermarket|Naturalia": {
    "locationSet": {"include": ["fr"]},
    "tags": {
      "brand": "Naturalia",
      "brand:wikidata": "Q3337081",
      "brand:wikipedia": "fr:Naturalia",
      "name": "Naturalia",
      "shop": "supermarket"
    }
  },
  "shop/supermarket|Netto City": {
    "locationSet": {"include": ["001"]},
    "tags": {
      "brand": "Netto City",
      "name": "Netto City",
      "shop": "supermarket"
    }
  },
  "shop/supermarket|Netto Marken-Discount": {
    "locationSet": {"include": ["de"]},
    "tags": {
      "brand": "Netto Marken-Discount",
      "brand:wikidata": "Q879858",
      "brand:wikipedia": "de:Netto Marken-Discount",
      "name": "Netto Marken-Discount",
      "shop": "supermarket"
    }
  },
  "shop/supermarket|Netto~(Les Mousquetaires)": {
    "locationSet": {"include": ["fr", "pt"]},
    "tags": {
      "brand": "Netto",
      "brand:wikidata": "Q2720988",
      "brand:wikipedia": "fr:Netto",
      "name": "Netto",
      "shop": "supermarket"
    }
  },
  "shop/supermarket|Netto~(Salling)": {
    "locationSet": {
      "include": ["de", "dk", "pl", "se"]
    },
    "tags": {
      "brand": "Netto",
      "brand:wikidata": "Q552652",
      "brand:wikipedia": "da:Netto (supermarkedskæde)",
      "name": "Netto",
      "shop": "supermarket"
    }
  },
  "shop/supermarket|Nettó~(Iceland)": {
    "locationSet": {"include": ["is"]},
    "tags": {
      "brand": "Nettó",
      "brand:wikidata": "Q67205962",
      "name": "Nettó",
      "shop": "supermarket"
    }
  },
  "shop/supermarket|New Seasons Market": {
    "locationSet": {"include": ["us"]},
    "matchNames": ["new seasons"],
    "tags": {
      "brand": "New Seasons Market",
      "brand:wikidata": "Q7011463",
      "brand:wikipedia": "en:New Seasons Market",
      "name": "New Seasons Market",
      "shop": "supermarket"
    }
  },
  "shop/supermarket|New World": {
    "locationSet": {"include": ["nz"]},
    "tags": {
      "brand": "New World",
      "brand:wikidata": "Q7012488",
      "brand:wikipedia": "en:New World (supermarket)",
      "name": "New World",
      "shop": "supermarket"
    }
  },
  "shop/supermarket|Nisa Extra": {
    "locationSet": {"include": ["gb"]},
    "tags": {
      "brand": "Nisa Extra",
      "brand:wikidata": "Q16999069",
      "brand:wikipedia": "en:Nisa (retailer)",
      "name": "Nisa Extra",
      "shop": "supermarket"
    }
  },
  "shop/supermarket|No Frills": {
    "locationSet": {"include": ["ca"]},
    "tags": {
      "brand": "No Frills",
      "brand:wikidata": "Q3342407",
      "brand:wikipedia": "en:No Frills (grocery store)",
      "name": "No Frills",
      "shop": "supermarket"
    }
  },
  "shop/supermarket|Norfa XL": {
    "locationSet": {"include": ["lt"]},
    "tags": {
      "brand": "Norfa XL",
      "brand:wikidata": "Q1998983",
      "brand:wikipedia": "lt:Norfa",
      "name": "Norfa XL",
      "shop": "supermarket"
    }
  },
  "shop/supermarket|Norma": {
    "locationSet": {
      "include": ["at", "cz", "de", "fr"]
    },
    "tags": {
      "brand": "Norma",
      "brand:wikidata": "Q450180",
      "brand:wikipedia": "de:Norma (Handelskette)",
      "name": "Norma",
      "shop": "supermarket"
    }
  },
  "shop/supermarket|Northern Store": {
    "locationSet": {"include": ["ca"]},
    "tags": {
      "brand": "Northern Store",
      "brand:wikidata": "Q7754361",
      "brand:wikipedia": "en:The North West Company",
      "name": "Northern Store",
      "shop": "supermarket"
    }
  },
  "shop/supermarket|Okay": {
    "locationSet": {"include": ["be"]},
    "nomatch": ["shop/electronics|Okay"],
    "tags": {
      "brand": "Okay",
      "brand:wikidata": "Q2159701",
      "brand:wikipedia": "fr:OKay",
      "name": "Okay",
      "shop": "supermarket"
    }
  },
  "shop/supermarket|Olímpica": {
    "locationSet": {"include": ["co"]},
    "tags": {
      "brand": "Olímpica",
      "brand:wikidata": "Q24749847",
      "brand:wikipedia": "es:Grupo Empresarial Olímpica",
      "name": "Olímpica",
      "shop": "supermarket"
    }
  },
  "shop/supermarket|PLUS": {
    "locationSet": {"include": ["nl"]},
    "nomatch": [
      "amenity/fuel|Gas Plus",
      "shop/mobile_phone|Plus"
    ],
    "tags": {
      "brand": "PLUS",
      "brand:wikidata": "Q1978981",
      "brand:wikipedia": "nl:PLUS (Nederlandse supermarkt)",
      "name": "PLUS",
      "shop": "supermarket"
    }
  },
  "shop/supermarket|POLOmarket": {
    "locationSet": {"include": ["pl"]},
    "tags": {
      "brand": "POLOmarket",
      "brand:wikidata": "Q11821937",
      "brand:wikipedia": "pl:Polomarket",
      "name": "POLOmarket",
      "shop": "supermarket"
    }
  },
  "shop/supermarket|Palí": {
    "locationSet": {"include": ["cr", "ni"]},
    "tags": {
      "brand": "Palí",
      "brand:wikidata": "Q1064887",
      "brand:wikipedia": "es:Walmart de México y Centroamérica",
      "name": "Palí",
      "shop": "supermarket"
    }
  },
  "shop/supermarket|Pam": {
    "locationSet": {"include": ["ch", "it"]},
    "tags": {
      "brand": "Pam",
      "brand:wikidata": "Q3777398",
      "brand:wikipedia": "it:Gruppo PAM",
      "name": "Pam",
      "shop": "supermarket"
    }
  },
  "shop/supermarket|Patel Brothers": {
    "locationSet": {"include": ["us"]},
    "tags": {
      "brand": "Patel Brothers",
      "brand:wikidata": "Q55641396",
      "brand:wikipedia": "en:Patel Brothers",
      "cuisine": "indian",
      "name": "Patel Brothers",
      "shop": "supermarket"
    }
  },
  "shop/supermarket|Pavilions": {
    "locationSet": {"include": ["us"]},
    "tags": {
      "brand": "Pavilions",
      "brand:wikidata": "Q7155886",
      "brand:wikipedia": "en:Pavilions (supermarket)",
      "name": "Pavilions",
      "shop": "supermarket"
    }
  },
  "shop/supermarket|Penny": {
    "locationSet": {
      "include": [
        "at",
        "cz",
        "de",
        "hu",
        "it",
        "ro"
      ]
    },
    "matchNames": ["penny market", "penny markt"],
    "tags": {
      "brand": "Penny",
      "brand:wikidata": "Q284688",
      "brand:wikipedia": "en:Penny (supermarket)",
      "name": "Penny",
      "shop": "supermarket"
    }
  },
  "shop/supermarket|Pick 'n Save": {
    "locationSet": {"include": ["us", "za"]},
    "tags": {
      "brand": "Pick 'n Save",
      "brand:wikidata": "Q7371288",
      "brand:wikipedia": "en:Roundy's",
      "name": "Pick 'n Save",
      "shop": "supermarket"
    }
  },
  "shop/supermarket|Pick n Pay": {
    "locationSet": {"include": ["001"]},
    "tags": {
      "brand": "Pick n Pay",
      "brand:wikidata": "Q7190735",
      "brand:wikipedia": "en:Pick n Pay Stores",
      "name": "Pick n Pay",
      "shop": "supermarket"
    }
  },
  "shop/supermarket|Piggly Wiggly": {
    "locationSet": {"include": ["gb", "us"]},
    "tags": {
      "brand": "Piggly Wiggly",
      "brand:wikidata": "Q3388303",
      "brand:wikipedia": "en:Piggly Wiggly",
      "name": "Piggly Wiggly",
      "shop": "supermarket"
    }
  },
  "shop/supermarket|Pingo Doce": {
    "locationSet": {"include": ["pt"]},
    "tags": {
      "brand": "Pingo Doce",
      "brand:wikidata": "Q1575057",
      "brand:wikipedia": "en:Pingo Doce",
      "name": "Pingo Doce",
      "shop": "supermarket"
    }
  },
  "shop/supermarket|Piotr i Paweł": {
    "locationSet": {"include": ["pl"]},
    "tags": {
      "brand": "Piotr i Paweł",
      "brand:wikidata": "Q2096356",
      "brand:wikipedia": "pl:Piotr i Paweł",
      "name": "Piotr i Paweł",
      "shop": "supermarket"
    }
  },
  "shop/supermarket|Plaza Vea": {
    "locationSet": {"include": ["001"]},
    "tags": {
      "brand": "Plaza Vea",
      "brand:wikidata": "Q7203672",
      "brand:wikipedia": "en:Plaza Vea",
      "name": "Plaza Vea",
      "shop": "supermarket"
    }
  },
  "shop/supermarket|Plodine": {
    "locationSet": {"include": ["hr"]},
    "tags": {
      "brand": "Plodine",
      "brand:wikidata": "Q58040098",
      "name": "Plodine",
      "shop": "supermarket"
    }
  },
  "shop/supermarket|Poiesz": {
    "locationSet": {"include": ["nl"]},
    "tags": {
      "brand": "Poiesz",
      "brand:wikidata": "Q2521700",
      "brand:wikipedia": "nl:Poiesz Supermarkten",
      "name": "Poiesz",
      "shop": "supermarket"
    }
  },
  "shop/supermarket|Price Chopper~(Kansas City)": {
    "locationSet": {"include": ["us"]},
    "nomatch": [
      "shop/supermarket|Price Chopper~(New York)"
    ],
    "tags": {
      "brand": "Price Chopper",
      "brand:wikidata": "Q7242572",
      "brand:wikipedia": "en:Price Chopper (supermarket)",
      "name": "Price Chopper",
      "shop": "supermarket"
    }
  },
  "shop/supermarket|Price Chopper~(New York)": {
    "locationSet": {"include": ["us"]},
    "nomatch": [
      "shop/supermarket|Price Chopper~(Kansas City)"
    ],
    "tags": {
      "brand": "Price Chopper",
      "brand:wikidata": "Q7242574",
      "brand:wikipedia": "en:Price Chopper Supermarkets",
      "name": "Price Chopper",
      "shop": "supermarket"
    }
  },
  "shop/supermarket|Prisma": {
    "locationSet": {
      "include": ["ee", "fi", "ru"]
    },
    "tags": {
      "brand": "Prisma",
      "brand:wikidata": "Q12047031",
      "brand:wikipedia": "fi:Prisma (kauppaketju)",
      "name": "Prisma",
      "shop": "supermarket"
    }
  },
  "shop/supermarket|Prix": {
    "locationSet": {"include": ["it"]},
    "matchNames": ["prix quality"],
    "tags": {
      "brand": "Prix",
      "brand:wikidata": "Q61994819",
      "name": "Prix",
      "shop": "supermarket"
    }
  },
  "shop/supermarket|Profi": {
    "locationSet": {
      "include": ["be", "hu", "ro"]
    },
    "tags": {
      "brand": "Profi",
      "brand:wikidata": "Q956664",
      "brand:wikipedia": "en:Profi",
      "name": "Profi",
      "shop": "supermarket"
    }
  },
  "shop/supermarket|Profi City": {
    "locationSet": {"include": ["ro"]},
    "tags": {
      "brand": "Profi City",
      "name": "Profi City",
      "shop": "supermarket"
    }
  },
  "shop/supermarket|Provigo": {
    "locationSet": {"include": ["ca"]},
    "tags": {
      "brand": "Provigo",
      "brand:wikidata": "Q3408306",
      "brand:wikipedia": "fr:Provigo",
      "name": "Provigo",
      "shop": "supermarket"
    }
  },
  "shop/supermarket|Proxy Delhaize": {
    "locationSet": {"include": ["be", "lu"]},
    "tags": {
      "brand": "Proxy Delhaize",
      "brand:wikidata": "Q14903417",
      "brand:wikipedia": "en:Delhaize Group",
      "name": "Proxy Delhaize",
      "shop": "supermarket"
    }
  },
  "shop/supermarket|Publix": {
    "locationSet": {"include": ["br", "us"]},
    "tags": {
      "brand": "Publix",
      "brand:wikidata": "Q672170",
      "brand:wikipedia": "en:Publix",
      "name": "Publix",
      "shop": "supermarket"
    }
  },
  "shop/supermarket|Pueblo": {
    "locationSet": {"include": ["us"]},
    "tags": {
      "brand": "Pueblo",
      "brand:wikidata": "Q7258464",
      "brand:wikipedia": "en:Pueblo Supermarkets",
      "name": "Pueblo",
      "official_name": "Supermercados Pueblo",
      "shop": "supermarket"
    }
  },
  "shop/supermarket|Punto Simply": {
    "locationSet": {"include": ["it"]},
    "tags": {
      "brand": "Punto Simply",
      "brand:wikidata": "Q3484790",
      "brand:wikipedia": "it:Simply Market",
      "name": "Punto Simply",
      "shop": "supermarket"
    }
  },
  "shop/supermarket|Puregold": {
    "locationSet": {"include": ["ph"]},
    "tags": {
      "brand": "Puregold",
      "brand:wikidata": "Q7261170",
      "brand:wikipedia": "en:Puregold",
      "name": "Puregold",
      "shop": "supermarket"
    }
  },
  "shop/supermarket|Pão de Açúcar": {
    "locationSet": {"include": ["br", "pt"]},
    "tags": {
      "brand": "Pão de Açúcar",
      "brand:wikidata": "Q3411543",
      "brand:wikipedia": "pt:Pão de Açúcar (supermercado brasileiro)",
      "name": "Pão de Açúcar",
      "shop": "supermarket"
    }
  },
  "shop/supermarket|QFC": {
    "locationSet": {"include": ["us"]},
    "tags": {
      "brand": "QFC",
      "brand:wikidata": "Q7265425",
      "brand:wikipedia": "en:QFC",
      "name": "QFC",
      "shop": "supermarket"
    }
  },
  "shop/supermarket|Raley's": {
    "locationSet": {"include": ["us"]},
    "tags": {
      "brand": "Raley's",
      "brand:wikidata": "Q7286970",
      "brand:wikipedia": "en:Raley's Supermarkets",
      "name": "Raley's",
      "shop": "supermarket"
    }
  },
  "shop/supermarket|Ralphs": {
    "locationSet": {"include": ["us"]},
    "tags": {
      "brand": "Ralphs",
      "brand:wikidata": "Q3929820",
      "brand:wikipedia": "en:Ralphs",
      "name": "Ralphs",
      "shop": "supermarket"
    }
  },
  "shop/supermarket|Real": {
    "locationSet": {"include": ["001"]},
    "tags": {
      "brand": "Real",
      "brand:wikidata": "Q698473",
      "brand:wikipedia": "en:Real (hypermarket)",
      "name": "Real",
      "shop": "supermarket"
    }
  },
  "shop/supermarket|Real Canadian Superstore": {
    "locationSet": {"include": ["ca"]},
    "tags": {
      "brand": "Real Canadian Superstore",
      "brand:wikidata": "Q7300856",
      "brand:wikipedia": "en:Real Canadian Superstore",
      "name": "Real Canadian Superstore",
      "shop": "supermarket"
    }
  },
  "shop/supermarket|Redner's": {
    "locationSet": {"include": ["us"]},
    "matchNames": ["redners warehouse market"],
    "tags": {
      "brand": "Redner's",
      "brand:wikidata": "Q7306166",
      "brand:wikipedia": "en:Redner's Markets",
      "name": "Redner's",
      "shop": "supermarket"
    }
  },
  "shop/supermarket|Reliance Fresh": {
    "locationSet": {"include": ["in"]},
    "tags": {
      "brand": "Reliance Fresh",
      "brand:wikidata": "Q7311014",
      "brand:wikipedia": "en:Reliance Fresh",
      "name": "Reliance Fresh",
      "shop": "supermarket"
    }
  },
  "shop/supermarket|Rema 1000": {
    "locationSet": {"include": ["dk", "no"]},
    "tags": {
      "brand": "Rema 1000",
      "brand:wikidata": "Q28459",
      "brand:wikipedia": "en:REMA 1000",
      "name": "Rema 1000",
      "shop": "supermarket"
    }
  },
  "shop/supermarket|Rewe": {
    "locationSet": {"include": ["de"]},
    "nomatch": [
      "shop/convenience|Rewe To Go",
      "shop/supermarket|Rewe City"
    ],
    "tags": {
      "brand": "Rewe",
      "brand:wikidata": "Q16968817",
      "brand:wikipedia": "en:REWE",
      "name": "Rewe",
      "shop": "supermarket"
    }
  },
  "shop/supermarket|Rewe City": {
    "locationSet": {"include": ["de"]},
    "nomatch": [
      "shop/convenience|Rewe To Go",
      "shop/supermarket|Rewe"
    ],
    "tags": {
      "brand": "Rewe City",
      "brand:wikidata": "Q16968817",
      "brand:wikipedia": "en:REWE",
      "name": "Rewe City",
      "shop": "supermarket"
    }
  },
  "shop/supermarket|Rimi": {
    "locationSet": {
      "include": ["ee", "lt", "lv"]
    },
    "tags": {
      "brand": "Rimi",
      "brand:wikidata": "Q3741108",
      "brand:wikipedia": "en:Rimi Baltic",
      "name": "Rimi",
      "shop": "supermarket"
    }
  },
  "shop/supermarket|S-market": {
    "locationSet": {"include": ["fi"]},
    "tags": {
      "brand": "S-market",
      "brand:wikidata": "Q11891613",
      "brand:wikipedia": "fi:S-market",
      "name": "S-market",
      "shop": "supermarket"
    }
  },
  "shop/supermarket|Safeway": {
    "locationSet": {"include": ["001"]},
    "nomatch": [
      "amenity/fuel|Safeway",
      "amenity/pharmacy|Safeway"
    ],
    "tags": {
      "brand": "Safeway",
      "brand:wikidata": "Q1508234",
      "brand:wikipedia": "en:Safeway Inc.",
      "name": "Safeway",
      "shop": "supermarket"
    }
  },
  "shop/supermarket|Sainsbury's": {
    "locationSet": {"include": ["gb"]},
    "nomatch": ["amenity/fuel|Sainsbury's"],
    "tags": {
      "brand": "Sainsbury's",
      "brand:wikidata": "Q152096",
      "brand:wikipedia": "en:Sainsbury's",
      "name": "Sainsbury's",
      "shop": "supermarket"
    }
  },
  "shop/supermarket|Santa Isabel": {
    "locationSet": {"include": ["cl"]},
    "tags": {
      "brand": "Santa Isabel",
      "brand:wikidata": "Q7419620",
      "brand:wikipedia": "es:Santa Isabel (supermercado)",
      "name": "Santa Isabel",
      "shop": "supermarket"
    }
  },
  "shop/supermarket|Save-A-Lot": {
    "locationSet": {"include": ["us"]},
    "tags": {
      "brand": "Save-A-Lot",
      "brand:wikidata": "Q7427972",
      "brand:wikipedia": "en:Save-A-Lot",
      "name": "Save-A-Lot",
      "shop": "supermarket"
    }
  },
  "shop/supermarket|Save-On-Foods": {
    "locationSet": {"include": ["ca"]},
    "tags": {
      "brand": "Save-On-Foods",
      "brand:wikidata": "Q7427974",
      "brand:wikipedia": "en:Save-On-Foods",
      "name": "Save-On-Foods",
      "shop": "supermarket"
    }
  },
  "shop/supermarket|Schnucks": {
    "locationSet": {"include": ["us"]},
    "tags": {
      "brand": "Schnucks",
      "brand:wikidata": "Q7431920",
      "brand:wikipedia": "en:Schnucks",
      "name": "Schnucks",
      "shop": "supermarket"
    }
  },
  "shop/supermarket|Selver": {
    "locationSet": {"include": ["ee"]},
    "tags": {
      "brand": "Selver",
      "brand:wikidata": "Q3771177",
      "brand:wikipedia": "en:Selver",
      "name": "Selver",
      "shop": "supermarket"
    }
  },
  "shop/supermarket|Shaw's": {
    "locationSet": {"include": ["us"]},
    "tags": {
      "brand": "Shaw's",
      "brand:wikidata": "Q578387",
      "brand:wikipedia": "en:Shaw's and Star Market",
      "name": "Shaw's",
      "shop": "supermarket"
    }
  },
  "shop/supermarket|Sheng Siong": {
    "locationSet": {"include": ["001"]},
    "tags": {
      "brand": "Sheng Siong",
      "brand:wikidata": "Q3481878",
      "brand:wikipedia": "en:Sheng Siong",
      "name": "Sheng Siong",
      "shop": "supermarket"
    }
  },
  "shop/supermarket|ShopRite~(USA)": {
    "locationSet": {"include": ["us"]},
    "nomatch": [
      "shop/supermarket|Shoprite~(Africa)",
      "shop/supermarket|Shoprite~(Isle of Man)"
    ],
    "tags": {
      "brand": "ShopRite",
      "brand:wikidata": "Q7501097",
      "brand:wikipedia": "en:ShopRite (United States)",
      "name": "ShopRite",
      "shop": "supermarket"
    }
  },
  "shop/supermarket|Shoprite~(Africa)": {
    "locationSet": {
      "include": [
        "ao",
        "bw",
        "cd",
        "gh",
        "ls",
        "mg",
        "mu",
        "mw",
        "mz",
        "na",
        "ng",
        "sz",
        "ug",
        "za",
        "zm"
      ]
    },
    "nomatch": [
      "shop/supermarket|ShopRite~(USA)",
      "shop/supermarket|Shoprite~(Isle of Man)"
    ],
    "tags": {
      "brand": "Shoprite",
      "brand:wikidata": "Q1857639",
      "brand:wikipedia": "en:Shoprite (South Africa)",
      "name": "Shoprite",
      "shop": "supermarket"
    }
  },
  "shop/supermarket|Shoprite~(Isle of Man)": {
    "locationSet": {"include": ["im"]},
    "nomatch": [
      "shop/supermarket|ShopRite~(USA)",
      "shop/supermarket|Shoprite~(Africa)"
    ],
    "tags": {
      "brand": "Shoprite",
      "brand:wikidata": "Q7501242",
      "brand:wikipedia": "en:Shoprite (Isle of Man)",
      "name": "Shoprite",
      "shop": "supermarket"
    }
  },
  "shop/supermarket|Sigma": {
    "locationSet": {"include": ["it"]},
    "tags": {
      "brand": "Sigma",
      "brand:wikidata": "Q3977979",
      "brand:wikipedia": "it:Supermercati Sigma",
      "name": "Sigma",
      "shop": "supermarket"
    }
  },
  "shop/supermarket|Simply Market": {
    "locationSet": {"include": ["001"]},
    "matchNames": ["simply"],
    "tags": {
      "brand": "Simply Market",
      "brand:wikidata": "Q3484790",
      "brand:wikipedia": "en:Simply Market",
      "name": "Simply Market",
      "shop": "supermarket"
    }
  },
  "shop/supermarket|Sky": {
    "locationSet": {
      "include": ["de", "lv", "nl"]
    },
    "tags": {
      "brand": "Sky",
      "brand:wikidata": "Q1129779",
      "brand:wikipedia": "de:Coop eG",
      "name": "Sky",
      "shop": "supermarket"
    }
  },
  "shop/supermarket|Smart & Final": {
    "locationSet": {"include": ["mx", "us"]},
    "tags": {
      "brand": "Smart & Final",
      "brand:wikidata": "Q7543916",
      "brand:wikipedia": "en:Smart & Final",
      "name": "Smart & Final",
      "shop": "supermarket"
    }
  },
  "shop/supermarket|Smatch": {
    "locationSet": {"include": ["be", "lu"]},
    "tags": {
      "brand": "Smatch",
      "brand:wikidata": "Q5185959",
      "brand:wikipedia": "fr:Smatch",
      "name": "Smatch",
      "shop": "supermarket"
    }
  },
  "shop/supermarket|Smith's": {
    "locationSet": {"include": ["ca", "us"]},
    "nomatch": ["amenity/fuel|Smith's"],
    "tags": {
      "brand": "Smith's",
      "brand:wikidata": "Q7544856",
      "brand:wikipedia": "en:Smith's Food and Drug",
      "name": "Smith's",
      "shop": "supermarket"
    }
  },
  "shop/supermarket|Sobeys": {
    "locationSet": {"include": ["ca"]},
    "tags": {
      "brand": "Sobeys",
      "brand:wikidata": "Q1143340",
      "brand:wikipedia": "en:Sobeys",
      "name": "Sobeys",
      "shop": "supermarket"
    }
  },
  "shop/supermarket|Soriana": {
    "locationSet": {"include": ["mx"]},
    "tags": {
      "brand": "Soriana",
      "brand:wikidata": "Q735562",
      "brand:wikipedia": "en:Soriana",
      "name": "Soriana",
      "shop": "supermarket"
    }
  },
  "shop/supermarket|Sorli Discau": {
    "locationSet": {"include": ["es"]},
    "tags": {
      "brand": "Sorli Discau",
      "brand:wikidata": "Q21034458",
      "brand:wikipedia": "ca:Sorli",
      "name": "Sorli Discau",
      "shop": "supermarket"
    }
  },
  "shop/supermarket|Spar": {
    "locationSet": {"include": ["001"]},
    "nomatch": [
      "shop/convenience|Spar",
      "shop/convenience|Spar Express"
    ],
    "tags": {
      "brand": "Spar",
      "brand:wikidata": "Q610492",
      "brand:wikipedia": "en:Spar (retailer)",
      "name": "Spar",
      "shop": "supermarket"
    }
  },
  "shop/supermarket|Społem": {
    "locationSet": {"include": ["001"]},
    "nomatch": ["shop/convenience|Społem"],
    "tags": {
      "brand": "Społem",
      "brand:wikidata": "Q11826043",
      "brand:wikipedia": "pl:Powszechna Spółdzielnia Spożywców „Społem”",
      "name": "Społem",
      "shop": "supermarket"
    }
  },
  "shop/supermarket|Sprouts Farmers Market": {
    "locationSet": {"include": ["us"]},
    "tags": {
      "brand": "Sprouts Farmers Market",
      "brand:wikidata": "Q7581369",
      "brand:wikipedia": "en:Sprouts Farmers Market",
      "name": "Sprouts Farmers Market",
      "shop": "supermarket",
      "short_name": "Sprouts"
    }
  },
  "shop/supermarket|Stater Bros.": {
    "locationSet": {"include": ["us"]},
    "matchNames": ["stater brothers"],
    "tags": {
      "brand": "Stater Bros.",
      "brand:wikidata": "Q7604016",
      "brand:wikipedia": "en:Stater Bros.",
      "name": "Stater Bros.",
      "shop": "supermarket"
    }
  },
  "shop/supermarket|Stokrotka": {
    "locationSet": {"include": ["pl"]},
    "tags": {
      "brand": "Stokrotka",
      "brand:wikidata": "Q9345945",
      "brand:wikipedia": "pl:Stokrotka (sieć handlowa)",
      "name": "Stokrotka",
      "shop": "supermarket"
    }
  },
  "shop/supermarket|Stop & Shop": {
    "locationSet": {"include": ["us"]},
    "tags": {
      "brand": "Stop & Shop",
      "brand:wikidata": "Q3658429",
      "brand:wikipedia": "en:Stop & Shop",
      "name": "Stop & Shop",
      "shop": "supermarket"
    }
  },
  "shop/supermarket|Studenac": {
    "locationSet": {"include": ["001"]},
    "tags": {
      "brand": "Studenac",
      "name": "Studenac",
      "shop": "supermarket"
    }
  },
  "shop/supermarket|Suma": {
    "locationSet": {"include": ["es"]},
    "tags": {
      "brand": "Suma",
      "brand:wikidata": "Q58012362",
      "name": "Suma",
      "shop": "supermarket"
    }
  },
  "shop/supermarket|Supabarn": {
    "locationSet": {"include": ["au"]},
    "tags": {
      "brand": "Supabarn",
      "brand:wikidata": "Q7641883",
      "brand:wikipedia": "en:Supabarn Supermarkets",
      "name": "Supabarn",
      "official_name": "Supabarn Supermarkets",
      "shop": "supermarket"
    }
  },
  "shop/supermarket|Super 1 Foods": {
    "locationSet": {"include": ["us"]},
    "tags": {
      "brand": "Super 1 Foods",
      "name": "Super 1 Foods",
      "shop": "supermarket"
    }
  },
  "shop/supermarket|Super C": {
    "locationSet": {"include": ["001"]},
    "tags": {
      "brand": "Super C",
      "brand:wikidata": "Q3504127",
      "brand:wikipedia": "fr:Super C (entreprise)",
      "name": "Super C",
      "shop": "supermarket"
    }
  },
  "shop/supermarket|Super H Mart": {
    "locationSet": {"include": ["us"]},
    "tags": {
      "brand": "H Mart",
      "brand:wikidata": "Q5636306",
      "brand:wikipedia": "en:H Mart",
      "cuisine": "asian",
      "name": "Super H Mart",
      "shop": "supermarket"
    }
  },
  "shop/supermarket|Super One Foods": {
    "locationSet": {"include": ["us"]},
    "tags": {
      "brand": "Super One Foods",
      "brand:wikidata": "Q17108733",
      "brand:wikipedia": "en:Super One Foods",
      "name": "Super One Foods",
      "shop": "supermarket"
    }
  },
  "shop/supermarket|Super U": {
    "locationSet": {"include": ["fr"]},
    "nomatch": [
      "amenity/fuel|Super U",
      "shop/convenience|Utile",
      "shop/supermarket|Hyper U",
      "shop/supermarket|U Express"
    ],
    "tags": {
      "brand": "Super U",
      "brand:wikidata": "Q2529029",
      "brand:wikipedia": "en:Système U",
      "name": "Super U",
      "shop": "supermarket"
    }
  },
  "shop/supermarket|Super del Norte": {
    "locationSet": {"include": ["mx"]},
    "tags": {
      "brand": "Super del Norte",
      "brand:wikidata": "Q88388513",
      "name": "Super del Norte",
      "shop": "supermarket"
    }
  },
  "shop/supermarket|SuperBrugsen": {
    "locationSet": {"include": ["dk"]},
    "tags": {
      "brand": "SuperBrugsen",
      "brand:wikidata": "Q12337746",
      "brand:wikipedia": "en:SuperBrugsen",
      "name": "SuperBrugsen",
      "shop": "supermarket"
    }
  },
  "shop/supermarket|SuperValu": {
    "locationSet": {"include": ["gb", "ie"]},
    "tags": {
      "brand": "SuperValu",
      "brand:wikidata": "Q7642081",
      "brand:wikipedia": "en:SuperValu (Ireland)",
      "name": "SuperValu",
      "shop": "supermarket"
    }
  },
  "shop/supermarket|SuperVerd": {
    "locationSet": {"include": ["es"]},
    "tags": {
      "brand": "Superverd",
      "brand:wikidata": "Q11950546",
      "brand:wikipedia": "ca:Superverd",
      "name": "Superverd",
      "shop": "supermarket"
    }
  },
  "shop/supermarket|Superama": {
    "locationSet": {"include": ["mx"]},
    "tags": {
      "brand": "Superama",
      "brand:wikidata": "Q6135762",
      "brand:wikipedia": "es:Superama",
      "name": "Superama",
      "shop": "supermarket"
    }
  },
  "shop/supermarket|Supercor": {
    "locationSet": {"include": ["es", "pt"]},
    "tags": {
      "brand": "Supercor",
      "brand:wikidata": "Q6135841",
      "brand:wikipedia": "es:Supercor",
      "name": "Supercor",
      "shop": "supermarket"
    }
  },
  "shop/supermarket|Supersol": {
    "locationSet": {
      "include": ["ar", "es", "ma", "uy"]
    },
    "tags": {
      "brand": "Supersol",
      "brand:wikidata": "Q62073427",
      "name": "Supersol",
      "shop": "supermarket"
    }
  },
  "shop/supermarket|Superspar": {
    "locationSet": {"include": ["es", "za"]},
    "tags": {
      "brand": "Superspar",
      "brand:wikidata": "Q610492",
      "brand:wikipedia": "en:Spar (retailer)",
      "name": "Superspar",
      "shop": "supermarket"
    }
  },
  "shop/supermarket|T&T Supermarket": {
    "locationSet": {"include": ["ca"]},
    "tags": {
      "brand": "T&T Supermarket",
      "brand:wikidata": "Q837893",
      "brand:wikipedia": "en:T & T Supermarket",
      "name": "T&T Supermarket",
      "shop": "supermarket"
    }
  },
  "shop/supermarket|Tegut": {
    "locationSet": {"include": ["de"]},
    "tags": {
      "brand": "Tegut",
      "brand:wikidata": "Q1547993",
      "brand:wikipedia": "en:Tegut",
      "name": "Tegut",
      "shop": "supermarket"
    }
  },
  "shop/supermarket|Tesco": {
    "locationSet": {"include": ["001"]},
    "nomatch": [
      "amenity/fuel|Tesco",
      "shop/convenience|Tesco",
      "shop/convenience|Tesco Express",
      "shop/convenience|Tesco Lotus Express",
      "shop/supermarket|Tesco Extra",
      "shop/supermarket|Tesco Lotus",
      "shop/supermarket|Tesco Metro"
    ],
    "tags": {
      "brand": "Tesco",
      "brand:wikidata": "Q487494",
      "brand:wikipedia": "en:Tesco",
      "name": "Tesco",
      "shop": "supermarket"
    }
  },
  "shop/supermarket|Tesco Extra": {
    "locationSet": {"include": ["001"]},
    "nomatch": [
      "amenity/fuel|Tesco",
      "shop/convenience|Tesco",
      "shop/convenience|Tesco Express",
      "shop/convenience|Tesco Lotus Express",
      "shop/supermarket|Tesco",
      "shop/supermarket|Tesco Lotus",
      "shop/supermarket|Tesco Metro"
    ],
    "tags": {
      "brand": "Tesco Extra",
      "brand:wikidata": "Q25172225",
      "brand:wikipedia": "en:Tesco Extra",
      "name": "Tesco Extra",
      "shop": "supermarket"
    }
  },
  "shop/supermarket|Tesco Lotus": {
    "locationSet": {"include": ["th"]},
    "nomatch": [
      "amenity/fuel|Tesco",
      "shop/convenience|Tesco",
      "shop/convenience|Tesco Express",
      "shop/convenience|Tesco Lotus Express",
      "shop/supermarket|Tesco",
      "shop/supermarket|Tesco Extra",
      "shop/supermarket|Tesco Metro"
    ],
    "tags": {
      "brand": "Tesco Lotus",
      "brand:wikidata": "Q2378901",
      "brand:wikipedia": "th:เทสโก้ โลตัส",
      "name": "Tesco Lotus",
      "shop": "supermarket"
    }
  },
  "shop/supermarket|Tesco Metro": {
    "locationSet": {"include": ["gb", "ie"]},
    "nomatch": [
      "amenity/fuel|Tesco",
      "shop/convenience|Tesco",
      "shop/convenience|Tesco Express",
      "shop/convenience|Tesco Lotus Express",
      "shop/supermarket|Tesco",
      "shop/supermarket|Tesco Extra",
      "shop/supermarket|Tesco Lotus"
    ],
    "tags": {
      "brand": "Tesco Metro",
      "brand:wikidata": "Q57551648",
      "name": "Tesco Metro",
      "shop": "supermarket"
    }
  },
  "shop/supermarket|TF Value-Mart": {
    "locationSet": {"include": ["my"]},
    "tags": {
      "brand": "TF Value-Mart",
      "brand:wikidata": "Q96679744",
      "name": "TF Value-Mart",
      "shop": "supermarket"
    }
  },
  "shop/supermarket|The Food Warehouse": {
    "locationSet": {"include": ["gb"]},
    "tags": {
      "brand": "The Food Warehouse",
      "brand:wikidata": "Q87263899",
      "name": "The Food Warehouse",
      "shop": "supermarket"
    }
  },
  "shop/supermarket|The Fresh Market": {
    "locationSet": {"include": ["us"]},
    "matchNames": ["fresh market"],
    "tags": {
      "brand": "The Fresh Market",
      "brand:wikidata": "Q7735265",
      "brand:wikipedia": "en:The Fresh Market",
      "name": "The Fresh Market",
      "shop": "supermarket"
    }
  },
  "shop/supermarket|The Grocery Outlet": {
    "locationSet": {"include": ["ca"]},
    "tags": {
      "brand": "The Grocery Outlet",
      "brand:wikidata": "Q16062155",
      "brand:wikipedia": "en:The Grocery Outlet",
      "name": "The Grocery Outlet",
      "shop": "supermarket"
    }
  },
  "shop/supermarket|The Store": {
    "locationSet": {"include": ["my"]},
    "tags": {
      "brand": "The Store",
      "brand:wikidata": "Q96679754",
      "name": "The Store",
      "shop": "supermarket"
    }
  },
  "shop/supermarket|Thomas Philipps Sonderposten": {
    "locationSet": {"include": ["001"]},
    "tags": {
      "brand": "Thomas Philipps Sonderposten",
      "name": "Thomas Philipps Sonderposten",
      "shop": "supermarket"
    }
  },
  "shop/supermarket|Tigros": {
    "locationSet": {"include": ["it"]},
    "tags": {
      "brand": "Tigros",
      "brand:wikidata": "Q24935610",
      "brand:wikipedia": "it:Tigros",
      "name": "Tigros",
      "shop": "supermarket"
    }
  },
  "shop/supermarket|Todis": {
    "locationSet": {"include": ["it"]},
    "tags": {
      "brand": "Todis",
      "brand:wikidata": "Q3992174",
      "brand:wikipedia": "it:Todis",
      "name": "Todis",
      "shop": "supermarket"
    }
  },
  "shop/supermarket|Tommy": {
    "locationSet": {"include": ["hr"]},
    "tags": {
      "brand": "Tommy",
      "brand:wikidata": "Q12643718",
      "brand:wikipedia": "hr:Tommy",
      "name": "Tommy",
      "shop": "supermarket"
    }
  },
  "shop/supermarket|Top Market": {
    "locationSet": {"include": ["pl"]},
    "tags": {
      "brand": "Top Market",
      "brand:wikidata": "Q9360044",
      "brand:wikipedia": "pl:Top Market",
      "name": "Top Market",
      "shop": "supermarket"
    }
  },
  "shop/supermarket|Tops": {
    "locationSet": {"include": ["us"]},
    "tags": {
      "brand": "Tops",
      "brand:wikidata": "Q7825137",
      "brand:wikipedia": "en:Tops Friendly Markets",
      "name": "Tops",
      "official_name": "Tops Friendly Markets",
      "shop": "supermarket"
    }
  },
  "shop/supermarket|Tottus": {
    "locationSet": {"include": ["cl", "pe"]},
    "tags": {
      "brand": "Tottus",
      "brand:wikidata": "Q7828510",
      "brand:wikipedia": "en:Tottus",
      "name": "Tottus",
      "shop": "supermarket"
    }
  },
  "shop/supermarket|Trader Joe's": {
    "locationSet": {"include": ["us"]},
    "tags": {
      "brand": "Trader Joe's",
      "brand:wikidata": "Q688825",
      "brand:wikipedia": "en:Trader Joe's",
      "name": "Trader Joe's",
      "shop": "supermarket"
    }
  },
  "shop/supermarket|Treff 3000": {
    "locationSet": {"include": ["de"]},
    "tags": {
      "brand": "Treff 3000",
      "brand:wikidata": "Q701755",
      "brand:wikipedia": "de:Edeka",
      "name": "Treff 3000",
      "shop": "supermarket"
    }
  },
  "shop/supermarket|Tuodì": {
    "locationSet": {"include": ["it"]},
    "tags": {
      "brand": "Tuodì",
      "brand:wikidata": "Q3706995",
      "brand:wikipedia": "it:Tuodì",
      "name": "Tuodì",
      "shop": "supermarket"
    }
  },
  "shop/supermarket|U Express": {
    "locationSet": {"include": ["fr"]},
    "nomatch": [
      "amenity/fuel|Super U",
      "shop/convenience|Utile",
      "shop/supermarket|Hyper U",
      "shop/supermarket|Super U"
    ],
    "tags": {
      "brand": "U Express",
      "brand:wikidata": "Q2529029",
      "brand:wikipedia": "en:Système U",
      "name": "U Express",
      "shop": "supermarket"
    }
  },
  "shop/supermarket|Unimarc": {
    "locationSet": {"include": ["cl"]},
    "tags": {
      "brand": "Unimarc",
      "brand:wikidata": "Q6156244",
      "brand:wikipedia": "es:Unimarc",
      "name": "Unimarc",
      "shop": "supermarket"
    }
  },
  "shop/supermarket|Unimarkt": {
    "locationSet": {"include": ["at"]},
    "tags": {
      "brand": "Unimarkt",
      "brand:wikidata": "Q1169599",
      "brand:wikipedia": "de:Unimarkt",
      "name": "Unimarkt",
      "shop": "supermarket"
    }
  },
  "shop/supermarket|V-MARKT": {
    "locationSet": {"include": ["de"]},
    "matchNames": [
      "georg jos kaes",
      "v-baumarkt"
    ],
    "tags": {
      "brand": "V-MARKT",
      "brand:wikidata": "Q1504903",
      "brand:wikipedia": "de:Georg Jos. Kaes",
      "name": "V-MARKT",
      "shop": "supermarket"
    }
  },
  "shop/supermarket|VOI": {
    "locationSet": {"include": ["001"]},
    "tags": {
      "brand": "VOI",
      "name": "VOI",
      "shop": "supermarket"
    }
  },
  "shop/supermarket|Vallarta": {
    "locationSet": {"include": ["us"]},
    "tags": {
      "brand": "Vallarta",
      "brand:wikidata": "Q7911833",
      "brand:wikipedia": "en:Vallarta Supermarkets",
      "cuisine": "latin_american",
      "name": "Vallarta",
      "official_name": "Vallarta Supermarkets",
      "shop": "supermarket"
    }
  },
  "shop/supermarket|Valu-mart": {
    "locationSet": {"include": ["ca"]},
    "tags": {
      "brand": "Valu-mart",
      "brand:wikidata": "Q7912687",
      "brand:wikipedia": "en:Valu-mart",
      "name": "Valu-mart",
      "shop": "supermarket"
    }
  },
  "shop/supermarket|Varus": {
    "locationSet": {"include": ["001"]},
    "tags": {
      "brand": "Varus",
      "name": "Varus",
      "shop": "supermarket"
    }
  },
  "shop/supermarket|Vea": {
    "locationSet": {"include": ["ar"]},
    "tags": {
      "brand": "Vea",
      "brand:wikidata": "Q5858167",
      "brand:wikipedia": "es:Vea (supermercado)",
      "name": "Vea",
      "shop": "supermarket"
    }
  },
  "shop/supermarket|VinMart": {
    "locationSet": {"include": ["vn"]},
    "matchTags": ["shop/department_store"],
    "nomatch": ["shop/convenience|VinMart+"],
    "tags": {
      "brand": "VinMart",
      "brand:wikidata": "Q60245505",
      "brand:wikipedia": "vi:VinMart",
      "name": "VinMart",
      "shop": "supermarket"
    }
  },
  "shop/supermarket|Volg": {
    "locationSet": {"include": ["ch", "li"]},
    "matchTags": ["shop/convenience"],
    "tags": {
      "brand": "Volg",
      "brand:wikidata": "Q2530746",
      "brand:wikipedia": "de:Volg",
      "name": "Volg",
      "shop": "supermarket"
    }
  },
  "shop/supermarket|Vomar": {
    "locationSet": {"include": ["nl"]},
    "tags": {
      "brand": "Vomar",
      "brand:wikidata": "Q3202837",
      "brand:wikipedia": "nl:Vomar",
      "name": "Vomar",
      "shop": "supermarket"
    }
  },
  "shop/supermarket|Vons": {
    "locationSet": {"include": ["us"]},
    "tags": {
      "brand": "Vons",
      "brand:wikidata": "Q7941609",
      "brand:wikipedia": "en:Vons",
      "name": "Vons",
      "shop": "supermarket"
    }
  },
  "shop/supermarket|Waitrose": {
    "locationSet": {"include": ["gb", "je"]},
    "nomatch": [
      "shop/convenience|Little Waitrose",
      "shop/convenience|Waitrose"
    ],
    "tags": {
      "brand": "Waitrose",
      "brand:wikidata": "Q771734",
      "brand:wikipedia": "en:Waitrose & Partners",
      "name": "Waitrose",
      "official_name": "Waitrose & Partners",
      "shop": "supermarket"
    }
  },
  "shop/supermarket|Walmart Neighborhood Market": {
    "locationSet": {
      "include": ["ca", "mx", "us"]
    },
    "tags": {
      "brand": "Walmart",
      "brand:wikidata": "Q483551",
      "brand:wikipedia": "en:Walmart",
      "name": "Walmart Neighborhood Market",
      "shop": "supermarket"
    }
  },
  "shop/supermarket|Walmart Supercenter": {
    "locationSet": {"include": ["001"]},
    "matchNames": ["walmart supercentre"],
    "matchTags": ["shop/department_store"],
    "tags": {
      "brand": "Walmart",
      "brand:wikidata": "Q483551",
      "brand:wikipedia": "en:Walmart",
      "name": "Walmart Supercenter",
      "shop": "supermarket"
    }
  },
  "shop/supermarket|Wasgau": {
    "locationSet": {"include": ["de"]},
    "tags": {
      "brand": "Wasgau",
      "brand:wikidata": "Q2536857",
      "brand:wikipedia": "de:Wasgau (Unternehmen)",
      "name": "Wasgau",
      "shop": "supermarket"
    }
  },
  "shop/supermarket|Wegmans": {
    "locationSet": {"include": ["us"]},
    "tags": {
      "brand": "Wegmans",
      "brand:wikidata": "Q11288478",
      "brand:wikipedia": "en:Wegmans",
      "name": "Wegmans",
      "shop": "supermarket"
    }
  },
  "shop/supermarket|Weis": {
    "locationSet": {"include": ["us"]},
    "tags": {
      "brand": "Weis",
      "brand:wikidata": "Q7980370",
      "brand:wikipedia": "en:Weis Markets",
      "name": "Weis",
      "shop": "supermarket"
    }
  },
  "shop/supermarket|Whole Foods Market": {
    "locationSet": {
      "include": ["ca", "gb", "us"]
    },
    "matchNames": ["whole foods"],
    "tags": {
      "brand": "Whole Foods Market",
      "brand:wikidata": "Q1809448",
      "brand:wikipedia": "en:Whole Foods Market",
      "name": "Whole Foods Market",
      "shop": "supermarket"
    }
  },
  "shop/supermarket|Willys": {
    "locationSet": {"include": ["se"]},
    "tags": {
      "brand": "Willys",
      "brand:wikidata": "Q10720214",
      "brand:wikipedia": "sv:Willys",
      "name": "Willys",
      "shop": "supermarket"
    }
  },
  "shop/supermarket|WinCo Foods": {
    "locationSet": {"include": ["us"]},
    "tags": {
      "brand": "WinCo Foods",
      "brand:wikidata": "Q8023592",
      "brand:wikipedia": "en:WinCo Foods",
      "name": "WinCo Foods",
      "shop": "supermarket"
    }
  },
  "shop/supermarket|Winn-Dixie": {
    "locationSet": {"include": ["us"]},
    "tags": {
      "brand": "Winn-Dixie",
      "brand:wikidata": "Q1264366",
      "brand:wikipedia": "en:Winn-Dixie",
      "name": "Winn-Dixie",
      "shop": "supermarket"
    }
  },
  "shop/supermarket|Woolworths": {
    "locationSet": {"include": ["au"]},
    "nomatch": ["shop/clothes|Woolworths"],
    "tags": {
      "brand": "Woolworths",
      "brand:wikidata": "Q3249145",
      "brand:wikipedia": "en:Woolworths Supermarkets",
      "name": "Woolworths",
      "shop": "supermarket"
    }
  },
  "shop/supermarket|Your Independent Grocer": {
    "locationSet": {"include": ["ca"]},
    "matchNames": ["independent"],
    "tags": {
      "brand": "Your Independent Grocer",
      "brand:wikidata": "Q8058833",
      "brand:wikipedia": "en:Your Independent Grocer",
      "name": "Your Independent Grocer",
      "shop": "supermarket"
    }
  },
  "shop/supermarket|Zehrs": {
    "locationSet": {"include": ["ca"]},
    "tags": {
      "brand": "Zehrs",
      "brand:wikidata": "Q8068546",
      "brand:wikipedia": "en:Zehrs Markets",
      "name": "Zehrs",
      "shop": "supermarket"
    }
  },
  "shop/supermarket|basic": {
    "locationSet": {"include": ["de"]},
    "tags": {
      "brand": "basic",
      "brand:wikidata": "Q809994",
      "brand:wikipedia": "de:Basic AG",
      "name": "basic",
      "organic": "only",
      "shop": "supermarket"
    }
  },
  "shop/supermarket|bi1": {
    "locationSet": {"include": ["fr", "pl"]},
    "nomatch": ["amenity/fuel|bi1"],
    "tags": {
      "brand": "bi1",
      "brand:wikidata": "Q56325139",
      "brand:wikipedia": "pl:Bi1",
      "name": "bi1",
      "shop": "supermarket"
    }
  },
  "shop/supermarket|denn's Biomarkt": {
    "locationSet": {"include": ["at", "de"]},
    "tags": {
      "brand": "denn's Biomarkt",
      "brand:wikidata": "Q48883773",
      "name": "denn's Biomarkt",
      "organic": "only",
      "shop": "supermarket"
    }
  },
  "shop/supermarket|fakta": {
    "locationSet": {"include": ["dk"]},
    "tags": {
      "brand": "fakta",
      "brand:wikidata": "Q3172238",
      "brand:wikipedia": "en:Fakta",
      "name": "fakta",
      "shop": "supermarket"
    }
  },
  "shop/supermarket|nah und gut": {
    "locationSet": {"include": ["de"]},
    "tags": {
      "brand": "nah und gut",
      "brand:wikidata": "Q701755",
      "brand:wikipedia": "de:Edeka",
      "name": "nah und gut",
      "shop": "supermarket"
    }
  },
  "shop/supermarket|Şok": {
    "locationSet": {"include": ["tr"]},
    "tags": {
      "brand": "Şok",
      "brand:wikidata": "Q19613992",
      "brand:wikipedia": "tr:Şok (market)",
      "name": "Şok",
      "shop": "supermarket"
    }
  },
  "shop/supermarket|ΑΒ Βασιλόπουλος": {
    "locationSet": {"include": ["gr"]},
    "tags": {
      "brand": "ΑΒ Βασιλόπουλος",
      "brand:el": "ΑΒ Βασιλόπουλος",
      "brand:en": "AB Vassilopoulos",
      "brand:wikidata": "Q4721807",
      "brand:wikipedia": "el:Άλφα Βήτα Βασιλόπουλος",
      "name": "ΑΒ Βασιλόπουλος",
      "name:el": "ΑΒ Βασιλόπουλος",
      "name:en": "AB Vassilopoulos",
      "shop": "supermarket"
    }
  },
  "shop/supermarket|Γαλαξίας": {
    "locationSet": {"include": ["gr"]},
    "tags": {
      "brand": "Γαλαξίας",
      "brand:el": "Γαλαξίας",
      "brand:en": "Galaxias",
      "brand:wikidata": "Q5518063",
      "brand:wikipedia": "el:Γαλαξίας (σούπερ μάρκετ)",
      "name": "Γαλαξίας",
      "name:el": "Γαλαξίας",
      "name:en": "Galaxias",
      "shop": "supermarket"
    }
  },
  "shop/supermarket|Μασούτης": {
    "locationSet": {"include": ["gr"]},
    "tags": {
      "brand": "Μασούτης",
      "brand:el": "Μασούτης",
      "brand:en": "Masoutis",
      "brand:wikidata": "Q6783887",
      "brand:wikipedia": "en:Masoutis",
      "name": "Μασούτης",
      "name:el": "Μασούτης",
      "name:en": "Masoutis",
      "shop": "supermarket"
    }
  },
  "shop/supermarket|Σκλαβενίτης": {
    "locationSet": {"include": ["gr"]},
    "tags": {
      "brand": "Σκλαβενίτης",
      "brand:el": "Σκλαβενίτης",
      "brand:en": "Sklavenitis",
      "brand:wikidata": "Q7536037",
      "brand:wikipedia": "el:Σκλαβενίτης",
      "name": "Σκλαβενίτης",
      "name:el": "Σκλαβενίτης",
      "name:en": "Sklavenitis",
      "shop": "supermarket"
    }
  },
  "shop/supermarket|АТБ": {
    "locationSet": {"include": ["001"]},
    "tags": {
      "brand": "АТБ",
      "name": "АТБ",
      "shop": "supermarket"
    }
  },
  "shop/supermarket|Абсолют~(Russia)": {
    "locationSet": {"include": ["ru"]},
    "tags": {
      "brand": "Абсолют",
      "brand:wikidata": "Q62389597",
      "name": "Абсолют",
      "shop": "supermarket"
    }
  },
  "shop/supermarket|Абсолют~(Ukraine)": {
    "locationSet": {"include": ["ua"]},
    "tags": {
      "brand": "Абсолют",
      "brand:wikidata": "Q62389546",
      "name": "Абсолют",
      "shop": "supermarket"
    }
  },
  "shop/supermarket|Авоська": {
    "locationSet": {"include": ["001"]},
    "tags": {
      "brand": "Авоська",
      "name": "Авоська",
      "shop": "supermarket"
    }
  },
  "shop/supermarket|Азбука Вкуса": {
    "locationSet": {"include": ["ru"]},
    "tags": {
      "brand": "Азбука Вкуса",
      "brand:en": "Azbuka Vkusa",
      "brand:wikidata": "Q4058209",
      "brand:wikipedia": "en:Azbuka Vkusa",
      "name": "Азбука Вкуса",
      "name:en": "Azbuka Vkusa",
      "shop": "supermarket"
    }
  },
  "shop/supermarket|Аникс": {
    "locationSet": {"include": ["001"]},
    "tags": {
      "brand": "Аникс",
      "name": "Аникс",
      "shop": "supermarket"
    }
  },
  "shop/supermarket|Атак": {
    "locationSet": {"include": ["ru"]},
    "tags": {
      "brand": "Атак",
      "brand:en": "Atac",
      "brand:wikidata": "Q2868738",
      "brand:wikipedia": "ru:Atac",
      "name": "Атак",
      "name:en": "Atac",
      "shop": "supermarket"
    }
  },
  "shop/supermarket|Ашан": {
    "locationSet": {"include": ["ru", "ua"]},
    "tags": {
      "brand": "Ашан",
      "brand:en": "Auchan",
      "brand:wikidata": "Q758603",
      "brand:wikipedia": "ru:Auchan",
      "name": "Ашан",
      "name:en": "Auchan",
      "shop": "supermarket"
    }
  },
  "shop/supermarket|Байрам": {
    "locationSet": {"include": ["ru"]},
    "tags": {
      "brand": "Байрам",
      "name": "Байрам",
      "shop": "supermarket"
    }
  },
  "shop/supermarket|Близенько": {
    "locationSet": {"include": ["001"]},
    "tags": {
      "brand": "Близенько",
      "name": "Близенько",
      "shop": "supermarket"
    }
  },
  "shop/supermarket|Брусничка": {
    "locationSet": {"include": ["ua"]},
    "tags": {
      "brand": "Брусничка",
      "brand:en": "Brusnichka",
      "brand:wikidata": "Q21656645",
      "brand:wikipedia": "uk:Брусничка (торгова мережа)",
      "name": "Брусничка",
      "name:en": "Brusnichka",
      "shop": "supermarket"
    }
  },
  "shop/supermarket|Булмаг": {
    "locationSet": {"include": ["bg"]},
    "tags": {
      "brand": "Булмаг",
      "brand:en": "BulMag",
      "brand:wikidata": "Q66133376",
      "name": "Булмаг",
      "name:en": "BulMag",
      "shop": "supermarket"
    }
  },
  "shop/supermarket|Верный": {
    "locationSet": {"include": ["001"]},
    "tags": {
      "brand": "Верный",
      "name": "Верный",
      "shop": "supermarket"
    }
  },
  "shop/supermarket|Виктория": {
    "locationSet": {"include": ["ru"]},
    "matchTags": ["shop/convenience"],
    "nomatch": [
      "amenity/cafe|Виктория",
      "shop/hairdresser|Виктория"
    ],
    "tags": {
      "brand": "Виктория",
      "brand:wikidata": "Q4111046",
      "brand:wikipedia": "ru:Виктория (сеть магазинов)",
      "name": "Виктория",
      "shop": "supermarket"
    }
  },
  "shop/supermarket|Виталюр": {
    "locationSet": {"include": ["by"]},
    "tags": {
      "brand": "Виталюр",
      "brand:wikidata": "Q55663075",
      "brand:wikipedia": "ru:Виталюр",
      "name": "Виталюр",
      "shop": "supermarket"
    }
  },
  "shop/supermarket|Вопак": {
    "locationSet": {"include": ["ua"]},
    "tags": {
      "brand": "Вопак",
      "brand:en": "Vopak",
      "brand:wikidata": "Q30966107",
      "brand:wikipedia": "uk:Вопак",
      "name": "Вопак",
      "name:en": "Vopak",
      "shop": "supermarket"
    }
  },
  "shop/supermarket|Гастроном": {
    "locationSet": {"include": ["001"]},
    "tags": {
      "brand": "Гастроном",
      "name": "Гастроном",
      "shop": "supermarket"
    }
  },
  "shop/supermarket|Гроздь": {
    "locationSet": {"include": ["001"]},
    "nomatch": ["shop/convenience|Гроздь"],
    "tags": {
      "brand": "Гроздь",
      "brand:wikidata": "Q21638412",
      "brand:wikipedia": "ru:Гроздь (сеть магазинов)",
      "name": "Гроздь",
      "shop": "supermarket"
    }
  },
  "shop/supermarket|Гулливер": {
    "locationSet": {"include": ["ru"]},
    "tags": {
      "brand": "Гулливер",
      "brand:wikidata": "Q58003470",
      "name": "Гулливер",
      "shop": "supermarket"
    }
  },
  "shop/supermarket|Десяточка": {
    "locationSet": {"include": ["ru"]},
    "tags": {
      "brand": "Десяточка",
      "brand:en": "Desyatochka",
      "brand:wikidata": "Q61876182",
      "name": "Десяточка",
      "shop": "supermarket"
    }
  },
  "shop/supermarket|Дикси": {
    "locationSet": {"include": ["ru"]},
    "matchTags": ["shop/convenience"],
    "tags": {
      "brand": "Дикси",
      "brand:en": "Dixy",
      "brand:wikidata": "Q4161561",
      "brand:wikipedia": "ru:Дикси (сеть магазинов)",
      "name": "Дикси",
      "shop": "supermarket"
    }
  },
  "shop/supermarket|Евроопт": {
    "locationSet": {"include": ["by"]},
    "matchTags": ["shop/convenience"],
    "tags": {
      "brand": "Евроопт",
      "brand:en": "Euroopt",
      "brand:ru": "Евроопт",
      "brand:wikidata": "Q2565040",
      "brand:wikipedia": "be:Еўрагандаль",
      "name": "Евроопт",
      "name:en": "Euroopt",
      "name:ru": "Евроопт",
      "shop": "supermarket"
    }
  },
  "shop/supermarket|Евроопт Hyper": {
    "locationSet": {"include": ["by"]},
    "matchNames": ["евроопт гипер"],
    "tags": {
      "brand": "Евроопт Hyper",
      "brand:wikidata": "Q65455975",
      "name": "Евроопт Hyper",
      "shop": "supermarket"
    }
  },
  "shop/supermarket|Евроопт Super": {
    "locationSet": {"include": ["by"]},
    "matchNames": ["евроопт супер"],
    "tags": {
      "brand": "Евроопт Super",
      "brand:wikidata": "Q65455960",
      "name": "Евроопт Super",
      "shop": "supermarket"
    }
  },
  "shop/supermarket|Караван": {
    "locationSet": {"include": ["ru", "ua"]},
    "tags": {
      "brand": "Караван",
      "name": "Караван",
      "shop": "supermarket"
    }
  },
  "shop/supermarket|Карусель": {
    "locationSet": {"include": ["ru"]},
    "tags": {
      "brand": "Карусель",
      "brand:en": "Karusel",
      "brand:wikidata": "Q4216307",
      "brand:wikipedia": "ru:Карусель (сеть магазинов)",
      "name": "Карусель",
      "name:en": "Karusel",
      "shop": "supermarket"
    }
  },
  "shop/supermarket|Квартал": {
    "locationSet": {"include": ["001"]},
    "tags": {
      "brand": "Квартал",
      "name": "Квартал",
      "shop": "supermarket"
    }
  },
  "shop/supermarket|Кировский": {
    "locationSet": {"include": ["ru"]},
    "matchTags": ["shop/convenience"],
    "tags": {
      "brand": "Кировский",
      "brand:wikidata": "Q63301903",
      "name": "Кировский",
      "shop": "supermarket"
    }
  },
  "shop/supermarket|Командор": {
    "locationSet": {"include": ["ru"]},
    "tags": {
      "brand": "Командор",
      "brand:en": "Komandor",
      "brand:wikidata": "Q61876152",
      "name": "Командор",
      "shop": "supermarket"
    }
  },
  "shop/supermarket|Красный Яр": {
    "locationSet": {"include": ["ru"]},
    "tags": {
      "brand": "Красный Яр",
      "brand:en": "Krasnyj Jar",
      "brand:wikidata": "Q1786753",
      "brand:wikipedia": "ru:Красный Яр",
      "name": "Красный Яр",
      "shop": "supermarket"
    }
  },
  "shop/supermarket|Лента": {
    "locationSet": {"include": ["ru"]},
    "tags": {
      "brand": "Лента",
      "brand:en": "Lenta",
      "brand:wikidata": "Q4258608",
      "brand:wikipedia": "ru:Лента (сеть магазинов)",
      "name": "Лента",
      "name:en": "Lenta",
      "shop": "supermarket"
    }
  },
  "shop/supermarket|ЛотОК": {
    "locationSet": {"include": ["001"]},
    "tags": {
      "brand": "ЛотОК",
      "name": "ЛотОК",
      "shop": "supermarket"
    }
  },
  "shop/supermarket|Магазин": {
    "locationSet": {
      "include": [
        "by",
        "kg",
        "kz",
        "ru",
        "tj",
        "ua",
        "uz"
      ]
    },
    "tags": {
      "brand": "Магазин",
      "name": "Магазин",
      "shop": "supermarket"
    }
  },
  "shop/supermarket|Магнит": {
    "locationSet": {"include": ["001"]},
    "matchTags": ["shop/department_store"],
    "nomatch": [
      "shop/convenience|Магнит",
      "shop/cosmetics|Магнит Косметик"
    ],
    "tags": {
      "brand": "Магнит",
      "brand:en": "Magnit",
      "brand:wikidata": "Q940518",
      "brand:wikipedia": "ru:Магнит (сеть магазинов)",
      "name": "Магнит",
      "name:en": "Magnit",
      "shop": "supermarket"
    }
  },
  "shop/supermarket|Магнит у дома": {
    "locationSet": {"include": ["ru"]},
    "tags": {
      "brand": "Магнит у дома",
      "name": "Магнит у дома",
      "shop": "supermarket"
    }
  },
  "shop/supermarket|Магнолия": {
    "locationSet": {"include": ["ru"]},
    "matchTags": ["shop/convenience"],
    "tags": {
      "brand": "Магнолия",
      "brand:wikipedia": "ru:Магнолия (сеть магазинов)",
      "name": "Магнолия",
      "shop": "supermarket"
    }
  },
  "shop/supermarket|Макси": {
    "locationSet": {"include": ["rs"]},
    "tags": {
      "brand": "Макси",
      "brand:en": "Maxi",
      "brand:wikidata": "Q6795490",
      "brand:wikipedia": "sr:Макси",
      "name": "Макси",
      "name:en": "Maxi",
      "shop": "supermarket"
    }
  },
  "shop/supermarket|Мария-Ра": {
    "locationSet": {"include": ["ru"]},
    "nomatch": ["shop/convenience|Мария-Ра"],
    "tags": {
      "brand": "Мария-Ра",
      "brand:en": "Maria-ra",
      "brand:wikidata": "Q4281631",
      "brand:wikipedia": "ru:Мария-Ра",
      "name": "Мария-Ра",
      "name:en": "Maria-ra",
      "shop": "supermarket"
    }
  },
  "shop/supermarket|Мираторг": {
    "locationSet": {"include": ["ru"]},
    "tags": {
      "brand": "Мираторг",
      "name": "Мираторг",
      "shop": "supermarket"
    }
  },
  "shop/supermarket|Монетка": {
    "locationSet": {"include": ["ru"]},
    "tags": {
      "brand": "Монетка",
      "brand:en": "Monetka",
      "brand:wikidata": "Q4301704",
      "brand:wikipedia": "ru:Монетка (сеть магазинов)",
      "name": "Монетка",
      "name:en": "Monetka",
      "shop": "supermarket"
    }
  },
  "shop/supermarket|Народная 7Я семьЯ": {
    "locationSet": {"include": ["ru"]},
    "matchNames": ["семья"],
    "tags": {
      "brand": "Народная 7Я семьЯ",
      "brand:en": "People's 7th Family",
      "brand:wikidata": "Q4032436",
      "brand:wikipedia": "ru:Народная 7Я семья",
      "name": "Народная 7Я семьЯ",
      "name:en": "People's 7th Family",
      "shop": "supermarket"
    }
  },
  "shop/supermarket|Перекрёсток": {
    "locationSet": {"include": ["ru"]},
    "matchNames": ["перекресток"],
    "matchTags": ["shop/convenience"],
    "tags": {
      "brand": "Перекрёсток",
      "brand:en": "Perekryostok",
      "brand:wikidata": "Q1684639",
      "brand:wikipedia": "en:Perekrestok (supermarket chain)",
      "name": "Перекрёсток",
      "shop": "supermarket"
    }
  },
  "shop/supermarket|Покупочка": {
    "locationSet": {"include": ["ru"]},
    "tags": {
      "brand": "Покупочка",
      "brand:wikidata": "Q58003270",
      "name": "Покупочка",
      "shop": "supermarket"
    }
  },
  "shop/supermarket|Полушка": {
    "locationSet": {"include": ["ru"]},
    "tags": {
      "brand": "Полушка",
      "brand:en": "Polushka",
      "brand:wikidata": "Q4371080",
      "brand:wikipedia": "ru:Полушка (сеть магазинов)",
      "name": "Полушка",
      "name:en": "Polushka",
      "shop": "supermarket"
    }
  },
  "shop/supermarket|Пятёрочка": {
    "locationSet": {"include": ["ru"]},
    "matchNames": ["пятерочка"],
    "matchTags": ["shop/convenience"],
    "tags": {
      "brand": "Пятёрочка",
      "brand:en": "Pyaterochka",
      "brand:wikidata": "Q1768969",
      "brand:wikipedia": "ru:Пятёрочка",
      "name": "Пятёрочка",
      "name:en": "Pyaterochka",
      "shop": "supermarket"
    }
  },
  "shop/supermarket|Радеж": {
    "locationSet": {"include": ["ru"]},
    "tags": {
      "brand": "Радеж",
      "brand:en": "Radezh",
      "brand:wikidata": "Q4387165",
      "brand:wikipedia": "ru:Радеж (торговая сеть)",
      "name": "Радеж",
      "name:en": "Radezh",
      "shop": "supermarket"
    }
  },
  "shop/supermarket|Рублёвский": {
    "locationSet": {"include": ["by"]},
    "tags": {
      "brand": "Рублёвский",
      "name": "Рублёвский",
      "shop": "supermarket"
    }
  },
  "shop/supermarket|Рукавичка": {
    "locationSet": {"include": ["ua"]},
    "tags": {
      "brand": "Рукавичка",
      "brand:en": "Rukavychka",
      "brand:wikidata": "Q20092568",
      "brand:wikipedia": "uk:Рукавичка (торгова мережа)",
      "name": "Рукавичка",
      "name:en": "Rukavychka",
      "shop": "supermarket"
    }
  },
  "shop/supermarket|Санта": {
    "locationSet": {"include": ["001"]},
    "tags": {
      "brand": "Санта",
      "name": "Санта",
      "shop": "supermarket"
    }
  },
  "shop/supermarket|Светофор": {
    "locationSet": {"include": ["ru"]},
    "tags": {
      "brand": "Светофор",
      "brand:en": "Svetofor",
      "brand:wikidata": "Q61875920",
      "name": "Светофор",
      "shop": "supermarket"
    }
  },
  "shop/supermarket|Семишагофф": {
    "locationSet": {"include": ["ru"]},
    "tags": {
      "brand": "Семишагофф",
      "brand:wikidata": "Q58003374",
      "name": "Семишагофф",
      "shop": "supermarket"
    }
  },
  "shop/supermarket|Соседи": {
    "locationSet": {"include": ["001"]},
    "tags": {
      "brand": "Соседи",
      "name": "Соседи",
      "shop": "supermarket"
    }
  },
  "shop/supermarket|Сільпо": {
    "locationSet": {"include": ["ua"]},
    "tags": {
      "brand": "Сільпо",
      "brand:en": "Silpo",
      "brand:wikidata": "Q4419434",
      "brand:wikipedia": "en:Silpo",
      "name": "Сільпо",
      "name:en": "Silpo",
      "shop": "supermarket"
    }
  },
  "shop/supermarket|Таврия В": {
    "locationSet": {"include": ["ua"]},
    "tags": {
      "brand": "Таврия В",
      "brand:wikidata": "Q61823146",
      "brand:wikipedia": "uk:Таврія В",
      "name": "Таврия В",
      "shop": "supermarket"
    }
  },
  "shop/supermarket|Фора": {
    "locationSet": {"include": ["ua"]},
    "tags": {
      "brand": "Фора",
      "brand:en": "Fora",
      "brand:wikidata": "Q12165977",
      "brand:wikipedia": "uk:Фора (мережа магазинів)",
      "name": "Фора",
      "name:en": "Fora",
      "shop": "supermarket"
    }
  },
  "shop/supermarket|Фуршет": {
    "locationSet": {"include": ["ua"]},
    "tags": {
      "brand": "Фуршет",
      "brand:en": "Furshet",
      "brand:wikidata": "Q4493564",
      "brand:wikipedia": "uk:Фуршет (мережа супермаркетів)",
      "name": "Фуршет",
      "name:en": "Furshet",
      "shop": "supermarket"
    }
  },
  "shop/supermarket|Эдельвейс": {
    "locationSet": {"include": ["ru"]},
    "tags": {
      "brand": "Эдельвейс",
      "brand:en": "Edelveis",
      "brand:wikidata": "Q57979368",
      "name": "Эдельвейс",
      "name:en": "Edelveis",
      "shop": "supermarket"
    }
  },
  "shop/supermarket|Ярче": {
    "locationSet": {"include": ["001"]},
    "tags": {
      "brand": "Ярче",
      "name": "Ярче",
      "shop": "supermarket"
    }
  },
  "shop/supermarket|שופרסל דיל": {
    "locationSet": {"include": ["il"]},
    "tags": {
      "brand": "שופרסל דיל",
      "brand:he": "שופרסל דיל",
      "name": "שופרסל דיל",
      "name:he": "שופרסל דיל",
      "shop": "supermarket"
    }
  },
  "shop/supermarket|سوبر ماركت": {
    "locationSet": {"include": ["001"]},
    "tags": {
      "brand": "سوبر ماركت",
      "name": "سوبر ماركت",
      "shop": "supermarket"
    }
  },
  "shop/supermarket|いなげや": {
    "locationSet": {"include": ["jp"]},
    "tags": {
      "brand": "いなげや",
      "brand:en": "Inageya",
      "brand:ja": "いなげや",
      "brand:wikidata": "Q17193392",
      "brand:wikipedia": "ja:いなげや",
      "name": "いなげや",
      "name:en": "Inageya",
      "name:ja": "いなげや",
      "shop": "supermarket"
    }
  },
  "shop/supermarket|とりせん": {
    "locationSet": {"include": ["jp"]},
    "tags": {
      "brand": "とりせん",
      "brand:en": "Torisen",
      "brand:ja": "とりせん",
      "brand:wikidata": "Q11273505",
      "brand:wikipedia": "ja:とりせん",
      "name": "とりせん",
      "name:en": "Torisen",
      "name:ja": "とりせん",
      "shop": "supermarket"
    }
  },
  "shop/supermarket|まいばすけっと": {
    "locationSet": {"include": ["jp"]},
    "tags": {
      "brand": "まいばすけっと",
      "brand:en": "My Basket",
      "brand:ja": "まいばすけっと",
      "brand:wikidata": "Q11278154",
      "brand:wikipedia": "ja:まいばすけっと",
      "name": "まいばすけっと",
      "name:en": "My Basket",
      "name:ja": "まいばすけっと",
      "shop": "supermarket"
    }
  },
  "shop/supermarket|ゆめタウン": {
    "locationSet": {"include": ["jp"]},
    "tags": {
      "brand": "ゆめタウン",
      "brand:en": "YouMe Town",
      "brand:ja": "ゆめタウン",
      "brand:wikidata": "Q11280900",
      "brand:wikipedia": "ja:ゆめタウン",
      "name": "ゆめタウン",
      "name:en": "YouMe Town",
      "name:ja": "ゆめタウン",
      "shop": "supermarket"
    }
  },
  "shop/supermarket|アコレ": {
    "locationSet": {"include": ["jp"]},
    "tags": {
      "alt_name:en": "Acolle",
      "brand": "アコレ",
      "brand:en": "A・Colle",
      "brand:ja": "アコレ",
      "brand:wikidata": "Q11283128",
      "brand:wikipedia": "ja:アコレ",
      "name": "アコレ",
      "name:en": "A・Colle",
      "name:ja": "アコレ",
      "shop": "supermarket"
    }
  },
  "shop/supermarket|アピタ": {
    "locationSet": {"include": ["jp"]},
    "tags": {
      "brand": "アピタ",
      "brand:en": "APITA",
      "brand:ja": "アピタ",
      "brand:wikidata": "Q55384637",
      "name": "アピタ",
      "name:en": "APITA",
      "name:ja": "アピタ",
      "shop": "supermarket"
    }
  },
  "shop/supermarket|イオン": {
    "locationSet": {"include": ["jp"]},
    "tags": {
      "brand": "イオン",
      "brand:en": "AEON",
      "brand:ja": "イオン",
      "brand:wikidata": "Q11285951",
      "brand:wikipedia": "ja:イオン (店舗ブランド)",
      "name": "イオン",
      "name:en": "AEON",
      "name:ja": "イオン",
      "shop": "supermarket"
    }
  },
  "shop/supermarket|イオンマーケット": {
    "locationSet": {"include": ["jp"]},
    "tags": {
      "brand": "イオンマーケット",
      "brand:en": "Aeon Market",
      "brand:ja": "イオンマーケット",
      "brand:wikidata": "Q11331715",
      "brand:wikipedia": "ja:イオンマーケット",
      "name": "イオンマーケット",
      "name:en": "Aeon Market",
      "name:ja": "イオンマーケット",
      "shop": "supermarket"
    }
  },
  "shop/supermarket|イズミヤ": {
    "locationSet": {"include": ["jp"]},
    "matchNames": ["いづみや"],
    "tags": {
      "brand": "イズミヤ",
      "brand:en": "Izumiya",
      "brand:ja": "イズミヤ",
      "brand:wikidata": "Q11286632",
      "brand:wikipedia": "ja:イズミヤ",
      "name": "イズミヤ",
      "name:en": "Izumiya",
      "name:ja": "イズミヤ",
      "shop": "supermarket"
    }
  },
  "shop/supermarket|イトーヨーカドー": {
    "locationSet": {"include": ["jp"]},
    "matchNames": ["イトーヨーカ堂"],
    "tags": {
      "brand": "イトーヨーカドー",
      "brand:en": "Ito-Yokado",
      "brand:ja": "イトーヨーカドー",
      "brand:wikidata": "Q3088746",
      "brand:wikipedia": "en:Ito-Yokado",
      "name": "イトーヨーカドー",
      "name:en": "Ito-Yokado",
      "name:ja": "イトーヨーカドー",
      "shop": "supermarket"
    }
  },
  "shop/supermarket|エコス": {
    "locationSet": {"include": ["jp"]},
    "tags": {
      "brand": "エコス",
      "brand:en": "Ecos",
      "brand:ja": "エコス",
      "brand:wikidata": "Q11289886",
      "brand:wikipedia": "ja:エコス",
      "name": "エコス",
      "name:en": "Ecos",
      "name:ja": "エコス",
      "shop": "supermarket"
    }
  },
  "shop/supermarket|エーコープ": {
    "locationSet": {"include": ["jp"]},
    "matchNames": ["aコープ"],
    "tags": {
      "brand": "エーコープ",
      "brand:en": "A-COOP",
      "brand:ja": "エーコープ",
      "brand:wikidata": "Q11291524",
      "brand:wikipedia": "ja:エーコープ",
      "name": "エーコープ",
      "name:en": "A-COOP",
      "name:ja": "エーコープ",
      "organic": "only",
      "shop": "supermarket"
    }
  },
  "shop/supermarket|オリンピック": {
    "locationSet": {"include": ["jp"]},
    "tags": {
      "brand": "オリンピック",
      "brand:en": "Olympic",
      "brand:ja": "オリンピック",
      "brand:wikidata": "Q11292764",
      "brand:wikipedia": "ja:Olympicグループ",
      "name": "オリンピック",
      "name:en": "Olympic",
      "name:ja": "オリンピック",
      "shop": "supermarket"
    }
  },
  "shop/supermarket|オークワ": {
    "locationSet": {"include": ["jp"]},
    "tags": {
      "brand": "オークワ",
      "brand:en": "Okuwa",
      "brand:ja": "オークワ",
      "brand:wikidata": "Q11293166",
      "brand:wikipedia": "ja:オークワ",
      "name": "オークワ",
      "name:en": "Okuwa",
      "name:ja": "オークワ",
      "shop": "supermarket"
    }
  },
  "shop/supermarket|オーケーストア": {
    "locationSet": {"include": ["jp"]},
    "matchNames": ["オーケー, okストア"],
    "tags": {
      "brand": "オーケー",
      "brand:en": "OK",
      "brand:ja": "オーケー",
      "brand:wikidata": "Q11293184",
      "brand:wikipedia": "ja:オーケー",
      "name": "オーケーストア",
      "name:en": "OK Store",
      "name:ja": "オーケーストア",
      "shop": "supermarket"
    }
  },
  "shop/supermarket|カスミ": {
    "locationSet": {"include": ["jp"]},
    "tags": {
      "brand": "カスミ",
      "brand:en": "Kasumi",
      "brand:ja": "カスミ",
      "brand:wikidata": "Q11294160",
      "brand:wikipedia": "ja:カスミ",
      "name": "カスミ",
      "name:en": "Kasumi",
      "name:ja": "カスミ",
      "shop": "supermarket"
    }
  },
  "shop/supermarket|キョーエイ": {
    "locationSet": {"include": ["jp"]},
    "tags": {
      "brand": "キョーエイ",
      "brand:en": "Kyoei",
      "brand:ja": "キョーエイ",
      "brand:wikidata": "Q11297581",
      "brand:wikipedia": "ja:キョーエイ",
      "name": "キョーエイ",
      "name:en": "Kyoei",
      "name:ja": "キョーエイ",
      "shop": "supermarket"
    }
  },
  "shop/supermarket|グルメシティ": {
    "locationSet": {"include": ["jp"]},
    "tags": {
      "brand": "グルメシティ",
      "brand:en": "Gourmet City",
      "brand:ja": "グルメシティ",
      "brand:wikidata": "Q11300647",
      "brand:wikipedia": "ja:グルメシティ",
      "name": "グルメシティ",
      "name:en": "Gourmet City",
      "name:ja": "グルメシティ",
      "shop": "supermarket"
    }
  },
  "shop/supermarket|コモディイイダ": {
    "locationSet": {"include": ["jp"]},
    "tags": {
      "brand": "コモディイイダ",
      "brand:en": "Comodi-iida",
      "brand:ja": "コモディイイダ",
      "brand:wikidata": "Q11302699",
      "brand:wikipedia": "ja:コモディイイダ",
      "name": "コモディイイダ",
      "name:en": "Comodi-iida",
      "name:ja": "コモディイイダ",
      "shop": "supermarket"
    }
  },
  "shop/supermarket|コープ": {
    "locationSet": {"include": ["jp"]},
    "tags": {
      "alt_name:en": "Co-op",
      "brand": "コープ",
      "brand:en": "CO・OP",
      "brand:ja": "コープ",
      "brand:wikidata": "Q11508615",
      "brand:wikipedia": "ja:日本生活協同組合連合会",
      "name": "コープ",
      "name:en": "CO・OP",
      "name:ja": "コープ",
      "official_name": "日本生活協同組合連合会",
      "official_name:en": "Japanese Consumers' Co-operative Union",
      "shop": "supermarket"
    }
  },
  "shop/supermarket|コープこう": {
    "locationSet": {"include": ["jp"]},
    "tags": {
      "alt_name:en": "Co-op Kobe",
      "brand": "コープこう",
      "brand:en": "CO・OP Kobe",
      "brand:ja": "コープこう",
      "brand:wikidata": "Q5137453",
      "brand:wikipedia": "ja:生活協同組合コープこうべ",
      "name": "コープこう",
      "name:en": "CO・OP Kobe",
      "name:ja": "コープこう",
      "official_name": "生活協同組合コープこうべ",
      "official_name:en": "The Consumer Co-operative Kobe",
      "shop": "supermarket"
    }
  },
  "shop/supermarket|サミット": {
    "locationSet": {"include": ["jp"]},
    "tags": {
      "brand": "サミット",
      "brand:en": "Summit",
      "brand:ja": "サミット",
      "brand:wikidata": "Q11305129",
      "brand:wikipedia": "ja:サミット (チェーンストア)",
      "name": "サミット",
      "name:en": "Summit",
      "name:ja": "サミット",
      "shop": "supermarket"
    }
  },
  "shop/supermarket|スーパーアルプス": {
    "locationSet": {"include": ["jp"]},
    "tags": {
      "brand": "スーパーアルプス",
      "brand:en": "Super Alps",
      "brand:ja": "スーパーアルプス",
      "brand:wikidata": "Q11313666",
      "brand:wikipedia": "ja:スーパーアルプス",
      "name": "スーパーアルプス",
      "name:en": "Super Alps",
      "name:ja": "スーパーアルプス",
      "shop": "supermarket"
    }
  },
  "shop/supermarket|スーパーバリュー": {
    "locationSet": {"include": ["jp"]},
    "tags": {
      "brand": "スーパーバリュー",
      "brand:en": "Super Value",
      "brand:ja": "スーパーバリュー",
      "brand:wikidata": "Q11313802",
      "brand:wikipedia": "ja:スーパーバリュー",
      "name": "スーパーバリュー",
      "name:en": "Super Value",
      "name:ja": "スーパーバリュー",
      "shop": "supermarket"
    }
  },
  "shop/supermarket|ダイエー": {
    "locationSet": {"include": ["jp"]},
    "tags": {
      "brand": "ダイエー",
      "brand:en": "daiei",
      "brand:ja": "ダイエー",
      "brand:wikidata": "Q11316644",
      "brand:wikipedia": "ja:ダイエー (店舗ブランド)",
      "name": "ダイエー",
      "name:en": "Daiei",
      "name:ja": "ダイエー",
      "shop": "supermarket"
    }
  },
  "shop/supermarket|トウズ": {
    "locationSet": {"include": ["jp"]},
    "tags": {
      "brand": "トウズ",
      "brand:en": "Tou's",
      "brand:ja": "トウズ",
      "brand:wikidata": "Q53308796",
      "brand:wikipedia": "ja:トウズ",
      "name": "トウズ",
      "name:en": "Tou's",
      "name:ja": "トウズ",
      "shop": "supermarket"
    }
  },
  "shop/supermarket|バロー": {
    "locationSet": {"include": ["jp"]},
    "tags": {
      "brand": "バロー",
      "brand:en": "Valor",
      "brand:ja": "バロー",
      "brand:wikidata": "Q11328346",
      "brand:wikipedia": "ja:バロー (チェーンストア)",
      "name": "バロー",
      "name:en": "Valor",
      "name:ja": "バロー",
      "shop": "supermarket"
    }
  },
  "shop/supermarket|ピアゴ": {
    "locationSet": {"include": ["jp"]},
    "tags": {
      "brand": "ピアゴ",
      "brand:en": "PIAGO",
      "brand:ja": "ピアゴ",
      "brand:wikidata": "Q91014434",
      "name": "ピアゴ",
      "name:en": "PIAGO",
      "name:ja": "ピアゴ",
      "shop": "supermarket"
    }
  },
  "shop/supermarket|フジ": {
    "locationSet": {"include": ["jp"]},
    "tags": {
      "brand": "フジ",
      "brand:en": "Fuji",
      "brand:ja": "フジ",
      "brand:wikidata": "Q8963035",
      "brand:wikipedia": "ja:フジ (チェーンストア)",
      "name": "フジ",
      "name:en": "Fuji",
      "name:ja": "フジ",
      "shop": "supermarket"
    }
  },
  "shop/supermarket|フジグラン": {
    "locationSet": {"include": ["jp"]},
    "tags": {
      "brand": "フジ",
      "brand:en": "Fuji",
      "brand:ja": "フジ",
      "brand:wikidata": "Q8963035",
      "brand:wikipedia": "ja:フジ (チェーンストア)",
      "name": "フジグラン",
      "name:en": "Fuji GRAND",
      "name:ja": "フジグラン",
      "shop": "supermarket"
    }
  },
  "shop/supermarket|ベイシア": {
    "locationSet": {"include": ["jp"]},
    "tags": {
      "brand": "ベイシア",
      "brand:en": "Beisia",
      "brand:ja": "ベイシア",
      "brand:wikidata": "Q11336776",
      "brand:wikipedia": "ja:ベイシア",
      "name": "ベイシア",
      "name:en": "Beisia",
      "name:ja": "ベイシア",
      "shop": "supermarket"
    }
  },
  "shop/supermarket|ベルク": {
    "locationSet": {"include": ["jp"]},
    "tags": {
      "brand": "ベルク",
      "brand:en": "Belc",
      "brand:ja": "ベルク",
      "brand:wikidata": "Q11337090",
      "brand:wikipedia": "ja:ベルク (企業)",
      "name": "ベルク",
      "name:en": "Belc",
      "name:ja": "ベルク",
      "shop": "supermarket"
    }
  },
  "shop/supermarket|ベルクス": {
    "locationSet": {"include": ["jp"]},
    "tags": {
      "brand": "ベルクス",
      "brand:en": "Bel'x",
      "brand:ja": "ベルクス",
      "brand:wikidata": "Q11305967",
      "brand:wikipedia": "ja:サンベルクス",
      "name": "ベルクス",
      "name:en": "Bel'x",
      "name:ja": "ベルクス",
      "shop": "supermarket"
    }
  },
  "shop/supermarket|マックスバリュ": {
    "locationSet": {"include": ["jp"]},
    "tags": {
      "brand": "マックスバリュ",
      "brand:en": "Maxvalu Tokai",
      "brand:ja": "マックスバリュ",
      "brand:wikidata": "Q1960109",
      "brand:wikipedia": "en:MaxValu",
      "name": "マックスバリュ",
      "name:en": "Maxvalu Tokai",
      "name:ja": "マックスバリュ",
      "shop": "supermarket"
    }
  },
  "shop/supermarket|マミーマート": {
    "locationSet": {"include": ["jp"]},
    "tags": {
      "brand": "マミーマート",
      "brand:en": "Mammy Mart",
      "brand:ja": "マミーマート",
      "brand:wikidata": "Q11340902",
      "brand:wikipedia": "ja:マミーマート",
      "name": "マミーマート",
      "name:en": "Mammy Mart",
      "name:ja": "マミーマート",
      "shop": "supermarket"
    }
  },
  "shop/supermarket|マルエツ": {
    "locationSet": {"include": ["jp"]},
    "tags": {
      "brand": "マルエツ",
      "brand:en": "Maruetsu",
      "brand:ja": "マルエツ",
      "brand:wikidata": "Q11341197",
      "brand:wikipedia": "ja:マルエツ",
      "name": "マルエツ",
      "name:en": "Maruetsu",
      "name:ja": "マルエツ",
      "shop": "supermarket"
    }
  },
  "shop/supermarket|マルエツプチ": {
    "locationSet": {"include": ["jp"]},
    "tags": {
      "brand": "マルエツ",
      "brand:en": "Maruetsu",
      "brand:ja": "マルエツ",
      "brand:wikidata": "Q11341197",
      "brand:wikipedia": "ja:マルエツ",
      "name": "マルエツプチ",
      "name:en": "Maruetsu Petit",
      "name:ja": "マルエツプチ",
      "shop": "supermarket"
    }
  },
  "shop/supermarket|マルナカ": {
    "locationSet": {"include": ["jp"]},
    "tags": {
      "brand": "マルナカ",
      "brand:en": "Marunaka",
      "brand:ja": "マルナカ",
      "brand:wikidata": "Q11341399",
      "brand:wikipedia": "ja:マルナカ (チェーンストア)",
      "name": "マルナカ",
      "name:en": "Marunaka",
      "name:ja": "マルナカ",
      "shop": "supermarket"
    }
  },
  "shop/supermarket|ヤオコー": {
    "locationSet": {"include": ["jp"]},
    "tags": {
      "brand": "ヤオコー",
      "brand:en": "Yaoko",
      "brand:ja": "ヤオコー",
      "brand:wikidata": "Q11344967",
      "brand:wikipedia": "ja:ヤオコー",
      "name": "ヤオコー",
      "name:en": "Yaoko",
      "name:ja": "ヤオコー",
      "shop": "supermarket"
    }
  },
  "shop/supermarket|ヤマナカ": {
    "locationSet": {"include": ["jp"]},
    "tags": {
      "brand": "ヤマナカ",
      "brand:en": "Yamanaka",
      "brand:ja": "ヤマナカ",
      "brand:wikidata": "Q11345199",
      "brand:wikipedia": "ja:ヤマナカ",
      "name": "ヤマナカ",
      "name:en": "Yamanaka",
      "name:ja": "ヤマナカ",
      "shop": "supermarket"
    }
  },
  "shop/supermarket|ヨークベニマル": {
    "locationSet": {"include": ["jp"]},
    "tags": {
      "brand": "ヨークベニマル",
      "brand:en": "York Benimaru",
      "brand:ja": "ヨークベニマル",
      "brand:wikidata": "Q11346199",
      "brand:wikipedia": "ja:ヨークベニマル",
      "name": "ヨークベニマル",
      "name:en": "York Benimaru",
      "name:ja": "ヨークベニマル",
      "shop": "supermarket"
    }
  },
  "shop/supermarket|ヨークマート": {
    "locationSet": {"include": ["jp"]},
    "tags": {
      "brand": "ヨークマート",
      "brand:en": "YorkMart",
      "brand:ja": "ヨークマート",
      "brand:wikidata": "Q11346201",
      "brand:wikipedia": "ja:ヨークマート",
      "name": "ヨークマート",
      "name:en": "YorkMart",
      "name:ja": "ヨークマート",
      "shop": "supermarket"
    }
  },
  "shop/supermarket|ライフ": {
    "locationSet": {"include": ["jp"]},
    "tags": {
      "brand": "ライフ",
      "brand:en": "Life",
      "brand:ja": "ライフ",
      "brand:wikidata": "Q11346476",
      "brand:wikipedia": "ja:ライフコーポレーション",
      "name": "ライフ",
      "name:en": "Life",
      "name:ja": "ライフ",
      "shop": "supermarket"
    }
  },
  "shop/supermarket|ロピア": {
    "locationSet": {"include": ["jp"]},
    "tags": {
      "brand": "ロピア",
      "brand:en": "Lopia",
      "brand:ja": "ロピア",
      "brand:wikidata": "Q11350624",
      "brand:wikipedia": "ja:ロピア",
      "name": "ロピア",
      "name:en": "Lopia",
      "name:ja": "ロピア",
      "shop": "supermarket"
    }
  },
  "shop/supermarket|ワイズマート": {
    "locationSet": {"include": ["jp"]},
    "matchNames": ["よしのぶっさん"],
    "tags": {
      "brand": "ワイズマート",
      "brand:en": "Y'smart",
      "brand:ja": "ワイズマート",
      "brand:wikidata": "Q11351175",
      "brand:wikipedia": "ja:ワイズマート",
      "name": "ワイズマート",
      "name:en": "Y'smart",
      "name:ja": "ワイズマート",
      "shop": "supermarket"
    }
  },
  "shop/supermarket|全聯": {
    "locationSet": {"include": ["tw"]},
    "tags": {
      "brand": "全聯",
      "brand:en": "Pxmart",
      "brand:wikidata": "Q7262792",
      "brand:wikipedia": "en:PX Mart",
      "name": "全聯",
      "name:en": "Pxmart",
      "shop": "supermarket"
    }
  },
  "shop/supermarket|全聯福利中心": {
    "locationSet": {"include": ["tw"]},
    "tags": {
      "brand": "全聯福利中心",
      "brand:en": "Pxmart",
      "brand:wikidata": "Q7262792",
      "brand:wikipedia": "en:PX Mart",
      "name": "全聯福利中心",
      "name:en": "Pxmart",
      "shop": "supermarket"
    }
  },
  "shop/supermarket|家乐福": {
    "locationSet": {"include": ["cn"]},
    "tags": {
      "brand": "家乐福",
      "brand:wikidata": "Q217599",
      "brand:wikipedia": "wuu:家乐福",
      "name": "家乐福",
      "shop": "supermarket"
    }
  },
  "shop/supermarket|惠康 Wellcome": {
    "locationSet": {"include": ["hk"]},
    "tags": {
      "brand": "惠康 Wellcome",
      "brand:en": "Wellcome",
      "brand:wikidata": "Q706247",
      "brand:wikipedia": "zh:惠康",
      "name": "惠康 Wellcome",
      "name:en": "Wellcome",
      "shop": "supermarket"
    }
  },
  "shop/supermarket|成城石井": {
    "locationSet": {"include": ["jp"]},
    "tags": {
      "brand": "成城石井",
      "brand:en": "Seijo Ishii",
      "brand:ja": "成城石井",
      "brand:wikidata": "Q11495410",
      "brand:wikipedia": "ja:成城石井",
      "name": "成城石井",
      "name:en": "Seijo Ishii",
      "name:ja": "成城石井",
      "shop": "supermarket"
    }
  },
  "shop/supermarket|東急ストア": {
    "locationSet": {"include": ["jp"]},
    "tags": {
      "brand": "東急ストア",
      "brand:en": "Tokyu Store",
      "brand:ja": "東急ストア",
      "brand:wikidata": "Q11526963",
      "brand:wikipedia": "ja:東急ストア",
      "name": "東急ストア",
      "name:en": "Tokyu Store",
      "name:ja": "東急ストア",
      "shop": "supermarket"
    }
  },
  "shop/supermarket|東武ストア": {
    "locationSet": {"include": ["jp"]},
    "tags": {
      "brand": "東武ストア",
      "brand:en": "Tobu Store",
      "brand:ja": "東武ストア",
      "brand:wikidata": "Q11527478",
      "brand:wikipedia": "ja:東武ストア",
      "name": "東武ストア",
      "name:en": "Tobu Store",
      "name:ja": "東武ストア",
      "shop": "supermarket"
    }
  },
  "shop/supermarket|業務スーパー": {
    "locationSet": {"include": ["jp"]},
    "tags": {
      "brand": "業務スーパー",
      "brand:en": "Gyomu Super",
      "brand:ja": "業務スーパー",
      "brand:ja-Latn": "Gyōmu sūpā",
      "brand:wikidata": "Q11590183",
      "brand:wikipedia": "ja:神戸物産",
      "name": "業務スーパー",
      "name:en": "Gyomu Super",
      "name:ja": "業務スーパー",
      "name:ja-Latn": "Gyōmu sūpā",
      "shop": "supermarket"
    }
  },
  "shop/supermarket|沃尔玛": {
    "locationSet": {"include": ["cn"]},
    "tags": {
      "brand": "沃尔玛",
      "brand:en": "Walmart",
      "brand:wikidata": "Q483551",
      "brand:wikipedia": "wuu:沃尔玛",
      "name": "沃尔玛",
      "name:en": "Walmart",
      "shop": "supermarket"
    }
  },
  "shop/supermarket|相鉄ローゼン": {
    "locationSet": {"include": ["jp"]},
    "matchNames": ["そうてつローゼン"],
    "tags": {
      "alt_name": "そうてつローゼン",
      "brand": "相鉄ローゼン",
      "brand:en": "Sotetsu Rosen",
      "brand:ja": "相鉄ローゼン",
      "brand:wikidata": "Q11582450",
      "brand:wikipedia": "ja:相鉄ローゼン",
      "name": "相鉄ローゼン",
      "name:en": "Sotetsu Rosen",
      "name:ja": "相鉄ローゼン",
      "shop": "supermarket"
    }
  },
  "shop/supermarket|美廉社": {
    "locationSet": {"include": ["tw"]},
    "tags": {
      "brand": "美廉社",
      "brand:en": "Simple Mart",
      "brand:wikidata": "Q15914017",
      "brand:wikipedia": "zh:美廉社",
      "name": "美廉社",
      "name:en": "Simple Mart",
      "shop": "supermarket"
    }
  },
  "shop/supermarket|西友": {
    "locationSet": {"include": ["jp"]},
    "tags": {
      "brand": "西友",
      "brand:en": "Seiyu",
      "brand:ja": "西友",
      "brand:wikidata": "Q3108542",
      "brand:wikipedia": "en:Seiyu Group",
      "name": "西友",
      "name:en": "Seiyu",
      "name:ja": "西友",
      "shop": "supermarket"
    }
  },
  "shop/supermarket|頂好": {
    "locationSet": {"include": ["tw"]},
    "tags": {
      "brand": "頂好",
      "brand:en": "Wellcome",
      "brand:wikidata": "Q706247",
      "brand:wikipedia": "en:Wellcome",
      "name": "頂好",
      "name:en": "Wellcome",
      "shop": "supermarket"
    }
  },
  "shop/supermarket|頂好超市": {
    "locationSet": {"include": ["tw"]},
    "tags": {
      "brand": "頂好超市",
      "brand:en": "Wellcome",
      "brand:wikidata": "Q706247",
      "brand:wikipedia": "en:Wellcome",
      "name": "頂好超市",
      "name:en": "Wellcome",
      "shop": "supermarket"
    }
  },
  "shop/supermarket|롯데마트": {
    "locationSet": {"include": ["kr"]},
    "tags": {
      "brand": "롯데마트",
      "brand:ko": "롯데마트",
      "brand:wikidata": "Q326715",
      "brand:wikipedia": "ko:롯데마트",
      "name": "롯데마트",
      "name:en": "Lotte Mart",
      "name:ko": "롯데마트",
      "shop": "supermarket"
    }
  },
  "shop/supermarket|우리마트": {
    "locationSet": {"include": ["kr"]},
    "tags": {
      "brand": "우리마트",
      "brand:ko": "우리마트",
      "name": "우리마트",
      "name:ko": "우리마트",
      "shop": "supermarket"
    }
  },
  "shop/supermarket|하나로마트": {
    "locationSet": {"include": ["kr"]},
    "tags": {
      "brand": "하나로마트",
      "brand:en": "Hanaro Mart",
      "brand:ko": "하나로마트",
      "brand:wikidata": "Q12590611",
      "brand:wikipedia": "ko:농협유통",
      "name": "하나로마트",
      "name:ko": "하나로마트",
      "shop": "supermarket"
    }
  }
}
