{
  "shop/variety_store|100えんハウス レモン": {
    "locationSet": {"include": ["jp"]},
    "tags": {
      "brand": "100えんハウス レモン",
      "brand:en": "100 House Lemon",
      "brand:ja": "100えんハウス レモン",
      "brand:wikidata": "Q43305392",
      "brand:wikipedia": "ja:ワタナベ (企業)",
      "name": "100えんハウス レモン",
      "name:en": "100 House Lemon",
      "name:ja": "100えんハウス レモン",
      "shop": "variety_store"
    }
  },
  "shop/variety_store|99 Cents Only Stores": {
    "locationSet": {"include": ["us"]},
    "matchNames": [
      "99 cent only stores",
      "99 cents only"
    ],
    "tags": {
      "brand": "99 Cents Only Stores",
      "brand:wikidata": "Q4646294",
      "brand:wikipedia": "en:99 Cents Only Stores",
      "name": "99 Cents Only Stores",
      "shop": "variety_store"
    }
  },
  "shop/variety_store|99 Speedmart": {
    "locationSet": {
      "include": ["my", "sg"]
    },
    "tags": {
      "brand": "99 Speedmart",
      "brand:wikidata": "Q62075061",
      "brand:wikipedia": "en:99 Speedmart",
      "name": "99 Speedmart",
      "shop": "variety_store"
    }
  },
  "shop/variety_store|Action": {
    "locationSet": {
      "include": [
        "at",
        "be",
        "de",
        "fr",
        "lu",
        "nl",
        "pl"
      ]
    },
    "tags": {
      "brand": "Action",
      "brand:wikidata": "Q2634111",
      "brand:wikipedia": "nl:Action (winkel)",
      "name": "Action",
      "shop": "variety_store"
    }
  },
  "shop/variety_store|B&M": {
    "locationSet": {"include": ["gb"]},
    "tags": {
      "brand": "B&M",
      "name": "B&M",
      "shop": "variety_store"
    }
  },
  "shop/variety_store|B&M Bargains": {
    "locationSet": {"include": ["gb"]},
    "tags": {
      "brand": "B&M Bargains",
      "brand:wikidata": "Q4836931",
      "brand:wikipedia": "en:B & M",
      "name": "B&M Bargains",
      "shop": "variety_store"
    }
  },
  "shop/variety_store|Bargain Buys": {
    "locationSet": {"include": ["gb"]},
    "tags": {
      "brand": "Bargain Buys",
      "brand:wikidata": "Q19870995",
      "brand:wikipedia": "en:Bargain Buys",
      "name": "Bargain Buys",
      "shop": "variety_store"
    }
  },
  "shop/variety_store|Big Bazar": {
    "locationSet": {"include": ["be", "nl"]},
    "tags": {
      "brand": "Big Bazar",
      "brand:wikidata": "Q15873104",
      "brand:wikipedia": "nl:Big Bazar",
      "name": "Big Bazar",
      "shop": "variety_store"
    }
  },
  "shop/variety_store|D9150": {
    "locationSet": {"include": ["001"]},
    "tags": {
      "brand": "D9150",
      "name": "D9150",
      "shop": "variety_store"
    }
  },
  "shop/variety_store|D9300": {
    "locationSet": {"include": ["001"]},
    "tags": {
      "brand": "D9300",
      "name": "D9300",
      "shop": "variety_store"
    }
  },
  "shop/variety_store|Daiso Japan": {
    "locationSet": {"include": ["au", "us"]},
    "tags": {
      "brand": "Daiso",
      "brand:wikidata": "Q866991",
      "brand:wikipedia": "en:Daiso",
      "name": "Daiso Japan",
      "shop": "variety_store",
      "short_name": "Daiso"
    }
  },
  "shop/variety_store|Dealz": {
    "locationSet": {
      "include": ["es", "ie", "pl"]
    },
    "tags": {
      "brand": "Dealz",
      "brand:wikidata": "Q16942585",
      "brand:wikipedia": "en:Dealz",
      "name": "Dealz",
      "shop": "variety_store"
    }
  },
  "shop/variety_store|Dollar General": {
    "locationSet": {"include": ["us"]},
    "nomatch": [
      "amenity/bank|Dollar Bank",
      "amenity/car_rental|Dollar",
      "shop/supermarket|Dollar General Market",
      "shop/variety_store|Dollar Tree",
      "shop/variety_store|Dollarama",
      "shop/variety_store|Family Dollar"
    ],
    "tags": {
      "brand": "Dollar General",
      "brand:wikidata": "Q145168",
      "brand:wikipedia": "en:Dollar General",
      "name": "Dollar General",
      "shop": "variety_store"
    }
  },
  "shop/variety_store|Dollar Tree": {
    "locationSet": {"include": ["ca", "us"]},
    "nomatch": [
      "amenity/bank|Dollar Bank",
      "amenity/car_rental|Dollar",
      "shop/variety_store|Dollar General",
      "shop/variety_store|Dollarama",
      "shop/variety_store|Family Dollar"
    ],
    "tags": {
      "brand": "Dollar Tree",
      "brand:wikidata": "Q5289230",
      "brand:wikipedia": "en:Dollar Tree",
      "name": "Dollar Tree",
      "shop": "variety_store"
    }
  },
  "shop/variety_store|Dollarama": {
    "locationSet": {"include": ["ca"]},
    "nomatch": [
      "amenity/bank|Dollar Bank",
      "amenity/car_rental|Dollar",
      "shop/variety_store|Dollar General",
      "shop/variety_store|Dollar Tree",
      "shop/variety_store|Family Dollar"
    ],
    "tags": {
      "brand": "Dollarama",
      "brand:wikidata": "Q3033947",
      "brand:wikipedia": "en:Dollarama",
      "name": "Dollarama",
      "shop": "variety_store"
    }
  },
  "shop/variety_store|Eco-Shop": {
    "locationSet": {"include": ["my"]},
    "matchTags": ["shop/convenience"],
    "tags": {
      "brand": "Eco-Shop",
      "brand:wikidata": "Q95721269",
      "brand:wikipedia": "ms:Eco-Shop",
      "name": "Eco-Shop",
      "shop": "variety_store"
    }
  },
  "shop/variety_store|EuroShop": {
    "locationSet": {"include": ["de"]},
    "tags": {
      "brand": "EuroShop",
      "brand:wikidata": "Q15846763",
      "brand:wikipedia": "de:Schum EuroShop",
      "name": "EuroShop",
      "shop": "variety_store"
    }
  },
  "shop/variety_store|Family Dollar": {
    "locationSet": {"include": ["us"]},
    "nomatch": [
      "amenity/bank|Dollar Bank",
      "amenity/car_rental|Dollar",
      "shop/variety_store|Dollar General",
      "shop/variety_store|Dollar Tree",
      "shop/variety_store|Dollarama"
    ],
    "tags": {
      "brand": "Family Dollar",
      "brand:wikidata": "Q5433101",
      "brand:wikipedia": "en:Family Dollar",
      "name": "Family Dollar",
      "shop": "variety_store"
    }
  },
  "shop/variety_store|Five Below": {
    "locationSet": {"include": ["us"]},
    "tags": {
      "brand": "Five Below",
      "brand:wikidata": "Q5455836",
      "brand:wikipedia": "en:Five Below",
      "name": "Five Below",
      "shop": "variety_store"
    }
  },
  "shop/variety_store|Fix Price": {
    "locationSet": {"include": ["by", "ru"]},
    "tags": {
      "brand": "Fix Price",
      "brand:wikidata": "Q4038791",
      "brand:wikipedia": "ru:Fix Price (сеть магазинов)",
      "name": "Fix Price",
      "shop": "variety_store"
    }
  },
  "shop/variety_store|Flying Tiger Copenhagen": {
    "locationSet": {"include": ["001"]},
    "matchNames": ["tgr", "tiger"],
    "matchTags": ["shop/gift"],
    "tags": {
      "brand": "Flying Tiger Copenhagen",
      "brand:wikidata": "Q2786319",
      "brand:wikipedia": "en:Flying Tiger Copenhagen",
      "name": "Flying Tiger Copenhagen",
      "shop": "variety_store",
      "short_name": "Flying Tiger"
    }
  },
  "shop/variety_store|GiFi": {
    "locationSet": {"include": ["fr"]},
    "tags": {
      "brand": "GiFi",
      "brand:wikidata": "Q3105439",
      "brand:wikipedia": "fr:Gifi",
      "name": "GiFi",
      "shop": "variety_store"
    }
  },
  "shop/variety_store|Home Bargains": {
    "locationSet": {"include": ["gb"]},
    "tags": {
      "brand": "Home Bargains",
      "brand:wikidata": "Q5888229",
      "brand:wikipedia": "en:Home Bargains",
      "name": "Home Bargains",
      "shop": "variety_store"
    }
  },
  "shop/variety_store|La Foir'Fouille": {
    "locationSet": {
      "include": ["be", "fr", "lu", "mu", "nc"]
    },
    "tags": {
      "brand": "La Foir'Fouille",
      "brand:wikidata": "Q3209040",
      "brand:wikipedia": "fr:La Foir'Fouille",
      "name": "La Foir'Fouille",
      "shop": "variety_store"
    }
  },
  "shop/variety_store|M9": {
    "locationSet": {"include": ["001"]},
    "tags": {
      "brand": "M9",
      "name": "M9",
      "shop": "variety_store"
    }
  },
  "shop/variety_store|Miniso": {
    "locationSet": {"include": ["001"]},
    "tags": {
      "brand": "Miniso",
      "brand:wikidata": "Q20732498",
      "brand:wikipedia": "en:Miniso",
      "name": "Miniso",
      "shop": "variety_store"
    }
  },
  "shop/variety_store|Mäc-Geiz": {
    "locationSet": {"include": ["de"]},
    "tags": {
      "brand": "Mäc-Geiz",
      "brand:wikidata": "Q1957126",
      "brand:wikipedia": "de:Mäc-Geiz",
      "name": "Mäc-Geiz",
      "shop": "variety_store"
    }
  },
  "shop/variety_store|NOZ": {
    "locationSet": {"include": ["fr"]},
    "tags": {
      "brand": "NOZ",
      "brand:wikidata": "Q3345688",
      "brand:wikipedia": "fr:Noz",
      "name": "NOZ",
      "shop": "variety_store"
    }
  },
  "shop/variety_store|Ocean State Job Lot": {
    "locationSet": {"include": ["us"]},
    "tags": {
      "brand": "Ocean State Job Lot",
      "brand:wikidata": "Q7076076",
      "brand:wikipedia": "en:Ocean State Job Lot",
      "name": "Ocean State Job Lot",
      "shop": "variety_store",
      "short_name": "Job Lot"
    }
  },
  "shop/variety_store|Ollie's Bargain Outlet": {
    "locationSet": {"include": ["us"]},
    "tags": {
      "brand": "Ollie's Bargain Outlet",
      "brand:wikidata": "Q7088304",
      "brand:wikipedia": "en:Ollie's Bargain Outlet",
      "name": "Ollie's Bargain Outlet",
      "shop": "variety_store",
      "short_name": "Ollie's"
    }
  },
  "shop/variety_store|OneBelow": {
    "locationSet": {"include": ["gb"]},
    "tags": {
      "brand": "OneBelow",
      "brand:wikidata": "Q65079443",
      "brand:wikipedia": "en:OneBelow",
      "name": "OneBelow",
      "shop": "variety_store"
    }
  },
  "shop/variety_store|Pfennigpfeiffer": {
    "locationSet": {"include": ["001"]},
    "tags": {
      "brand": "Pfennigpfeiffer",
      "name": "Pfennigpfeiffer",
      "shop": "variety_store"
    }
  },
  "shop/variety_store|Poundland": {
    "locationSet": {"include": ["gb"]},
    "tags": {
      "brand": "Poundland",
      "brand:wikidata": "Q1434528",
      "brand:wikipedia": "en:Poundland",
      "name": "Poundland",
      "shop": "variety_store"
    }
  },
  "shop/variety_store|Poundstretcher": {
    "locationSet": {"include": ["gb"]},
    "tags": {
      "brand": "Poundstretcher",
      "brand:wikidata": "Q7235675",
      "brand:wikipedia": "en:Poundstretcher",
      "name": "Poundstretcher",
      "shop": "variety_store"
    }
  },
  "shop/variety_store|Poundworld": {
    "locationSet": {"include": ["gb", "ie"]},
    "tags": {
      "brand": "Poundworld",
      "brand:wikidata": "Q16967516",
      "brand:wikipedia": "en:Poundworld",
      "name": "Poundworld",
      "shop": "variety_store"
    }
  },
  "shop/variety_store|Roses": {
    "locationSet": {"include": ["us"]},
    "tags": {
      "brand": "Roses",
      "brand:wikidata": "Q7368644",
      "brand:wikipedia": "en:Roses (store)",
      "name": "Roses",
      "shop": "variety_store"
    }
  },
  "shop/variety_store|TEDi": {
    "locationSet": {
      "include": [
        "at",
        "de",
        "es",
        "hr",
        "si",
        "sk"
      ]
    },
    "tags": {
      "brand": "TEDi",
      "brand:wikidata": "Q1364603",
      "brand:wikipedia": "de:TEDi",
      "name": "TEDi",
      "shop": "variety_store"
    }
  },
  "shop/variety_store|THANK YOU MART": {
    "locationSet": {"include": ["jp"]},
    "tags": {
      "alt_name:en": "390 Yen Shop",
      "brand": "THANK YOU MART",
      "brand:en": "THANK YOU MART",
      "brand:ja": "サンキューマート",
      "brand:wikidata": "Q11305509",
      "brand:wikipedia": "ja:サンキューマート",
      "name": "THANK YOU MART",
      "name:en": "THANK YOU MART",
      "name:ja": "サンキューマート",
      "shop": "variety_store"
    }
  },
  "shop/variety_store|Tokmanni": {
    "locationSet": {"include": ["fi"]},
    "tags": {
      "brand": "Tokmanni",
      "brand:wikidata": "Q13423470",
      "brand:wikipedia": "fi:Tokmanni",
      "name": "Tokmanni",
      "shop": "variety_store"
    }
  },
  "shop/variety_store|Wilko": {
    "locationSet": {"include": ["gb"]},
    "tags": {
      "brand": "Wilko",
      "brand:wikidata": "Q8002536",
      "brand:wikipedia": "en:Wilko (retailer)",
      "name": "Wilko",
      "shop": "variety_store"
    }
  },
  "shop/variety_store|キャンドゥ": {
    "locationSet": {"include": ["jp"]},
    "tags": {
      "brand": "キャンドゥ",
      "brand:en": "CAN DO",
      "brand:ja": "キャンドゥ",
      "brand:wikidata": "Q11297367",
      "brand:wikipedia": "ja:キャンドゥ",
      "name": "キャンドゥ",
      "name:en": "CAN DO",
      "name:ja": "キャンドゥ",
      "shop": "variety_store"
    }
  },
  "shop/variety_store|セリア": {
    "locationSet": {"include": ["jp"]},
    "tags": {
      "brand": "セリア",
      "brand:en": "Seria",
      "brand:ja": "セリア",
      "brand:wikidata": "Q11314509",
      "brand:wikipedia": "ja:セリア (100円ショップ)",
      "name": "セリア",
      "name:en": "Seria",
      "name:ja": "セリア",
      "shop": "variety_store"
    }
  },
  "shop/variety_store|ダイソー": {
    "locationSet": {"include": ["jp"]},
    "matchNames": ["ザ・ダイソー", "大創産業"],
    "tags": {
      "brand": "ダイソー",
      "brand:en": "Daiso",
      "brand:ja": "ダイソー",
      "brand:wikidata": "Q866991",
      "brand:wikipedia": "ja:大創産業",
      "name": "ダイソー",
      "name:en": "Daiso",
      "name:ja": "ダイソー",
      "shop": "variety_store"
    }
  },
  "shop/variety_store|ダイレックス": {
    "locationSet": {"include": ["jp"]},
    "tags": {
      "brand": "ダイレックス",
      "brand:en": "Direx",
      "brand:ja": "ダイレックス",
      "brand:wikidata": "Q11317051",
      "brand:wikipedia": "ja:ダイレックス (ディスカウントストア)",
      "name": "ダイレックス",
      "name:en": "Direx",
      "name:ja": "ダイレックス",
      "shop": "variety_store"
    }
  },
  "shop/variety_store|トライアル": {
    "locationSet": {"include": ["jp"]},
    "tags": {
      "brand": "トライアル",
      "brand:en": "Trial",
      "brand:ja": "トライアル",
      "brand:wikidata": "Q11321723",
      "brand:wikipedia": "ja:トライアルカンパニー",
      "name": "トライアル",
      "name:en": "Trial",
      "name:ja": "トライアル",
      "shop": "variety_store"
    }
  },
  "shop/variety_store|ドン・キホーテ": {
    "locationSet": {"include": ["jp"]},
    "nomatch": [
      "amenity/supermarket|MEGAドン・キホーテ"
    ],
    "tags": {
      "brand": "ドン・キホーテ",
      "brand:en": "Don Quijote",
      "brand:ja": "ドン・キホーテ",
      "brand:wikidata": "Q1185381",
      "brand:wikipedia": "ja:ドン・キホーテ (企業)",
      "name": "ドン・キホーテ",
      "name:en": "Don Quijote",
      "name:ja": "ドン・キホーテ",
      "opening_hours": "24/7",
      "shop": "variety_store",
      "short_name": "ドンキ",
      "short_name:en": "Donki",
      "short_name:ja": "ドンキ"
    }
  },
  "shop/variety_store|ワッツ": {
    "locationSet": {"include": ["jp"]},
    "tags": {
      "brand": "ワッツ",
      "brand:en": "Watts",
      "brand:ja": "ワッツ",
      "brand:wikidata": "Q11351402",
      "brand:wikipedia": "ja:ワッツ (企業)",
      "name": "ワッツ",
      "name:en": "Watts",
      "name:ja": "ワッツ",
      "shop": "variety_store"
    }
  }
}