{
  "brands/office/coworking": [
    {
      "displayName": "Awfis",
      "id": "awfis-2107c0",
      "locationSet": {"include": ["in"]},
      "tags": {
        "brand": "Awfis",
        "brand:wikidata": "Q60747757",
        "brand:wikipedia": "en:Awfis",
        "fee": "yes",
        "name": "Awfis",
        "office": "coworking"
      }
    },
    {
      "displayName": "Regus",
      "id": "regus-cfb41b",
      "locationSet": {"include": ["001"]},
      "tags": {
        "brand": "Regus",
        "brand:wikidata": "Q761072",
        "name": "Regus",
        "office": "coworking"
      }
    },
    {
      "displayName": "Spaces",
      "id": "spaces-cfb41b",
      "locationSet": {"include": ["001"]},
      "tags": {
        "brand": "Spaces",
        "brand:wikidata": "Q87629680",
        "name": "Spaces",
        "office": "coworking"
      }
    },
    {
      "displayName": "Ucommune (China)",
      "id": "ucommune-4ed4b9",
      "locationSet": {"include": ["cn"]},
      "tags": {
        "brand": "优客工场",
        "brand:en": "Ucommune",
        "brand:wikidata": "Q60785187",
        "brand:wikipedia": "en:Ucommune",
        "brand:zh": "优客工场",
        "brand:zh-Hans": "优客工场",
        "fee": "yes",
        "name": "优客工场",
        "name:en": "Ucommune",
        "name:zh": "优客工场",
        "name:zh-Hans": "优客工场",
        "office": "coworking"
      }
    },
    {
      "displayName": "Ucommune (Hong Kong)",
      "id": "ucommune-a8f329",
      "locationSet": {"include": ["hk"]},
      "tags": {
        "brand": "優客工場 Ucommune",
        "brand:en": "Ucommune",
        "brand:wikidata": "Q60785187",
        "brand:wikipedia": "en:Ucommune",
        "brand:zh": "優客工場",
        "brand:zh-Hans": "优客工场",
        "brand:zh-Hant": "優客工場",
        "fee": "yes",
        "name": "優客工場 Ucommune",
        "name:en": "Ucommune",
        "name:zh": "優客工場",
        "name:zh-Hans": "优客工场",
        "name:zh-Hant": "優客工場",
        "office": "coworking"
      }
    },
    {
      "displayName": "Ucommune (Singapore)",
      "id": "ucommune-a6089e",
      "locationSet": {"include": ["sg"]},
      "tags": {
        "brand": "Ucommune",
        "brand:en": "Ucommune",
        "brand:wikidata": "Q60785187",
        "brand:wikipedia": "en:Ucommune",
        "brand:zh": "优客工场",
        "brand:zh-Hans": "优客工场",
        "fee": "yes",
        "name": "Ucommune",
        "name:en": "Ucommune",
        "name:zh": "优客工场",
        "name:zh-Hans": "优客工场",
        "office": "coworking"
      }
    },
    {
      "displayName": "Ucommune (Taiwan)",
      "id": "ucommune-4d61d2",
      "locationSet": {"include": ["tw"]},
      "tags": {
        "brand": "優客工場",
        "brand:en": "Ucommune",
        "brand:wikidata": "Q60785187",
        "brand:wikipedia": "en:Ucommune",
        "brand:zh": "優客工場",
        "brand:zh-Hans": "优客工场",
        "brand:zh-Hant": "優客工場",
        "fee": "yes",
        "name": "優客工場",
        "name:en": "Ucommune",
        "name:zh": "優客工場",
        "name:zh-Hans": "优客工场",
        "name:zh-Hant": "優客工場",
        "office": "coworking"
      }
    },
    {
      "displayName": "WeWork",
      "id": "wework-cfb41b",
      "locationSet": {"include": ["001"]},
      "tags": {
        "brand": "WeWork",
        "brand:wikidata": "Q19995004",
        "brand:wikipedia": "en:WeWork",
        "fee": "yes",
        "name": "WeWork",
        "office": "coworking"
      }
    }
  ]
}