{
  "properties": {
    "path": "brands/office/financial_advisor",
    "exclude": {
      "generic": ["^financial advisor$"]
    }
  },
  "items": [
    {
      "displayName": "1st Franklin Financial",
      "id": "1stfranklinfinancial-f55434",
      "locationSet": {"include": ["us"]},
      "tags": {
        "brand": "1st Franklin Financial",
        "brand:wikidata": "Q5453029",
        "name": "1st Franklin Financial",
        "office": "financial_advisor"
      }
    },
    {
      "displayName": "Ameriprise Financial",
      "id": "ameriprisefinancial-f55434",
      "locationSet": {"include": ["us"]},
      "matchTags": ["office/company"],
      "tags": {
        "brand": "Ameriprise Financial",
        "brand:wikidata": "Q2843129",
        "name": "Ameriprise Financial",
        "office": "financial_advisor"
      }
    },
    {
      "displayName": "Charles Schwab",
      "id": "charlesschwab-f55434",
      "locationSet": {"include": ["us"]},
      "tags": {
        "brand": "Charles Schwab",
        "brand:wikidata": "Q1066028",
        "name": "Charles Schwab",
        "office": "financial_advisor"
      }
    },
    {
      "displayName": "De Hypotheker",
      "id": "dehypotheker-59d603",
      "locationSet": {"include": ["nl"]},
      "tags": {
        "brand": "De Hypotheker",
        "brand:wikidata": "Q2210766",
        "name": "De Hypotheker",
        "office": "financial_advisor"
      }
    },
    {
      "displayName": "Edward Jones",
      "id": "edwardjones-ea0e83",
      "locationSet": {"include": ["ca", "us"]},
      "matchTags": ["office/company"],
      "tags": {
        "alt_name": "Edward Jones Investments",
        "brand": "Edward Jones",
        "brand:wikidata": "Q5343830",
        "name": "Edward Jones",
        "office": "financial_advisor"
      }
    },
    {
      "displayName": "Fidelity Investments",
      "id": "fidelityinvestments-f55434",
      "locationSet": {"include": ["us"]},
      "matchNames": ["fidelity investor center"],
      "tags": {
        "brand": "Fidelity Investments",
        "brand:wikidata": "Q1411292",
        "name": "Fidelity Investments",
        "office": "financial_advisor",
        "short_name": "Fidelity"
      }
    },
    {
      "displayName": "Merrill Lynch Wealth Management",
      "id": "merrilllynchwealthmanagement-f55434",
      "locationSet": {"include": ["us"]},
      "matchTags": ["office/lawyer"],
      "tags": {
        "brand": "Merrill",
        "brand:wikidata": "Q334122",
        "name": "Merrill Lynch Wealth Management",
        "office": "financial_advisor"
      }
    },
    {
      "displayName": "MLP",
      "id": "mlp-04d559",
      "locationSet": {"include": ["de"]},
      "matchNames": ["mlp ag", "mlp se"],
      "matchTags": ["office/insurance"],
      "tags": {
        "brand": "MLP",
        "brand:wikidata": "Q516061",
        "name": "MLP",
        "office": "financial_advisor"
      }
    },
    {
      "displayName": "NM Money",
      "id": "nmmoney-ce19a6",
      "locationSet": {"include": ["gb"]},
      "tags": {
        "brand": "NM Money",
        "brand:wikidata": "Q86529747",
        "name": "NM Money",
        "office": "financial_advisor"
      }
    },
    {
      "displayName": "OVB Holding",
      "id": "ovbholding-04d559",
      "locationSet": {"include": ["de"]},
      "tags": {
        "brand": "OVB Holding",
        "brand:wikidata": "Q318670",
        "name": "OVB Holding",
        "office": "financial_advisor"
      }
    },
    {
      "displayName": "Raymond James",
      "id": "raymondjames-ea0e83",
      "locationSet": {"include": ["ca", "us"]},
      "matchNames": [
        "raymond james financial services"
      ],
      "tags": {
        "brand": "Raymond James",
        "brand:wikidata": "Q7298901",
        "name": "Raymond James",
        "office": "financial_advisor"
      }
    },
    {
      "displayName": "RBC Wealth Management",
      "id": "rbcwealthmanagement-491349",
      "locationSet": {"include": ["ca"]},
      "matchNames": [
        "royal bank of canada wealth management"
      ],
      "tags": {
        "brand": "Q735261",
        "brand:wikidata": "Q193199",
        "name": "RBC Wealth Management",
        "office": "financial_advisor"
      }
    },
    {
      "displayName": "SageView Advisory Group",
      "id": "sageviewadvisorygroup-f55434",
      "locationSet": {"include": ["us"]},
      "tags": {
        "brand": "SageView Advisory Group",
        "brand:wikidata": "Q115527494",
        "name": "SageView Advisory Group",
        "office": "financial_advisor"
      }
    },
    {
      "displayName": "Solva",
      "id": "solva-255c4c",
      "locationSet": {"include": ["kz"]},
      "tags": {
        "brand": "Solva",
        "brand:wikidata": "Q117351534",
        "name": "Solva",
        "office": "financial_advisor"
      }
    },
    {
      "displayName": "Swiss Life Select",
      "id": "swisslifeselect-1e9d61",
      "locationSet": {
        "include": [
          "ch",
          "de",
          "fr",
          "gb",
          "it",
          "lu",
          "no"
        ]
      },
      "tags": {
        "brand": "Swiss Life Select",
        "brand:wikidata": "Q300213",
        "name": "Swiss Life Select",
        "office": "financial_advisor"
      }
    },
    {
      "displayName": "TD Ameritrade",
      "id": "tdameritrade-f55434",
      "locationSet": {"include": ["us"]},
      "tags": {
        "brand": "TD Ameritrade",
        "brand:wikidata": "Q7669886",
        "name": "TD Ameritrade",
        "office": "financial_advisor"
      }
    },
    {
      "displayName": "Thrivent",
      "id": "thrivent-f55434",
      "locationSet": {"include": ["us"]},
      "tags": {
        "brand": "Thrivent",
        "brand:wikidata": "Q7798301",
        "name": "Thrivent",
        "office": "financial_advisor"
      }
    },
    {
      "displayName": "UBS Financial Services",
      "id": "ubsfinancialservices-f55434",
      "locationSet": {"include": ["us"]},
      "matchNames": [
        "ubs financial services inc."
      ],
      "tags": {
        "brand": "UBS",
        "brand:wikidata": "Q193199",
        "name": "UBS Financial Services",
        "office": "financial_advisor"
      }
    },
    {
      "displayName": "Wells Fargo Advisors",
      "id": "wellsfargoadvisors-f55434",
      "locationSet": {"include": ["us"]},
      "tags": {
        "brand": "Wells Fargo Advisors",
        "brand:wikidata": "Q7981643",
        "name": "Wells Fargo Advisors",
        "office": "financial_advisor"
      }
    },
    {
      "displayName": "Wells Fargo Private Bank",
      "id": "wellsfargoprivatebank-f55434",
      "locationSet": {"include": ["us"]},
      "tags": {
        "alt_name": "The Private Bank",
        "brand": "Wells Fargo Private Bank",
        "brand:wikidata": "Q108933753",
        "name": "Wells Fargo Private Bank",
        "office": "financial_advisor"
      }
    },
    {
      "displayName": "БКС Мир инвестиций",
      "id": "bcsfinancialgroup-608a42",
      "locationSet": {"include": ["ru"]},
      "tags": {
        "brand": "БКС Мир инвестиций",
        "brand:wikidata": "Q4096843",
        "name": "БКС Мир инвестиций",
        "name:en": "BCS Financial Group",
        "office": "financial_advisor"
      }
    },
    {
      "displayName": "Газпромбанк Автолизинг",
      "id": "13f409-e9248e",
      "locationSet": {"include": ["001"]},
      "tags": {
        "brand": "Газпромбанк Автолизинг",
        "name": "Газпромбанк Автолизинг",
        "office": "financial_advisor"
      }
    },
    {
      "displayName": "СберЛизинг",
      "id": "c2438a-e9248e",
      "locationSet": {"include": ["001"]},
      "tags": {
        "brand": "СберЛизинг",
        "name": "СберЛизинг",
        "office": "financial_advisor"
      }
    },
    {
      "displayName": "中信建投证券",
      "id": "chinasecurities-fe1d6b",
      "locationSet": {"include": ["cn"]},
      "tags": {
        "brand": "中信建投证券",
        "brand:en": "China Securities",
        "brand:wikidata": "Q27833474",
        "brand:zh": "中信建投证券",
        "name": "中信建投证券",
        "name:en": "China Securities",
        "name:zh": "中信建投证券",
        "office": "financial_advisor"
      }
    },
    {
      "displayName": "中信证券",
      "id": "citicsecurities-fe1d6b",
      "locationSet": {"include": ["cn"]},
      "tags": {
        "brand": "中信证券",
        "brand:en": "CITIC Securities",
        "brand:wikidata": "Q737443",
        "brand:zh": "中信证券",
        "name": "中信证券",
        "name:en": "CITIC Securities",
        "name:zh": "中信证券",
        "office": "financial_advisor"
      }
    },
    {
      "displayName": "华泰证券",
      "id": "huataisecurities-fe1d6b",
      "locationSet": {"include": ["cn"]},
      "tags": {
        "brand": "华泰证券",
        "brand:en": "Huatai Securities",
        "brand:wikidata": "Q106610106",
        "brand:zh": "华泰证券",
        "name": "华泰证券",
        "name:en": "Huatai Securities",
        "name:zh": "华泰证券",
        "office": "financial_advisor"
      }
    },
    {
      "displayName": "国泰君安证券",
      "id": "guotaijunansecurities-fe1d6b",
      "locationSet": {"include": ["cn"]},
      "tags": {
        "brand": "国泰君安证券",
        "brand:en": "Guotai Junan Securities",
        "brand:wikidata": "Q5619679",
        "brand:zh": "国泰君安证券",
        "name": "国泰君安证券",
        "name:en": "Guotai Junan Securities",
        "name:zh": "国泰君安证券",
        "office": "financial_advisor"
      }
    },
    {
      "displayName": "招商证券",
      "id": "chinamerchantssecurities-fe1d6b",
      "locationSet": {"include": ["cn"]},
      "tags": {
        "brand": "招商证券",
        "brand:en": "China Merchants Securities",
        "brand:wikidata": "Q11077292",
        "brand:zh": "招商证券",
        "name": "招商证券",
        "name:en": "China Merchants Securities",
        "name:zh": "招商证券",
        "office": "financial_advisor"
      }
    },
    {
      "displayName": "耀才證券 Bright Smart Securities",
      "id": "brightsmartsecurities-a6a387",
      "locationSet": {"include": ["hk"]},
      "tags": {
        "brand": "耀才證券 Bright Smart Securities",
        "brand:en": "Bright Smart Securities",
        "brand:wikidata": "Q19855063",
        "brand:zh": "耀才證券",
        "name": "耀才證券 Bright Smart Securities",
        "name:en": "Bright Smart Securities",
        "name:zh": "耀才證券",
        "office": "financial_advisor"
      }
    }
  ]
}
