{
  "properties": {
    "path": "brands/office/insurance",
    "preserveTags": ["^name"],
    "exclude": {
      "generic": [
        "^assurance$",
        "^insurance$",
        "^ubezpieczenia$"
      ]
    }
  },
  "items": [
    {
      "displayName": "A-MAX Auto Insurance",
      "id": "amaxautoinsurance-6b1e37",
      "locationSet": {"include": ["us"]},
      "tags": {
        "brand": "A-MAX Auto Insurance",
        "brand:wikidata": "Q75767609",
        "name": "A-MAX Auto Insurance",
        "office": "insurance",
        "short_name": "A-MAX"
      }
    },
    {
      "displayName": "AAA Insurance",
      "id": "aaainsurance-6b1e37",
      "locationSet": {"include": ["us"]},
      "tags": {
        "brand": "American Automobile Association",
        "brand:wikidata": "Q463436",
        "name": "AAA Insurance",
        "office": "insurance",
        "short_name": "AAA"
      }
    },
    {
      "displayName": "Aésio Mutuelle",
      "id": "aesiomutuelle-6ae572",
      "locationSet": {"include": ["fr"]},
      "tags": {
        "brand": "Aésio Mutuelle",
        "brand:wikidata": "Q56320205",
        "name": "Aésio Mutuelle",
        "office": "insurance",
        "short_name": "Aésio"
      }
    },
    {
      "displayName": "Aflac",
      "id": "aflac-6b1e37",
      "locationSet": {"include": ["us"]},
      "tags": {
        "brand": "Aflac",
        "brand:wikidata": "Q26311",
        "name": "Aflac",
        "office": "insurance"
      }
    },
    {
      "displayName": "Allianz",
      "id": "allianz-332499",
      "locationSet": {
        "include": [
          "ae",
          "ar",
          "at",
          "au",
          "be",
          "bg",
          "bh",
          "bm",
          "bn",
          "br",
          "ca",
          "cg",
          "ch",
          "ci",
          "cm",
          "cn",
          "co",
          "cy",
          "cz",
          "de",
          "dk",
          "ee",
          "eg",
          "es",
          "fi",
          "fr",
          "gb",
          "gf",
          "gg",
          "gh",
          "gp",
          "gr",
          "hk",
          "hr",
          "hu",
          "id",
          "ie",
          "in",
          "is",
          "it",
          "ja",
          "ke",
          "kr",
          "kw",
          "la",
          "li",
          "lk",
          "lt",
          "lu",
          "lv",
          "ma",
          "mg",
          "mx",
          "my",
          "ng",
          "nl",
          "no",
          "nz",
          "om",
          "ph",
          "pk",
          "pl",
          "pt",
          "qa",
          "ro",
          "ru",
          "sa",
          "se",
          "sg",
          "si",
          "sk",
          "sn",
          "th",
          "tr",
          "tw",
          "ua",
          "us",
          "za"
        ]
      },
      "matchNames": ["allianz versicherung"],
      "tags": {
        "brand": "Allianz",
        "brand:wikidata": "Q487292",
        "name": "Allianz",
        "office": "insurance"
      }
    },
    {
      "displayName": "Allstate",
      "id": "allstate-a15ce9",
      "locationSet": {"include": ["ca", "us"]},
      "matchNames": [
        "allstate insurance",
        "allstate insurance company"
      ],
      "tags": {
        "brand": "Allstate",
        "brand:wikidata": "Q2645636",
        "name": "Allstate",
        "office": "insurance"
      }
    },
    {
      "displayName": "American Family Insurance",
      "id": "americanfamilyinsurance-6b1e37",
      "locationSet": {"include": ["us"]},
      "matchNames": ["american family", "amfam"],
      "tags": {
        "brand": "American Family Insurance",
        "brand:wikidata": "Q4743730",
        "name": "American Family Insurance",
        "office": "insurance"
      }
    },
    {
      "displayName": "AOK",
      "id": "aok-422e71",
      "locationSet": {"include": ["de"]},
      "tags": {
        "brand": "AOK",
        "brand:wikidata": "Q835141",
        "insurance": "health",
        "name": "AOK",
        "office": "insurance"
      }
    },
    {
      "displayName": "ARX",
      "id": "arx-43aba6",
      "locationSet": {"include": ["ua"]},
      "matchNames": ["axa"],
      "tags": {
        "brand": "ARX",
        "brand:en": "ARX",
        "brand:uk": "АРКС",
        "brand:wikidata": "Q97805189",
        "name": "ARX",
        "name:en": "ARX",
        "name:uk": "АРКС",
        "office": "insurance"
      }
    },
    {
      "displayName": "Asepeyo",
      "id": "asepeyo-38d127",
      "locationSet": {"include": ["es"]},
      "tags": {
        "brand": "Asepeyo",
        "brand:wikidata": "Q11906879",
        "name": "Asepeyo",
        "office": "insurance"
      }
    },
    {
      "displayName": "Asoba",
      "id": "asoba-fe8e31",
      "locationSet": {"include": ["by"]},
      "tags": {
        "brand": "Asoba",
        "name": "Asoba",
        "office": "insurance"
      }
    },
    {
      "displayName": "Assu 2000",
      "id": "assu2000-6ae572",
      "locationSet": {"include": ["fr"]},
      "tags": {
        "brand": "Assu 2000",
        "name": "Assu 2000",
        "office": "insurance"
      }
    },
    {
      "displayName": "Aviva",
      "id": "aviva-851fcf",
      "locationSet": {
        "include": ["fr", "ie", "pl"]
      },
      "tags": {
        "brand": "Aviva",
        "brand:wikidata": "Q791179",
        "name": "Aviva",
        "office": "insurance"
      }
    },
    {
      "displayName": "AXA",
      "id": "axa-2e7672",
      "locationSet": {
        "include": [
          "ae",
          "ar",
          "au",
          "be",
          "bh",
          "bm",
          "br",
          "ca",
          "ch",
          "ci",
          "cl",
          "cm",
          "cn",
          "co",
          "cz",
          "de",
          "dk",
          "dz",
          "eg",
          "es",
          "fi",
          "fr",
          "ga",
          "gb",
          "gr",
          "hk",
          "id",
          "ie",
          "in",
          "it",
          "jp",
          "kr",
          "lb",
          "lu",
          "ma",
          "mu",
          "mx",
          "my",
          "ng",
          "nl",
          "no",
          "om",
          "pa",
          "pe",
          "ph",
          "pl",
          "pt",
          "qa",
          "sa",
          "se",
          "sg",
          "sk",
          "sn",
          "th",
          "tr",
          "tw",
          "us"
        ]
      },
      "tags": {
        "brand": "AXA",
        "brand:wikidata": "Q160054",
        "name": "AXA",
        "office": "insurance"
      }
    },
    {
      "displayName": "Bahn-BKK",
      "id": "bahnbkk-422e71",
      "locationSet": {"include": ["de"]},
      "tags": {
        "brand": "Bahn-BKK",
        "brand:wikidata": "Q800256",
        "insurance": "health",
        "name": "Bahn-BKK",
        "office": "insurance"
      }
    },
    {
      "displayName": "Bâloise",
      "id": "baloise-d9a3dd",
      "locationSet": {
        "include": ["be", "ch", "de", "li", "lu"]
      },
      "tags": {
        "brand": "Bâloise",
        "brand:wikidata": "Q457912",
        "name": "Bâloise",
        "office": "insurance"
      }
    },
    {
      "displayName": "Banco do Brasil Seguridade",
      "id": "bancodobrasilseguridade-af18ad",
      "locationSet": {"include": ["br"]},
      "tags": {
        "brand": "Banco do Brasil Seguridade",
        "brand:wikidata": "Q18499520",
        "name": "Banco do Brasil Seguridade",
        "office": "insurance",
        "short_name": "BB Seguridade"
      }
    },
    {
      "displayName": "Bankers Life",
      "id": "bankerslife-6b1e37",
      "locationSet": {"include": ["us"]},
      "tags": {
        "brand": "Bankers Life",
        "brand:wikidata": "Q4856264",
        "name": "Bankers Life",
        "office": "insurance"
      }
    },
    {
      "displayName": "Barmer",
      "id": "barmer-422e71",
      "locationSet": {"include": ["de"]},
      "tags": {
        "brand": "Barmer",
        "brand:wikidata": "Q808361",
        "insurance": "health",
        "name": "Barmer",
        "office": "insurance"
      }
    },
    {
      "displayName": "BGV",
      "id": "bgv-422e71",
      "locationSet": {"include": ["de"]},
      "tags": {
        "alt_name": "Badische Versicherungen",
        "brand": "BGV",
        "brand:wikidata": "Q795911",
        "name": "BGV",
        "office": "insurance"
      }
    },
    {
      "displayName": "BKK-VBU",
      "id": "bkkvbu-422e71",
      "locationSet": {"include": ["de"]},
      "tags": {
        "brand": "BKK-VBU",
        "brand:wikidata": "Q796109",
        "insurance": "health",
        "name": "BKK-VBU",
        "office": "insurance"
      }
    },
    {
      "displayName": "BrokerLink",
      "id": "brokerlink-0c8028",
      "locationSet": {"include": ["ca"]},
      "tags": {
        "brand": "BrokerLink",
        "brand:wikidata": "Q123409956",
        "name": "BrokerLink",
        "office": "insurance"
      }
    },
    {
      "displayName": "CAA",
      "id": "caa-0c8028",
      "locationSet": {"include": ["ca"]},
      "matchNames": [
        "canadian automobile association"
      ],
      "matchTags": ["shop/travel_agency"],
      "tags": {
        "brand": "CAA",
        "brand:wikidata": "Q429274",
        "name": "CAA",
        "office": "insurance"
      }
    },
    {
      "displayName": "Caser",
      "id": "caser-38d127",
      "locationSet": {"include": ["es"]},
      "tags": {
        "brand": "Caser",
        "brand:wikidata": "Q5756057",
        "name": "Caser",
        "office": "insurance"
      }
    },
    {
      "displayName": "Catalana Occidente",
      "id": "catalanaoccidente-38d127",
      "locationSet": {"include": ["es"]},
      "tags": {
        "brand": "Catalana Occidente",
        "brand:wikidata": "Q5936881",
        "name": "Catalana Occidente",
        "office": "insurance"
      }
    },
    {
      "displayName": "CESCE",
      "id": "cesce-38d127",
      "locationSet": {"include": ["es"]},
      "tags": {
        "brand": "CESCE",
        "brand:wikidata": "Q5737049",
        "name": "CESCE",
        "office": "insurance",
        "official_name": "Compañía Española de Seguros de Crédito a la Exportación"
      }
    },
    {
      "displayName": "Continentale",
      "id": "continentale-422e71",
      "locationSet": {"include": ["de"]},
      "matchNames": [
        "continentale krankenversicherung",
        "continentale versicherung",
        "die continentale"
      ],
      "tags": {
        "brand": "Continentale",
        "brand:wikidata": "Q1128861",
        "insurance": "health",
        "name": "Continentale",
        "office": "insurance"
      }
    },
    {
      "displayName": "Country Financial",
      "id": "countryfinancial-6b1e37",
      "locationSet": {"include": ["us"]},
      "tags": {
        "brand": "Country Financial",
        "brand:wikidata": "Q5177282",
        "name": "Country Financial",
        "office": "insurance"
      }
    },
    {
      "displayName": "CSF",
      "id": "csf-6ae572",
      "locationSet": {"include": ["fr"]},
      "tags": {
        "brand": "CSF",
        "brand:wikidata": "Q120753050",
        "name": "CSF",
        "office": "insurance"
      }
    },
    {
      "displayName": "CUK Ubezpieczenia",
      "id": "cukubezpieczenia-313da8",
      "locationSet": {"include": ["pl"]},
      "tags": {
        "brand": "CUK Ubezpieczenia",
        "brand:wikidata": "Q113230028",
        "name": "CUK Ubezpieczenia",
        "office": "insurance"
      }
    },
    {
      "displayName": "DAK",
      "id": "dak-422e71",
      "locationSet": {"include": ["de"]},
      "tags": {
        "brand": "DAK",
        "brand:wikidata": "Q1151671",
        "insurance": "health",
        "name": "DAK",
        "office": "insurance"
      }
    },
    {
      "displayName": "Debeka",
      "id": "debeka-422e71",
      "locationSet": {"include": ["de"]},
      "tags": {
        "brand": "Debeka",
        "brand:wikidata": "Q1181452",
        "name": "Debeka",
        "office": "insurance"
      }
    },
    {
      "displayName": "Desjardins Insurance",
      "id": "desjardinsinsurance-0c8028",
      "locationSet": {"include": ["ca"]},
      "matchNames": ["state farm"],
      "tags": {
        "brand": "Desjardins Insurance",
        "brand:wikidata": "Q55138816",
        "name": "Desjardins Insurance",
        "name:en": "Desjardins Insurance",
        "name:fr": "Desjardins Assurances",
        "office": "insurance"
      }
    },
    {
      "displayName": "DEVK",
      "id": "devk-422e71",
      "locationSet": {"include": ["de"]},
      "tags": {
        "brand": "DEVK",
        "brand:wikidata": "Q1153049",
        "name": "DEVK",
        "office": "insurance"
      }
    },
    {
      "displayName": "Direct Auto Insurance",
      "id": "directautoinsurance-6b1e37",
      "locationSet": {"include": ["us"]},
      "tags": {
        "brand": "Direct Auto Insurance",
        "brand:wikidata": "Q115251812",
        "name": "Direct Auto Insurance",
        "office": "insurance"
      }
    },
    {
      "displayName": "DKV",
      "id": "dkv-422e71",
      "locationSet": {"include": ["de"]},
      "tags": {
        "brand": "DKV",
        "brand:wikidata": "Q14552531",
        "insurance": "health",
        "name": "DKV",
        "office": "insurance"
      }
    },
    {
      "displayName": "Dôvera",
      "id": "dovera-780b74",
      "locationSet": {"include": ["sk"]},
      "matchNames": [
        "dôvera zdravotná poisťovňa"
      ],
      "tags": {
        "brand": "Dôvera",
        "brand:wikidata": "Q77877753",
        "insurance": "health",
        "name": "Dôvera",
        "office": "insurance"
      }
    },
    {
      "displayName": "DVV",
      "id": "dvv-df109b",
      "locationSet": {"include": ["be"]},
      "matchNames": ["dvv verzekeringen"],
      "tags": {
        "brand": "DVV",
        "brand:wikidata": "Q1969247",
        "name": "DVV",
        "office": "insurance"
      }
    },
    {
      "displayName": "ENSA",
      "id": "ensa-3c8773",
      "locationSet": {"include": ["ao"]},
      "tags": {
        "brand": "ENSA",
        "brand:wikidata": "Q5323726",
        "name": "ENSA",
        "office": "insurance"
      }
    },
    {
      "displayName": "Ergo",
      "id": "ergo-38191f",
      "locationSet": {
        "include": [
          "at",
          "be",
          "ch",
          "cn",
          "cz",
          "de",
          "dk",
          "ee",
          "es",
          "fr",
          "gb",
          "gr",
          "hu",
          "in",
          "it",
          "kr",
          "lt",
          "lu",
          "lv",
          "nl",
          "pl",
          "se",
          "sg",
          "th"
        ]
      },
      "matchNames": [
        "ergo direkt",
        "ergo direktversicherung",
        "ergo versicherung"
      ],
      "tags": {
        "brand": "Ergo",
        "brand:wikidata": "Q541909",
        "name": "Ergo",
        "office": "insurance"
      }
    },
    {
      "displayName": "Erie Insurance",
      "id": "erieinsurance-6b1e37",
      "locationSet": {"include": ["us"]},
      "matchNames": [
        "erie",
        "erie insurance agent"
      ],
      "tags": {
        "brand": "Erie Insurance",
        "brand:wikidata": "Q5388314",
        "name": "Erie Insurance",
        "office": "insurance"
      }
    },
    {
      "displayName": "Estrella Insurance",
      "id": "estrellainsurance-6b1e37",
      "locationSet": {"include": ["us"]},
      "tags": {
        "brand": "Estrella Insurance",
        "brand:wikidata": "Q120716784",
        "name": "Estrella Insurance",
        "office": "insurance"
      }
    },
    {
      "displayName": "Express Страхування",
      "id": "020645-43aba6",
      "locationSet": {"include": ["ua"]},
      "matchNames": ["express", "експрес"],
      "tags": {
        "brand": "Express Страхування",
        "brand:uk": "Експрес Страхування",
        "brand:wikidata": "Q118630381",
        "name": "Express Страхування",
        "name:uk": "Експрес Страхування",
        "office": "insurance"
      }
    },
    {
      "displayName": "Farm Bureau Insurance",
      "id": "farmbureauinsurance-6b1e37",
      "locationSet": {"include": ["us"]},
      "tags": {
        "brand": "Farm Bureau Insurance",
        "name": "Farm Bureau Insurance",
        "office": "insurance"
      }
    },
    {
      "displayName": "Farmers Insurance",
      "id": "farmersinsurance-6b1e37",
      "locationSet": {"include": ["us"]},
      "matchNames": ["farmers"],
      "tags": {
        "brand": "Farmers Insurance",
        "brand:wikidata": "Q1396863",
        "name": "Farmers Insurance",
        "office": "insurance"
      }
    },
    {
      "displayName": "Fidelidade",
      "id": "fidelidade-629ea0",
      "locationSet": {"include": ["pt"]},
      "tags": {
        "brand": "Fidelidade",
        "brand:wikidata": "Q108195506",
        "name": "Fidelidade",
        "office": "insurance"
      }
    },
    {
      "displayName": "Foyer",
      "id": "foyer-734c77",
      "locationSet": {"include": ["lu"]},
      "tags": {
        "brand": "Foyer",
        "brand:wikidata": "Q1344573",
        "name": "Foyer",
        "office": "insurance"
      }
    },
    {
      "displayName": "Fred Loya Insurance",
      "id": "fredloyainsurance-6b1e37",
      "locationSet": {"include": ["us"]},
      "matchNames": ["fred loya"],
      "tags": {
        "brand": "Fred Loya Insurance",
        "brand:wikidata": "Q5495810",
        "name": "Fred Loya Insurance",
        "office": "insurance"
      }
    },
    {
      "displayName": "Freeway Insurance",
      "id": "freewayinsurance-6b1e37",
      "locationSet": {"include": ["us"]},
      "tags": {
        "brand": "Freeway Insurance",
        "brand:wikidata": "Q108044578",
        "name": "Freeway Insurance",
        "office": "insurance"
      }
    },
    {
      "displayName": "Fremap",
      "id": "fremap-38d127",
      "locationSet": {"include": ["es"]},
      "tags": {
        "brand": "Fremap",
        "brand:wikidata": "Q5869232",
        "name": "Fremap",
        "office": "insurance"
      }
    },
    {
      "displayName": "Gan",
      "id": "gan-6ae572",
      "locationSet": {"include": ["fr"]},
      "matchNames": ["gan assurances"],
      "tags": {
        "brand": "Gan",
        "brand:wikidata": "Q3095058",
        "name": "Gan",
        "office": "insurance"
      }
    },
    {
      "displayName": "GEICO",
      "id": "geico-6b1e37",
      "locationSet": {"include": ["us"]},
      "tags": {
        "brand": "GEICO",
        "brand:wikidata": "Q1498689",
        "name": "GEICO",
        "office": "insurance"
      }
    },
    {
      "displayName": "Generali",
      "id": "generali-cb13d1",
      "locationSet": {
        "include": [
          "ar",
          "at",
          "bg",
          "br",
          "ch",
          "cl",
          "cn",
          "cz",
          "de",
          "es",
          "fr",
          "gr",
          "hr",
          "hu",
          "id",
          "in",
          "it",
          "me",
          "my",
          "ph",
          "pl",
          "pt",
          "ro",
          "rs",
          "si",
          "sk",
          "tr",
          "vn"
        ]
      },
      "matchNames": ["generali españa"],
      "tags": {
        "brand": "Generali",
        "brand:wikidata": "Q670482",
        "name": "Generali",
        "office": "insurance"
      }
    },
    {
      "displayName": "GMF",
      "id": "gmf-6ae572",
      "locationSet": {"include": ["fr"]},
      "tags": {
        "brand": "GMF",
        "brand:wikidata": "Q3095296",
        "name": "GMF",
        "office": "insurance"
      }
    },
    {
      "displayName": "Gothaer",
      "id": "gothaer-422e71",
      "locationSet": {"include": ["de"]},
      "tags": {
        "brand": "Gothaer",
        "brand:wikidata": "Q28154519",
        "name": "Gothaer",
        "office": "insurance"
      }
    },
    {
      "displayName": "Grange Insurance",
      "id": "grangeinsurance-6b1e37",
      "locationSet": {"include": ["us"]},
      "matchNames": ["grange"],
      "tags": {
        "brand": "Grange Insurance",
        "brand:wikidata": "Q17183481",
        "name": "Grange Insurance",
        "office": "insurance"
      }
    },
    {
      "displayName": "Grawe",
      "id": "grawe-49851b",
      "locationSet": {
        "include": [
          "at",
          "ba",
          "bg",
          "cy",
          "hr",
          "hu",
          "md",
          "me",
          "mk",
          "ro",
          "rs",
          "si",
          "ua"
        ]
      },
      "matchNames": [
        "grazer wechselseitige",
        "grazer wechselseitige versicherung ag"
      ],
      "tags": {
        "brand": "Grawe",
        "brand:wikidata": "Q877006",
        "name": "Grawe",
        "office": "insurance"
      }
    },
    {
      "displayName": "Gross",
      "id": "gross-e25ae6",
      "locationSet": {"include": ["uz"]},
      "tags": {
        "brand": "Gross",
        "name": "Gross",
        "office": "insurance"
      }
    },
    {
      "displayName": "Groupama",
      "id": "groupama-bb2387",
      "locationSet": {
        "include": [
          "bg",
          "cn",
          "fr",
          "gr",
          "hu",
          "it",
          "ro",
          "sk",
          "tr"
        ]
      },
      "tags": {
        "brand": "Groupama",
        "brand:wikidata": "Q3083531",
        "name": "Groupama",
        "office": "insurance",
        "official_name": "Groupe des Assurances Mutuelles Agricoles"
      }
    },
    {
      "displayName": "HanseMerkur",
      "id": "hansemerkur-422e71",
      "locationSet": {"include": ["de"]},
      "tags": {
        "brand": "HanseMerkur",
        "brand:wikidata": "Q1273099",
        "name": "HanseMerkur",
        "office": "insurance"
      }
    },
    {
      "displayName": "Harmonie Mutuelle",
      "id": "harmoniemutuelle-6ae572",
      "locationSet": {"include": ["fr"]},
      "tags": {
        "brand": "Harmonie Mutuelle",
        "brand:wikidata": "Q3127528",
        "name": "Harmonie Mutuelle",
        "office": "insurance"
      }
    },
    {
      "displayName": "HDFC Life",
      "id": "hdfclife-9d27b9",
      "locationSet": {"include": ["in"]},
      "tags": {
        "brand": "HDFC Life",
        "brand:wikidata": "Q5629189",
        "name": "HDFC Life",
        "office": "insurance"
      }
    },
    {
      "displayName": "HDI",
      "id": "hdi-422e71",
      "locationSet": {"include": ["de"]},
      "matchNames": [
        "hdi direkt",
        "hdi gerling",
        "hdi global"
      ],
      "tags": {
        "brand": "HDI",
        "brand:wikidata": "Q17322068",
        "name": "HDI",
        "office": "insurance"
      }
    },
    {
      "displayName": "Helvetia",
      "id": "helvetia-f9490e",
      "locationSet": {
        "include": [
          "at",
          "ch",
          "de",
          "es",
          "fr",
          "it"
        ]
      },
      "tags": {
        "brand": "Helvetia",
        "brand:wikidata": "Q933766",
        "name": "Helvetia",
        "office": "insurance"
      }
    },
    {
      "displayName": "Howden",
      "id": "howden-23333b",
      "locationSet": {"include": ["gb"]},
      "matchNames": [
        "a plan",
        "a-plan insurance"
      ],
      "tags": {
        "brand": "Howden",
        "brand:wikidata": "Q87070013",
        "name": "Howden",
        "office": "insurance"
      }
    },
    {
      "displayName": "HUK-Coburg",
      "id": "hukcoburg-422e71",
      "locationSet": {"include": ["de"]},
      "tags": {
        "brand": "HUK-Coburg",
        "brand:wikidata": "Q1566111",
        "name": "HUK-Coburg",
        "office": "insurance"
      }
    },
    {
      "displayName": "I&G Brokers",
      "id": "iandgbrokers-ef0911",
      "locationSet": {"include": ["bg"]},
      "tags": {
        "brand": "I&G Brokers",
        "brand:wikidata": "Q110399829",
        "name": "I&G Brokers",
        "office": "insurance"
      }
    },
    {
      "displayName": "INGO",
      "id": "ingo-43aba6",
      "locationSet": {"include": ["ua"]},
      "tags": {
        "brand": "INGO",
        "brand:en": "INGO",
        "brand:uk": "ІНГО",
        "brand:wikidata": "Q122942670",
        "name": "INGO",
        "name:en": "INGO",
        "name:uk": "ІНГО",
        "office": "insurance"
      }
    },
    {
      "displayName": "Insurance Navy Brokers",
      "id": "insurancenavybrokers-082118",
      "locationSet": {
        "include": [
          "us-ca.geojson",
          "us-il.geojson",
          "us-tx.geojson"
        ]
      },
      "tags": {
        "brand": "Insurance Navy Brokers",
        "brand:wikidata": "Q106564453",
        "name": "Insurance Navy Brokers",
        "office": "insurance"
      }
    },
    {
      "displayName": "Knappschaft",
      "id": "knappschaft-422e71",
      "locationSet": {"include": ["de"]},
      "tags": {
        "brand": "Knappschaft",
        "brand:wikidata": "Q1313465",
        "insurance": "health",
        "name": "Knappschaft",
        "office": "insurance"
      }
    },
    {
      "displayName": "KOMUNÁLNA poisťovňa",
      "id": "komunalnapoistovna-780b74",
      "locationSet": {"include": ["sk"]},
      "tags": {
        "brand": "KOMUNÁLNA poisťovňa",
        "brand:wikidata": "Q96129040",
        "name": "KOMUNÁLNA poisťovňa",
        "office": "insurance"
      }
    },
    {
      "displayName": "Kooperativa",
      "id": "kooperativa-98fcf6",
      "locationSet": {"include": ["cz", "sk"]},
      "tags": {
        "brand": "Kooperativa",
        "brand:wikidata": "Q16742113",
        "name": "Kooperativa",
        "office": "insurance"
      }
    },
    {
      "displayName": "LaLux",
      "id": "lalux-734c77",
      "locationSet": {"include": ["lu"]},
      "matchNames": ["la luxembourgeoise"],
      "tags": {
        "brand": "LaLux",
        "brand:wikidata": "Q13103680",
        "name": "LaLux",
        "office": "insurance"
      }
    },
    {
      "displayName": "Liberty Group Limited",
      "id": "libertygrouplimited-bf6fe2",
      "locationSet": {"include": ["za"]},
      "tags": {
        "brand": "Liberty Group Limited",
        "brand:wikidata": "Q120885250",
        "name": "Liberty Group Limited",
        "office": "insurance"
      }
    },
    {
      "displayName": "Liberty Mutual Insurance",
      "id": "libertymutualinsurance-6b1e37",
      "locationSet": {"include": ["us"]},
      "tags": {
        "brand": "Liberty Mutual Insurance",
        "brand:wikidata": "Q1516450",
        "name": "Liberty Mutual Insurance",
        "office": "insurance"
      }
    },
    {
      "displayName": "Liberty Seguros",
      "id": "libertyseguros-38d127",
      "locationSet": {"include": ["es"]},
      "tags": {
        "brand": "Liberty Seguros",
        "brand:wikidata": "Q3178929",
        "name": "Liberty Seguros",
        "office": "insurance"
      }
    },
    {
      "displayName": "Life Insurance Corporation",
      "id": "lifeinsurancecorporation-9d27b9",
      "locationSet": {"include": ["in"]},
      "tags": {
        "brand": "Life Insurance Corporation",
        "brand:wikidata": "Q2767170",
        "name": "Life Insurance Corporation",
        "office": "insurance",
        "short_name": "LIC"
      }
    },
    {
      "displayName": "Línea Directa",
      "id": "lineadirecta-38d127",
      "locationSet": {"include": ["es"]},
      "tags": {
        "brand": "Línea Directa",
        "brand:wikidata": "Q325156",
        "name": "Línea Directa",
        "office": "insurance"
      }
    },
    {
      "displayName": "LVM",
      "id": "lvm-422e71",
      "locationSet": {"include": ["de"]},
      "tags": {
        "brand": "LVM",
        "brand:wikidata": "Q1798429",
        "name": "LVM",
        "office": "insurance"
      }
    },
    {
      "displayName": "MAAF",
      "id": "maaf-6ae572",
      "locationSet": {"include": ["fr"]},
      "tags": {
        "brand": "MAAF",
        "brand:wikidata": "Q3331028",
        "name": "MAAF",
        "office": "insurance"
      }
    },
    {
      "displayName": "Macif",
      "id": "macif-6ae572",
      "locationSet": {"include": ["fr"]},
      "tags": {
        "brand": "Macif",
        "brand:wikidata": "Q3331021",
        "name": "Macif",
        "office": "insurance"
      }
    },
    {
      "displayName": "Maif",
      "id": "maif-6ae572",
      "locationSet": {"include": ["fr"]},
      "tags": {
        "brand": "Maif",
        "brand:wikidata": "Q3331029",
        "name": "Maif",
        "office": "insurance",
        "official_name": "Mutuelle d'assurance des instituteurs de France"
      }
    },
    {
      "displayName": "Mapfre",
      "id": "mapfre-b9b33f",
      "locationSet": {"include": ["001"]},
      "tags": {
        "brand": "Mapfre",
        "brand:wikidata": "Q544532",
        "name": "Mapfre",
        "office": "insurance"
      }
    },
    {
      "displayName": "Matmut",
      "id": "matmut-6ae572",
      "locationSet": {"include": ["fr"]},
      "tags": {
        "brand": "Matmut",
        "brand:wikidata": "Q3299185",
        "name": "Matmut",
        "office": "insurance"
      }
    },
    {
      "displayName": "Max Life Insurance",
      "id": "maxlifeinsurance-9d27b9",
      "locationSet": {"include": ["in"]},
      "tags": {
        "brand": "Max Life Insurance",
        "brand:wikidata": "Q6794973",
        "name": "Max Life Insurance",
        "office": "insurance"
      }
    },
    {
      "displayName": "Medibank",
      "id": "medibank-437259",
      "locationSet": {"include": ["au"]},
      "tags": {
        "brand": "Medibank",
        "brand:wikidata": "Q6806228",
        "insurance": "health",
        "name": "Medibank",
        "office": "insurance"
      }
    },
    {
      "displayName": "MMA",
      "id": "mma-6ae572",
      "locationSet": {"include": ["fr"]},
      "tags": {
        "brand": "MMA",
        "brand:wikidata": "Q3331046",
        "name": "MMA",
        "office": "insurance",
        "official_name": "Mutuelles du Mans Assurances"
      }
    },
    {
      "displayName": "Mutua Madrileña",
      "id": "mutuamadrilena-38d127",
      "locationSet": {"include": ["es"]},
      "tags": {
        "brand": "Mutua Madrileña",
        "brand:wikidata": "Q4888750",
        "name": "Mutua Madrileña",
        "office": "insurance"
      }
    },
    {
      "displayName": "Mutual of Omaha",
      "id": "mutualofomaha-6b1e37",
      "locationSet": {"include": ["us"]},
      "tags": {
        "brand": "Mutual of Omaha",
        "brand:wikidata": "Q17108173",
        "name": "Mutual of Omaha",
        "office": "insurance"
      }
    },
    {
      "displayName": "Mutuelle de Poitiers Assurances",
      "id": "mutuelledepoitiersassurances-8c2e7e",
      "locationSet": {"include": ["fx"]},
      "tags": {
        "brand": "Mutuelle de Poitiers Assurances",
        "brand:wikidata": "Q57200940",
        "name": "Mutuelle de Poitiers Assurances",
        "office": "insurance"
      }
    },
    {
      "displayName": "National Insurance Company",
      "id": "nationalinsurancecompany-9d27b9",
      "locationSet": {"include": ["in"]},
      "tags": {
        "brand": "National Insurance Company",
        "brand:wikidata": "Q6973776",
        "name": "National Insurance Company",
        "office": "insurance"
      }
    },
    {
      "displayName": "Nationwide",
      "id": "nationwide-6b1e37",
      "locationSet": {"include": ["us"]},
      "matchNames": ["nationwide insurance"],
      "tags": {
        "brand": "Nationwide",
        "brand:wikidata": "Q6979886",
        "name": "Nationwide",
        "office": "insurance"
      }
    },
    {
      "displayName": "New India Assurance",
      "id": "newindiaassurance-9d27b9",
      "locationSet": {"include": ["in"]},
      "tags": {
        "brand": "New India Assurance",
        "brand:wikidata": "Q13118486",
        "name": "New India Assurance",
        "office": "insurance"
      }
    },
    {
      "displayName": "NFU Mutual",
      "id": "nfumutual-23333b",
      "locationSet": {"include": ["gb"]},
      "tags": {
        "brand": "NFU Mutual",
        "brand:wikidata": "Q6953815",
        "name": "NFU Mutual",
        "office": "insurance"
      }
    },
    {
      "displayName": "NN",
      "id": "nn-336e34",
      "locationSet": {"include": ["150"]},
      "tags": {
        "brand": "NN",
        "brand:wikidata": "Q1834291",
        "name": "NN",
        "office": "insurance",
        "official_name": "Nationale-Nederlanden"
      }
    },
    {
      "displayName": "Northwestern Mutual",
      "id": "northwesternmutual-6b1e37",
      "locationSet": {"include": ["us"]},
      "tags": {
        "brand": "Northwestern Mutual",
        "brand:wikidata": "Q1630166",
        "name": "Northwestern Mutual",
        "office": "insurance"
      }
    },
    {
      "displayName": "Nürnberger Versicherung",
      "id": "nurnberger-422e71",
      "locationSet": {"include": ["de"]},
      "tags": {
        "brand": "Nürnberger",
        "brand:wikidata": "Q1792071",
        "name": "Nürnberger",
        "office": "insurance"
      }
    },
    {
      "displayName": "Ocaso",
      "id": "ocaso-ff07dc",
      "locationSet": {"include": ["es", "gb"]},
      "matchNames": [
        "ocaso seguros",
        "seguros ocaso"
      ],
      "tags": {
        "brand": "Ocaso",
        "brand:wikidata": "Q6123955",
        "name": "Ocaso",
        "office": "insurance"
      }
    },
    {
      "displayName": "ÖVB",
      "id": "ovb-422e71",
      "locationSet": {"include": ["de"]},
      "tags": {
        "brand": "ÖVB",
        "brand:wikidata": "Q294253",
        "name": "ÖVB",
        "office": "insurance",
        "official_name": "Öffentliche Versicherung Bremen"
      }
    },
    {
      "displayName": "Pelayo",
      "id": "pelayo-38d127",
      "locationSet": {"include": ["es"]},
      "tags": {
        "brand": "Pelayo",
        "brand:wikidata": "Q16617805",
        "name": "Pelayo",
        "office": "insurance"
      }
    },
    {
      "displayName": "Primerica",
      "id": "primerica-6b1e37",
      "locationSet": {"include": ["us"]},
      "tags": {
        "brand": "Primerica",
        "brand:wikidata": "Q7243481",
        "name": "Primerica",
        "office": "insurance"
      }
    },
    {
      "displayName": "Progressive",
      "id": "progressive-6b1e37",
      "locationSet": {"include": ["us"]},
      "matchNames": ["progressive insurance"],
      "tags": {
        "brand": "Progressive",
        "brand:wikidata": "Q7248721",
        "name": "Progressive",
        "office": "insurance"
      }
    },
    {
      "displayName": "Provinzial",
      "id": "provinzial-422e71",
      "locationSet": {"include": ["de"]},
      "matchNames": [
        "provinzial nordwest",
        "provinzial rheinland"
      ],
      "note": "May have been 2 entities before but seems to be merged into a single one now, see #4544, #4548, #4569",
      "tags": {
        "brand": "Provinzial",
        "brand:wikidata": "Q2114066",
        "name": "Provinzial",
        "office": "insurance"
      }
    },
    {
      "displayName": "PZU",
      "id": "pzu-33d2fe",
      "locationSet": {
        "include": ["ee", "lt", "pl", "ua"]
      },
      "matchNames": [
        "agencja pzu",
        "agencja ubezpieczeniowa pzu",
        "agent pzu",
        "oddział pzu",
        "powszechny zakład ubezpieczeń",
        "pzu s.a.",
        "ubezpieczenia pzu"
      ],
      "tags": {
        "brand": "PZU",
        "brand:wikidata": "Q1807170",
        "name": "PZU",
        "office": "insurance"
      }
    },
    {
      "displayName": "R+V Versicherung",
      "id": "rvversicherung-422e71",
      "locationSet": {"include": ["de"]},
      "matchNames": [
        "r+v",
        "r+v versicherungen",
        "raiffeisen- und volksbanken versicherung",
        "ruv"
      ],
      "tags": {
        "brand": "R+V Versicherung",
        "brand:wikidata": "Q2123778",
        "name": "R+V Versicherung",
        "office": "insurance"
      }
    },
    {
      "displayName": "RACQ",
      "id": "racq-437259",
      "locationSet": {"include": ["au"]},
      "tags": {
        "brand": "RACQ",
        "brand:short": "RACQ",
        "brand:wikidata": "Q16822163",
        "name": "RACQ",
        "office": "insurance",
        "official_name": "Royal Automobile Club of Queensland"
      }
    },
    {
      "displayName": "Reale",
      "id": "reale-fe9c1d",
      "locationSet": {
        "include": ["cl", "es", "it"]
      },
      "matchNames": [
        "reale chile",
        "reale immobili",
        "reale mutua assicurazioni",
        "reale seguros",
        "seguros reale"
      ],
      "tags": {
        "brand": "Reale",
        "brand:wikidata": "Q3931092",
        "name": "Reale",
        "office": "insurance"
      }
    },
    {
      "displayName": "Santa Lucía",
      "id": "santalucia-38d127",
      "locationSet": {"include": ["es"]},
      "tags": {
        "brand": "Santa Lucía",
        "brand:wikidata": "Q6120481",
        "name": "Santa Lucía",
        "office": "insurance"
      }
    },
    {
      "displayName": "SBI General Insurance",
      "id": "sbigeneralinsurance-9d27b9",
      "locationSet": {"include": ["in"]},
      "tags": {
        "brand": "SBI General Insurance",
        "brand:wikidata": "Q85798326",
        "name": "SBI General Insurance",
        "office": "insurance"
      }
    },
    {
      "displayName": "SDI Broker",
      "id": "sdibroker-ef0911",
      "locationSet": {"include": ["bg"]},
      "matchNames": ["sdi"],
      "tags": {
        "brand": "SDI Broker",
        "brand:wikidata": "Q65224484",
        "name": "SDI Broker",
        "office": "insurance"
      }
    },
    {
      "displayName": "Shelter Insurance",
      "id": "shelterinsurance-6b1e37",
      "locationSet": {"include": ["us"]},
      "tags": {
        "brand": "Shelter Insurance",
        "brand:wikidata": "Q7493959",
        "name": "Shelter Insurance",
        "office": "insurance"
      }
    },
    {
      "displayName": "Signal Iduna",
      "id": "signaliduna-422e71",
      "locationSet": {"include": ["de"]},
      "tags": {
        "brand": "Signal Iduna",
        "brand:wikidata": "Q2285066",
        "name": "Signal Iduna",
        "office": "insurance"
      }
    },
    {
      "displayName": "Sociálna poisťovňa",
      "id": "socialnapoistovna-780b74",
      "locationSet": {"include": ["sk"]},
      "tags": {
        "brand": "Sociálna poisťovňa",
        "brand:wikidata": "Q99976267",
        "name": "Sociálna poisťovňa",
        "office": "insurance",
        "short_name": "SP"
      }
    },
    {
      "displayName": "STABILITA",
      "id": "stabilita-780b74",
      "locationSet": {"include": ["sk"]},
      "tags": {
        "brand": "STABILITA",
        "brand:wikidata": "Q77877587",
        "name": "STABILITA",
        "office": "insurance"
      }
    },
    {
      "displayName": "State Farm",
      "id": "statefarm-6b1e37",
      "locationSet": {"include": ["us"]},
      "matchNames": ["state farm insurance"],
      "tags": {
        "brand": "State Farm",
        "brand:wikidata": "Q2007336",
        "name": "State Farm",
        "office": "insurance"
      }
    },
    {
      "displayName": "Sun Life Financial",
      "id": "sunlifefinancial-0c8028",
      "locationSet": {"include": ["ca"]},
      "matchNames": ["sun life"],
      "tags": {
        "brand": "Sun Life Financial",
        "brand:wikidata": "Q835456",
        "name": "Sun Life Financial",
        "office": "insurance"
      }
    },
    {
      "displayName": "SV SparkassenVersicherung",
      "id": "svsparkassenversicherung-422e71",
      "locationSet": {"include": ["de"]},
      "tags": {
        "brand": "SV SparkassenVersicherung",
        "brand:wikidata": "Q2208645",
        "name": "SV SparkassenVersicherung",
        "office": "insurance"
      }
    },
    {
      "displayName": "Swinton",
      "id": "swinton-23333b",
      "locationSet": {"include": ["gb"]},
      "tags": {
        "brand": "Swinton",
        "brand:wikidata": "Q7658785",
        "name": "Swinton",
        "office": "insurance"
      }
    },
    {
      "displayName": "Swiss Life",
      "id": "swisslife-aab9d2",
      "locationSet": {
        "include": [
          "at",
          "ch",
          "cz",
          "de",
          "fr",
          "gb",
          "sk"
        ]
      },
      "tags": {
        "brand": "Swiss Life",
        "brand:wikidata": "Q667350",
        "name": "Swiss Life",
        "office": "insurance"
      }
    },
    {
      "displayName": "Techniker Krankenkasse",
      "id": "technikerkrankenkasse-422e71",
      "locationSet": {"include": ["de"]},
      "matchNames": ["die techniker"],
      "tags": {
        "brand": "Techniker Krankenkasse",
        "brand:wikidata": "Q607531",
        "insurance": "health",
        "name": "Techniker Krankenkasse",
        "office": "insurance",
        "short_name": "TK"
      }
    },
    {
      "displayName": "Texas Farm Bureau Insurance",
      "id": "texasfarmbureauinsurance-92243f",
      "locationSet": {
        "include": ["us-tx.geojson"]
      },
      "matchNames": [
        "texas farm bureau insurance company"
      ],
      "tags": {
        "brand": "Texas Farm Bureau Insurance",
        "brand:wikidata": "Q112965654",
        "name": "Texas Farm Bureau Insurance",
        "office": "insurance"
      }
    },
    {
      "displayName": "The Co-operators",
      "id": "thecooperators-0c8028",
      "locationSet": {"include": ["ca"]},
      "tags": {
        "brand": "The Co-operators",
        "brand:wikidata": "Q3520320",
        "name": "The Co-operators",
        "office": "insurance"
      }
    },
    {
      "displayName": "The Hartford",
      "id": "thehartford-6b1e37",
      "locationSet": {"include": ["us"]},
      "tags": {
        "brand": "The Hartford",
        "brand:wikidata": "Q444110",
        "name": "The Hartford",
        "office": "insurance"
      }
    },
    {
      "displayName": "The Oriental Insurance Company",
      "id": "theorientalinsurancecompany-9d27b9",
      "locationSet": {"include": ["in"]},
      "tags": {
        "brand": "The Oriental Insurance Company",
        "brand:wikidata": "Q20707811",
        "name": "The Oriental Insurance Company",
        "office": "insurance"
      }
    },
    {
      "displayName": "The Standard",
      "id": "thestandard-6b1e37",
      "locationSet": {"include": ["us"]},
      "tags": {
        "alt_name": "Standard Insurance Company",
        "brand": "The Standard",
        "brand:wikidata": "Q7598252",
        "name": "The Standard",
        "office": "insurance",
        "short_name": "Standard"
      }
    },
    {
      "displayName": "Tranquilidade",
      "id": "tranquilidade-629ea0",
      "locationSet": {"include": ["pt"]},
      "tags": {
        "brand": "Tranquilidade Seguros",
        "brand:wikidata": "Q7833457",
        "name": "Tranquilidade",
        "office": "insurance"
      }
    },
    {
      "displayName": "Union",
      "id": "union-780b74",
      "locationSet": {"include": ["sk"]},
      "matchNames": [
        "union poisťovňa",
        "union zdravotná poisťovňa"
      ],
      "tags": {
        "brand": "Union",
        "brand:wikidata": "Q42712112",
        "name": "Union",
        "office": "insurance"
      }
    },
    {
      "displayName": "UnipolSai",
      "id": "unipolsai-7d926c",
      "locationSet": {"include": ["it"]},
      "tags": {
        "brand": "UnipolSai",
        "brand:wikidata": "Q15734697",
        "name": "UnipolSai",
        "office": "insurance"
      }
    },
    {
      "displayName": "Uniqa",
      "id": "uniqa-dc7360",
      "locationSet": {
        "include": [
          "al",
          "at",
          "ba",
          "bg",
          "ch",
          "cz",
          "hr",
          "hu",
          "li",
          "me",
          "mk",
          "pl",
          "ro",
          "rs",
          "ru",
          "sk",
          "ua",
          "xk"
        ]
      },
      "matchNames": ["uniqa asigurări"],
      "tags": {
        "brand": "Uniqa",
        "brand:wikidata": "Q1022419",
        "name": "Uniqa",
        "office": "insurance"
      }
    },
    {
      "displayName": "United Healthcare",
      "id": "unitedhealthcare-6b1e37",
      "locationSet": {"include": ["us"]},
      "tags": {
        "brand": "United Healthcare",
        "brand:wikidata": "Q2103926",
        "name": "United Healthcare",
        "office": "insurance"
      }
    },
    {
      "displayName": "United India Insurance Company",
      "id": "unitedindiainsurancecompany-9d27b9",
      "locationSet": {"include": ["in"]},
      "tags": {
        "brand": "United India Insurance Company",
        "brand:wikidata": "Q24952429",
        "name": "United India Insurance Company",
        "office": "insurance"
      }
    },
    {
      "displayName": "Universalna",
      "id": "universalna-43aba6",
      "locationSet": {"include": ["ua"]},
      "matchNames": ["ск універсальна"],
      "tags": {
        "brand": "Universalna",
        "brand:en": "Universalna",
        "brand:uk": "Універсальна",
        "brand:wikidata": "Q20095892",
        "name": "Universalna",
        "name:en": "Universalna",
        "name:uk": "Універсальна",
        "office": "insurance"
      }
    },
    {
      "displayName": "USG",
      "id": "usg-43aba6",
      "locationSet": {"include": ["ua"]},
      "matchNames": [
        "глобус",
        "українська страхова група"
      ],
      "tags": {
        "brand": "USG",
        "brand:en": "USG",
        "brand:uk": "УСГ",
        "brand:wikidata": "Q56367294",
        "name": "USG",
        "name:en": "USG",
        "name:uk": "УСГ",
        "office": "insurance"
      }
    },
    {
      "displayName": "VGH",
      "id": "vgh-422e71",
      "locationSet": {"include": ["de"]},
      "tags": {
        "brand": "VGH",
        "brand:wikidata": "Q2505942",
        "name": "VGH",
        "office": "insurance",
        "official_name": "VGH Versicherungen"
      }
    },
    {
      "displayName": "VidaCaixa",
      "id": "vidacaixa-38d127",
      "locationSet": {"include": ["es"]},
      "tags": {
        "brand": "VidaCaixa",
        "brand:wikidata": "Q11705079",
        "name": "VidaCaixa",
        "office": "insurance"
      }
    },
    {
      "displayName": "Všeobecná zdravotná poisťovňa",
      "id": "vseobecnazdravotnapoistovna-780b74",
      "locationSet": {"include": ["sk"]},
      "tags": {
        "brand": "Všeobecná zdravotná poisťovňa",
        "brand:wikidata": "Q12779145",
        "insurance": "health",
        "name": "Všeobecná zdravotná poisťovňa",
        "office": "insurance",
        "short_name": "VšZP"
      }
    },
    {
      "displayName": "VUSO",
      "id": "vuso-43aba6",
      "locationSet": {"include": ["ua"]},
      "matchNames": ["аска"],
      "tags": {
        "brand": "VUSO",
        "brand:en": "VUSO",
        "brand:uk": "ВУСО",
        "brand:wikidata": "Q122828369",
        "name": "VUSO",
        "name:en": "VUSO",
        "name:uk": "ВУСО",
        "office": "insurance"
      }
    },
    {
      "displayName": "WFG National Title Company",
      "id": "wfgnationaltitleinsurancecompany-6b1e37",
      "locationSet": {"include": ["us"]},
      "tags": {
        "brand": "WFG National Title Company",
        "brand:wikidata": "Q113495857",
        "name": "WFG National Title Insurance Company",
        "office": "insurance"
      }
    },
    {
      "displayName": "Württembergische",
      "id": "wurttembergische-422e71",
      "locationSet": {"include": ["de"]},
      "tags": {
        "brand": "Württembergische",
        "brand:wikidata": "Q1412465",
        "name": "Württembergische",
        "office": "insurance"
      }
    },
    {
      "displayName": "Wüstenrot",
      "id": "wustenrot-6f527a",
      "locationSet": {
        "include": ["at", "cz", "de", "sk"]
      },
      "tags": {
        "brand": "Wüstenrot",
        "brand:wikidata": "Q2597123",
        "name": "Wüstenrot",
        "office": "insurance"
      }
    },
    {
      "displayName": "Zurich",
      "id": "zurich-2d6c95",
      "locationSet": {
        "include": [
          "ae",
          "at",
          "au",
          "be",
          "bh",
          "br",
          "ca",
          "ch",
          "cl",
          "cn",
          "co",
          "de",
          "ec",
          "es",
          "fi",
          "fr",
          "gb",
          "hk",
          "id",
          "ie",
          "it",
          "ja",
          "kw",
          "lb",
          "li",
          "lu",
          "mx",
          "my",
          "nl",
          "no",
          "nz",
          "om",
          "pt",
          "qa",
          "se",
          "sg",
          "sk",
          "tr",
          "us"
        ]
      },
      "tags": {
        "brand": "Zurich",
        "brand:wikidata": "Q230426",
        "name": "Zurich",
        "office": "insurance"
      }
    },
    {
      "displayName": "Ак Барс Страхование",
      "id": "1d777d-1dd572",
      "locationSet": {"include": ["ru"]},
      "tags": {
        "brand": "Ак Барс Страхование",
        "name": "Ак Барс Страхование",
        "office": "insurance"
      }
    },
    {
      "displayName": "Аско-страхование",
      "id": "49842d-1dd572",
      "locationSet": {"include": ["ru"]},
      "tags": {
        "brand": "Аско-страхование",
        "name": "Аско-страхование",
        "office": "insurance"
      }
    },
    {
      "displayName": "Асоба",
      "id": "303d35-fe8e31",
      "locationSet": {"include": ["by"]},
      "tags": {
        "brand": "Асоба",
        "name": "Асоба",
        "office": "insurance"
      }
    },
    {
      "displayName": "Белгосстрах",
      "id": "belgosstrakh-fe8e31",
      "locationSet": {"include": ["by"]},
      "tags": {
        "brand": "Белгосстрах",
        "brand:be": "Белдзяржстрах",
        "brand:en": "Belgosstrakh",
        "brand:ru": "Белгосстрах",
        "brand:wikidata": "Q6468822",
        "name": "Белгосстрах",
        "name:be": "Белдзяржстрах",
        "name:en": "Belgosstrakh",
        "name:ru": "Белгосстрах",
        "office": "insurance"
      }
    },
    {
      "displayName": "Белкоопстрах",
      "id": "2c8da4-fe8e31",
      "locationSet": {"include": ["by"]},
      "tags": {
        "brand": "Белкоопстрах",
        "name": "Белкоопстрах",
        "office": "insurance"
      }
    },
    {
      "displayName": "ДЗИ",
      "id": "be0548-ef0911",
      "locationSet": {"include": ["bg"]},
      "tags": {
        "brand": "ДЗИ",
        "brand:wikidata": "Q5206996",
        "name": "ДЗИ",
        "office": "insurance"
      }
    },
    {
      "displayName": "Ингосстрах",
      "id": "ingosstrakh-1dd572",
      "locationSet": {"include": ["ru"]},
      "tags": {
        "brand": "Ингосстрах",
        "brand:en": "Ingosstrakh",
        "brand:ru": "Ингосстрах",
        "brand:wikidata": "Q4200631",
        "name": "Ингосстрах",
        "name:en": "Ingosstrakh",
        "name:ru": "Ингосстрах",
        "office": "insurance"
      }
    },
    {
      "displayName": "Капитал Life",
      "id": "35e0a9-1dd572",
      "locationSet": {"include": ["ru"]},
      "tags": {
        "brand": "Капитал Life",
        "brand:wikidata": "Q55659257",
        "name": "Капитал Life",
        "office": "insurance"
      }
    },
    {
      "displayName": "Капитал Медицинское Страхование",
      "id": "352df3-1dd572",
      "locationSet": {"include": ["ru"]},
      "tags": {
        "brand": "Капитал Медицинское Страхование",
        "brand:wikidata": "Q60967352",
        "name": "Капитал Медицинское Страхование",
        "office": "insurance"
      }
    },
    {
      "displayName": "Княжа",
      "id": "7df9f6-43aba6",
      "locationSet": {"include": ["ua"]},
      "tags": {
        "brand": "Княжа",
        "brand:wikidata": "Q56367281",
        "name": "Княжа",
        "office": "insurance"
      }
    },
    {
      "displayName": "Мусала",
      "id": "mussala-ef0911",
      "locationSet": {"include": ["bg"]},
      "tags": {
        "brand": "Мусала",
        "brand:wikidata": "Q120314195",
        "name": "Мусала",
        "name:en": "Mussala",
        "office": "insurance"
      }
    },
    {
      "displayName": "ОЗК",
      "id": "1fa45d-ef0911",
      "locationSet": {"include": ["bg"]},
      "tags": {
        "brand": "ОЗК",
        "brand:wikidata": "Q115656899",
        "name": "ОЗК",
        "office": "insurance"
      }
    },
    {
      "displayName": "Оранта",
      "id": "oranta-43aba6",
      "locationSet": {"include": ["ua"]},
      "tags": {
        "brand": "Оранта",
        "brand:en": "Oranta",
        "brand:uk": "Оранта",
        "brand:wikidata": "Q16710186",
        "name": "Оранта",
        "name:en": "Oranta",
        "name:uk": "Оранта",
        "office": "insurance"
      }
    },
    {
      "displayName": "Провідна",
      "id": "54a705-43aba6",
      "locationSet": {"include": ["ua"]},
      "matchNames": ["providna"],
      "tags": {
        "brand": "Провідна",
        "brand:wikidata": "Q114437313",
        "name": "Провідна",
        "office": "insurance"
      }
    },
    {
      "displayName": "Ренессанс страхование",
      "id": "cbfb4b-1dd572",
      "locationSet": {"include": ["ru"]},
      "tags": {
        "brand": "Ренессанс страхование",
        "brand:wikidata": "Q4393241",
        "name": "Ренессанс страхование",
        "office": "insurance"
      }
    },
    {
      "displayName": "РЕСО-Гарантия",
      "id": "resoguarantee-1dd572",
      "locationSet": {"include": ["ru"]},
      "tags": {
        "brand": "РЕСО-Гарантия",
        "brand:en": "RESO-Guarantee",
        "brand:ru": "РЕСО-Гарантия",
        "brand:wikidata": "Q4386516",
        "name": "РЕСО-Гарантия",
        "name:en": "RESO-Guarantee",
        "name:ru": "РЕСО-Гарантия",
        "office": "insurance"
      }
    },
    {
      "displayName": "Росгосстрах",
      "id": "7de24f-1dd572",
      "locationSet": {"include": ["ru"]},
      "tags": {
        "brand": "Росгосстрах",
        "brand:wikidata": "Q4397745",
        "name": "Росгосстрах",
        "office": "insurance"
      }
    },
    {
      "displayName": "Согласие",
      "id": "soglasie-1dd572",
      "locationSet": {"include": ["ru"]},
      "tags": {
        "brand": "Согласие",
        "brand:en": "Soglasie",
        "brand:ru": "Согласие",
        "brand:wikidata": "Q4426689",
        "name": "Согласие",
        "name:en": "Soglasie",
        "name:ru": "Согласие",
        "office": "insurance"
      }
    },
    {
      "displayName": "ТАС",
      "id": "tas-43aba6",
      "locationSet": {"include": ["ua"]},
      "matchNames": ["страхова група тас"],
      "tags": {
        "brand": "ТАС",
        "brand:en": "TAS",
        "brand:uk": "ТАС",
        "brand:wikidata": "Q122762419",
        "name": "ТАС",
        "name:en": "TAS",
        "name:uk": "ТАС",
        "office": "insurance"
      }
    },
    {
      "displayName": "Югория",
      "id": "ba17b3-1dd572",
      "locationSet": {"include": ["ru"]},
      "tags": {
        "brand": "Югория",
        "name": "Югория",
        "office": "insurance"
      }
    },
    {
      "displayName": "الشركة الوطنية للتأمين",
      "id": "991f5d-95ca40",
      "locationSet": {"include": ["dz"]},
      "tags": {
        "brand": "الشركة الوطنية للتأمين",
        "name": "الشركة الوطنية للتأمين",
        "office": "insurance"
      }
    },
    {
      "displayName": "الصندوق الوطني للتأمينات الاجتماعية للعمال الأجراء",
      "id": "e56dcd-95ca40",
      "locationSet": {"include": ["dz"]},
      "tags": {
        "brand": "الصندوق الوطني للتأمينات الاجتماعية للعمال الأجراء",
        "brand:wikidata": "Q42343122",
        "name": "الصندوق الوطني للتأمينات الاجتماعية للعمال الأجراء",
        "name:ar": "CNAS الصندوق الوطني للضمان الاجتماعي للعمال الأجراء",
        "name:fr": "CNAS",
        "office": "insurance",
        "official_name:fr": "Caisse Nationale des Assurances Sociales des Travailleurs Salariés"
      }
    },
    {
      "displayName": "بیمه ایران",
      "id": "iraninsurance-cf8369",
      "locationSet": {"include": ["ir"]},
      "tags": {
        "brand": "بیمه ایران",
        "brand:en": "Iran Insurance",
        "brand:fa": "بیمه ایران",
        "brand:wikidata": "Q5930269",
        "name": "بیمه ایران",
        "name:en": "Iran Insurance",
        "name:fa": "بیمه ایران",
        "office": "insurance"
      }
    },
    {
      "displayName": "中国人寿保险",
      "id": "chinalifeinsurance-a9e4d2",
      "locationSet": {
        "include": ["cn"],
        "exclude": ["hk"]
      },
      "tags": {
        "alt_name": "中国人寿保险股份有限公司",
        "brand": "中国人寿保险",
        "brand:en": "China Life Insurance",
        "brand:wikidata": "Q1073306",
        "brand:zh": "中国人寿保险",
        "name": "中国人寿保险",
        "name:en": "China Life Insurance",
        "name:zh": "中国人寿保险",
        "office": "insurance",
        "short_name": "中国人寿"
      }
    },
    {
      "displayName": "中国人民保险",
      "id": "picc-07bd2d",
      "locationSet": {"include": ["cn"]},
      "matchNames": ["中国人保"],
      "tags": {
        "brand": "中国人民保险",
        "brand:en": "PICC",
        "brand:wikidata": "Q1807264",
        "brand:zh": "中国人民保险",
        "name": "中国人民保险",
        "name:en": "PICC",
        "name:zh": "中国人民保险",
        "office": "insurance"
      }
    },
    {
      "displayName": "中国太平",
      "id": "chinataiping-07bd2d",
      "locationSet": {"include": ["cn"]},
      "tags": {
        "alt_name": "中国太平保险",
        "brand": "中国太平",
        "brand:en": "China Taiping",
        "brand:wikidata": "Q4036130",
        "brand:zh": "中国太平",
        "name": "中国太平",
        "name:en": "China Taiping",
        "name:zh": "中国太平",
        "office": "insurance"
      }
    },
    {
      "displayName": "中国平安",
      "id": "pingan-07bd2d",
      "locationSet": {"include": ["cn"]},
      "matchNames": ["平保", "平安保险"],
      "tags": {
        "alt_name": "中国平安保险",
        "brand": "中国平安",
        "brand:en": "Pingan",
        "brand:wikidata": "Q1256188",
        "brand:zh": "中国平安",
        "name": "中国平安",
        "name:en": "Pingan",
        "name:zh": "中国平安",
        "office": "insurance"
      }
    },
    {
      "displayName": "中國人壽",
      "id": "chinalifeinsurance-6809cb",
      "locationSet": {"include": ["tw"]},
      "tags": {
        "alt_name": "中國人壽保險",
        "brand": "中國人壽",
        "brand:en": "China Life Insurance",
        "brand:wikidata": "Q5099767",
        "brand:zh": "中國人壽",
        "name": "中國人壽",
        "name:en": "China Life Insurance",
        "name:zh": "中國人壽",
        "name:zh-Hans": "中国人寿",
        "name:zh-Hant": "中國人壽",
        "office": "insurance"
      }
    },
    {
      "displayName": "中國人壽（海外） China Life Insurance (Overseas)",
      "id": "chinalifeinsuranceoverseas-6b61cd",
      "locationSet": {"include": ["hk"]},
      "matchNames": ["china life overseas"],
      "tags": {
        "alt_name": "中國人壽保險（海外） China Life Insurance (Overseas)",
        "alt_name:en": "China Life Insurance (Overseas)",
        "alt_name:zh": "中國人壽保險（海外）",
        "brand": "中國人壽（海外） China Life Insurance (Overseas)",
        "brand:en": "China Life Insurance (Overseas)",
        "brand:wikidata": "Q118136762",
        "brand:zh": "中國人壽（海外）",
        "brand:zh-Hans": "中国人寿（海外）",
        "brand:zh-Hant": "中國人壽（海外）",
        "name": "中國人壽（海外） China Life Insurance (Overseas)",
        "name:en": "China Life Insurance (Overseas)",
        "name:zh": "中國人壽（海外）",
        "name:zh-Hans": "中国人寿（海外）",
        "name:zh-Hant": "中國人壽（海外）",
        "office": "insurance"
      }
    },
    {
      "displayName": "保険クリニック",
      "id": "hokenclinic-7cc2d1",
      "locationSet": {"include": ["jp"]},
      "tags": {
        "brand": "保険クリニック",
        "brand:en": "Hoken Clinic",
        "brand:ja": "保険クリニック",
        "brand:wikidata": "Q93904665",
        "name": "保険クリニック",
        "name:en": "Hoken Clinic",
        "name:ja": "保険クリニック",
        "office": "insurance"
      }
    },
    {
      "displayName": "兆豐保險",
      "id": "chungkuoinsurance-6809cb",
      "locationSet": {"include": ["tw"]},
      "tags": {
        "alt_name": "兆豐產物保險",
        "brand": "兆豐保險",
        "brand:en": "Chung Kuo Insurance",
        "brand:wikidata": "Q107183588",
        "brand:zh": "兆豐保險",
        "name": "兆豐保險",
        "name:en": "Chung Kuo Insurance",
        "name:zh": "兆豐保險",
        "office": "insurance"
      }
    },
    {
      "displayName": "台灣人壽",
      "id": "taiwanlifeinsurance-6809cb",
      "locationSet": {"include": ["tw"]},
      "matchNames": ["台壽", "臺灣人壽"],
      "tags": {
        "alt_name": "台灣人壽保險",
        "brand": "台灣人壽",
        "brand:en": "Taiwan Life Insurance",
        "brand:wikidata": "Q10874424",
        "brand:zh": "台灣人壽",
        "name": "台灣人壽",
        "name:en": "Taiwan Life Insurance",
        "name:zh": "台灣人壽",
        "office": "insurance"
      }
    },
    {
      "displayName": "太平洋保险",
      "id": "cpic-07bd2d",
      "locationSet": {"include": ["cn"]},
      "matchNames": ["中国太保", "太保"],
      "tags": {
        "alt_name": "中国太平洋保险",
        "brand": "太平洋保险",
        "brand:en": "CPIC",
        "brand:wikidata": "Q1003813",
        "brand:zh": "太平洋保险",
        "name": "太平洋保险",
        "name:en": "CPIC",
        "name:zh": "太平洋保险",
        "office": "insurance"
      }
    },
    {
      "displayName": "日本生命",
      "id": "nipponlife-7cc2d1",
      "locationSet": {"include": ["jp"]},
      "tags": {
        "alt_name:en": "Nissay",
        "brand": "日本生命",
        "brand:en": "Nippon Life",
        "brand:ja": "日本生命",
        "brand:wikidata": "Q519611",
        "name": "日本生命",
        "name:en": "Nippon Life",
        "name:ja": "日本生命",
        "office": "insurance"
      }
    },
    {
      "displayName": "明治安田生命",
      "id": "meijiyasudalife-7cc2d1",
      "locationSet": {"include": ["jp"]},
      "tags": {
        "brand": "明治安田生命",
        "brand:en": "Meiji Yasuda Life",
        "brand:ja": "明治安田生命",
        "brand:wikidata": "Q174081",
        "name": "明治安田生命",
        "name:en": "Meiji Yasuda Life",
        "name:ja": "明治安田生命",
        "office": "insurance"
      }
    },
    {
      "displayName": "泰安產物保險",
      "id": "taianinsurance-6809cb",
      "locationSet": {"include": ["tw"]},
      "matchNames": ["泰安產險"],
      "tags": {
        "brand": "泰安產物保險",
        "brand:en": "Taian Insurance",
        "brand:wikidata": "Q20688715",
        "brand:zh": "泰安產物保險",
        "name": "泰安產物保險",
        "name:en": "Taian Insurance",
        "name:zh": "泰安產物保險",
        "office": "insurance"
      }
    },
    {
      "displayName": "第一生命",
      "id": "daiichilife-7cc2d1",
      "locationSet": {"include": ["jp"]},
      "tags": {
        "brand": "第一生命",
        "brand:en": "Dai-ichi Life",
        "brand:ja": "第一生命",
        "brand:wikidata": "Q595475",
        "name": "第一生命",
        "name:en": "Dai-ichi Life",
        "name:ja": "第一生命",
        "office": "insurance"
      }
    },
    {
      "displayName": "臺灣產物保險",
      "id": "taiwanfireandmarineinsurance-6809cb",
      "locationSet": {"include": ["tw"]},
      "matchNames": ["台灣產物保險", "台灣産物保險", "台産"],
      "tags": {
        "brand": "臺灣產物保險",
        "brand:en": "Taiwan Fire & Marine Insurance",
        "brand:wikidata": "Q19853556",
        "brand:zh": "臺灣產物保險",
        "name": "臺灣產物保險",
        "name:en": "Taiwan Fire & Marine Insurance",
        "name:zh": "臺灣產物保險",
        "office": "insurance"
      }
    },
    {
      "displayName": "華南保險",
      "id": "southchinainsurance-6809cb",
      "locationSet": {"include": ["tw"]},
      "tags": {
        "alt_name": "華南產物保險",
        "brand": "華南保險",
        "brand:en": "South China Insurance",
        "brand:wikidata": "Q16510360",
        "brand:zh": "華南保險",
        "name": "華南保險",
        "name:en": "South China Insurance",
        "name:zh": "華南保險",
        "office": "insurance"
      }
    }
  ]
}
