{
  "properties": {
    "path": "brands/landuse/residential",
    "preserveTags": ["^name"],
    "exclude": {"generic": ["^residential$"]}
  },
  "items": [
    {
      "displayName": "Ashford Communities",
      "id": "ashford-c22914",
      "locationSet": {"include": ["us-tx.geojson"]},
      "matchNames": [
        "ashford"
      ],
      "tags": {
        "landuse": "residential",
        "brand": "Ashford Communities",
        "brand:wikidata": "Q134701622",
        "residential": "apartments"
      }
    },
    {
      "displayName": "Avalon",
      "id": "avalon-4e5c5e",
      "locationSet": {"include": ["us"]},
      "matchNames": [
        "avalon"
      ],
      "tags": {
        "brand": "Avalon",
        "brand:wikidata": "Q64665938",
        "landuse": "residential",
        "name": "Avalon",
        "operator": "AvalonBay",
        "operator:wikidata": "Q4827537",
        "residential": "apartments"
      }
    },
    {
      "displayName": "Camden",
      "id": "camden-c22915",
      "locationSet": {"include": ["us"]},
      "matchNames": [
        "camden"
      ],
      "tags": {
        "landuse": "residential",
        "brand": "Camden",
        "brand:wikidata": "Q134703023",
        "residential": "apartments"
      }
    },
    {
      "displayName": "Hometown America",
      "id": "hometownamerica-4e5c5e",
      "locationSet": {"include": ["us"]},
      "tags": {
        "brand": "Hometown America",
        "brand:wikidata": "Q123417417",
        "landuse": "residential",
        "name": "Hometown America",
        "residential": "trailer_park"
      }
    },
    {
      "displayName": "MAA",
      "id": "maa-c22917",
      "locationSet": {"include": ["us"]},
      "matchNames": [
        "maa"
      ],
      "tags": {
        "landuse": "residential",
        "brand": "MAA",
        "brand:wikidata": "Q27988239",
        "residential": "apartments"
      }
    },
    {
      "displayName": "Modera",
      "id": "modera-4e5c5e",
      "locationSet": {"include": ["us"]},
      "tags": {
        "brand": "Modera",
        "brand:wikidata": "Q113185180",
        "landuse": "residential",
        "name": "Modera",
        "operator": "Mill Creek Residential",
        "operator:wikidata": "Q113185027",
        "residential": "apartments"
      }
    }
  ]
}
