{
  "properties": {
    "path": "operators/office/energy_supplier",
    "exclude": {
      "generic": [
        "^(electric(ity)?|energy|power)\\s?(company|provider|utility)?$"
      ]
    }
  },
  "items": [
    {
      "displayName": "Elpedison",
      "id": "elpedison-d62fd2",
      "locationSet": {"include": ["gr"]},
      "tags": {
        "name": "Elpedison",
        "office": "energy_supplier",
        "operator": "Elpedison",
        "operator:wikidata": "Q28026003"
      }
    },
    {
      "displayName": "Endesa",
      "id": "endesa-6c94a9",
      "locationSet": {"include": ["es"]},
      "tags": {
        "name": "Endesa",
        "office": "energy_supplier",
        "operator": "Endesa",
        "operator:wikidata": "Q1275336",
        "operator:wikipedia": "es:Endesa"
      }
    },
    {
      "displayName": "Enel",
      "id": "enel-39d306",
      "locationSet": {"include": ["001"]},
      "tags": {
        "name": "Enel",
        "office": "energy_supplier",
        "operator": "Enel",
        "operator:wikidata": "Q651222",
        "operator:wikipedia": "en:Enel"
      }
    },
    {
      "displayName": "Iberdrola",
      "id": "iberdrola-39d306",
      "locationSet": {"include": ["001"]},
      "tags": {
        "name": "Iberdrola",
        "office": "energy_supplier",
        "operator": "Iberdrola",
        "operator:wikidata": "Q1437502",
        "operator:wikipedia": "es:Iberdrola"
      }
    },
    {
      "displayName": "Kerala State Electricity Board",
      "id": "keralastateelectricityboard-cedd8d",
      "locationSet": {"include": ["in"]},
      "tags": {
        "name": "Kerala State Electricity Board",
        "office": "energy_supplier",
        "operator": "Kerala State Electricity Board",
        "operator:wikidata": "Q6393422",
        "operator:wikipedia": "en:Kerala State Electricity Board",
        "short_name": "KSEB"
      }
    },
    {
      "displayName": "Naturgy",
      "id": "naturgy-e15d8a",
      "locationSet": {
        "include": [
          "ar",
          "au",
          "be",
          "br",
          "cl",
          "cn",
          "cr",
          "de",
          "do",
          "dz",
          "eg",
          "es",
          "fr",
          "gb",
          "ie",
          "in",
          "jm",
          "jo",
          "jp",
          "lu",
          "ma",
          "mx",
          "nl",
          "om",
          "pa",
          "pe",
          "pk",
          "pr",
          "pt",
          "sg"
        ]
      },
      "tags": {
        "name": "Naturgy",
        "office": "energy_supplier",
        "operator": "Naturgy",
        "operator:wikidata": "Q474690",
        "operator:wikipedia": "es:Naturgy"
      }
    },
    {
      "displayName": "Public Power Corporation SA",
      "id": "publicpowercorporationsa-d62fd2",
      "locationSet": {"include": ["gr"]},
      "tags": {
        "name": "Public Power Corporation SA",
        "office": "energy_supplier",
        "operator": "Public Power Corporation SA",
        "operator:wikidata": "Q326345",
        "operator:wikipedia": "el:Δημόσια Επιχείρηση Ηλεκτρισμού"
      }
    },
    {
      "displayName": "Punto Enel",
      "id": "puntoenel-7c1c4a",
      "locationSet": {"include": ["it"]},
      "tags": {
        "name": "Punto Enel",
        "office": "energy_supplier",
        "operator": "Punto Enel",
        "operator:wikidata": "Q651222",
        "operator:wikipedia": "en:Enel"
      }
    },
    {
      "displayName": "Watt+Volt",
      "id": "wattvolt-d62fd2",
      "locationSet": {"include": ["gr"]},
      "tags": {
        "name": "Watt+Volt",
        "office": "energy_supplier",
        "operator": "Watt+Volt",
        "operator:wikidata": "Q25047624",
        "operator:wikipedia": "en:Watt+Volt"
      }
    },
    {
      "displayName": "АО «Петроэлектросбыт»",
      "id": "d96aa3-39d306",
      "locationSet": {"include": ["001"]},
      "tags": {
        "office": "energy_supplier",
        "operator": "АО «Петроэлектросбыт»"
      }
    },
    {
      "displayName": "台灣電力公司",
      "id": "taipower-cce231",
      "locationSet": {"include": ["tw"]},
      "tags": {
        "name": "台灣電力公司",
        "name:en": "Taipower",
        "name:zh": "台灣電力公司",
        "name:zh-Hant": "台灣電力公司",
        "office": "energy_supplier",
        "operator": "台灣電力公司",
        "operator:en": "Taipower",
        "operator:wikidata": "Q711691",
        "operator:wikipedia": "en:Taiwan Power Company",
        "operator:zh": "台灣電力公司",
        "operator:zh-Hant": "台灣電力公司"
      }
    },
    {
      "displayName": "東京電力",
      "id": "tepco-374039",
      "locationSet": {"include": ["jp"]},
      "matchNames": ["東電"],
      "tags": {
        "name": "東京電力",
        "name:en": "TEPCO",
        "name:ja": "東京電力",
        "office": "energy_supplier",
        "operator": "東京電力",
        "operator:en": "TEPCO",
        "operator:ja": "東京電力",
        "operator:wikidata": "Q333894",
        "operator:wikipedia": "ja:東京電力ホールディングス"
      }
    },
    {
      "displayName": "関西電力",
      "id": "kepco-374039",
      "locationSet": {"include": ["jp"]},
      "tags": {
        "name": "関西電力",
        "name:en": "KEPCO",
        "name:ja": "関西電力",
        "office": "energy_supplier",
        "operator": "関西電力",
        "operator:en": "KEPCO",
        "operator:ja": "関西電力",
        "operator:wikidata": "Q1365015",
        "operator:wikipedia": "ja:関西電力"
      }
    }
  ]
}
