{
  "properties": {
    "path": "brands/amenity/bar",
    "skipCollection": true,
    "preserveTags": ["^name"],
    "exclude": {
      "generic": ["^(pool|snack)?\\s?bar$"],
      "named": ["^уют$"]
    }
  },
  "items": [
    {
      "displayName": "All Bar One",
      "id": "allbarone-60d62f",
      "locationSet": {"include": ["gb"]},
      "tags": {
        "amenity": "bar",
        "brand": "All Bar One",
        "brand:wikidata": "Q4728624",
        "name": "All Bar One"
      }
    },
    {
      "displayName": "Barrio",
      "id": "barrio-f3bc39",
      "locationSet": {
        "include": ["gb-lon.geojson"]
      },
      "tags": {
        "amenity": "bar",
        "brand": "Barrio",
        "brand:wikidata": "Q114670989",
        "name": "Barrio"
      }
    },
    {
      "displayName": "Be At One",
      "id": "beatone-60d62f",
      "locationSet": {"include": ["gb"]},
      "tags": {
        "amenity": "bar",
        "brand": "Be At One",
        "brand:wikidata": "Q110016786",
        "name": "Be At One"
      }
    },
    {
      "displayName": "Coyote Ugly",
      "id": "coyoteugly-163d6e",
      "locationSet": {
        "include": [
          "de",
          "gb",
          "jp",
          "kg",
          "ru",
          "us"
        ]
      },
      "tags": {
        "amenity": "bar",
        "brand": "Coyote Ugly Saloon",
        "brand:wikidata": "Q4131558",
        "name": "Coyote Ugly"
      }
    },
    {
      "displayName": "Flight Club",
      "id": "flightclub-dd725d",
      "locationSet": {
        "include": ["au", "gb-eng", "us"]
      },
      "tags": {
        "amenity": "bar",
        "brand": "Flight Club",
        "brand:wikidata": "Q112668069",
        "food": "yes",
        "name": "Flight Club",
        "sport": "darts"
      }
    },
    {
      "displayName": "Pijalnia Wódki i Piwa",
      "id": "pijalniawodkiipiwa-ca2c56",
      "locationSet": {"include": ["pl"]},
      "tags": {
        "amenity": "bar",
        "brand": "Pijalnia Wódki i Piwa",
        "brand:wikidata": "Q86681898",
        "name": "Pijalnia Wódki i Piwa"
      }
    },
    {
      "displayName": "Revolución de Cuba",
      "id": "revoluciondecuba-60d62f",
      "locationSet": {"include": ["gb"]},
      "tags": {
        "amenity": "bar",
        "brand": "Revolución de Cuba",
        "brand:wikidata": "Q64024691",
        "name": "Revolución de Cuba"
      }
    },
    {
      "displayName": "Revolution",
      "id": "revolution-60d62f",
      "locationSet": {"include": ["gb"]},
      "tags": {
        "amenity": "bar",
        "brand": "Revolution",
        "brand:wikidata": "Q64024398",
        "name": "Revolution"
      }
    },
    {
      "displayName": "Simmons",
      "id": "simmons-60d62f",
      "locationSet": {"include": ["gb"]},
      "matchNames": ["simmons bar"],
      "matchTags": ["amenity/nightclub"],
      "tags": {
        "amenity": "bar",
        "brand": "Simmons Bars",
        "brand:wikidata": "Q109991573",
        "name": "Simmons"
      }
    },
    {
      "displayName": "Vagabond",
      "id": "vagabond-149b5d",
      "locationSet": {"include": ["gb-eng"]},
      "tags": {
        "amenity": "bar",
        "brand": "Vagabond",
        "brand:wikidata": "Q115139492",
        "name": "Vagabond"
      }
    }
  ]
}
