{
  "properties": {
    "path": "brands/amenity/bicycle_parking",
    "exclude": {
      "generic": [
        "^bicycle (parking|rack)$",
        "^駐輪場$"
      ]
    }
  },
  "items": [
    {
      "displayName": "Altinnova",
      "id": "altinnova-057a8b",
      "locationSet": {
        "include": [
          "fr-ara.geojson",
          "fr-naq.geojson"
        ]
      },
      "matchNames": ["altinova"],
      "tags": {
        "amenity": "bicycle_parking",
        "brand": "Altinnova",
        "brand:wikidata": "Q105345360"
      }
    },
    {
      "displayName": "Bikebox",
      "id": "bikebox-a93dd1",
      "locationSet": {"include": ["lu"]},
      "tags": {
        "amenity": "bicycle_parking",
        "brand": "Bikebox",
        "brand:wikidata": "Q125622954"
      }
    },
    {
      "displayName": "BikeTower",
      "id": "biketower-f70454",
      "locationSet": {"include": ["cz", "sk"]},
      "tags": {
        "amenity": "bicycle_parking",
        "bicycle_parking": "building",
        "brand": "BikeTower",
        "brand:wikidata": "Q130200714",
        "covered": "yes",
        "name": "BikeTower",
        "supervised": "yes"
      }
    },
    {
      "displayName": "Hop & go",
      "id": "hopandgo-4e7596",
      "locationSet": {"include": ["pl"]},
      "note": "ISO 3166-2 PL-30",
      "tags": {
        "amenity": "bicycle_parking",
        "brand": "Hop & go",
        "name": "Hop & go"
      }
    },
    {
      "displayName": "哈啰单车电子围栏",
      "id": "fdb62d-027b9a",
      "locationSet": {
        "include": ["cn"],
        "exclude": ["hk", "mo"]
      },
      "note": "ISO 3166-2 CN-BJ",
      "tags": {
        "amenity": "bicycle_parking",
        "brand": "哈啰单车电子围栏",
        "name": "哈啰单车电子围栏"
      }
    }
  ]
}
