{
  "properties": {
    "path": "brands/amenity/cafe",
    "exclude": {
      "generic": [
        "^(bar|bistro|kios(k|que))$",
        "^(coffee|tea)( (shop|stall))?$",
        "^(internet )?cafe$",
        "^(бистро|буфет|їдальня|пельменная|пиццерия|закусочная|столовая|трактир|хинкальная|чайхана|шашлычная)$",
        "^(летнее )?кафе(терий)?$",
        "^caf[eé](t[eé]r[ií]a)?\\s?(central)?$",
        "^corner cafe$",
        "^eis(diele|cafe)$",
        "^ka(hv|f)[eé]$",
        "^кофейня$",
        "^مقهى$",
        "^カフェ$"
      ],
      "named": [
        "^((eiscaf[eé] )?(dolomiti|venezia)|kiosque( à)? caf[eé]|caf[eé] express)$",
        "^(bar )?(central|centrale|kafe)?$",
        "^(встреча|рандеву|жемчужина|виктория|бер[её]зка|лакомка|мечта|оазис|парус|сказка)$",
        "^caf[eé] de(s)? (la )?(place|sports|gare|mairie|poste|paris)$",
        "^lot 1$"
      ]
    }
  },
  "items": [
    {
      "displayName": "% Arabica",
      "id": "arabica-e1ef51",
      "locationSet": {"include": ["001"]},
      "tags": {
        "amenity": "cafe",
        "brand": "% Arabica",
        "brand:wikidata": "Q107639197",
        "cuisine": "coffee_shop",
        "name": "% Arabica",
        "takeaway": "yes"
      }
    },
    {
      "displayName": "49th Parallel Coffee Roasters",
      "id": "49thparallelcoffeeroasters-aa8067",
      "locationSet": {"include": ["ca"]},
      "tags": {
        "amenity": "cafe",
        "brand": "49th Parallel Coffee Roasters",
        "brand:wikidata": "Q104844785",
        "cuisine": "coffee_shop",
        "name": "49th Parallel Coffee Roasters",
        "takeaway": "yes"
      }
    },
    {
      "displayName": "5 to go",
      "id": "5togo-24f015",
      "locationSet": {"include": ["ro"]},
      "tags": {
        "amenity": "cafe",
        "brand": "5 to go",
        "brand:wikidata": "Q115684369",
        "cuisine": "coffee_shop",
        "name": "5 to go",
        "takeaway": "yes"
      }
    },
    {
      "displayName": "50嵐",
      "id": "50lan-7d270d",
      "locationSet": {"include": ["tw"]},
      "matchTags": ["shop/beverages"],
      "tags": {
        "amenity": "cafe",
        "brand": "50嵐",
        "brand:en": "50 Lan",
        "brand:wikidata": "Q106926258",
        "brand:zh": "50嵐",
        "cuisine": "bubble_tea",
        "name": "50嵐",
        "name:en": "50 Lan",
        "name:zh": "50嵐",
        "takeaway": "yes"
      }
    },
    {
      "displayName": "85°C",
      "id": "ef3f02-07c6ab",
      "locationSet": {"include": ["au", "us"]},
      "matchNames": [
        "85 cafe",
        "85 degrees",
        "85 degrees c",
        "85 degrees celsius",
        "85c bakery cafe",
        "85c daily cafe",
        "85oc"
      ],
      "tags": {
        "alt_name": "85C",
        "amenity": "cafe",
        "brand": "85°C",
        "brand:wikidata": "Q4644852",
        "cuisine": "coffee_shop;chinese",
        "name": "85°C",
        "takeaway": "yes"
      }
    },
    {
      "displayName": "85度C",
      "id": "85cbakerycafe-aa349e",
      "locationSet": {"include": ["cn", "tw"]},
      "tags": {
        "amenity": "cafe",
        "brand": "85度C",
        "brand:en": "85C Bakery Cafe",
        "brand:wikidata": "Q4644852",
        "brand:zh": "85度C",
        "cuisine": "coffee_shop",
        "name": "85度C",
        "name:en": "85C Bakery Cafe",
        "name:zh": "85度C",
        "takeaway": "yes"
      }
    },
    {
      "displayName": "aïda",
      "id": "aida-42834c",
      "locationSet": {"include": ["at"]},
      "tags": {
        "amenity": "cafe",
        "brand": "aïda",
        "brand:wikidata": "Q794636",
        "cuisine": "coffee_shop",
        "name": "aïda",
        "takeaway": "yes"
      }
    },
    {
      "displayName": "Mugg & Bean",
      "locationSet": {"include": ["za", "ke", "bw", "ae"]},
      "tags": {
        "amenity": "cafe",
        "brand": "Mugg & Bean",
        "brand:wikidata": "Q6932113",
        "cuisine": "coffee_shop",
        "name": "Mugg & Bean",
      }
    },
    {
      "displayName": "Vida a caffè",
      "locationSet": {"include": ["za"]},
      "tags": {
        "amenity": "cafe",
        "brand": "Vida a caffè",
        "brand:wikidata": "Q7927650",
        "cuisine": "coffee_shop",
        "name": "vida a caffè",
      }
    },
    {
      "displayName": "Torrador",
      "locationSet": {"include": ["za"]},
      "tags": {
        "amenity": "cafe",
        "brand": "Torrador",
        "brand:wikidata": "Q116645762",
        "cuisine": "coffee_shop",
        "name": "Torrador",
      }
    },
    {
      "displayName": "Seattle Coffee Company",
      "locationSet": {"include": ["za", "na"]},
      "tags": {
        "amenity": "cafe",
        "brand": "Seattle Coffee Company",
        "brand:wikidata": "Q116646221",
        "cuisine": "coffee_shop",
        "name": "Seattle Coffee Company",
      }
    },
    {
      "displayName": "Bootlegger Coffee Company",
      "locationSet": {"include": ["za"]},
      "tags": {
        "amenity": "cafe",
        "brand": "Bootlegger Coffee Company",
        "brand:wikidata": "Q116646503",
        "cuisine": "coffee_shop",
        "name": "Bootlegger Coffee Company",
      }
    },
    {
      "displayName": "AMT Coffee",
      "id": "amtcoffee-ff9b1e",
      "locationSet": {"include": ["gb", "ie"]},
      "tags": {
        "amenity": "cafe",
        "brand": "AMT Coffee",
        "brand:wikidata": "Q80229",
        "cuisine": "coffee_shop",
        "name": "AMT Coffee",
        "takeaway": "yes"
      }
    },
    {
      "displayName": "Aroma",
      "id": "aroma-5fc1d9",
      "locationSet": {
        "include": ["ca", "uk", "us"]
      },
      "tags": {
        "amenity": "cafe",
        "brand": "Aroma",
        "brand:wikidata": "Q2909872",
        "cuisine": "coffee_shop",
        "name": "Aroma",
        "takeaway": "yes"
      }
    },
    {
      "displayName": "Aroma Espresso Bar",
      "id": "aromaespressobar-1ae0cd",
      "locationSet": {
        "include": ["ca", "kz", "ro", "ua", "us"]
      },
      "tags": {
        "amenity": "cafe",
        "brand": "Aroma Espresso Bar",
        "brand:wikidata": "Q2909872",
        "cuisine": "coffee_shop",
        "name": "Aroma Espresso Bar",
        "takeaway": "yes"
      }
    },
    {
      "displayName": "Aroma Joe's",
      "id": "aromajoes-243cad",
      "locationSet": {"include": ["us"]},
      "tags": {
        "amenity": "cafe",
        "brand": "Aroma Joe's",
        "brand:wikidata": "Q96475501",
        "cuisine": "coffee_shop",
        "name": "Aroma Joe's",
        "takeaway": "yes"
      }
    },
    {
      "displayName": "Aroma Kava",
      "id": "aromakava-d74022",
      "locationSet": {"include": ["ua"]},
      "tags": {
        "amenity": "cafe",
        "brand": "Aroma Kava",
        "brand:wikidata": "Q102175745",
        "cuisine": "coffee_shop",
        "name": "Арома Кава",
        "name:en": "Aroma Kava",
        "name:ru": "Арома Кава",
        "name:uk": "Арома Кава",
        "takeaway": "yes"
      }
    },
    {
      "displayName": "Asda Café",
      "id": "asdacafe-a89223",
      "locationSet": {"include": ["gb"]},
      "tags": {
        "amenity": "cafe",
        "brand": "Asda",
        "brand:wikidata": "Q297410",
        "cuisine": "coffee_shop",
        "name": "Asda Café",
        "takeaway": "yes"
      }
    },
    {
      "displayName": "Attendant",
      "id": "attendant-eb3447",
      "locationSet": {
        "include": ["gb-lon.geojson"]
      },
      "tags": {
        "amenity": "cafe",
        "brand": "Attendant",
        "brand:wikidata": "Q113990151",
        "cuisine": "coffee_shop",
        "name": "Attendant",
        "takeaway": "yes"
      }
    },
    {
      "displayName": "Bagels & Beans",
      "id": "bagelsandbeans-4a052f",
      "locationSet": {"include": ["nl"]},
      "tags": {
        "amenity": "cafe",
        "brand": "Bagels & Beans",
        "brand:wikidata": "Q5140923",
        "cuisine": "coffee_shop",
        "name": "Bagels & Beans",
        "takeaway": "yes"
      }
    },
    {
      "displayName": "Baggins Coffee",
      "id": "bagginscoffee-1c12ef",
      "locationSet": {"include": ["ru"]},
      "tags": {
        "amenity": "cafe",
        "brand": "Baggins Coffee",
        "brand:wikidata": "Q100272631",
        "cuisine": "coffee_shop",
        "name": "Baggins Coffee",
        "takeaway": "yes"
      }
    },
    {
      "displayName": "Bakers + Baristas",
      "id": "bakersbaristas-ff9b1e",
      "locationSet": {"include": ["gb", "ie"]},
      "tags": {
        "amenity": "cafe",
        "brand": "Bakers + Baristas",
        "brand:wikidata": "Q85199581",
        "cuisine": "coffee_shop",
        "name": "Bakers + Baristas",
        "takeaway": "yes"
      }
    },
    {
      "displayName": "Bambu",
      "id": "bambu-243cad",
      "locationSet": {"include": ["us"]},
      "tags": {
        "amenity": "cafe",
        "brand": "Bambu",
        "brand:wikidata": "Q83437245",
        "cuisine": "vietnamese;bubble_tea",
        "name": "Bambu",
        "takeaway": "yes"
      }
    },
    {
      "displayName": "Bar Sport",
      "id": "barsport-93bf5b",
      "locationSet": {
        "include": ["001"],
        "exclude": ["cn"]
      },
      "tags": {
        "amenity": "cafe",
        "brand": "Bar Sport",
        "cuisine": "coffee_shop",
        "name": "Bar Sport",
        "takeaway": "yes"
      }
    },
    {
      "displayName": "Barista",
      "id": "barista-56abeb",
      "locationSet": {
        "include": ["in", "lk", "mv", "np"]
      },
      "tags": {
        "amenity": "cafe",
        "brand": "Barista",
        "brand:wikidata": "Q644735",
        "cuisine": "coffee_shop",
        "name": "Barista",
        "takeaway": "yes"
      }
    },
    {
      "displayName": "Baristi",
      "id": "baristi-2f3766",
      "locationSet": {"include": ["mx"]},
      "matchNames": ["barizti"],
      "tags": {
        "amenity": "cafe",
        "brand": "Baristi",
        "brand:wikidata": "Q99959844",
        "cuisine": "coffee_shop",
        "name": "Baristi",
        "takeaway": "yes"
      }
    },
    {
      "displayName": "BECK'S COFFEE SHOP",
      "id": "beckscoffeeshop-0cf217",
      "locationSet": {"include": ["jp"]},
      "matchNames": ["beck's coffe shop"],
      "tags": {
        "alt_name": "ベックス・コーヒーショップ",
        "amenity": "cafe",
        "brand": "BECK'S COFFEE SHOP",
        "brand:en": "BECK'S COFFEE SHOP",
        "brand:ja": "ベックスコーヒーショップ",
        "brand:wikidata": "Q11191008",
        "cuisine": "coffee_shop",
        "name": "BECK'S COFFEE SHOP",
        "name:en": "BECK'S COFFEE SHOP",
        "name:ja": "ベックスコーヒーショップ",
        "takeaway": "yes"
      }
    },
    {
      "displayName": "Better Buzz Coffee",
      "id": "betterbuzzcoffee-19c2e6",
      "locationSet": {
        "include": ["us-ca.geojson"]
      },
      "tags": {
        "alt_name": "Better Buzz Coffee Roasters",
        "amenity": "cafe",
        "brand": "Better Buzz Coffee",
        "brand:wikidata": "Q113138187",
        "cuisine": "coffee_shop",
        "name": "Better Buzz Coffee",
        "takeaway": "yes"
      }
    },
    {
      "displayName": "Biggby Coffee",
      "id": "biggbycoffee-243cad",
      "locationSet": {"include": ["us"]},
      "tags": {
        "amenity": "cafe",
        "brand": "Biggby Coffee",
        "brand:wikidata": "Q4906876",
        "cuisine": "coffee_shop",
        "name": "Biggby Coffee",
        "takeaway": "yes"
      }
    },
    {
      "displayName": "Black Rock Coffee",
      "id": "blackrockcoffee-243cad",
      "locationSet": {"include": ["us"]},
      "tags": {
        "amenity": "cafe",
        "brand": "Black Rock Coffee",
        "brand:wikidata": "Q64225934",
        "cuisine": "coffee_shop",
        "name": "Black Rock Coffee",
        "takeaway": "yes"
      }
    },
    {
      "displayName": "Black Sheep Coffee",
      "id": "blacksheepcoffee-5ffca6",
      "locationSet": {
        "include": ["fr", "gb", "ph"]
      },
      "tags": {
        "amenity": "cafe",
        "brand": "Black Sheep Coffee",
        "brand:wikidata": "Q109745011",
        "cuisine": "coffee_shop",
        "name": "Black Sheep Coffee",
        "takeaway": "yes"
      }
    },
    {
      "displayName": "Blank Street Coffee",
      "id": "blankstreetcoffee-4092e6",
      "locationSet": {
        "include": ["gb-lon.geojson", "us"]
      },
      "matchNames": ["blank street"],
      "tags": {
        "amenity": "cafe",
        "brand": "Blank Street Coffee",
        "brand:wikidata": "Q114792509",
        "cuisine": "coffee_shop",
        "name": "Blank Street Coffee",
        "takeaway": "yes"
      }
    },
    {
      "displayName": "Blenz Coffee",
      "id": "blenzcoffee-aa8067",
      "locationSet": {"include": ["ca"]},
      "tags": {
        "amenity": "cafe",
        "brand": "Blenz Coffee",
        "brand:wikidata": "Q4926090",
        "cuisine": "coffee_shop",
        "name": "Blenz Coffee",
        "takeaway": "yes"
      }
    },
    {
      "displayName": "Blue Bottle Coffee",
      "id": "bluebottlecoffee-7856c0",
      "locationSet": {
        "include": ["jp", "kr", "us"]
      },
      "tags": {
        "amenity": "cafe",
        "brand": "Blue Bottle Coffee",
        "brand:en": "Blue Bottle Coffee",
        "brand:ja": "ブルーボトルコーヒー",
        "brand:wikidata": "Q4928917",
        "cuisine": "coffee_shop",
        "name": "Blue Bottle Coffee",
        "name:en": "Blue Bottle Coffee",
        "name:ja": "ブルーボトルコーヒー",
        "takeaway": "yes"
      }
    },
    {
      "displayName": "Bob & Berts",
      "id": "bobandberts-ff9b1e",
      "locationSet": {"include": ["gb", "ie"]},
      "tags": {
        "amenity": "cafe",
        "brand": "Bob & Berts",
        "brand:wikidata": "Q113494662",
        "cuisine": "coffee_shop",
        "name": "Bob & Berts",
        "takeaway": "yes"
      }
    },
    {
      "displayName": "Bonafide",
      "id": "bonafide-ba14cf",
      "locationSet": {"include": ["ar", "cl"]},
      "tags": {
        "amenity": "cafe",
        "brand": "Bonafide",
        "brand:wikidata": "Q62122746",
        "cuisine": "coffee_shop",
        "name": "Bonafide",
        "takeaway": "yes"
      }
    },
    {
      "displayName": "Boost Juice",
      "id": "boostjuice-70e4e4",
      "locationSet": {"include": ["au"]},
      "tags": {
        "amenity": "cafe",
        "brand": "Boost Juice",
        "brand:wikidata": "Q4943789",
        "cuisine": "juice",
        "name": "Boost Juice",
        "takeaway": "yes"
      }
    },
    {
      "displayName": "Boston Tea Party",
      "id": "bostonteaparty-a89223",
      "locationSet": {"include": ["gb"]},
      "tags": {
        "amenity": "cafe",
        "brand": "Boston Tea Party",
        "brand:wikidata": "Q23461358",
        "cuisine": "coffee_shop",
        "name": "Boston Tea Party",
        "takeaway": "yes"
      }
    },
    {
      "displayName": "Braganza Tea",
      "id": "braganzatea-243cad",
      "locationSet": {"include": ["us"]},
      "tags": {
        "amenity": "cafe",
        "brand": "Braganza Tea",
        "brand:wikidata": "Q108410740",
        "cuisine": "bubble_tea",
        "name": "Braganza Tea",
        "takeaway": "yes"
      }
    },
    {
      "displayName": "Bridgehead",
      "id": "bridgehead-aa8067",
      "locationSet": {"include": ["ca"]},
      "tags": {
        "amenity": "cafe",
        "brand": "Bridgehead",
        "brand:wikidata": "Q4966509",
        "cuisine": "coffee_shop",
        "name": "Bridgehead",
        "takeaway": "yes"
      }
    },
    {
      "displayName": "Bubble Waffle Cafe",
      "id": "bubblewafflecafe-aa8067",
      "locationSet": {"include": ["ca"]},
      "tags": {
        "amenity": "cafe",
        "brand": "Bubble Waffle Cafe",
        "brand:wikidata": "Q114914529",
        "cuisine": "waffle",
        "name": "Bubble Waffle Cafe",
        "name:en": "Bubble Waffle Cafe",
        "name:zh-Hant": "雞蛋仔餐廳",
        "takeaway": "yes"
      }
    },
    {
      "displayName": "Buenas Migas",
      "id": "buenasmigas-4351d9",
      "locationSet": {"include": ["es"]},
      "tags": {
        "amenity": "cafe",
        "brand": "Buenas Migas",
        "brand:wikidata": "Q115258266",
        "cuisine": "coffee_shop",
        "takeaway": "yes"
      }
    },
    {
      "displayName": "Café Amazon",
      "id": "cafeamazon-93bf5b",
      "locationSet": {
        "include": ["001"],
        "exclude": ["cn"]
      },
      "tags": {
        "amenity": "cafe",
        "brand": "Café Amazon",
        "brand:wikidata": "Q43247503",
        "cuisine": "coffee_shop",
        "name": "Café Amazon",
        "takeaway": "yes"
      }
    },
    {
      "displayName": "Cafe Coffee Day",
      "id": "cafecoffeeday-93bf5b",
      "locationSet": {
        "include": ["001"],
        "exclude": ["cn"]
      },
      "tags": {
        "amenity": "cafe",
        "brand": "Cafe Coffee Day",
        "brand:wikidata": "Q5017235",
        "cuisine": "coffee_shop",
        "name": "Cafe Coffee Day",
        "takeaway": "yes"
      }
    },
    {
      "displayName": "Café Dépôt",
      "id": "cafedepot-aa8067",
      "locationSet": {"include": ["ca"]},
      "tags": {
        "amenity": "cafe",
        "brand": "Café Dépôt",
        "brand:wikidata": "Q64924449",
        "cuisine": "coffee_shop;cake;bagel;bistro",
        "name": "Café Dépôt",
        "takeaway": "yes"
      }
    },
    {
      "displayName": "Café du Centre",
      "id": "cafeducentre-e1ef51",
      "locationSet": {"include": ["001"]},
      "tags": {
        "amenity": "cafe",
        "brand": "Café du Centre",
        "cuisine": "coffee_shop",
        "name": "Café du Centre",
        "takeaway": "yes"
      }
    },
    {
      "displayName": "Café du Monde",
      "id": "cafedumonde-63d1a0",
      "locationSet": {
        "include": ["us-la.geojson"]
      },
      "tags": {
        "amenity": "cafe",
        "brand": "Café du Monde",
        "brand:wikidata": "Q2933012",
        "cuisine": "coffee_shop;french",
        "name": "Café du Monde",
        "takeaway": "yes"
      }
    },
    {
      "displayName": "Cafe Extrablatt",
      "id": "cafeextrablatt-c024da",
      "locationSet": {"include": ["de"]},
      "tags": {
        "amenity": "cafe",
        "brand": "Cafe Extrablatt",
        "brand:wikidata": "Q1025505",
        "cuisine": "coffee_shop",
        "name": "Cafe Extrablatt",
        "takeaway": "yes"
      }
    },
    {
      "displayName": "Cafe Frei",
      "id": "cafefrei-b37b54",
      "locationSet": {
        "include": [
          "ae",
          "ch",
          "fr",
          "hr",
          "hu",
          "ro",
          "sa",
          "sk"
        ]
      },
      "tags": {
        "amenity": "cafe",
        "brand": "Cafe Frei",
        "brand:wikidata": "Q105210995",
        "cuisine": "coffee_shop",
        "name": "Cafe Frei",
        "takeaway": "yes"
      }
    },
    {
      "displayName": "Café Martínez",
      "id": "cafemartinez-2da85d",
      "locationSet": {"include": ["ar"]},
      "tags": {
        "amenity": "cafe",
        "brand": "Café Martínez",
        "brand:wikidata": "Q16540032",
        "cuisine": "coffee_shop",
        "name": "Café Martínez",
        "takeaway": "yes"
      }
    },
    {
      "displayName": "Café OMA",
      "id": "cafeoma-6b7f50",
      "locationSet": {"include": ["co"]},
      "matchNames": ["oma"],
      "tags": {
        "amenity": "cafe",
        "brand": "Café OMA",
        "brand:wikidata": "Q108929487",
        "cuisine": "coffee_shop",
        "name": "Café OMA",
        "takeaway": "yes"
      }
    },
    {
      "displayName": "Café Punta del Cielo",
      "id": "cafepuntadelcielo-2f3766",
      "locationSet": {"include": ["mx"]},
      "matchNames": ["punta de cielo"],
      "tags": {
        "amenity": "cafe",
        "brand": "Café Punta del Cielo",
        "brand:wikidata": "Q5739148",
        "cuisine": "coffee_shop",
        "name": "Café Punta del Cielo",
        "takeaway": "yes"
      }
    },
    {
      "displayName": "Caffè Nero",
      "id": "caffenero-0d98f2",
      "locationSet": {
        "include": [
          "ae",
          "cy",
          "gb",
          "hr",
          "ie",
          "om",
          "pl",
          "se",
          "tr",
          "us"
        ]
      },
      "matchNames": ["cafe nero"],
      "tags": {
        "amenity": "cafe",
        "brand": "Caffè Nero",
        "brand:wikidata": "Q675808",
        "cuisine": "coffee_shop",
        "name": "Caffè Nero",
        "takeaway": "yes"
      }
    },
    {
      "displayName": "Caffè Spettacolo",
      "id": "caffespettacolo-54dc58",
      "locationSet": {"include": ["ch", "lu"]},
      "matchNames": ["spettacolo"],
      "tags": {
        "amenity": "cafe",
        "brand": "Caffè Spettacolo",
        "brand:wikidata": "Q111728781",
        "cuisine": "coffee_shop",
        "name": "Caffè Spettacolo",
        "takeaway": "yes"
      }
    },
    {
      "displayName": "Caffebene咖啡伴",
      "id": "caffebene-7d270d",
      "locationSet": {"include": ["tw"]},
      "matchNames": ["咖啡伴"],
      "tags": {
        "amenity": "cafe",
        "brand": "Caffebene",
        "brand:en": "Caffé Bene",
        "brand:ko": "카페베네",
        "brand:wikidata": "Q5017149",
        "brand:zh": "Caffebene",
        "cuisine": "coffee_shop",
        "name": "Caffebene咖啡伴",
        "name:en": "Caffé Bene",
        "name:ko": "카페베네",
        "name:zh": "Caffebene咖啡伴",
        "takeaway": "yes"
      }
    },
    {
      "displayName": "Caffeine",
      "id": "caffeine-f2627b",
      "locationSet": {"include": ["lt"]},
      "tags": {
        "amenity": "cafe",
        "brand": "Caffeine",
        "cuisine": "coffee_shop",
        "name": "Caffeine",
        "takeaway": "yes"
      }
    },
    {
      "displayName": "Cali Press",
      "id": "calipress-482b3e",
      "locationSet": {
        "include": ["au-nsw.geojson"]
      },
      "tags": {
        "amenity": "cafe",
        "brand": "Cali Press",
        "brand:wikidata": "Q110910956",
        "cuisine": "coffee_shop",
        "name": "Cali Press",
        "takeaway": "yes"
      }
    },
    {
      "displayName": "Campus Suite",
      "id": "campussuite-c024da",
      "locationSet": {"include": ["de"]},
      "tags": {
        "amenity": "cafe",
        "brand": "Campus Suite",
        "brand:wikidata": "Q111205702",
        "cuisine": "coffee_shop;sandwich",
        "name": "Campus Suite",
        "takeaway": "yes"
      }
    },
    {
      "displayName": "Cappuccino",
      "id": "cappuccino-218425",
      "locationSet": {
        "include": ["at", "be", "de", "es", "se"]
      },
      "tags": {
        "amenity": "cafe",
        "brand": "Cappuccino",
        "cuisine": "coffee_shop",
        "name": "Cappuccino",
        "takeaway": "yes"
      }
    },
    {
      "displayName": "Caribou Coffee",
      "id": "cariboucoffee-d279cd",
      "locationSet": {
        "include": ["ba", "tr", "us"],
        "exclude": ["cn"]
      },
      "tags": {
        "amenity": "cafe",
        "brand": "Caribou Coffee",
        "brand:wikidata": "Q5039494",
        "cuisine": "coffee_shop",
        "name": "Caribou Coffee",
        "takeaway": "yes"
      }
    },
    {
      "displayName": "Casa do Pão de Queijo",
      "id": "casadopaodequeijo-1d07e0",
      "locationSet": {"include": ["br"]},
      "tags": {
        "amenity": "cafe",
        "brand": "Casa do Pão de Queijo",
        "brand:wikidata": "Q9698946",
        "cuisine": "coffee_shop",
        "name": "Casa do Pão de Queijo",
        "takeaway": "yes"
      }
    },
    {
      "displayName": "Chai Point",
      "id": "chaipoint-656fa1",
      "locationSet": {"include": ["in"]},
      "tags": {
        "amenity": "cafe",
        "brand": "Chai Point",
        "brand:wikidata": "Q28173415",
        "cuisine": "coffee_shop",
        "name": "Chai Point",
        "takeaway": "yes"
      }
    },
    {
      "displayName": "Change Please",
      "id": "changeplease-418c6b",
      "locationSet": {"include": ["gb-eng"]},
      "tags": {
        "amenity": "cafe",
        "brand": "Change Please",
        "brand:wikidata": "Q111964713",
        "cuisine": "coffee_shop",
        "name": "Change Please",
        "takeaway": "yes"
      }
    },
    {
      "displayName": "Chatime",
      "id": "chatime-859a55",
      "locationSet": {
        "include": ["001"],
        "exclude": ["cn", "tw"]
      },
      "tags": {
        "amenity": "cafe",
        "brand": "Chatime",
        "brand:wikidata": "Q16829306",
        "cuisine": "bubble_tea",
        "name": "Chatime",
        "takeaway": "yes"
      }
    },
    {
      "displayName": "Chocolate Company",
      "id": "chocolatecompany-4a052f",
      "locationSet": {"include": ["nl"]},
      "tags": {
        "amenity": "cafe",
        "brand": "Chocolate Company",
        "brand:wikidata": "Q108926938",
        "cuisine": "coffee_shop",
        "name": "Chocolate Company",
        "takeaway": "yes"
      }
    },
    {
      "displayName": "Cibo Espresso",
      "id": "ciboespresso-70e4e4",
      "locationSet": {"include": ["au"]},
      "tags": {
        "amenity": "cafe",
        "brand": "Cibo Espresso",
        "brand:wikidata": "Q5119230",
        "cuisine": "coffee_shop",
        "name": "Cibo Espresso",
        "takeaway": "yes"
      }
    },
    {
      "displayName": "CoCo",
      "id": "cocofreshteaandjuice-615ca1",
      "locationSet": {
        "include": ["001"],
        "exclude": ["cn", "hk", "tw"]
      },
      "matchTags": ["shop/beverages"],
      "tags": {
        "amenity": "cafe",
        "brand": "CoCo",
        "brand:wikidata": "Q65084369",
        "cuisine": "bubble_tea",
        "name": "CoCo Fresh Tea & Juice",
        "short_name": "CoCo",
        "takeaway": "yes"
      }
    },
    {
      "displayName": "CoCo都可",
      "id": "cocofreshteaandjuice-60211c",
      "locationSet": {
        "include": ["cn", "hk", "tw"]
      },
      "matchNames": ["coco奶茶", "都可茶飲", "都可茶饮"],
      "matchTags": ["shop/beverages"],
      "tags": {
        "amenity": "cafe",
        "brand": "CoCo都可",
        "brand:en": "CoCo Fresh Tea & Juice",
        "brand:wikidata": "Q65084369",
        "brand:zh": "CoCo都可",
        "cuisine": "bubble_tea",
        "name": "CoCo都可",
        "name:en": "CoCo Fresh Tea & Juice",
        "name:zh": "CoCo都可",
        "takeaway": "yes"
      }
    },
    {
      "displayName": "Coffee Bean",
      "id": "coffeebean-e1ef51",
      "locationSet": {"include": ["001"]},
      "tags": {
        "amenity": "cafe",
        "brand": "Coffee Bean",
        "cuisine": "coffee_shop",
        "name": "Coffee Bean",
        "takeaway": "yes"
      }
    },
    {
      "displayName": "Coffee Break",
      "id": "coffeebreak-e1ef51",
      "locationSet": {"include": ["001"]},
      "tags": {
        "amenity": "cafe",
        "brand": "Coffee Break",
        "cuisine": "coffee_shop",
        "name": "Coffee Break",
        "takeaway": "yes"
      }
    },
    {
      "displayName": "Coffee Company",
      "id": "coffeecompany-4a052f",
      "locationSet": {"include": ["nl"]},
      "tags": {
        "amenity": "cafe",
        "brand": "Coffee Company",
        "brand:wikidata": "Q108927063",
        "cuisine": "coffee_shop",
        "name": "Coffee Company",
        "takeaway": "yes"
      }
    },
    {
      "displayName": "Coffee Corner",
      "id": "coffeecorner-e1ef51",
      "locationSet": {"include": ["001"]},
      "tags": {
        "amenity": "cafe",
        "brand": "Coffee Corner",
        "cuisine": "coffee_shop",
        "name": "Coffee Corner",
        "takeaway": "yes"
      }
    },
    {
      "displayName": "Coffee Culture (Canada/USA)",
      "id": "coffeeculture-6ea26d",
      "locationSet": {"include": ["ca", "us"]},
      "tags": {
        "amenity": "cafe",
        "brand": "Coffee Culture",
        "cuisine": "coffee_shop",
        "name": "Coffee Culture",
        "takeaway": "yes"
      }
    },
    {
      "displayName": "Coffee Culture (New Zealand)",
      "id": "coffeeculture-3d1dae",
      "locationSet": {"include": ["nz"]},
      "tags": {
        "amenity": "cafe",
        "brand": "Coffee Culture",
        "brand:wikidata": "Q100272682",
        "cuisine": "coffee_shop",
        "name": "Coffee Culture",
        "takeaway": "yes"
      }
    },
    {
      "displayName": "Coffee Fellows",
      "id": "coffeefellows-6873ad",
      "locationSet": {
        "include": ["de", "lu", "nl"]
      },
      "tags": {
        "amenity": "cafe",
        "brand": "Coffee Fellows",
        "brand:wikidata": "Q23461429",
        "cuisine": "coffee_shop",
        "name": "Coffee Fellows",
        "takeaway": "yes"
      }
    },
    {
      "displayName": "Coffee House (Finland)",
      "id": "coffeehouse-7a8d18",
      "locationSet": {"include": ["fi"]},
      "tags": {
        "amenity": "cafe",
        "brand": "Coffee House",
        "brand:wikidata": "Q11855430",
        "cuisine": "coffee_shop",
        "name": "Coffee House",
        "takeaway": "yes"
      }
    },
    {
      "displayName": "Coffee Island",
      "id": "coffeeisland-7939ef",
      "locationSet": {"include": ["cy", "gr"]},
      "tags": {
        "amenity": "cafe",
        "brand": "Coffee Island",
        "brand:wikidata": "Q60867333",
        "cuisine": "coffee_shop",
        "name": "Coffee Island",
        "takeaway": "yes"
      }
    },
    {
      "displayName": "Coffee Lab",
      "id": "coffeelab-e1ef51",
      "locationSet": {"include": ["001"]},
      "tags": {
        "amenity": "cafe",
        "brand": "Coffee Lab",
        "brand:wikidata": "Q109568497",
        "cuisine": "coffee_shop",
        "name": "Coffee Lab",
        "takeaway": "yes"
      }
    },
    {
      "displayName": "Coffee Like",
      "id": "coffeelike-9c7c7f",
      "locationSet": {"include": ["kz", "ru"]},
      "tags": {
        "amenity": "cafe",
        "brand": "Coffee Like",
        "brand:wikidata": "Q55662627",
        "cuisine": "coffee_shop",
        "name": "Coffee Like",
        "takeaway": "yes"
      }
    },
    {
      "displayName": "Coffee Republic",
      "id": "coffeerepublic-e1ef51",
      "locationSet": {"include": ["001"]},
      "tags": {
        "amenity": "cafe",
        "brand": "Coffee Republic",
        "brand:wikidata": "Q5140923",
        "cuisine": "coffee_shop",
        "name": "Coffee Republic",
        "takeaway": "yes"
      }
    },
    {
      "displayName": "Coffee Time",
      "id": "coffeetime-e1ef51",
      "locationSet": {"include": ["001"]},
      "tags": {
        "amenity": "cafe",
        "brand": "Coffee Time",
        "brand:wikidata": "Q5140932",
        "cuisine": "coffee_shop",
        "name": "Coffee Time",
        "takeaway": "yes"
      }
    },
    {
      "displayName": "Coffee#1",
      "id": "coffee1-a89223",
      "locationSet": {"include": ["gb"]},
      "matchNames": [
        "coffee number 1",
        "coffee number one"
      ],
      "tags": {
        "amenity": "cafe",
        "brand": "Coffee#1",
        "brand:wikidata": "Q22032058",
        "cuisine": "coffee_shop",
        "name": "Coffee#1",
        "takeaway": "yes"
      }
    },
    {
      "displayName": "Coffeeshop Company",
      "id": "coffeeshopcompany-e1ef51",
      "locationSet": {"include": ["001"]},
      "matchNames": ["венская кофейня"],
      "tags": {
        "amenity": "cafe",
        "brand": "Coffeeshop Company",
        "brand:wikidata": "Q873767",
        "cuisine": "coffee_shop",
        "name": "Coffeeshop Company",
        "takeaway": "yes"
      }
    },
    {
      "displayName": "Cofix",
      "id": "cofix-5bbbf0",
      "locationSet": {"include": ["il", "ru"]},
      "tags": {
        "amenity": "cafe",
        "brand": "Cofix",
        "brand:en": "Cofix",
        "brand:he": "קפויקס",
        "brand:wikidata": "Q16132717",
        "cuisine": "coffee_shop",
        "name": "Cofix",
        "name:en": "Cofix",
        "name:he": "קופיקס",
        "takeaway": "yes"
      }
    },
    {
      "displayName": "Cofizz",
      "id": "cofizz-10eb89",
      "locationSet": {"include": ["il"]},
      "tags": {
        "amenity": "cafe",
        "brand": "Cofizz",
        "brand:en": "Cofizz",
        "brand:he": "קופיז",
        "brand:wikidata": "Q64606270",
        "cuisine": "coffee_shop",
        "name": "Cofizz",
        "name:en": "Cofizz",
        "name:he": "קופיז",
        "takeaway": "yes"
      }
    },
    {
      "displayName": "Colicci",
      "id": "colicci-eb3447",
      "locationSet": {
        "include": ["gb-lon.geojson"]
      },
      "tags": {
        "amenity": "cafe",
        "brand": "Colicci",
        "brand:wikidata": "Q110057606",
        "cuisine": "coffee_shop",
        "takeaway": "yes"
      }
    },
    {
      "displayName": "Columbus Café & Co",
      "id": "columbuscafeandco-d3efe9",
      "locationSet": {
        "include": [
          "be",
          "bh",
          "fr",
          "ma",
          "qa",
          "us"
        ]
      },
      "matchNames": [
        "colombus",
        "colombus café",
        "colombus café & co",
        "columbus",
        "columbus café"
      ],
      "tags": {
        "amenity": "cafe",
        "brand": "Columbus Café & Co",
        "brand:wikidata": "Q2984582",
        "cuisine": "coffee_shop",
        "name": "Columbus Café & Co",
        "takeaway": "yes"
      }
    },
    {
      "displayName": "Cộng Cà Phê",
      "id": "congcaphe-6f4c59",
      "locationSet": {"include": ["kr", "vn"]},
      "matchNames": ["cong"],
      "tags": {
        "amenity": "cafe",
        "brand": "Cộng Cà Phê",
        "brand:wikidata": "Q63864181",
        "cuisine": "coffee_shop;vietnamese",
        "name": "Cộng Cà Phê",
        "name:vi": "Cộng Cà Phê",
        "takeaway": "yes"
      }
    },
    {
      "displayName": "Corner Bakery",
      "id": "cornerbakery-243cad",
      "locationSet": {"include": ["us"]},
      "matchNames": ["corner bakery cafe"],
      "tags": {
        "amenity": "cafe",
        "brand": "Corner Bakery",
        "brand:wikidata": "Q5171598",
        "cuisine": "coffee_shop",
        "name": "Corner Bakery",
        "takeaway": "yes"
      }
    },
    {
      "displayName": "Costa",
      "id": "costa-93bf5b",
      "locationSet": {
        "include": ["001"],
        "exclude": ["cn"]
      },
      "matchNames": ["costa coffee"],
      "tags": {
        "amenity": "cafe",
        "brand": "Costa",
        "brand:wikidata": "Q608845",
        "cuisine": "coffee_shop",
        "name": "Costa",
        "takeaway": "yes"
      }
    },
    {
      "displayName": "Costa Drive Thru",
      "id": "costadrivethru-e1ef51",
      "locationSet": {"include": ["001"]},
      "matchNames": ["costa drive through"],
      "tags": {
        "amenity": "cafe",
        "brand": "Costa",
        "brand:wikidata": "Q608845",
        "cuisine": "coffee_shop",
        "drive_through": "yes",
        "name": "Costa Drive Thru",
        "takeaway": "only"
      }
    },
    {
      "displayName": "Country Style",
      "id": "countrystyle-aa8067",
      "locationSet": {"include": ["ca"]},
      "tags": {
        "amenity": "cafe",
        "brand": "Country Style",
        "brand:wikidata": "Q5177435",
        "cuisine": "coffee_shop",
        "name": "Country Style",
        "takeaway": "yes"
      }
    },
    {
      "displayName": "Ding Tea",
      "id": "dingtea-12bfe8",
      "locationSet": {
        "include": ["001"],
        "exclude": ["cn", "jp", "tw"]
      },
      "tags": {
        "amenity": "cafe",
        "brand": "Ding Tea",
        "brand:wikidata": "Q112123475",
        "cuisine": "bubble_tea",
        "name": "Ding Tea",
        "name:en": "Ding Tea",
        "name:zh": "薡茶",
        "takeaway": "yes"
      }
    },
    {
      "displayName": "Ding Tea 薡茶",
      "id": "dingtea-0cf217",
      "locationSet": {"include": ["jp"]},
      "tags": {
        "amenity": "cafe",
        "brand": "Ding Tea 薡茶",
        "brand:en": "Ding Tea",
        "brand:wikidata": "Q112123475",
        "brand:zh": "薡茶",
        "cuisine": "bubble_tea",
        "name": "Ding Tea 薡茶",
        "name:en": "Ding Tea",
        "name:zh": "薡茶",
        "takeaway": "yes"
      }
    },
    {
      "displayName": "Dolce Vita",
      "id": "dolcevita-e1ef51",
      "locationSet": {"include": ["001"]},
      "tags": {
        "amenity": "cafe",
        "brand": "Dolce Vita",
        "cuisine": "coffee_shop",
        "name": "Dolce Vita",
        "takeaway": "yes"
      }
    },
    {
      "displayName": "Doppio Espresso",
      "id": "doppioespresso-4a052f",
      "locationSet": {"include": ["nl"]},
      "tags": {
        "amenity": "cafe",
        "brand": "Doppio Espresso",
        "brand:wikidata": "Q108927102",
        "cuisine": "coffee_shop",
        "name": "Doppio Espresso",
        "takeaway": "yes"
      }
    },
    {
      "displayName": "DriveCafe",
      "id": "drivecafe-e1ef51",
      "locationSet": {"include": ["001"]},
      "tags": {
        "amenity": "cafe",
        "brand": "DriveCafe",
        "cuisine": "coffee_shop",
        "name": "DriveCafe",
        "takeaway": "yes"
      }
    },
    {
      "displayName": "DuckBill Cookies & Coffee",
      "id": "duckbillcookiesandcoffee-1d07e0",
      "locationSet": {"include": ["br"]},
      "tags": {
        "amenity": "cafe",
        "brand": "DuckBill Cookies & Coffee",
        "brand:wikidata": "Q110015928",
        "cuisine": "coffee_shop",
        "name": "DuckBill Cookies & Coffee",
        "takeaway": "yes"
      }
    },
    {
      "displayName": "Dunn Bros Coffee",
      "id": "dunnbrotherscoffee-243cad",
      "locationSet": {"include": ["us"]},
      "tags": {
        "amenity": "cafe",
        "brand": "Dunn Brothers Coffee",
        "brand:wikidata": "Q5315537",
        "cuisine": "coffee_shop",
        "name": "Dunn Brothers Coffee",
        "takeaway": "yes"
      }
    },
    {
      "displayName": "Dutch Bros. Coffee",
      "id": "dutchbroscoffee-243cad",
      "locationSet": {"include": ["us"]},
      "matchNames": [
        "dutch bros",
        "dutch brothers"
      ],
      "tags": {
        "amenity": "cafe",
        "brand": "Dutch Bros. Coffee",
        "brand:wikidata": "Q5317253",
        "cuisine": "coffee_shop",
        "name": "Dutch Bros. Coffee",
        "takeaway": "only"
      }
    },
    {
      "displayName": "Einstein Kaffee",
      "id": "einsteinkaffee-c024da",
      "locationSet": {"include": ["de"]},
      "matchNames": ["einstein cafe"],
      "tags": {
        "amenity": "cafe",
        "brand": "Einstein Kaffee",
        "brand:wikidata": "Q107987401",
        "cuisine": "coffee_shop",
        "name": "Einstein Kaffee",
        "takeaway": "yes"
      }
    },
    {
      "displayName": "Espresso House",
      "id": "espressohouse-86f303",
      "locationSet": {
        "include": ["dk", "fi", "no", "se"]
      },
      "note": "https://github.com/osmlab/name-suggestion-index/issues/5500",
      "preserveTags": ["^name"],
      "tags": {
        "amenity": "cafe",
        "brand": "Espresso House",
        "brand:wikidata": "Q10489162",
        "cuisine": "coffee_shop",
        "name": "Espresso House",
        "takeaway": "yes"
      }
    },
    {
      "displayName": "Euro Café",
      "id": "eurocafe-6ea26d",
      "locationSet": {"include": ["ca", "us"]},
      "tags": {
        "alt_name": "Euro Cafe",
        "amenity": "cafe",
        "brand": "Euro Café",
        "brand:wikidata": "Q113826845",
        "cuisine": "coffee_shop;sandwich",
        "name": "Euro Café",
        "takeaway": "yes"
      }
    },
    {
      "displayName": "FCB Coffee",
      "id": "fcbcoffee-418c6b",
      "locationSet": {"include": ["gb-eng"]},
      "tags": {
        "amenity": "cafe",
        "brand": "FCB Coffee",
        "brand:wikidata": "Q114677883",
        "cuisine": "coffee_shop",
        "name": "FCB Coffee",
        "takeaway": "yes"
      }
    },
    {
      "displayName": "Figaro",
      "id": "figaro-d8802f",
      "locationSet": {
        "include": ["ma", "ph", "sa"]
      },
      "matchNames": [
        "figaro coffee",
        "figaro coffee company"
      ],
      "tags": {
        "amenity": "cafe",
        "brand": "Figaro",
        "brand:wikidata": "Q17069806",
        "cuisine": "coffee_shop",
        "name": "Figaro",
        "takeaway": "yes"
      }
    },
    {
      "displayName": "Fran's Café",
      "id": "franscafe-1d07e0",
      "locationSet": {"include": ["br"]},
      "tags": {
        "amenity": "cafe",
        "brand": "Fran's Café",
        "brand:wikidata": "Q62075645",
        "cuisine": "coffee_shop",
        "name": "Fran's Café",
        "takeaway": "yes"
      }
    },
    {
      "displayName": "Gloria Jean's",
      "id": "gloriajeans-e1ef51",
      "locationSet": {"include": ["001"]},
      "tags": {
        "amenity": "cafe",
        "brand": "Gloria Jean's",
        "brand:wikidata": "Q2666365",
        "cuisine": "coffee_shop",
        "name": "Gloria Jean's",
        "official_name": "Gloria Jean's Coffees",
        "takeaway": "yes"
      }
    },
    {
      "displayName": "Gong Cha (Vietnam)",
      "id": "gongcha-fd99aa",
      "locationSet": {"include": ["vn"]},
      "tags": {
        "alt_name:vi": "Cống Trà",
        "amenity": "cafe",
        "brand": "Gong Cha",
        "brand:vi": "Gong Cha",
        "brand:wikidata": "Q5581670",
        "brand:zh": "貢茶",
        "cuisine": "bubble_tea",
        "name": "Gong Cha",
        "name:vi": "Gong Cha",
        "name:zh": "貢茶",
        "takeaway": "yes"
      }
    },
    {
      "displayName": "Gong Cha (worldwide)",
      "id": "gongcha-17742a",
      "locationSet": {
        "include": [
          "au",
          "bn",
          "ca",
          "mm",
          "my",
          "nz",
          "ph",
          "sg",
          "us"
        ]
      },
      "tags": {
        "amenity": "cafe",
        "brand": "Gong Cha",
        "brand:wikidata": "Q5581670",
        "brand:zh": "貢茶",
        "cuisine": "bubble_tea",
        "int_name": "Gong Cha",
        "name": "Gong Cha",
        "name:zh": "貢茶",
        "takeaway": "yes"
      }
    },
    {
      "displayName": "Green Caffè Nero",
      "id": "greencaffenero-391a99",
      "locationSet": {"include": ["pl"]},
      "matchNames": [
        "cafe nero",
        "green cafe nero"
      ],
      "tags": {
        "amenity": "cafe",
        "brand": "Green Caffè Nero",
        "brand:wikidata": "Q675808",
        "cuisine": "coffee_shop",
        "name": "Green Caffè Nero",
        "takeaway": "yes"
      }
    },
    {
      "displayName": "Grind",
      "id": "grind-5c7288",
      "locationSet": {
        "include": [
          "gb-lon.geojson",
          "us-ca.geojson"
        ]
      },
      "tags": {
        "amenity": "cafe",
        "brand": "Grind",
        "brand:wikidata": "Q113687389",
        "cuisine": "coffee_shop",
        "name": "Grind",
        "takeaway": "yes"
      }
    },
    {
      "displayName": "Happy Lemon",
      "id": "happylemon-859a55",
      "locationSet": {
        "include": ["001"],
        "exclude": ["cn", "tw"]
      },
      "tags": {
        "amenity": "cafe",
        "brand": "Happy Lemon",
        "brand:wikidata": "Q109968422",
        "cuisine": "bubble_tea",
        "name": "Happy Lemon",
        "takeaway": "yes"
      }
    },
    {
      "displayName": "Harris + Hoole",
      "id": "harrishoole-418c6b",
      "locationSet": {"include": ["gb-eng"]},
      "matchNames": ["harris & hoole"],
      "tags": {
        "amenity": "cafe",
        "brand": "Harris + Hoole",
        "brand:wikidata": "Q19903306",
        "cuisine": "coffee_shop",
        "name": "Harris + Hoole",
        "takeaway": "yes"
      }
    },
    {
      "displayName": "Haus!",
      "id": "haus-4ccab9",
      "locationSet": {"include": ["id"]},
      "tags": {
        "amenity": "cafe",
        "brand": "Haus!",
        "brand:wikidata": "Q114824757",
        "cuisine": "bubble_tea",
        "name": "Haus!",
        "takeaway": "yes"
      }
    },
    {
      "displayName": "Havanna",
      "id": "havanna-ffe1b3",
      "locationSet": {
        "include": ["ar", "br", "cl", "pe"]
      },
      "tags": {
        "amenity": "cafe",
        "brand": "Havanna",
        "brand:wikidata": "Q2900869",
        "cuisine": "coffee_shop",
        "name": "Havanna",
        "takeaway": "yes"
      }
    },
    {
      "displayName": "Hermanos Colombian Coffee Roasters",
      "id": "hermanoscolombiancoffeeroasters-eb3447",
      "locationSet": {
        "include": ["gb-lon.geojson"]
      },
      "tags": {
        "amenity": "cafe",
        "brand": "Hermanos Colombian Coffee Roasters",
        "brand:wikidata": "Q110408643",
        "cuisine": "coffee_shop",
        "name": "Hermanos Colombian Coffee Roasters",
        "takeaway": "yes"
      }
    },
    {
      "displayName": "Highlands Coffee",
      "id": "highlandscoffee-fd99aa",
      "locationSet": {"include": ["vn"]},
      "matchNames": ["highlands"],
      "tags": {
        "amenity": "cafe",
        "brand": "Highlands Coffee",
        "brand:wikidata": "Q5759361",
        "cuisine": "coffee_shop;vietnamese",
        "name": "Highlands Coffee",
        "name:en": "Highlands Coffee",
        "takeaway": "yes"
      }
    },
    {
      "displayName": "Hudsons Coffee",
      "id": "hudsonscoffee-f5c0bd",
      "locationSet": {
        "include": ["au", "nz", "sg"]
      },
      "tags": {
        "amenity": "cafe",
        "brand": "Hudsons Coffee",
        "brand:wikidata": "Q5929076",
        "cuisine": "coffee_shop",
        "name": "Hudsons Coffee",
        "takeaway": "yes"
      }
    },
    {
      "displayName": "IKEA Café",
      "id": "ikeacafe-93bf5b",
      "locationSet": {
        "include": ["001"],
        "exclude": ["cn"]
      },
      "tags": {
        "amenity": "cafe",
        "brand": "IKEA",
        "brand:ru": "ИКЕА",
        "brand:wikidata": "Q54078",
        "cuisine": "coffee_shop",
        "name": "IKEA Café",
        "name:ru": "Бистро ИКЕА",
        "takeaway": "yes"
      }
    },
    {
      "displayName": "Insomnia",
      "id": "insomnia-180c7a",
      "locationSet": {"include": ["ie"]},
      "tags": {
        "amenity": "cafe",
        "brand": "Insomnia",
        "brand:wikidata": "Q6038271",
        "cuisine": "coffee_shop",
        "name": "Insomnia",
        "takeaway": "yes"
      }
    },
    {
      "displayName": "Jamaica Blue",
      "id": "jamaicablue-941da9",
      "locationSet": {
        "include": [
          "ae",
          "au",
          "cn",
          "gb",
          "my",
          "nz",
          "sg"
        ]
      },
      "tags": {
        "amenity": "cafe",
        "brand": "Jamaica Blue",
        "brand:wikidata": "Q24965819",
        "cuisine": "coffee_shop",
        "name": "Jamaica Blue",
        "takeaway": "yes"
      }
    },
    {
      "displayName": "Jazen Tea",
      "id": "jazentea-6ea26d",
      "locationSet": {"include": ["ca", "us"]},
      "tags": {
        "amenity": "cafe",
        "brand": "Jazen Tea",
        "brand:wikidata": "Q114989479",
        "cuisine": "bubble_tea",
        "name": "Jazen Tea",
        "short_name": "Jazen",
        "takeaway": "yes"
      }
    },
    {
      "displayName": "JJ Bean",
      "id": "jjbean-aa8067",
      "locationSet": {"include": ["ca"]},
      "tags": {
        "amenity": "cafe",
        "brand": "JJ Bean",
        "brand:wikidata": "Q111937483",
        "cuisine": "coffee_shop",
        "name": "JJ Bean",
        "takeaway": "yes"
      }
    },
    {
      "displayName": "Joe & The Juice",
      "id": "joeandthejuice-ff94db",
      "locationSet": {
        "include": ["001"],
        "exclude": ["pl"]
      },
      "tags": {
        "amenity": "cafe",
        "brand": "Joe & The Juice",
        "brand:wikidata": "Q26221514",
        "cuisine": "coffee_shop",
        "name": "Joe & The Juice",
        "takeaway": "yes"
      }
    },
    {
      "displayName": "Juan Valdez Café",
      "id": "juanvaldezcafe-ff94db",
      "locationSet": {
        "include": ["001"],
        "exclude": ["pl"]
      },
      "tags": {
        "amenity": "cafe",
        "brand": "Juan Valdez Café",
        "brand:wikidata": "Q6301102",
        "cuisine": "coffee_shop",
        "name": "Juan Valdez Café",
        "shop": "coffee",
        "takeaway": "yes"
      }
    },
    {
      "displayName": "Kahve Dünyası",
      "id": "kahvedunyasi-9278bc",
      "locationSet": {
        "include": [
          "ae",
          "kw",
          "ro",
          "sa",
          "tr",
          "uk"
        ]
      },
      "tags": {
        "amenity": "cafe",
        "brand": "Kahve Dünyası",
        "brand:wikidata": "Q28008050",
        "cuisine": "coffee_shop",
        "name": "Kahve Dünyası",
        "takeaway": "yes"
      }
    },
    {
      "displayName": "Kreation Organic",
      "id": "kreationorganic-243cad",
      "locationSet": {"include": ["us"]},
      "tags": {
        "amenity": "cafe",
        "brand": "Kreation Organic",
        "brand:wikidata": "Q113363083",
        "cuisine": "juice",
        "name": "Kreation Organic",
        "takeaway": "yes"
      }
    },
    {
      "displayName": "Kung Fu Tea",
      "id": "kungfutea-e1ef51",
      "locationSet": {"include": ["001"]},
      "matchNames": ["kf tea"],
      "tags": {
        "amenity": "cafe",
        "brand": "Kung Fu Tea",
        "brand:wikidata": "Q66023886",
        "cuisine": "bubble_tea",
        "name": "Kung Fu Tea",
        "takeaway": "yes"
      }
    },
    {
      "displayName": "Kuzina",
      "id": "kuzina-1c12ef",
      "locationSet": {"include": ["ru"]},
      "tags": {
        "amenity": "cafe",
        "brand": "Kuzina",
        "brand:wikidata": "Q48947300",
        "cuisine": "coffee_shop",
        "name": "Kuzina",
        "takeaway": "yes"
      }
    },
    {
      "displayName": "La Colombe Coffee Roasters",
      "id": "lacolombecoffeeroasters-243cad",
      "locationSet": {"include": ["us"]},
      "tags": {
        "amenity": "cafe",
        "brand": "La Colombe Coffee Roasters",
        "brand:wikidata": "Q23461663",
        "cuisine": "coffee_shop",
        "name": "La Colombe Coffee Roasters",
        "short_name": "La Colombe",
        "takeaway": "yes"
      }
    },
    {
      "displayName": "Lavazza",
      "id": "lavazza-e1ef51",
      "locationSet": {"include": ["001"]},
      "tags": {
        "amenity": "cafe",
        "brand": "Lavazza",
        "brand:wikidata": "Q543750",
        "cuisine": "coffee_shop",
        "name": "Lavazza",
        "takeaway": "yes"
      }
    },
    {
      "displayName": "Le Pain Quotidien",
      "id": "lepainquotidien-ff94db",
      "locationSet": {
        "include": ["001"],
        "exclude": ["pl"]
      },
      "tags": {
        "amenity": "cafe",
        "brand": "Le Pain Quotidien",
        "brand:wikidata": "Q2046903",
        "cuisine": "coffee_shop",
        "name": "Le Pain Quotidien",
        "takeaway": "yes"
      }
    },
    {
      "displayName": "Luckin Coffee",
      "id": "luckincoffee-93bf5b",
      "locationSet": {
        "include": ["001"],
        "exclude": ["cn"]
      },
      "matchNames": ["luckin"],
      "tags": {
        "amenity": "cafe",
        "brand": "Luckin Coffee",
        "brand:wikidata": "Q56811344",
        "cuisine": "coffee_shop",
        "name": "Luckin Coffee",
        "takeaway": "yes"
      }
    },
    {
      "displayName": "Lviv Croissants",
      "id": "lvivcroissants-d74022",
      "locationSet": {"include": ["ua"]},
      "tags": {
        "amenity": "cafe",
        "brand": "Lviv Croissants",
        "cuisine": "coffee_shop",
        "name": "Lviv Croissants",
        "takeaway": "yes"
      }
    },
    {
      "displayName": "M Stand",
      "id": "mstand-3300f4",
      "locationSet": {"include": ["cn"]},
      "tags": {
        "amenity": "cafe",
        "brand": "M Stand",
        "brand:wikidata": "Q116056845",
        "cuisine": "coffee_shop",
        "name": "M Stand",
        "takeaway": "yes"
      }
    },
    {
      "displayName": "Machi machi",
      "id": "machimachi-e1ef51",
      "locationSet": {"include": ["001"]},
      "tags": {
        "amenity": "cafe",
        "brand": "machi machi",
        "brand:en": "machi machi",
        "brand:wikidata": "Q114828290",
        "brand:zh": "麥吉",
        "cuisine": "bubble_tea",
        "name": "Machi machi",
        "takeaway": "yes"
      }
    },
    {
      "displayName": "Mado",
      "id": "mado-e2a804",
      "locationSet": {"include": ["tr"]},
      "tags": {
        "amenity": "cafe",
        "brand": "Mado",
        "brand:wikidata": "Q17116336",
        "cuisine": "coffee_shop",
        "name": "Mado",
        "takeaway": "yes"
      }
    },
    {
      "displayName": "Manner Coffee",
      "id": "mannercoffee-3300f4",
      "locationSet": {"include": ["cn"]},
      "tags": {
        "amenity": "cafe",
        "brand": "Manner Coffee",
        "brand:wikidata": "Q111338344",
        "cuisine": "coffee_shop",
        "name": "Manner Coffee",
        "takeaway": "yes"
      }
    },
    {
      "displayName": "Matcha Cafe Maiko",
      "id": "matchacafemaiko-005405",
      "locationSet": {
        "include": ["ca", "cn", "us"]
      },
      "tags": {
        "amenity": "cafe",
        "brand": "Matcha Cafe Maiko",
        "brand:wikidata": "Q113528897",
        "cuisine": "coffee_shop",
        "name": "Matcha Cafe Maiko",
        "takeaway": "yes"
      }
    },
    {
      "displayName": "Max Brenner",
      "id": "maxbrenner-15f3f0",
      "locationSet": {
        "include": ["au", "il", "ru", "sg", "us"]
      },
      "tags": {
        "amenity": "cafe",
        "brand": "Max Brenner",
        "brand:wikidata": "Q955687",
        "cuisine": "chocolate",
        "name": "Max Brenner",
        "name:en": "Max Brenner",
        "name:he": "מקס ברנר",
        "takeaway": "yes"
      }
    },
    {
      "displayName": "McCafé",
      "id": "mccafe-e1ef51",
      "locationSet": {"include": ["001"]},
      "tags": {
        "amenity": "cafe",
        "brand": "McCafé",
        "brand:wikidata": "Q3114287",
        "cuisine": "coffee_shop",
        "name": "McCafé",
        "takeaway": "yes"
      }
    },
    {
      "displayName": "Michel's Patisserie",
      "id": "michelspatisserie-d7a541",
      "locationSet": {
        "include": ["au", "cn", "id", "nz"]
      },
      "tags": {
        "amenity": "cafe",
        "brand": "Michel's Patisserie",
        "brand:wikidata": "Q6836235",
        "cuisine": "coffee_shop",
        "name": "Michel's Patisserie",
        "takeaway": "yes"
      }
    },
    {
      "displayName": "Mikel",
      "id": "mikel-349bad",
      "locationSet": {
        "include": [
          "ae",
          "au",
          "cy",
          "de",
          "eg",
          "gb",
          "gr",
          "sa",
          "us"
        ]
      },
      "tags": {
        "amenity": "cafe",
        "brand": "Mikel",
        "brand:wikidata": "Q16952021",
        "cuisine": "coffee_shop",
        "name": "Mikel",
        "takeaway": "yes"
      }
    },
    {
      "displayName": "Muffin Break",
      "id": "muffinbreak-66b6c2",
      "locationSet": {
        "include": ["au", "gb", "in", "nz"]
      },
      "tags": {
        "amenity": "cafe",
        "brand": "Muffin Break",
        "brand:wikidata": "Q16964876",
        "cuisine": "coffee_shop",
        "name": "Muffin Break",
        "takeaway": "yes"
      }
    },
    {
      "displayName": "Muzz Buzz",
      "id": "muzzbuzz-4c3c5a",
      "locationSet": {"include": ["au", "nz"]},
      "tags": {
        "amenity": "cafe",
        "brand": "Muzz Buzz",
        "brand:wikidata": "Q6944483",
        "cuisine": "coffee_shop",
        "name": "Muzz Buzz",
        "takeaway": "yes"
      }
    },
    {
      "displayName": "Nero Express (Caffè Nero)",
      "id": "neroexpress-4a2ca5",
      "locationSet": {
        "include": ["gb", "ie", "tr", "us"]
      },
      "tags": {
        "amenity": "cafe",
        "brand": "Caffè Nero",
        "brand:wikidata": "Q675808",
        "cuisine": "coffee_shop",
        "name": "Nero Express",
        "takeaway": "yes"
      }
    },
    {
      "displayName": "Notes",
      "id": "notes-eb3447",
      "locationSet": {
        "include": ["gb-lon.geojson"]
      },
      "tags": {
        "amenity": "cafe",
        "brand": "Notes",
        "brand:wikidata": "Q111656694",
        "cuisine": "coffee_shop",
        "name": "Notes",
        "takeaway": "yes"
      }
    },
    {
      "displayName": "NUTTEA",
      "id": "nuttea-485ab4",
      "locationSet": {
        "include": ["001"],
        "exclude": ["hk", "mo"]
      },
      "tags": {
        "amenity": "cafe",
        "brand": "NUTTEA",
        "brand:en": "NUTTEA",
        "brand:wikidata": "Q111313216",
        "cuisine": "tea",
        "name:en": "NUTTEA",
        "takeaway": "yes"
      }
    },
    {
      "displayName": "OldTown White Coffee",
      "id": "oldtownwhitecoffee-e1ef51",
      "locationSet": {"include": ["001"]},
      "tags": {
        "amenity": "cafe",
        "brand": "OldTown White Coffee",
        "brand:wikidata": "Q7085308",
        "cuisine": "coffee_shop;malaysian",
        "name": "OldTown White Coffee",
        "takeaway": "yes"
      }
    },
    {
      "displayName": "OneZo Tapioca",
      "id": "onezotapioca-859a55",
      "locationSet": {
        "include": ["001"],
        "exclude": ["cn", "tw"]
      },
      "matchNames": [
        "onezo",
        "onezo tea",
        "丸作食茶"
      ],
      "tags": {
        "amenity": "cafe",
        "brand": "OneZo Tapioca",
        "brand:en": "OneZo Tapioca",
        "brand:wikidata": "Q111537052",
        "brand:zh": "丸作",
        "cuisine": "bubble_tea",
        "name": "OneZo Tapioca",
        "name:en": "OneZo Tapioca",
        "name:zh": "丸作",
        "takeaway": "yes"
      }
    },
    {
      "displayName": "Patisserie Valerie",
      "id": "patisserievalerie-a89223",
      "locationSet": {"include": ["gb"]},
      "tags": {
        "amenity": "cafe",
        "brand": "Patisserie Valerie",
        "brand:wikidata": "Q22101966",
        "cuisine": "coffee_shop",
        "name": "Patisserie Valerie",
        "takeaway": "yes"
      }
    },
    {
      "displayName": "Peet's Coffee",
      "id": "peetscoffee-243cad",
      "locationSet": {"include": ["us"]},
      "matchNames": [
        "peets",
        "peets coffee & tea"
      ],
      "tags": {
        "amenity": "cafe",
        "brand": "Peet's Coffee",
        "brand:wikidata": "Q1094101",
        "cuisine": "coffee_shop",
        "name": "Peet's Coffee",
        "takeaway": "yes"
      }
    },
    {
      "displayName": "Petit Pret",
      "id": "petitpret-a89223",
      "locationSet": {"include": ["gb"]},
      "tags": {
        "amenity": "cafe",
        "brand": "Petit Pret",
        "brand:wikidata": "Q111448708",
        "cuisine": "coffee_shop",
        "name": "Petit Pret",
        "takeaway": "yes"
      }
    },
    {
      "displayName": "Philz Coffee",
      "id": "philzcoffee-243cad",
      "locationSet": {"include": ["us"]},
      "tags": {
        "amenity": "cafe",
        "brand": "Philz Coffee",
        "brand:wikidata": "Q18156812",
        "cuisine": "coffee_shop",
        "name": "Philz Coffee",
        "takeaway": "yes"
      }
    },
    {
      "displayName": "Pie Face",
      "id": "pieface-70e4e4",
      "locationSet": {"include": ["au"]},
      "tags": {
        "amenity": "cafe",
        "brand": "Pie Face",
        "brand:wikidata": "Q18166370",
        "cuisine": "coffee_shop",
        "name": "Pie Face",
        "takeaway": "yes"
      }
    },
    {
      "displayName": "Prime",
      "id": "prime-1c12ef",
      "locationSet": {"include": ["ru"]},
      "tags": {
        "amenity": "cafe",
        "brand": "Prime",
        "brand:wikidata": "Q62122839",
        "cuisine": "coffee_shop",
        "name": "Prime",
        "takeaway": "yes"
      }
    },
    {
      "displayName": "PRONTO",
      "id": "pronto-0cf217",
      "locationSet": {"include": ["jp"]},
      "tags": {
        "amenity": "cafe",
        "brand": "PRONTO",
        "brand:en": "PRONTO",
        "brand:ja": "プロント",
        "brand:wikidata": "Q11336224",
        "cuisine": "coffee_shop",
        "name": "PRONTO",
        "name:en": "PRONTO",
        "name:ja": "プロント",
        "takeaway": "yes"
      }
    },
    {
      "displayName": "Pumpkin",
      "id": "pumpkin-a89223",
      "locationSet": {"include": ["gb"]},
      "matchNames": [
        "pumpkin cafe",
        "pumpkin cafe shop"
      ],
      "tags": {
        "amenity": "cafe",
        "brand": "Pumpkin",
        "brand:wikidata": "Q27825961",
        "cuisine": "coffee_shop",
        "name": "Pumpkin",
        "takeaway": "yes"
      }
    },
    {
      "displayName": "Quickly",
      "id": "quickly-e1ef51",
      "locationSet": {"include": ["001"]},
      "tags": {
        "amenity": "cafe",
        "brand": "Quickly",
        "brand:en": "Quickly",
        "brand:wikidata": "Q3771463",
        "brand:zh": "快可立",
        "cuisine": "bubble_tea",
        "name": "Quickly",
        "name:en": "Quickly",
        "name:zh": "快可立",
        "takeaway": "yes"
      }
    },
    {
      "displayName": "Real Fruit Bubble Tea",
      "id": "realfruitbubbletea-aa8067",
      "locationSet": {"include": ["ca"]},
      "tags": {
        "amenity": "cafe",
        "brand": "Real Fruit Bubble Tea",
        "brand:wikidata": "Q66072331",
        "cuisine": "bubble_tea",
        "name": "Real Fruit Bubble Tea",
        "takeaway": "yes"
      }
    },
    {
      "displayName": "Redemption Roasters",
      "id": "redemptionroasters-eb3447",
      "locationSet": {
        "include": ["gb-lon.geojson"]
      },
      "tags": {
        "amenity": "cafe",
        "brand": "Redemption Roasters",
        "brand:wikidata": "Q111657079",
        "cuisine": "coffee_shop",
        "name": "Redemption Roasters",
        "takeaway": "yes"
      }
    },
    {
      "displayName": "Rei do Mate",
      "id": "reidomate-1d07e0",
      "locationSet": {"include": ["br"]},
      "tags": {
        "amenity": "cafe",
        "brand": "Rei do Mate",
        "brand:wikidata": "Q7309875",
        "cuisine": "tea",
        "name": "Rei do Mate",
        "takeaway": "yes"
      }
    },
    {
      "displayName": "Royaltea 皇茶",
      "id": "royaltea-2403e7",
      "locationSet": {
        "include": ["001"],
        "exclude": ["cn", "my"]
      },
      "tags": {
        "amenity": "cafe",
        "brand": "Royaltea",
        "brand:en": "Royaltea",
        "brand:wikidata": "Q112778483",
        "brand:zh": "皇茶",
        "cuisine": "bubble_tea",
        "name": "Royaltea",
        "name:en": "Royaltea",
        "name:zh": "皇茶",
        "takeaway": "yes"
      }
    },
    {
      "displayName": "Saint Espresso",
      "id": "saintespresso-eb3447",
      "locationSet": {
        "include": ["gb-lon.geojson"]
      },
      "tags": {
        "amenity": "cafe",
        "brand": "Saint Espresso",
        "brand:wikidata": "Q111430035",
        "cuisine": "coffee_shop",
        "name": "Saint Espresso",
        "takeaway": "yes"
      }
    },
    {
      "displayName": "Seattle's Best Coffee",
      "id": "seattlesbestcoffee-e1ef51",
      "locationSet": {"include": ["001"]},
      "tags": {
        "amenity": "cafe",
        "brand": "Seattle's Best Coffee",
        "brand:wikidata": "Q766329",
        "cuisine": "coffee_shop",
        "name": "Seattle's Best Coffee",
        "takeaway": "yes"
      }
    },
    {
      "displayName": "Second Cup",
      "id": "secondcup-e1ef51",
      "locationSet": {"include": ["001"]},
      "tags": {
        "amenity": "cafe",
        "brand": "Second Cup",
        "brand:wikidata": "Q862180",
        "cuisine": "coffee_shop",
        "name": "Second Cup",
        "takeaway": "yes"
      }
    },
    {
      "displayName": "Segafredo",
      "id": "segafredo-e1ef51",
      "locationSet": {"include": ["001"]},
      "tags": {
        "amenity": "cafe",
        "brand": "Segafredo",
        "brand:wikidata": "Q21282762",
        "cuisine": "coffee_shop",
        "name": "Segafredo",
        "takeaway": "yes"
      }
    },
    {
      "displayName": "Sharetea",
      "id": "sharetea-07c6ab",
      "locationSet": {"include": ["au", "us"]},
      "tags": {
        "amenity": "cafe",
        "brand": "Sharetea",
        "brand:wikidata": "Q64827032",
        "cuisine": "bubble_tea",
        "name": "Sharetea",
        "name:en": "Sharetea",
        "name:zh": "歇腳亭",
        "takeaway": "yes"
      }
    },
    {
      "displayName": "Shuyi Tealicious",
      "id": "shuyitealicious-aa8067",
      "locationSet": {"include": ["ca"]},
      "tags": {
        "amenity": "cafe",
        "brand": "Shuyi Tealicious",
        "brand:wikidata": "Q107729359",
        "brand:zh-Hans": "书亦烧仙草",
        "brand:zh-Hant": "書亦燒仙草",
        "cuisine": "bubble_tea",
        "name": "Shuyi Tealicious",
        "name:zh-Hans": "书亦烧仙草",
        "name:zh-Hant": "書亦燒仙草",
        "operator": "Shuyi Tealicious Canada",
        "takeaway": "yes"
      }
    },
    {
      "displayName": "Skuratov Сoffee",
      "id": "10b45a-1c12ef",
      "locationSet": {"include": ["ru"]},
      "matchNames": ["скуратов кофе"],
      "tags": {
        "amenity": "cafe",
        "brand": "Skuratov Сoffee",
        "brand:en": "Skuratov Сoffee",
        "brand:wikidata": "Q98642885",
        "cuisine": "coffee_shop",
        "name": "Skuratov Сoffee",
        "name:en": "Skuratov Сoffee",
        "takeaway": "yes"
      }
    },
    {
      "displayName": "Soul Origin",
      "id": "soulorigin-70e4e4",
      "locationSet": {"include": ["au"]},
      "tags": {
        "amenity": "cafe",
        "brand": "Soul Origin",
        "brand:wikidata": "Q110473093",
        "cuisine": "coffee_shop",
        "name": "Soul Origin",
        "takeaway": "yes"
      }
    },
    {
      "displayName": "Starbucks",
      "id": "starbucks-e1ef51",
      "locationSet": {"include": ["001"]},
      "tags": {
        "amenity": "cafe",
        "brand": "Starbucks",
        "brand:wikidata": "Q37158",
        "cuisine": "coffee_shop",
        "name": "Starbucks",
        "official_name": "Starbucks Coffee",
        "takeaway": "yes"
      }
    },
    {
      "displayName": "Starbucks Reserve",
      "id": "starbucksreserve-e1ef51",
      "locationSet": {"include": ["001"]},
      "tags": {
        "amenity": "cafe",
        "brand": "Starbucks Reserve",
        "brand:wikidata": "Q37158",
        "cuisine": "coffee_shop",
        "name": "Starbucks Reserve",
        "takeaway": "yes"
      }
    },
    {
      "displayName": "Store Street Espresso",
      "id": "storestreetespresso-eb3447",
      "locationSet": {
        "include": ["gb-lon.geojson"]
      },
      "matchNames": ["store st. espresso"],
      "tags": {
        "amenity": "cafe",
        "brand": "Store Street Espresso",
        "brand:wikidata": "Q114008554",
        "cuisine": "coffee_shop",
        "name": "Store Street Espresso",
        "takeaway": "yes"
      }
    },
    {
      "displayName": "Streamer Coffee Company",
      "id": "streamercoffeecompany-0cf217",
      "locationSet": {"include": ["jp"]},
      "tags": {
        "amenity": "cafe",
        "brand": "Streamer Coffee Company",
        "brand:wikidata": "Q110397553",
        "cuisine": "coffee_shop",
        "name": "Streamer Coffee Company",
        "takeaway": "yes"
      }
    },
    {
      "displayName": "Stumptown Coffee Roasters",
      "id": "stumptowncoffeeroasters-a41f70",
      "locationSet": {"include": ["jp", "us"]},
      "tags": {
        "amenity": "cafe",
        "brand": "Stumptown Coffee Roasters",
        "brand:wikidata": "Q2695932",
        "cuisine": "coffee_shop",
        "name": "Stumptown Coffee Roasters",
        "takeaway": "yes"
      }
    },
    {
      "displayName": "Surf Coffee",
      "id": "surfcoffee-1c12ef",
      "locationSet": {"include": ["ru"]},
      "tags": {
        "amenity": "cafe",
        "brand": "Surf Coffee",
        "brand:wikidata": "Q110278756",
        "cuisine": "coffee_shop",
        "name": "Surf Coffee",
        "takeaway": "yes"
      }
    },
    {
      "displayName": "T4 Tea House",
      "id": "t4teaforu-e1ef51",
      "locationSet": {"include": ["001"]},
      "tags": {
        "alt_name": "T4 Tea House",
        "amenity": "cafe",
        "brand": "T4",
        "brand:wikidata": "Q112123535",
        "cuisine": "bubble_tea",
        "name": "T4 Tea For U",
        "takeaway": "yes"
      }
    },
    {
      "displayName": "Tapioca Express",
      "id": "tapiocaexpress-243cad",
      "locationSet": {"include": ["us"]},
      "tags": {
        "amenity": "cafe",
        "brand": "Tapioca Express",
        "brand:wikidata": "Q23462008",
        "cuisine": "bubble_tea",
        "name": "Tapioca Express",
        "takeaway": "yes"
      }
    },
    {
      "displayName": "Tealive",
      "id": "tealive-2aa1ef",
      "locationSet": {"include": ["my"]},
      "tags": {
        "amenity": "cafe",
        "brand": "Tealive",
        "brand:wikidata": "Q95722097",
        "cuisine": "tea;coffee_shop",
        "name": "Tealive",
        "takeaway": "yes"
      }
    },
    {
      "displayName": "Teapresso Bar",
      "id": "teapressobar-243cad",
      "locationSet": {"include": ["us"]},
      "tags": {
        "amenity": "cafe",
        "brand": "Teapresso Bar",
        "cuisine": "tea;coffee_shop",
        "name": "Teapresso Bar",
        "takeaway": "yes"
      }
    },
    {
      "displayName": "Teeamo",
      "id": "teeamo-06a619",
      "locationSet": {"include": ["at", "de"]},
      "matchTags": ["shop/beverages"],
      "tags": {
        "amenity": "cafe",
        "brand": "Teeamo",
        "brand:wikidata": "Q111923135",
        "cuisine": "bubble_tea",
        "name": "Teeamo",
        "takeaway": "yes"
      }
    },
    {
      "displayName": "The Barn",
      "id": "thebarn-72cbb9",
      "locationSet": {
        "include": ["ae", "de-be.geojson", "kr"]
      },
      "tags": {
        "amenity": "cafe",
        "brand": "The Barn",
        "brand:wikidata": "Q110545264",
        "cuisine": "coffee_shop",
        "name": "The Barn",
        "takeaway": "yes"
      }
    },
    {
      "displayName": "The Coffee",
      "id": "thecoffee-a48d6b",
      "locationSet": {
        "include": ["br", "co", "es", "fr", "pt"]
      },
      "tags": {
        "amenity": "cafe",
        "brand": "The Coffee",
        "brand:wikidata": "Q112042753",
        "cuisine": "coffee_shop",
        "name": "The Coffee",
        "takeaway": "yes"
      }
    },
    {
      "displayName": "The Coffee Bean & Tea Leaf",
      "id": "thecoffeebeanandtealeaf-ff94db",
      "locationSet": {
        "include": ["001"],
        "exclude": ["pl"]
      },
      "matchNames": ["coffee bean & tea leaf"],
      "tags": {
        "amenity": "cafe",
        "brand": "The Coffee Bean & Tea Leaf",
        "brand:wikidata": "Q1141384",
        "cuisine": "coffee_shop",
        "name": "The Coffee Bean & Tea Leaf",
        "takeaway": "yes"
      }
    },
    {
      "displayName": "The Coffee Club",
      "id": "thecoffeeclub-19ebdf",
      "locationSet": {
        "include": ["au", "nz", "th"]
      },
      "tags": {
        "amenity": "cafe",
        "brand": "The Coffee Club",
        "brand:wikidata": "Q7726599",
        "cuisine": "coffee_shop",
        "name": "The Coffee Club",
        "takeaway": "yes"
      }
    },
    {
      "displayName": "The Coffee House (Vietnam)",
      "id": "thecoffeehouse-fd99aa",
      "locationSet": {"include": ["vn"]},
      "matchNames": ["coffee house"],
      "tags": {
        "amenity": "cafe",
        "brand": "The Coffee House",
        "brand:wikidata": "Q60775742",
        "cuisine": "coffee_shop;vietnamese",
        "name": "The Coffee House",
        "name:en": "The Coffee House",
        "takeaway": "yes"
      }
    },
    {
      "displayName": "The Gentlemen Baristas",
      "id": "thegentlemenbaristas-eb3447",
      "locationSet": {
        "include": ["gb-lon.geojson"]
      },
      "matchNames": ["gentlemen baristas"],
      "tags": {
        "amenity": "cafe",
        "brand": "The Gentlemen Baristas",
        "brand:wikidata": "Q111658743",
        "cuisine": "coffee_shop",
        "name": "The Gentlemen Baristas",
        "takeaway": "yes"
      }
    },
    {
      "displayName": "The Human Bean",
      "id": "thehumanbean-243cad",
      "locationSet": {"include": ["us"]},
      "matchNames": ["human bean"],
      "tags": {
        "amenity": "cafe",
        "brand": "The Human Bean",
        "brand:wikidata": "Q7740821",
        "cuisine": "coffee_shop",
        "name": "The Human Bean",
        "takeaway": "yes"
      }
    },
    {
      "displayName": "Tiger Sugar",
      "id": "tigersugar-859a55",
      "locationSet": {
        "include": ["001"],
        "exclude": ["cn", "tw"]
      },
      "tags": {
        "amenity": "cafe",
        "brand": "Tiger Sugar",
        "brand:wikidata": "Q76099070",
        "cuisine": "bubble_tea",
        "name": "Tiger Sugar",
        "takeaway": "yes"
      }
    },
    {
      "displayName": "Tim Hortons",
      "id": "timhortons-ff94db",
      "locationSet": {
        "include": ["001"],
        "exclude": ["pl"]
      },
      "tags": {
        "amenity": "cafe",
        "brand": "Tim Hortons",
        "brand:wikidata": "Q175106",
        "cuisine": "coffee_shop",
        "name": "Tim Hortons",
        "takeaway": "yes"
      }
    },
    {
      "displayName": "Timothy's",
      "id": "timothys-aa8067",
      "locationSet": {"include": ["ca"]},
      "tags": {
        "amenity": "cafe",
        "brand": "Timothy's",
        "brand:wikidata": "Q7807011",
        "cuisine": "coffee_shop",
        "name": "Timothy's",
        "takeaway": "yes"
      }
    },
    {
      "displayName": "Toast Box",
      "id": "toastbox-ccae53",
      "locationSet": {"include": ["sg"]},
      "tags": {
        "amenity": "cafe",
        "brand": "Toast Box",
        "brand:wikidata": "Q100285490",
        "cuisine": "coffee_shop",
        "name": "Toast Box",
        "takeaway": "yes"
      }
    },
    {
      "displayName": "Tom N Toms",
      "id": "tomntoms-16c022",
      "locationSet": {
        "include": [
          "au",
          "ch",
          "hk",
          "kr",
          "mn",
          "mo",
          "my",
          "ph",
          "sg",
          "th",
          "us"
        ]
      },
      "tags": {
        "amenity": "cafe",
        "brand": "Tom N Toms",
        "brand:en": "Tom N Toms",
        "brand:ko": "탐앤탐스",
        "brand:wikidata": "Q18142418",
        "cuisine": "coffee_shop;pretzel;smoothie;tea;bread",
        "name": "Tom N Toms",
        "takeaway": "yes"
      }
    },
    {
      "displayName": "Tostao’",
      "id": "tostao-6b7f50",
      "locationSet": {"include": ["co"]},
      "tags": {
        "amenity": "cafe",
        "brand": "Tostao’",
        "brand:wikidata": "Q60632476",
        "cuisine": "coffee_shop",
        "name": "Tostao’",
        "official_name": "TOSTAO’ Café & Pan",
        "takeaway": "yes"
      }
    },
    {
      "displayName": "Traveler's Coffee",
      "id": "travelerscoffee-1c12ef",
      "locationSet": {"include": ["ru"]},
      "tags": {
        "amenity": "cafe",
        "brand": "Traveler's Coffee",
        "brand:wikidata": "Q4051716",
        "cuisine": "coffee_shop",
        "name": "Traveler's Coffee",
        "takeaway": "yes"
      }
    },
    {
      "displayName": "Trung Nguyên Coffee",
      "id": "trungnguyencoffee-fd99aa",
      "locationSet": {"include": ["vn"]},
      "tags": {
        "amenity": "cafe",
        "brand": "Trung Nguyên",
        "brand:wikidata": "Q3541154",
        "cuisine": "coffee_shop;vietnamese",
        "name": "Trung Nguyên Coffee",
        "name:en": "Trung Nguyen Coffee",
        "name:vi": "Cà phê Trung Nguyên",
        "takeaway": "yes"
      }
    },
    {
      "displayName": "Urban Baristas",
      "id": "urbanbaristas-eb3447",
      "locationSet": {
        "include": ["gb-lon.geojson"]
      },
      "tags": {
        "amenity": "cafe",
        "brand": "Urban Baristas",
        "brand:wikidata": "Q111262189",
        "cuisine": "coffee_shop",
        "name": "Urban Baristas",
        "takeaway": "yes"
      }
    },
    {
      "displayName": "Viva cafe",
      "id": "vivacafe-e1ef51",
      "locationSet": {"include": ["001"]},
      "tags": {
        "amenity": "cafe",
        "brand": "Viva cafe",
        "cuisine": "coffee_shop",
        "name": "Viva cafe",
        "takeaway": "yes"
      }
    },
    {
      "displayName": "Wagas",
      "id": "wagas-3300f4",
      "locationSet": {"include": ["cn"]},
      "tags": {
        "amenity": "cafe",
        "brand": "Wagas",
        "brand:en": "Wagas",
        "brand:wikidata": "Q104668297",
        "brand:zh": "沃歌斯",
        "cuisine": "coffee_shop",
        "name": "Wagas",
        "name:en": "Wagas",
        "name:zh": "沃歌斯",
        "takeaway": "yes"
      }
    },
    {
      "displayName": "Waves Coffee House",
      "id": "wavescoffeehouse-aa8067",
      "locationSet": {"include": ["ca"]},
      "tags": {
        "amenity": "cafe",
        "brand": "Waves Coffee House",
        "brand:wikidata": "Q114096538",
        "cuisine": "coffee_shop",
        "name": "Waves Coffee House",
        "takeaway": "yes"
      }
    },
    {
      "displayName": "Wayne's Coffee",
      "id": "waynescoffee-460348",
      "locationSet": {
        "include": ["fi", "no", "se"]
      },
      "note": "https://github.com/osmlab/name-suggestion-index/issues/5500",
      "preserveTags": ["^name"],
      "tags": {
        "amenity": "cafe",
        "brand": "Wayne's Coffee",
        "brand:wikidata": "Q2637272",
        "cuisine": "coffee_shop",
        "name": "Wayne's Coffee",
        "takeaway": "yes"
      }
    },
    {
      "displayName": "Wild Bean Cafe",
      "id": "wildbeancafe-e1ef51",
      "locationSet": {"include": ["001"]},
      "tags": {
        "amenity": "cafe",
        "brand": "Wild Bean Cafe",
        "brand:wikidata": "Q61804826",
        "cuisine": "coffee_shop",
        "name": "Wild Bean Cafe",
        "takeaway": "yes"
      }
    },
    {
      "displayName": "WonderWaffel",
      "id": "wonderwaffel-5db831",
      "locationSet": {
        "include": ["ch", "de", "us"]
      },
      "tags": {
        "amenity": "cafe",
        "brand": "WonderWaffel",
        "brand:wikidata": "Q105051786",
        "cuisine": "waffle",
        "name": "WonderWaffel",
        "takeaway": "yes"
      }
    },
    {
      "displayName": "Xing Fu Tang",
      "id": "xingfutang-a90eeb",
      "locationSet": {
        "include": ["001"],
        "exclude": ["cn", "pl", "tw"]
      },
      "tags": {
        "amenity": "cafe",
        "brand": "Xing Fu Tang",
        "brand:en": "Xing Fu Tang",
        "brand:wikidata": "Q95720330",
        "brand:zh": "幸福堂",
        "cuisine": "bubble_tea",
        "name": "Xing Fu Tang",
        "name:en": "Xing Fu Tang",
        "name:zh": "幸福堂",
        "takeaway": "yes"
      }
    },
    {
      "displayName": "Ya Kun Kaya Toast",
      "id": "yakunkayatoast-ccae53",
      "locationSet": {"include": ["sg"]},
      "tags": {
        "amenity": "cafe",
        "brand": "Ya Kun Kaya Toast",
        "brand:wikidata": "Q8046237",
        "cuisine": "coffee_shop",
        "name": "Ya Kun Kaya Toast",
        "takeaway": "yes"
      }
    },
    {
      "displayName": "Yi Fang Tea",
      "id": "yifangtea-a90eeb",
      "locationSet": {
        "include": ["001"],
        "exclude": ["cn", "pl", "tw"]
      },
      "matchNames": [
        "yi fang",
        "yi fang fruit tea",
        "yi fang taiwan fruit tea"
      ],
      "tags": {
        "amenity": "cafe",
        "brand": "Yi Fang Tea",
        "brand:en": "Yi Fang Tea",
        "brand:wikidata": "Q66196395",
        "brand:zh": "一芳水果茶",
        "cuisine": "bubble_tea",
        "name": "Yi Fang Tea",
        "name:en": "Yi Fang Tea",
        "name:zh": "一芳水果茶",
        "takeaway": "yes"
      }
    },
    {
      "displayName": "Zarraffa's Coffee",
      "id": "zarraffascoffee-70e4e4",
      "locationSet": {"include": ["au"]},
      "tags": {
        "amenity": "cafe",
        "brand": "Zarraffa's Coffee",
        "brand:wikidata": "Q8066878",
        "cuisine": "coffee_shop",
        "name": "Zarraffa's Coffee",
        "takeaway": "yes"
      }
    },
    {
      "displayName": "ZUS Coffee",
      "id": "zuscoffee-2aa1ef",
      "locationSet": {"include": ["my"]},
      "tags": {
        "amenity": "cafe",
        "brand": "ZUS Coffee",
        "brand:wikidata": "Q110811473",
        "cuisine": "coffee_shop",
        "name": "ZUS Coffee",
        "takeaway": "yes"
      }
    },
    {
      "displayName": "Британские пекарни",
      "id": "britishbakery-1c12ef",
      "locationSet": {"include": ["ru"]},
      "tags": {
        "amenity": "cafe",
        "brand": "Британские пекарни",
        "brand:en": "British bakery",
        "brand:wikidata": "Q110236478",
        "cuisine": "cake;breakfast;coffee_shop;tea",
        "name": "Британские пекарни",
        "name:en": "British bakery",
        "takeaway": "yes"
      }
    },
    {
      "displayName": "Брынза",
      "id": "b847e5-1c12ef",
      "locationSet": {"include": ["ru"]},
      "tags": {
        "amenity": "cafe",
        "brand": "Брынза",
        "brand:wikidata": "Q110278626",
        "cuisine": "empanada;russian",
        "name": "Брынза",
        "takeaway": "yes"
      }
    },
    {
      "displayName": "Гурман",
      "id": "c23942-6f6e18",
      "locationSet": {
        "include": ["by", "kg", "ru", "ua"]
      },
      "tags": {
        "amenity": "cafe",
        "brand": "Гурман",
        "cuisine": "coffee_shop",
        "name": "Гурман",
        "takeaway": "yes"
      }
    },
    {
      "displayName": "Даблби",
      "id": "doubleb-1c12ef",
      "locationSet": {"include": ["ru"]},
      "tags": {
        "amenity": "cafe",
        "brand": "Даблби",
        "brand:en": "Double B",
        "brand:wikidata": "Q62501686",
        "cuisine": "coffee_shop",
        "name": "Даблби",
        "name:en": "Double B",
        "takeaway": "yes"
      }
    },
    {
      "displayName": "Домашняя кухня",
      "id": "945764-ff94db",
      "locationSet": {
        "include": ["001"],
        "exclude": ["pl"]
      },
      "tags": {
        "amenity": "cafe",
        "brand": "Домашняя кухня",
        "cuisine": "coffee_shop",
        "name": "Домашняя кухня",
        "takeaway": "yes"
      }
    },
    {
      "displayName": "Кондитерская Теремок",
      "id": "teremokcafe-1c12ef",
      "locationSet": {"include": ["ru"]},
      "matchNames": ["теремок"],
      "tags": {
        "amenity": "cafe",
        "brand": "Кондитерская Теремок",
        "brand:wikidata": "Q109996560",
        "cuisine": "coffee_shop;pie;tea",
        "name": "Кондитерская Теремок",
        "name:en": "Teremok Cafe",
        "takeaway": "yes"
      }
    },
    {
      "displayName": "Кофе муз",
      "id": "coffeemoose-1c12ef",
      "locationSet": {"include": ["ru"]},
      "tags": {
        "amenity": "cafe",
        "brand": "Кофе муз",
        "cuisine": "coffee_shop",
        "name": "Кофе муз",
        "name:en": "Coffee Moose",
        "takeaway": "yes"
      }
    },
    {
      "displayName": "Кофе Саунд",
      "id": "12e4a4-7035bb",
      "locationSet": {"include": ["by"]},
      "tags": {
        "amenity": "cafe",
        "brand": "Кофе Саунд",
        "cuisine": "coffee_shop",
        "name": "Кофе Саунд",
        "takeaway": "yes"
      }
    },
    {
      "displayName": "Кофе Хауз",
      "id": "14d894-e2c355",
      "locationSet": {"include": ["ru", "ua"]},
      "tags": {
        "amenity": "cafe",
        "brand": "Кофе Хауз",
        "brand:wikidata": "Q4236456",
        "cuisine": "coffee_shop",
        "name": "Кофе Хауз",
        "takeaway": "yes"
      }
    },
    {
      "displayName": "Лагуна",
      "id": "bbcfec-e2c355",
      "locationSet": {"include": ["ru", "ua"]},
      "tags": {
        "amenity": "cafe",
        "brand": "Лагуна",
        "cuisine": "coffee_shop",
        "name": "Лагуна",
        "takeaway": "yes"
      }
    },
    {
      "displayName": "Люди любят",
      "id": "b38de2-1c12ef",
      "locationSet": {"include": ["ru"]},
      "matchNames": ["люди любят хлеб"],
      "tags": {
        "amenity": "cafe",
        "brand": "Люди любят",
        "brand:wikidata": "Q110254113",
        "cuisine": "bread;coffee_shop;cake;pie",
        "name": "Люди любят",
        "shop": "bakery",
        "takeaway": "yes"
      }
    },
    {
      "displayName": "Маяк",
      "id": "bc2a95-80fe8b",
      "locationSet": {
        "include": ["by", "ru", "ua"]
      },
      "tags": {
        "amenity": "cafe",
        "brand": "Маяк",
        "cuisine": "coffee_shop",
        "name": "Маяк",
        "takeaway": "yes"
      }
    },
    {
      "displayName": "Минутка",
      "id": "90e0ec-ff94db",
      "locationSet": {
        "include": ["001"],
        "exclude": ["pl"]
      },
      "tags": {
        "amenity": "cafe",
        "brand": "Минутка",
        "cuisine": "coffee_shop",
        "name": "Минутка",
        "takeaway": "yes"
      }
    },
    {
      "displayName": "Мираж",
      "id": "be258a-e1ef51",
      "locationSet": {"include": ["001"]},
      "tags": {
        "amenity": "cafe",
        "brand": "Мираж",
        "cuisine": "coffee_shop",
        "name": "Мираж",
        "takeaway": "yes"
      }
    },
    {
      "displayName": "Пироговый дворик",
      "id": "852353-1c12ef",
      "locationSet": {"include": ["ru"]},
      "tags": {
        "amenity": "cafe",
        "brand": "Пироговый дворик",
        "brand:wikidata": "Q110240743",
        "cuisine": "pie;coffee_shop;russian",
        "name": "Пироговый дворик",
        "shop": "bakery",
        "takeaway": "yes"
      }
    },
    {
      "displayName": "Смак",
      "id": "taste-aa1099",
      "locationSet": {
        "include": ["kz", "ru", "ua", "uz"]
      },
      "matchTags": ["shop/convenience"],
      "tags": {
        "amenity": "cafe",
        "brand": "Смак",
        "brand:en": "Taste",
        "cuisine": "coffee_shop",
        "name": "Смак",
        "name:en": "Taste",
        "takeaway": "yes"
      }
    },
    {
      "displayName": "Старбакс",
      "id": "starbucks-1c12ef",
      "locationSet": {"include": ["ru"]},
      "tags": {
        "amenity": "cafe",
        "brand": "Старбакс",
        "brand:en": "Starbucks",
        "brand:wikidata": "Q37158",
        "cuisine": "coffee_shop",
        "name": "Старбакс",
        "name:en": "Starbucks",
        "takeaway": "yes"
      }
    },
    {
      "displayName": "Транзит",
      "id": "1be135-8a116e",
      "locationSet": {
        "include": ["kz", "ru", "ua"]
      },
      "tags": {
        "amenity": "cafe",
        "brand": "Транзит",
        "cuisine": "coffee_shop",
        "name": "Транзит",
        "takeaway": "yes"
      }
    },
    {
      "displayName": "Уют",
      "id": "1ed809-ff94db",
      "locationSet": {
        "include": ["001"],
        "exclude": ["pl"]
      },
      "tags": {
        "amenity": "cafe",
        "brand": "Уют",
        "cuisine": "coffee_shop",
        "name": "Уют",
        "takeaway": "yes"
      }
    },
    {
      "displayName": "Фарфор",
      "id": "7021b1-1c12ef",
      "locationSet": {"include": ["ru"]},
      "tags": {
        "amenity": "cafe",
        "brand": "Фарфор",
        "cuisine": "coffee_shop",
        "name": "Фарфор",
        "takeaway": "yes"
      }
    },
    {
      "displayName": "Фортуна",
      "id": "f14aa4-ff94db",
      "locationSet": {
        "include": ["001"],
        "exclude": ["pl"]
      },
      "tags": {
        "amenity": "cafe",
        "brand": "Фортуна",
        "cuisine": "coffee_shop",
        "name": "Фортуна",
        "takeaway": "yes"
      }
    },
    {
      "displayName": "Хлеб Насущный",
      "id": "d1829c-1c12ef",
      "locationSet": {"include": ["ru"]},
      "tags": {
        "amenity": "cafe",
        "brand": "Хлеб Насущный",
        "cuisine": "coffee_shop",
        "name": "Хлеб Насущный",
        "takeaway": "yes"
      }
    },
    {
      "displayName": "Хуторок",
      "id": "778598-3a4821",
      "locationSet": {
        "include": ["by", "kz", "ru", "ua"]
      },
      "tags": {
        "amenity": "cafe",
        "brand": "Хуторок",
        "cuisine": "coffee_shop",
        "name": "Хуторок",
        "takeaway": "yes"
      }
    },
    {
      "displayName": "Цех85",
      "id": "54c425-1c12ef",
      "locationSet": {"include": ["ru"]},
      "tags": {
        "amenity": "cafe",
        "brand": "Цех85",
        "brand:wikidata": "Q109682756",
        "cuisine": "coffee_shop;pie",
        "name": "Цех85",
        "takeaway": "yes"
      }
    },
    {
      "displayName": "Шоколадница",
      "id": "shokoladnitsa-1c12ef",
      "locationSet": {"include": ["ru"]},
      "matchNames": ["шоколад"],
      "tags": {
        "amenity": "cafe",
        "brand": "Шоколадница",
        "brand:en": "Chocolate",
        "brand:wikidata": "Q30891188",
        "cuisine": "coffee_shop",
        "name": "Шоколадница",
        "name:en": "Shokoladnitsa",
        "takeaway": "yes"
      }
    },
    {
      "displayName": "Штолле",
      "id": "stolle-80fe8b",
      "locationSet": {
        "include": ["by", "ru", "ua"]
      },
      "tags": {
        "amenity": "cafe",
        "brand": "Штолле",
        "brand:en": "Stolle",
        "brand:wikidata": "Q62502236",
        "cuisine": "coffee_shop",
        "name": "Штолле",
        "name:en": "Stolle",
        "takeaway": "yes"
      }
    },
    {
      "displayName": "Эдем",
      "id": "742283-e1ef51",
      "locationSet": {"include": ["001"]},
      "tags": {
        "amenity": "cafe",
        "brand": "Эдем",
        "cuisine": "coffee_shop",
        "name": "Эдем",
        "takeaway": "yes"
      }
    },
    {
      "displayName": "ארומה",
      "id": "aromaespressobar-10eb89",
      "locationSet": {"include": ["il"]},
      "tags": {
        "amenity": "cafe",
        "brand": "ארומה",
        "brand:en": "Aroma Espresso Bar",
        "brand:he": "ארומה",
        "brand:wikidata": "Q2909872",
        "cuisine": "coffee_shop",
        "name": "ארומה",
        "name:en": "Aroma Espresso Bar",
        "name:he": "ארומה",
        "takeaway": "yes"
      }
    },
    {
      "displayName": "לנדוור",
      "id": "landwer-10eb89",
      "locationSet": {"include": ["il"]},
      "matchNames": ["קפה לדנוור"],
      "tags": {
        "amenity": "cafe",
        "brand": "קפה לנדוור",
        "brand:en": "Landwer Coffee",
        "brand:he": "קפה לנדוור",
        "brand:wikidata": "Q6485288",
        "cuisine": "coffee_shop",
        "name": "לנדוור",
        "name:en": "Landwer",
        "name:he": "לנדוור",
        "takeaway": "yes"
      }
    },
    {
      "displayName": "סי קפה",
      "id": "sicafe-10eb89",
      "locationSet": {"include": ["il"]},
      "tags": {
        "alt_name": "סי אספרסו",
        "alt_name:en": "Si Espresso",
        "alt_name:he": "סי אספרסו",
        "amenity": "cafe",
        "brand": "סי קפה",
        "brand:en": "Si Cafe",
        "brand:he": "סי קפה",
        "brand:wikidata": "Q64606227",
        "cuisine": "coffee_shop",
        "name": "סי קפה",
        "name:en": "Si Cafe",
        "name:he": "סי קפה",
        "takeaway": "yes"
      }
    },
    {
      "displayName": "קפה ג'ו",
      "id": "cafejoe-10eb89",
      "locationSet": {"include": ["il"]},
      "matchNames": ["ג'ו קפה"],
      "tags": {
        "alt_name": "קפה Joe",
        "amenity": "cafe",
        "brand": "קפה ג'ו",
        "brand:en": "Cafe Joe",
        "brand:he": "קפה ג'ו",
        "brand:wikidata": "Q6774425",
        "cuisine": "coffee_shop",
        "name": "קפה ג'ו",
        "name:en": "Cafe Joe",
        "name:he": "קפה ג'ו",
        "takeaway": "yes"
      }
    },
    {
      "displayName": "קפה גרג",
      "id": "gregcafe-10eb89",
      "locationSet": {"include": ["il"]},
      "tags": {
        "amenity": "cafe",
        "brand": "קפה גרג",
        "brand:en": "Greg Cafe",
        "brand:he": "קפה גרג",
        "brand:wikidata": "Q43295499",
        "cuisine": "coffee_shop",
        "name": "קפה גרג",
        "name:en": "Greg Cafe",
        "name:he": "קפה גרג",
        "takeaway": "yes"
      }
    },
    {
      "displayName": "קפה נמרוד",
      "id": "cafenimrod-10eb89",
      "locationSet": {"include": ["il"]},
      "tags": {
        "amenity": "cafe",
        "brand": "קפה נמרוד",
        "brand:en": "Cafe Nimrod",
        "brand:he": "קפה נמרוד",
        "brand:wikidata": "Q64606192",
        "cuisine": "coffee_shop",
        "name": "קפה נמרוד",
        "name:en": "Cafe Nimrod",
        "name:he": "קפה נמרוד",
        "takeaway": "yes"
      }
    },
    {
      "displayName": "קפה קפה",
      "id": "cafecafe-10eb89",
      "locationSet": {"include": ["il"]},
      "tags": {
        "amenity": "cafe",
        "brand": "קפה קפה",
        "brand:en": "Cafe Cafe",
        "brand:he": "קפה קפה",
        "brand:wikidata": "Q5017233",
        "cuisine": "coffee_shop",
        "name": "קפה קפה",
        "name:en": "Cafe Cafe",
        "name:he": "קפה קפה",
        "takeaway": "yes"
      }
    },
    {
      "displayName": "רולדין",
      "id": "roladin-10eb89",
      "locationSet": {"include": ["il"]},
      "tags": {
        "amenity": "cafe",
        "brand": "רולדין",
        "brand:en": "Roladin",
        "brand:he": "רולדין",
        "brand:wikidata": "Q18390972",
        "cuisine": "coffee_shop",
        "name": "רולדין",
        "name:en": "Roladin",
        "name:he": "רולדין",
        "takeaway": "yes"
      }
    },
    {
      "displayName": "تيم هورتونز",
      "id": "timhortons-2ad4e1",
      "locationSet": {
        "include": [
          "ae",
          "bh",
          "jo",
          "kw",
          "om",
          "qa",
          "sa"
        ]
      },
      "tags": {
        "amenity": "cafe",
        "brand": "تيم هورتونز",
        "brand:ar": "تيم هورتونز",
        "brand:en": "Tim Hortons",
        "brand:wikidata": "Q175106",
        "cuisine": "coffee_shop",
        "name": "تيم هورتونز",
        "name:ar": "تيم هورتونز",
        "name:en": "Tim Hortons",
        "takeaway": "yes"
      }
    },
    {
      "displayName": "جافا تايم",
      "id": "javatime-f27832",
      "locationSet": {"include": ["sa"]},
      "tags": {
        "amenity": "cafe",
        "brand": "جافا تايم",
        "brand:ar": "جافا تايم",
        "brand:en": "Java Time",
        "brand:wikidata": "Q12204153",
        "cuisine": "coffee_shop",
        "name": "جافا تايم",
        "name:ar": "جافا تايم",
        "name:en": "Java Time",
        "takeaway": "yes"
      }
    },
    {
      "displayName": "د.كيف",
      "id": "drcafe-f27832",
      "locationSet": {"include": ["sa"]},
      "tags": {
        "amenity": "cafe",
        "brand": "د.كيف",
        "brand:ar": "د.كيف",
        "brand:en": "dr-cafe",
        "brand:wikidata": "Q105714225",
        "cuisine": "coffee_shop",
        "name": "د.كيف",
        "name:ar": "د.كيف",
        "name:en": "dr-cafe",
        "takeaway": "yes"
      }
    },
    {
      "displayName": "ستاربكس",
      "id": "starbucks-0dcee5",
      "locationSet": {
        "include": [
          "ae",
          "bh",
          "dz",
          "eg",
          "iq",
          "jo",
          "kw",
          "lb",
          "ly",
          "ma",
          "om",
          "qa",
          "sa",
          "tn"
        ]
      },
      "tags": {
        "amenity": "cafe",
        "brand": "ستاربكس",
        "brand:ar": "ستاربكس",
        "brand:en": "Starbucks",
        "brand:wikidata": "Q37158",
        "cuisine": "coffee_shop",
        "name": "ستاربكس",
        "name:ar": "ستاربكس",
        "name:en": "Starbucks",
        "official_name": "ستاربكس كافية",
        "official_name:ar": "ستاربكس كافية",
        "official_name:en": "Starbucks Coffee",
        "takeaway": "yes"
      }
    },
    {
      "displayName": "كاريبو كوفي",
      "id": "cariboucoffee-9bd633",
      "locationSet": {
        "include": [
          "ae",
          "bh",
          "eg",
          "kw",
          "om",
          "qa",
          "sa"
        ]
      },
      "tags": {
        "amenity": "cafe",
        "brand": "كاريبو كوفي",
        "brand:ar": "كاريبو كوفي",
        "brand:en": "Caribou Coffee",
        "brand:wikidata": "Q5039494",
        "cuisine": "coffee_shop",
        "name": "كاريبو كوفي",
        "name:ar": "كاريبو كوفي",
        "name:en": "Caribou Coffee",
        "takeaway": "yes"
      }
    },
    {
      "displayName": "هاف مليون",
      "id": "halfmillion-f27832",
      "locationSet": {"include": ["sa"]},
      "tags": {
        "amenity": "cafe",
        "brand": "هاف مليون",
        "brand:ar": "هاف مليون",
        "brand:en": "Half Million",
        "brand:wikidata": "Q108537438",
        "cuisine": "coffee_shop",
        "name": "هاف مليون",
        "name:ar": "هاف مليون",
        "name:en": "Half Million",
        "takeaway": "yes"
      }
    },
    {
      "displayName": "คาเฟ่ อเมซอน",
      "id": "cafeamazon-b6dfae",
      "locationSet": {"include": ["th"]},
      "tags": {
        "amenity": "cafe",
        "brand": "คาเฟ่ อเมซอน",
        "brand:en": "Café Amazon",
        "brand:th": "คาเฟ่ อเมซอน",
        "brand:wikidata": "Q43247503",
        "cuisine": "coffee_shop",
        "name": "คาเฟ่ อเมซอน",
        "name:en": "Café Amazon",
        "name:th": "คาเฟ่ อเมซอน",
        "takeaway": "yes"
      }
    },
    {
      "displayName": "공차",
      "id": "gongcha-77c68b",
      "locationSet": {"include": ["kr"]},
      "tags": {
        "amenity": "cafe",
        "brand": "공차",
        "brand:en": "Gong Cha",
        "brand:ko": "공차",
        "brand:wikidata": "Q5581670",
        "brand:zh": "貢茶",
        "cuisine": "bubble_tea",
        "name": "공차",
        "name:en": "Gong Cha",
        "name:ko": "공차",
        "name:zh": "貢茶",
        "takeaway": "yes"
      }
    },
    {
      "displayName": "스타벅스",
      "id": "starbucks-77c68b",
      "locationSet": {"include": ["kr"]},
      "tags": {
        "amenity": "cafe",
        "brand": "스타벅스",
        "brand:en": "Starbucks",
        "brand:ko": "스타벅스",
        "brand:wikidata": "Q37158",
        "cuisine": "coffee_shop",
        "name": "스타벅스",
        "name:en": "Starbucks",
        "name:ko": "스타벅스",
        "takeaway": "yes"
      }
    },
    {
      "displayName": "이디야커피",
      "id": "ediyacoffee-77c68b",
      "locationSet": {"include": ["kr"]},
      "tags": {
        "amenity": "cafe",
        "brand": "이디야커피",
        "brand:en": "Ediya Coffee",
        "brand:ko": "이디야커피",
        "brand:wikidata": "Q12611298",
        "cuisine": "coffee_shop",
        "name": "이디야커피",
        "name:en": "Ediya Coffee",
        "name:ko": "이디야커피",
        "takeaway": "yes"
      }
    },
    {
      "displayName": "카페베네",
      "id": "caffebene-77c68b",
      "locationSet": {"include": ["kr"]},
      "tags": {
        "amenity": "cafe",
        "brand": "카페베네",
        "brand:en": "Caffé Bene",
        "brand:ko": "카페베네",
        "brand:wikidata": "Q5017149",
        "cuisine": "coffee_shop",
        "name": "카페베네",
        "name:en": "Caffé Bene",
        "name:ko": "카페베네",
        "takeaway": "yes"
      }
    },
    {
      "displayName": "투썸플레이스",
      "id": "atwosomeplace-77c68b",
      "locationSet": {"include": ["kr"]},
      "tags": {
        "amenity": "cafe",
        "brand": "투썸플레이스",
        "brand:en": "A Twosome Place",
        "brand:ko": "투썸플레이스",
        "brand:wikidata": "Q12621301",
        "cuisine": "coffee_shop",
        "name": "투썸플레이스",
        "name:en": "A Twosome Place",
        "name:ko": "투썸플레이스",
        "takeaway": "yes"
      }
    },
    {
      "displayName": "エクセルシオール カフェ",
      "id": "excelsiorcafe-0cf217",
      "locationSet": {"include": ["jp"]},
      "tags": {
        "amenity": "cafe",
        "brand": "エクセルシオール カフェ",
        "brand:en": "EXCELSIOR CAFFÉ",
        "brand:ja": "エクセルシオール カフェ",
        "brand:wikidata": "Q11289828",
        "cuisine": "coffee_shop",
        "name": "エクセルシオール カフェ",
        "name:en": "EXCELSIOR CAFE",
        "name:ja": "エクセルシオール カフェ",
        "takeaway": "yes"
      }
    },
    {
      "displayName": "カフェ・ド・クリエ",
      "id": "cafedecrie-0cf217",
      "locationSet": {"include": ["jp"]},
      "tags": {
        "amenity": "cafe",
        "brand": "カフェ・ド・クリエ",
        "brand:en": "CAFÉ de CRIÉ",
        "brand:ja": "カフェ・ド・クリエ",
        "brand:wikidata": "Q17219077",
        "cuisine": "coffee_shop",
        "name": "カフェ・ド・クリエ",
        "name:en": "CAFE de CRIE",
        "name:ja": "カフェ・ド・クリエ",
        "takeaway": "yes"
      }
    },
    {
      "displayName": "カフェ・ベローチェ",
      "id": "cafeveloce-0cf217",
      "locationSet": {"include": ["jp"]},
      "tags": {
        "amenity": "cafe",
        "brand": "カフェ・ベローチェ",
        "brand:en": "CAFFÈ VELOCE",
        "brand:ja": "カフェ・ベローチェ",
        "brand:wikidata": "Q11294597",
        "cuisine": "coffee_shop",
        "name": "カフェ・ベローチェ",
        "name:en": "CAFE VELOCE",
        "name:ja": "カフェ・ベローチェ",
        "takeaway": "yes"
      }
    },
    {
      "displayName": "コメダ珈琲店",
      "id": "komedascoffee-0cf217",
      "locationSet": {"include": ["jp"]},
      "tags": {
        "amenity": "cafe",
        "brand": "コメダ珈琲店",
        "brand:en": "KOMEDA'S Coffee",
        "brand:ja": "コメダ珈琲店",
        "brand:wikidata": "Q11302679",
        "cuisine": "coffee_shop",
        "name": "コメダ珈琲店",
        "name:en": "Komeda's Coffee",
        "name:ja": "コメダ珈琲店",
        "takeaway": "yes"
      }
    },
    {
      "displayName": "サンマルクカフェ",
      "id": "saintmarccafe-0cf217",
      "locationSet": {"include": ["jp"]},
      "tags": {
        "alt_name:en": "Saint Marc Café",
        "amenity": "cafe",
        "brand": "サンマルクカフェ",
        "brand:en": "ST.MARC CAFÉ",
        "brand:ja": "サンマルクカフェ",
        "brand:wikidata": "Q11305989",
        "cuisine": "coffee_shop",
        "name": "サンマルクカフェ",
        "name:en": "Saint Marc Cafe",
        "name:ja": "サンマルクカフェ",
        "takeaway": "yes"
      }
    },
    {
      "displayName": "スターバックス",
      "id": "starbucks-0cf217",
      "locationSet": {"include": ["jp"]},
      "tags": {
        "amenity": "cafe",
        "brand": "スターバックス",
        "brand:en": "Starbucks",
        "brand:ja": "スターバックス",
        "brand:wikidata": "Q37158",
        "cuisine": "coffee_shop",
        "name": "スターバックス",
        "name:en": "Starbucks",
        "name:ja": "スターバックス",
        "official_name": "スターバックスコーヒー",
        "official_name:en": "Starbucks Coffee",
        "official_name:ja": "スターバックスコーヒー",
        "takeaway": "yes"
      }
    },
    {
      "displayName": "タリーズコーヒー",
      "id": "tullyscoffee-0cf217",
      "locationSet": {"include": ["jp"]},
      "tags": {
        "amenity": "cafe",
        "brand": "タリーズコーヒー",
        "brand:en": "Tully's Coffee",
        "brand:ja": "タリーズコーヒー",
        "brand:wikidata": "Q3541983",
        "cuisine": "coffee_shop",
        "name": "タリーズコーヒー",
        "name:en": "Tully's Coffee",
        "name:ja": "タリーズコーヒー",
        "takeaway": "yes"
      }
    },
    {
      "displayName": "ドトールコーヒーショップ",
      "id": "doutorcoffeeshop-0cf217",
      "locationSet": {"include": ["jp"]},
      "matchNames": ["ドトールコーヒー"],
      "tags": {
        "amenity": "cafe",
        "brand": "ドトール",
        "brand:en": "DOUTOR",
        "brand:ja": "ドトール",
        "brand:wikidata": "Q11322732",
        "cuisine": "coffee_shop",
        "name": "ドトールコーヒーショップ",
        "name:en": "Doutor Coffee Shop",
        "name:ja": "ドトールコーヒーショップ",
        "short_name": "DCS",
        "takeaway": "yes"
      }
    },
    {
      "displayName": "ルノアール",
      "id": "renoir-0cf217",
      "locationSet": {"include": ["jp"]},
      "tags": {
        "amenity": "cafe",
        "brand": "ルノアール",
        "brand:en": "Renoir",
        "brand:ja": "ルノアール",
        "brand:wikidata": "Q11649991",
        "cuisine": "coffee_shop",
        "name": "ルノアール",
        "name:en": "Renoir",
        "name:ja": "ルノアール",
        "official_name": "喫茶室ルノアール",
        "official_name:en": "Ginza Renoir",
        "official_name:ja": "喫茶室ルノアール",
        "takeaway": "yes"
      }
    },
    {
      "displayName": "一点点",
      "id": "alittletea-3300f4",
      "locationSet": {"include": ["cn"]},
      "tags": {
        "amenity": "cafe",
        "brand": "一点点",
        "brand:en": "alittle-tea",
        "brand:wikidata": "Q106926258",
        "cuisine": "bubble_tea",
        "name": "一点点",
        "name:en": "alittle-tea",
        "takeaway": "yes"
      }
    },
    {
      "displayName": "一芳水果茶",
      "id": "yifangtea-bd86e2",
      "locationSet": {
        "include": ["cn"],
        "exclude": ["hk"]
      },
      "matchNames": ["一芳", "一芳台湾水果茶"],
      "tags": {
        "amenity": "cafe",
        "brand": "一芳水果茶",
        "brand:en": "Yi Fang Tea",
        "brand:wikidata": "Q66196395",
        "brand:zh": "一芳水果茶",
        "cuisine": "bubble_tea",
        "name": "一芳水果茶",
        "name:en": "Yi Fang Tea",
        "name:zh": "一芳水果茶",
        "takeaway": "yes"
      }
    },
    {
      "displayName": "一芳水果茶 Yi Fang Tea",
      "id": "yifangtea-59dcf2",
      "locationSet": {"include": ["hk"]},
      "matchNames": ["一芳", "一芳台灣水果茶"],
      "tags": {
        "amenity": "cafe",
        "brand": "一芳水果茶 Yi Fang Tea",
        "brand:en": "Yi Fang Tea",
        "brand:wikidata": "Q66196395",
        "brand:zh": "一芳水果茶",
        "cuisine": "bubble_tea",
        "name": "一芳水果茶 Yi Fang Tea",
        "name:en": "Yi Fang Tea",
        "name:zh": "一芳水果茶",
        "takeaway": "yes"
      }
    },
    {
      "displayName": "一芳水果茶(台灣)",
      "id": "yifangtea-7d270d",
      "locationSet": {"include": ["tw"]},
      "matchNames": ["一芳", "一芳台灣水果茶"],
      "tags": {
        "amenity": "cafe",
        "brand": "一芳水果茶",
        "brand:en": "Yi Fang Tea",
        "brand:wikidata": "Q66196395",
        "brand:zh": "一芳水果茶",
        "cuisine": "bubble_tea",
        "name": "一芳水果茶",
        "name:en": "Yi Fang Tea",
        "name:zh": "一芳水果茶",
        "operator": "墨力國際股份有限公司",
        "takeaway": "yes"
      }
    },
    {
      "displayName": "上島珈琲店",
      "id": "ueshimacoffeehouse-7f2f5a",
      "locationSet": {"include": ["jp", "tw"]},
      "matchNames": ["上島珈琲"],
      "tags": {
        "amenity": "cafe",
        "brand": "上島珈琲店",
        "brand:en": "Ueshima Coffee House",
        "brand:ja": "上島珈琲店",
        "brand:wikidata": "Q96152143",
        "cuisine": "coffee_shop",
        "name": "上島珈琲店",
        "name:en": "Ueshima Coffee House",
        "name:ja": "上島珈琲店",
        "takeaway": "yes"
      }
    },
    {
      "displayName": "丸作食茶",
      "id": "onezotapioca-783c92",
      "locationSet": {
        "include": ["hk", "mo", "tw"]
      },
      "matchNames": ["onezo", "onezo tea", "丸作"],
      "tags": {
        "amenity": "cafe",
        "brand": "丸作食茶",
        "brand:en": "OneZo Tapioca",
        "brand:wikidata": "Q111537052",
        "brand:zh": "丸作食茶",
        "cuisine": "bubble_tea",
        "name": "丸作食茶",
        "name:en": "OneZo Tapioca",
        "name:zh": "丸作食茶",
        "takeaway": "yes"
      }
    },
    {
      "displayName": "书亦烧仙草",
      "id": "shuyitealicious-3300f4",
      "locationSet": {"include": ["cn"]},
      "tags": {
        "amenity": "cafe",
        "brand": "书亦烧仙草",
        "brand:en": "Shuyi Tealicious",
        "brand:wikidata": "Q107729359",
        "brand:zh": "书亦烧仙草",
        "cuisine": "bubble_tea",
        "name": "书亦烧仙草",
        "name:en": "Shuyi Tealicious",
        "name:zh": "书亦烧仙草",
        "operator": "四川书亦餐饮管理有限公司",
        "takeaway": "yes"
      }
    },
    {
      "displayName": "亚马逊咖啡",
      "id": "cafeamazon-3300f4",
      "locationSet": {"include": ["cn"]},
      "tags": {
        "amenity": "cafe",
        "brand": "亚马逊咖啡",
        "brand:wikidata": "Q43247503",
        "cuisine": "coffee_shop",
        "name": "亚马逊咖啡",
        "name:en": "Café Amazon",
        "name:zh": "亚马逊咖啡",
        "takeaway": "yes"
      }
    },
    {
      "displayName": "兰芳园",
      "id": "lanfongyuen-3300f4",
      "locationSet": {"include": ["cn"]},
      "matchNames": ["蘭芳園"],
      "note": "This bubble tea cafe is not the same brand as 蘭芳園 in Hong Kong",
      "tags": {
        "amenity": "cafe",
        "brand": "兰芳园",
        "brand:en": "LAN FONG YUEN",
        "brand:wikidata": "Q109968333",
        "brand:zh": "兰芳园",
        "cuisine": "bubble_tea",
        "name": "兰芳园",
        "name:en": "LAN FONG YUEN",
        "name:zh": "兰芳园",
        "takeaway": "yes"
      }
    },
    {
      "displayName": "可不可熟成紅茶",
      "id": "kebuke-7d270d",
      "locationSet": {"include": ["tw"]},
      "tags": {
        "amenity": "cafe",
        "brand": "可不可熟成紅茶",
        "brand:en": "Kebuke",
        "brand:wikidata": "Q45572389",
        "brand:zh": "可不可熟成紅茶",
        "cuisine": "bubble_tea",
        "name": "可不可熟成紅茶",
        "name:en": "Kebuke",
        "name:zh": "可不可熟成紅茶",
        "short_name": "可不可",
        "takeaway": "only"
      }
    },
    {
      "displayName": "咖世家",
      "id": "costa-3300f4",
      "locationSet": {"include": ["cn"]},
      "matchNames": [
        "costa coffee",
        "costa 咖世家",
        "咖世家 costa"
      ],
      "tags": {
        "amenity": "cafe",
        "brand": "Costa咖啡",
        "brand:en": "Costa",
        "brand:wikidata": "Q608845",
        "brand:zh": "Costa咖啡",
        "cuisine": "coffee_shop",
        "name": "Costa咖啡",
        "name:en": "Costa",
        "name:zh": "Costa咖啡",
        "takeaway": "yes"
      }
    },
    {
      "displayName": "喜茶",
      "id": "heytea-4472b7",
      "locationSet": {"include": ["cn", "sg"]},
      "tags": {
        "amenity": "cafe",
        "brand": "喜茶",
        "brand:en": "Heytea",
        "brand:wikidata": "Q60875376",
        "brand:zh": "喜茶",
        "cuisine": "bubble_tea",
        "name": "喜茶",
        "name:en": "Heytea",
        "name:zh": "喜茶",
        "takeaway": "yes"
      }
    },
    {
      "displayName": "堅果奶茶 NUTTEA",
      "id": "nuttea-b3d618",
      "locationSet": {"include": ["hk", "mo"]},
      "tags": {
        "amenity": "cafe",
        "brand": "堅果奶茶 NUTTEA",
        "brand:en": "NUTTEA",
        "brand:wikidata": "Q111313216",
        "brand:zh": "堅果奶茶",
        "brand:zh-Hans": "坚果奶茶",
        "brand:zh-Hant": "堅果奶茶",
        "cuisine": "tea",
        "name": "堅果奶茶 NUTTEA",
        "name:en": "NUTTEA",
        "name:zh": "堅果奶茶",
        "name:zh-Hans": "坚果奶茶",
        "name:zh-Hant": "堅果奶茶",
        "takeaway": "yes"
      }
    },
    {
      "displayName": "大益茶",
      "id": "taetea-3300f4",
      "locationSet": {"include": ["cn"]},
      "tags": {
        "amenity": "cafe",
        "brand": "大益茶",
        "brand:en": "TAETEA",
        "brand:wikidata": "Q114865249",
        "brand:zh": "大益茶",
        "cuisine": "tea",
        "name": "大益茶",
        "name:en": "TAETEA",
        "name:zh": "大益茶",
        "takeaway": "yes"
      }
    },
    {
      "displayName": "大苑子",
      "id": "dayungs-7d270d",
      "locationSet": {"include": ["tw"]},
      "matchTags": ["shop/beverages"],
      "tags": {
        "amenity": "cafe",
        "brand": "大苑子",
        "brand:en": "DaYung's",
        "brand:wikidata": "Q67934123",
        "brand:zh": "大苑子",
        "cuisine": "bubble_tea",
        "name": "大苑子",
        "name:en": "DaYung's",
        "name:zh": "大苑子",
        "takeaway": "yes"
      }
    },
    {
      "displayName": "天仁茗茶",
      "id": "tenrenstea-7d270d",
      "locationSet": {"include": ["tw"]},
      "tags": {
        "amenity": "cafe",
        "brand": "天仁茗茶",
        "brand:en": "TenRen's Tea",
        "brand:wikidata": "Q10939065",
        "brand:zh": "天仁茗茶",
        "cuisine": "bubble_tea",
        "name": "天仁茗茶",
        "name:en": "TenRen's Tea",
        "name:zh": "天仁茗茶",
        "takeaway": "yes"
      }
    },
    {
      "displayName": "天仁茗茶 TenRen's Tea",
      "id": "tenrenstea-59dcf2",
      "locationSet": {"include": ["hk"]},
      "tags": {
        "amenity": "cafe",
        "brand": "天仁茗茶 TenRen's Tea",
        "brand:en": "TenRen's Tea",
        "brand:wikidata": "Q10939065",
        "brand:zh": "天仁茗茶",
        "cuisine": "bubble_tea",
        "name": "天仁茗茶 TenRen's Tea",
        "name:en": "TenRen's Tea",
        "name:zh": "天仁茗茶",
        "takeaway": "yes"
      }
    },
    {
      "displayName": "太平洋咖啡",
      "id": "pacificcoffee-2d7d61",
      "locationSet": {
        "include": ["cn", "my", "sg"],
        "exclude": ["hk", "mo"]
      },
      "tags": {
        "amenity": "cafe",
        "brand": "太平洋咖啡",
        "brand:en": "Pacific Coffee",
        "brand:wikidata": "Q7122398",
        "brand:zh": "太平洋咖啡",
        "cuisine": "coffee_shop",
        "name": "太平洋咖啡",
        "name:en": "Pacific Coffee",
        "name:zh": "太平洋咖啡",
        "takeaway": "yes"
      }
    },
    {
      "displayName": "太平洋咖啡 Pacific Coffee",
      "id": "pacificcoffee-b3d618",
      "locationSet": {"include": ["hk", "mo"]},
      "tags": {
        "amenity": "cafe",
        "brand": "太平洋咖啡 Pacific Coffee",
        "brand:en": "Pacific Coffee",
        "brand:wikidata": "Q7122398",
        "brand:zh": "太平洋咖啡",
        "cuisine": "coffee_shop",
        "name": "太平洋咖啡 Pacific Coffee",
        "name:en": "Pacific Coffee",
        "name:zh": "太平洋咖啡",
        "takeaway": "yes"
      }
    },
    {
      "displayName": "奈雪的茶",
      "id": "nayuki-3300f4",
      "locationSet": {"include": ["cn"]},
      "matchNames": ["奈雪", "奈雪の茶"],
      "tags": {
        "amenity": "cafe",
        "brand": "奈雪的茶",
        "brand:en": "Nayuki",
        "brand:wikidata": "Q107351710",
        "brand:zh": "奈雪的茶",
        "cuisine": "bubble_tea",
        "name": "奈雪的茶",
        "name:en": "Nayuki",
        "name:zh": "奈雪的茶",
        "takeaway": "yes"
      }
    },
    {
      "displayName": "客喜康珈琲館",
      "id": "kohikan-7d270d",
      "locationSet": {"include": ["tw"]},
      "matchNames": ["咖啡館", "客喜康咖啡館"],
      "tags": {
        "amenity": "cafe",
        "brand": "客喜康珈琲館",
        "brand:en": "Kohikan",
        "brand:ja": "珈琲館",
        "brand:wikidata": "Q11573290",
        "brand:zh": "客喜康珈琲館",
        "cuisine": "coffee_shop",
        "name": "客喜康珈琲館",
        "name:en": "Kohikan",
        "name:ja": "珈琲館",
        "name:zh": "客喜康珈琲館",
        "takeaway": "yes"
      }
    },
    {
      "displayName": "客美多咖啡",
      "id": "komedacoffeeshop-7d270d",
      "locationSet": {"include": ["tw"]},
      "tags": {
        "amenity": "cafe",
        "brand": "客美多咖啡",
        "brand:en": "Komeda Coffee Shop",
        "brand:ja": "コメダ珈琲店",
        "brand:wikidata": "Q11302679",
        "brand:zh": "客美多咖啡",
        "cuisine": "coffee_shop",
        "name": "客美多咖啡",
        "name:en": "Komeda Coffee Shop",
        "name:ja": "コメダ珈琲店",
        "name:zh": "客美多咖啡",
        "takeaway": "yes"
      }
    },
    {
      "displayName": "幸福堂",
      "id": "xingfutang-7d270d",
      "locationSet": {"include": ["tw"]},
      "tags": {
        "amenity": "cafe",
        "brand": "幸福堂",
        "brand:en": "Xing Fu Tang",
        "brand:wikidata": "Q95720330",
        "brand:zh": "幸福堂",
        "cuisine": "bubble_tea",
        "int_name": "Xing Fu Tang",
        "name": "幸福堂",
        "name:en": "Xing Fu Tang",
        "name:zh": "幸福堂",
        "takeaway": "yes"
      }
    },
    {
      "displayName": "幸福堂 Xing Fu Tang",
      "id": "xingfutang-59dcf2",
      "locationSet": {"include": ["hk"]},
      "tags": {
        "amenity": "cafe",
        "brand": "幸福堂 Xing Fu Tang",
        "brand:en": "Xing Fu Tang",
        "brand:wikidata": "Q95720330",
        "brand:zh": "幸福堂",
        "cuisine": "bubble_tea",
        "int_name": "Xing Fu Tang",
        "name": "幸福堂 Xing Fu Tang",
        "name:en": "Xing Fu Tang",
        "name:zh": "幸福堂",
        "takeaway": "yes"
      }
    },
    {
      "displayName": "快乐柠檬",
      "id": "happylemon-aa349e",
      "locationSet": {"include": ["cn", "tw"]},
      "tags": {
        "amenity": "cafe",
        "brand": "快乐柠檬",
        "brand:en": "Happy Lemon",
        "brand:wikidata": "Q109968422",
        "brand:zh": "快乐柠檬",
        "cuisine": "bubble_tea",
        "name": "快乐柠檬",
        "name:en": "Happy Lemon",
        "name:zh": "快乐柠檬",
        "takeaway": "yes"
      }
    },
    {
      "displayName": "快可立",
      "id": "quickly-7d270d",
      "locationSet": {"include": ["tw"]},
      "tags": {
        "amenity": "cafe",
        "brand": "快可立",
        "brand:en": "Quickly",
        "brand:wikidata": "Q3771463",
        "brand:zh": "快可立",
        "cuisine": "bubble_tea",
        "name": "快可立",
        "name:en": "Quickly",
        "name:zh": "快可立",
        "takeaway": "yes"
      }
    },
    {
      "displayName": "日出茶太(Taiwan)",
      "id": "chatime-7d270d",
      "locationSet": {"include": ["tw"]},
      "tags": {
        "amenity": "cafe",
        "brand": "日出茶太",
        "brand:en": "Chatime",
        "brand:wikidata": "Q16829306",
        "brand:zh": "日出茶太",
        "cuisine": "bubble_tea",
        "name": "日出茶太",
        "name:en": "Chatime",
        "name:zh": "日出茶太",
        "takeaway": "yes"
      }
    },
    {
      "displayName": "日出茶太(中国大陆)",
      "id": "chatime-3300f4",
      "locationSet": {"include": ["cn"]},
      "tags": {
        "amenity": "cafe",
        "brand": "日出茶太",
        "brand:en": "Chatime",
        "brand:wikidata": "Q16829306",
        "brand:zh": "日出茶太",
        "cuisine": "bubble_tea",
        "name": "日出茶太",
        "name:en": "Chatime",
        "name:zh": "日出茶太",
        "operator": "日太餐饮管理（上海）有限公司",
        "takeaway": "yes"
      }
    },
    {
      "displayName": "星乃珈琲店",
      "id": "hoshinocoffee-7f2f5a",
      "locationSet": {"include": ["jp", "tw"]},
      "tags": {
        "alt_name:zh": "星乃咖啡店",
        "amenity": "cafe",
        "brand": "星乃珈琲店",
        "brand:en": "Hoshino Coffee",
        "brand:ja": "星乃珈琲店",
        "brand:wikidata": "Q88396880",
        "cuisine": "coffee_shop",
        "name": "星乃珈琲店",
        "name:en": "Hoshino Coffee",
        "name:ja": "星乃珈琲店",
        "name:zh": "星乃珈琲店",
        "takeaway": "yes"
      }
    },
    {
      "displayName": "星巴克",
      "id": "starbucks-823e31",
      "locationSet": {
        "include": ["cn"],
        "exclude": ["hk", "mo"]
      },
      "tags": {
        "amenity": "cafe",
        "brand": "星巴克",
        "brand:en": "Starbucks",
        "brand:wikidata": "Q37158",
        "brand:zh": "星巴克",
        "cuisine": "coffee_shop",
        "name": "星巴克",
        "name:en": "Starbucks",
        "name:zh": "星巴克",
        "takeaway": "yes"
      }
    },
    {
      "displayName": "星巴克 Starbucks",
      "id": "starbucks-b3d618",
      "locationSet": {"include": ["hk", "mo"]},
      "tags": {
        "amenity": "cafe",
        "brand": "星巴克 Starbucks",
        "brand:en": "Starbucks",
        "brand:wikidata": "Q37158",
        "brand:zh": "星巴克",
        "cuisine": "coffee_shop",
        "name": "星巴克 Starbucks",
        "name:en": "Starbucks",
        "name:zh": "星巴克",
        "takeaway": "yes"
      }
    },
    {
      "displayName": "星巴克(台灣)",
      "id": "starbucks-7d270d",
      "locationSet": {"include": ["tw"]},
      "tags": {
        "amenity": "cafe",
        "brand": "星巴克",
        "brand:en": "Starbucks",
        "brand:wikidata": "Q37158",
        "brand:zh": "星巴克",
        "cuisine": "coffee_shop",
        "name": "星巴克",
        "name:en": "Starbucks",
        "name:zh": "星巴克",
        "operator": "悠旅生活事業股份有限公司",
        "takeaway": "yes"
      }
    },
    {
      "displayName": "沪上阿姨",
      "id": "aunteajenny-3300f4",
      "locationSet": {"include": ["cn"]},
      "tags": {
        "amenity": "cafe",
        "brand": "沪上阿姨",
        "brand:en": "AUNTEA JENNY",
        "brand:wikidata": "Q108165945",
        "brand:zh": "沪上阿姨",
        "cuisine": "bubble_tea",
        "name": "沪上阿姨",
        "name:en": "AUNTEA JENNY",
        "name:zh": "沪上阿姨",
        "takeaway": "yes"
      }
    },
    {
      "displayName": "清心福全",
      "id": "chingshin-7d270d",
      "locationSet": {"include": ["tw"]},
      "matchTags": ["shop/beverages"],
      "tags": {
        "amenity": "cafe",
        "brand": "清心福全",
        "brand:en": "Ching Shin",
        "brand:wikidata": "Q10391229",
        "brand:zh": "清心福全",
        "cuisine": "bubble_tea",
        "name": "清心福全",
        "name:en": "Ching Shin",
        "name:zh": "清心福全",
        "takeaway": "yes"
      }
    },
    {
      "displayName": "珈琲館",
      "id": "kohikan-0cf217",
      "locationSet": {"include": ["jp"]},
      "tags": {
        "amenity": "cafe",
        "brand": "珈琲館",
        "brand:en": "Kohikan",
        "brand:ja": "珈琲館",
        "brand:wikidata": "Q11573290",
        "cuisine": "coffee_shop",
        "name": "珈琲館",
        "name:en": "Kohikan",
        "name:ja": "珈琲館",
        "takeaway": "yes"
      }
    },
    {
      "displayName": "珍煮丹",
      "id": "truedan-7f2f5a",
      "locationSet": {"include": ["jp", "tw"]},
      "tags": {
        "alt_name:ja": "トゥルーダン",
        "amenity": "cafe",
        "brand": "珍煮丹",
        "brand:en": "Truedan",
        "brand:ja": "珍煮丹",
        "brand:wikidata": "Q108168889",
        "brand:zh": "珍煮丹",
        "cuisine": "bubble_tea",
        "name": "珍煮丹",
        "name:en": "Truedan",
        "name:ja": "珍煮丹",
        "name:zh": "珍煮丹",
        "takeaway": "only"
      }
    },
    {
      "displayName": "珍煮丹 Truedan",
      "id": "truedan-59dcf2",
      "locationSet": {"include": ["hk"]},
      "tags": {
        "amenity": "cafe",
        "brand": "珍煮丹 Truedan",
        "brand:en": "Truedan",
        "brand:ja": "珍煮丹",
        "brand:wikidata": "Q108168889",
        "brand:zh": "珍煮丹",
        "cuisine": "bubble_tea",
        "name": "珍煮丹 Truedan",
        "name:en": "Truedan",
        "name:zh": "珍煮丹",
        "takeaway": "only"
      }
    },
    {
      "displayName": "瑞幸咖啡",
      "id": "luckincoffee-3300f4",
      "locationSet": {"include": ["cn"]},
      "matchNames": ["瑞幸"],
      "tags": {
        "amenity": "cafe",
        "brand": "瑞幸咖啡",
        "brand:en": "Luckin Coffee",
        "brand:wikidata": "Q56811344",
        "brand:zh": "瑞幸咖啡",
        "cuisine": "coffee_shop",
        "name": "瑞幸咖啡",
        "name:en": "Luckin Coffee",
        "name:zh": "瑞幸咖啡",
        "takeaway": "yes"
      }
    },
    {
      "displayName": "益禾堂",
      "id": "yhtang-3300f4",
      "locationSet": {"include": ["cn"]},
      "tags": {
        "amenity": "cafe",
        "brand": "益禾堂",
        "brand:en": "YH.Tang",
        "brand:wikidata": "Q110287075",
        "brand:zh": "益禾堂",
        "cuisine": "bubble_tea",
        "name": "益禾堂",
        "name:en": "YH.Tang",
        "name:zh": "益禾堂",
        "takeaway": "yes"
      }
    },
    {
      "displayName": "老虎堂",
      "id": "tigersugar-2851bb",
      "locationSet": {
        "include": ["cn", "tw"],
        "exclude": ["hk"]
      },
      "tags": {
        "amenity": "cafe",
        "brand": "老虎堂",
        "brand:en": "Tiger Sugar",
        "brand:wikidata": "Q76099070",
        "brand:zh": "老虎堂",
        "cuisine": "bubble_tea",
        "name": "老虎堂",
        "name:en": "Tiger Sugar",
        "name:zh": "老虎堂",
        "takeaway": "yes"
      }
    },
    {
      "displayName": "老虎堂 Tiger Sugar",
      "id": "tigersugar-59dcf2",
      "locationSet": {"include": ["hk"]},
      "tags": {
        "amenity": "cafe",
        "brand": "老虎堂 Tiger Sugar",
        "brand:en": "Tiger Sugar",
        "brand:wikidata": "Q76099070",
        "brand:zh": "老虎堂",
        "cuisine": "bubble_tea",
        "name": "老虎堂 Tiger Sugar",
        "name:en": "Tiger Sugar",
        "name:zh": "老虎堂",
        "takeaway": "yes"
      }
    },
    {
      "displayName": "茶星人 E.Tea",
      "id": "etea-59dcf2",
      "locationSet": {"include": ["hk"]},
      "tags": {
        "amenity": "cafe",
        "brand": "茶星人 E.Tea",
        "brand:en": "E.Tea",
        "brand:wikidata": "Q116188631",
        "brand:zh": "茶星人",
        "cuisine": "bubble_tea",
        "name": "茶星人 E.Tea",
        "name:en": "E.Tea",
        "name:zh": "茶星人",
        "takeaway": "yes"
      }
    },
    {
      "displayName": "茶湯會",
      "id": "tptea-7d270d",
      "locationSet": {"include": ["tw"]},
      "matchTags": ["shop/beverages"],
      "tags": {
        "amenity": "cafe",
        "brand": "茶湯會",
        "brand:en": "TP Tea",
        "brand:wikidata": "Q108166023",
        "brand:zh": "茶湯會",
        "cuisine": "bubble_tea",
        "name": "茶湯會",
        "name:en": "TP Tea",
        "name:zh": "茶湯會",
        "takeaway": "yes"
      }
    },
    {
      "displayName": "茶湯會 TP Tea",
      "id": "tptea-59dcf2",
      "locationSet": {"include": ["hk"]},
      "matchTags": ["shop/beverages"],
      "tags": {
        "amenity": "cafe",
        "brand": "茶湯會 TP Tea",
        "brand:en": "TP Tea",
        "brand:wikidata": "Q108166023",
        "brand:zh": "茶湯會",
        "brand:zh-Hans": "茶汤会",
        "brand:zh-Hant": "茶湯會",
        "cuisine": "bubble_tea",
        "name": "茶湯會 TP Tea",
        "name:en": "TP Tea",
        "name:zh": "茶湯會",
        "name:zh-Hans": "茶汤会",
        "name:zh-Hant": "茶湯會",
        "takeaway": "yes"
      }
    },
    {
      "displayName": "茶百道",
      "id": "chabaidao-3300f4",
      "locationSet": {"include": ["cn"]},
      "tags": {
        "amenity": "cafe",
        "brand": "茶百道",
        "brand:en": "chabaidao",
        "brand:wikidata": "Q108165952",
        "brand:zh": "茶百道",
        "cuisine": "bubble_tea",
        "name": "茶百道",
        "name:en": "chabaidao",
        "name:zh": "茶百道",
        "takeaway": "yes"
      }
    },
    {
      "displayName": "茶的魔手",
      "id": "teaandmagichand-7d270d",
      "locationSet": {"include": ["tw"]},
      "matchTags": ["shop/beverages"],
      "tags": {
        "amenity": "cafe",
        "brand": "茶的魔手",
        "brand:en": "Tea & Magic Hand",
        "brand:wikidata": "Q67933727",
        "brand:zh": "茶的魔手",
        "cuisine": "bubble_tea",
        "name": "茶的魔手",
        "name:en": "Tea & Magic Hand",
        "name:zh": "茶的魔手",
        "takeaway": "yes"
      }
    },
    {
      "displayName": "茶颜悦色",
      "id": "sexytea-3300f4",
      "locationSet": {"include": ["cn"]},
      "tags": {
        "amenity": "cafe",
        "brand": "茶颜悦色",
        "brand:en": "Sexytea",
        "brand:wikidata": "Q60992994",
        "brand:zh": "茶颜悦色",
        "cuisine": "bubble_tea",
        "name": "茶颜悦色",
        "name:en": "Sexytea",
        "name:zh": "茶颜悦色",
        "takeaway": "yes"
      }
    },
    {
      "displayName": "薡茶",
      "id": "dingtea-f1b18f",
      "locationSet": {
        "include": ["cn", "tw"],
        "exclude": ["hk", "mo"]
      },
      "tags": {
        "amenity": "cafe",
        "brand": "薡茶",
        "brand:en": "Ding Tea",
        "brand:wikidata": "Q112123475",
        "brand:zh": "薡茶",
        "cuisine": "bubble_tea",
        "name": "薡茶",
        "name:en": "Ding Tea",
        "name:zh": "薡茶",
        "takeaway": "yes"
      }
    },
    {
      "displayName": "蜜雪冰城",
      "id": "mixuebingcheng-3300f4",
      "locationSet": {"include": ["cn"]},
      "tags": {
        "amenity": "cafe",
        "brand": "蜜雪冰城",
        "brand:en": "MIXUEBINGCHENG",
        "brand:wikidata": "Q107406476",
        "brand:zh": "蜜雪冰城",
        "cuisine": "ice_cream;bubble_tea",
        "name": "蜜雪冰城",
        "name:en": "MIXUEBINGCHENG",
        "name:zh": "蜜雪冰城",
        "takeaway": "yes"
      }
    },
    {
      "displayName": "貢茶 (Taiwan)",
      "id": "gongcha-7d270d",
      "locationSet": {"include": ["tw"]},
      "tags": {
        "amenity": "cafe",
        "brand": "貢茶",
        "brand:en": "Gong Cha",
        "brand:wikidata": "Q5581670",
        "brand:zh": "貢茶",
        "brand:zh-Hans": "贡茶",
        "brand:zh-Hant": "貢茶",
        "cuisine": "bubble_tea",
        "int_name": "Gong Cha",
        "name": "貢茶",
        "name:en": "Gong Cha",
        "name:zh": "貢茶",
        "name:zh-Hans": "贡茶",
        "name:zh-Hant": "貢茶",
        "takeaway": "yes"
      }
    },
    {
      "displayName": "貢茶 (日本)",
      "id": "gongcha-0cf217",
      "locationSet": {"include": ["jp"]},
      "tags": {
        "amenity": "cafe",
        "brand": "貢茶",
        "brand:en": "Gong Cha",
        "brand:ja": "貢茶",
        "brand:wikidata": "Q5581670",
        "brand:zh": "貢茶",
        "cuisine": "bubble_tea",
        "name": "貢茶",
        "name:en": "Gong Cha",
        "name:ja": "貢茶",
        "name:zh": "貢茶",
        "takeaway": "yes"
      }
    },
    {
      "displayName": "貢茶 Gong Cha",
      "id": "gongcha-b3d618",
      "locationSet": {"include": ["hk", "mo"]},
      "tags": {
        "amenity": "cafe",
        "brand": "貢茶 Gong Cha",
        "brand:en": "Gong Cha",
        "brand:wikidata": "Q5581670",
        "brand:zh": "貢茶",
        "cuisine": "bubble_tea",
        "name": "貢茶 Gong Cha",
        "name:en": "Gong Cha",
        "name:zh": "貢茶",
        "takeaway": "yes"
      }
    },
    {
      "displayName": "贡茶 (China)",
      "id": "gongcha-823e31",
      "locationSet": {
        "include": ["cn"],
        "exclude": ["hk", "mo"]
      },
      "tags": {
        "amenity": "cafe",
        "brand": "贡茶",
        "brand:en": "Gong Cha",
        "brand:wikidata": "Q5581670",
        "brand:zh": "贡茶",
        "brand:zh-Hans": "贡茶",
        "brand:zh-Hant": "貢茶",
        "cuisine": "bubble_tea",
        "int_name": "Gong Cha",
        "name": "贡茶",
        "name:en": "Gong Cha",
        "name:zh": "贡茶",
        "name:zh-Hans": "贡茶",
        "name:zh-Hant": "貢茶",
        "takeaway": "yes"
      }
    },
    {
      "displayName": "路易莎咖啡",
      "id": "louisacoffee-7d270d",
      "locationSet": {"include": ["tw"]},
      "tags": {
        "amenity": "cafe",
        "brand": "路易莎咖啡",
        "brand:en": "Louisa Coffee",
        "brand:wikidata": "Q96390921",
        "brand:zh": "路易莎咖啡",
        "cuisine": "coffee_shop",
        "name": "路易莎咖啡",
        "name:en": "Louisa Coffee",
        "name:zh": "路易莎咖啡",
        "takeaway": "yes"
      }
    },
    {
      "displayName": "迷客夏",
      "id": "milkshop-7d270d",
      "locationSet": {"include": ["tw"]},
      "matchTags": ["shop/beverages"],
      "tags": {
        "amenity": "cafe",
        "brand": "迷客夏",
        "brand:en": "Milkshop",
        "brand:wikidata": "Q67934215",
        "brand:zh": "迷客夏",
        "cuisine": "bubble_tea",
        "name": "迷客夏",
        "name:en": "Milkshop",
        "name:zh": "迷客夏",
        "takeaway": "yes"
      }
    },
    {
      "displayName": "鮮茶道",
      "id": "e7db71-7d270d",
      "locationSet": {"include": ["tw"]},
      "matchTags": ["shop/beverages"],
      "tags": {
        "amenity": "cafe",
        "brand": "鮮茶道",
        "brand:wikidata": "Q108166223",
        "cuisine": "bubble_tea",
        "name": "鮮茶道",
        "takeaway": "yes"
      }
    },
    {
      "displayName": "鶴茶樓",
      "id": "hechaloutea-7d270d",
      "locationSet": {"include": ["tw"]},
      "tags": {
        "alt_name:en": "Hechalou",
        "amenity": "cafe",
        "brand": "鶴茶樓",
        "brand:en": "Hechalou Tea",
        "brand:wikidata": "Q108168889",
        "brand:zh": "鶴茶樓",
        "cuisine": "bubble_tea",
        "name": "鶴茶樓",
        "name:en": "Hechalou Tea",
        "name:zh": "鶴茶樓",
        "takeaway": "only"
      }
    }
  ]
}
