{
  "properties": {
    "path": "brands/amenity/car_sharing",
    "skipCollection": true,
    "exclude": {"generic": ["^car sharing$"]}
  },
  "items": [
    {
      "displayName": "Stadtmobil Berlin",
      "id": "stadtmobil-205356",
      "locationSet": {
        "include": ["stadtmobil-berlin.geojson"]
      },
      "tags": {
        "amenity": "car_sharing",
        "brand": "Stadtmobil",
        "brand:wikidata": "Q2327629",
        "brand:wikipedia": "de:Stadtmobil",
        "network": "Stadtmobil Berlin",
        "operator": "Stadtmobil Berlin GmbH"
      }
    },
    {
      "displayName": "Stadtmobil Hannover",
      "id": "stadtmobil-f851cd",
      "locationSet": {
        "include": ["stadtmobil-hannover.geojson"]
      },
      "tags": {
        "amenity": "car_sharing",
        "brand": "Stadtmobil",
        "brand:wikidata": "Q2327629",
        "brand:wikipedia": "de:Stadtmobil",
        "network": "Stadtmobil Hannover",
        "operator": "Stadtmobil Hannover GmbH"
      }
    },
    {
      "displayName": "Stadtmobil Karlsruhe",
      "id": "stadtmobil-3038c5",
      "locationSet": {
        "include": [
          "stadtmobil-karlsruhe.geojson"
        ]
      },
      "tags": {
        "amenity": "car_sharing",
        "brand": "Stadtmobil",
        "brand:wikidata": "Q2327629",
        "brand:wikipedia": "de:Stadtmobil",
        "network": "Stadtmobil Karlsruhe",
        "operator": "Stadtmobil Carsharing GmbH & Co. KG"
      }
    },
    {
      "displayName": "Stadtmobil Rhein-Main",
      "id": "stadtmobil-c2ae2a",
      "locationSet": {
        "include": [
          "stadtmobil-rhein-main.geojson"
        ]
      },
      "tags": {
        "amenity": "car_sharing",
        "brand": "Stadtmobil",
        "brand:wikidata": "Q2327629",
        "brand:wikipedia": "de:Stadtmobil",
        "network": "stadtmobil Rhein-Main",
        "operator": "stadtmobil Rhein-Main GmbH"
      }
    },
    {
      "displayName": "Stadtmobil Rhein-Neckar",
      "id": "stadtmobil-5a8828",
      "locationSet": {
        "include": [
          "stadtmobil-rhein-neckar.geojson"
        ]
      },
      "tags": {
        "amenity": "car_sharing",
        "brand": "Stadtmobil",
        "brand:wikidata": "Q2327629",
        "brand:wikipedia": "de:Stadtmobil",
        "network": "Stadtmobil Rhein-Neckar",
        "operator": "Stadtmobil Rhein-Neckar AG"
      }
    },
    {
      "displayName": "Stadtmobil Rhein-Ruhr",
      "id": "stadtmobil-545eb6",
      "locationSet": {
        "include": [
          "stadtmobil-rhein-ruhr.geojson"
        ]
      },
      "tags": {
        "amenity": "car_sharing",
        "brand": "Stadtmobil",
        "brand:wikidata": "Q2327629",
        "brand:wikipedia": "de:Stadtmobil",
        "network": "Stadtmobil Rhein-Ruhr",
        "operator": "Stadtmobil Rhein-Ruhr GmbH"
      }
    },
    {
      "displayName": "Stadtmobil Stuttgart",
      "id": "stadtmobil-fd587a",
      "locationSet": {
        "include": [
          "stadtmobil-stuttgart.geojson"
        ]
      },
      "tags": {
        "amenity": "car_sharing",
        "brand": "Stadtmobil",
        "brand:wikidata": "Q2327629",
        "brand:wikipedia": "de:Stadtmobil",
        "network": "Stadtmobil Stuttgart",
        "operator": "stadtmobil carsharing AG"
      }
    },
    {
      "displayName": "Stadtmobil S端dbaden",
      "id": "stadtmobilsudbaden-ff69c7",
      "locationSet": {
        "include": [
          "stadtmobil-suedbaden.geojson"
        ]
      },
      "matchNames": ["stadtmobil"],
      "tags": {
        "amenity": "car_sharing",
        "brand": "Stadtmobil S端dbaden",
        "brand:wikidata": "Q109423604",
        "network": "Stadtmobil S端dbaden",
        "operator": "Stadtmobil S端dbaden AG"
      }
    },
    {
      "displayName": "Stadtmobil Trier",
      "id": "stadtmobil-9bf665",
      "locationSet": {
        "include": ["stadtmobil-trier.geojson"]
      },
      "tags": {
        "amenity": "car_sharing",
        "brand": "Stadtmobil",
        "brand:wikidata": "Q2327629",
        "brand:wikipedia": "de:Stadtmobil",
        "network": "Stadtmobil Trier",
        "operator": "stadtmobil Trier"
      }
    }
  ]
}
