{
  "properties": {
    "path": "brands/amenity/car_wash",
    "exclude": {
      "generic": [
        "^(hand)?\\s?car\\s?wash$",
        "^(авто)?м[ио]йка( самообслуживания)?$",
        "^autolavaggio$",
        "^la(rje|vadero|vage|vazh)( auto)?$",
        "^myjnia\\s?(bezdotykowa|samochodowa)?$",
        "^spălătorie( auto)?$",
        "^wasch(anlage|straße|strasse)$",
        "^کارواش$"
      ]
    }
  },
  "items": [
    {
      "displayName": "Aral",
      "id": "aral-78fe7d",
      "locationSet": {"include": ["de", "lu"]},
      "tags": {
        "amenity": "car_wash",
        "brand": "Aral",
        "brand:wikidata": "Q565734",
        "brand:wikipedia": "en:Aral AG",
        "name": "Aral"
      }
    },
    {
      "displayName": "BP",
      "id": "bp-43b899",
      "locationSet": {"include": ["001"]},
      "tags": {
        "amenity": "car_wash",
        "brand": "BP",
        "brand:wikidata": "Q152057",
        "brand:wikipedia": "en:BP",
        "name": "BP"
      }
    },
    {
      "displayName": "Brown Bear Car Wash",
      "id": "brownbearcarwash-244496",
      "locationSet": {"include": ["us"]},
      "tags": {
        "amenity": "car_wash",
        "brand": "Brown Bear Car Wash",
        "brand:wikidata": "Q107354893",
        "brand:wikipedia": "en:Brown Bear Car Wash",
        "name": "Brown Bear Car Wash"
      }
    },
    {
      "displayName": "Circle K",
      "id": "circlek-43b899",
      "locationSet": {"include": ["001"]},
      "tags": {
        "amenity": "car_wash",
        "brand": "Circle K",
        "brand:wikidata": "Q3268010",
        "brand:wikipedia": "en:Circle K",
        "name": "Circle K"
      }
    },
    {
      "displayName": "Elefante Azul",
      "id": "elefanteazul-43b899",
      "locationSet": {"include": ["001"]},
      "tags": {
        "amenity": "car_wash",
        "brand": "Elefante Azul",
        "name": "Elefante Azul"
      }
    },
    {
      "displayName": "Éléphant Bleu",
      "id": "elephantbleu-43b899",
      "locationSet": {"include": ["001"]},
      "tags": {
        "amenity": "car_wash",
        "brand": "Éléphant Bleu",
        "name": "Éléphant Bleu"
      }
    },
    {
      "displayName": "Esso",
      "id": "esso-5d96a3",
      "locationSet": {
        "include": ["001"],
        "exclude": ["pl"]
      },
      "tags": {
        "amenity": "car_wash",
        "brand": "Esso",
        "brand:wikidata": "Q867662",
        "brand:wikipedia": "en:Esso",
        "name": "Esso"
      }
    },
    {
      "displayName": "H-E-B Car Wash",
      "id": "hebcarwash-244496",
      "locationSet": {"include": ["us"]},
      "tags": {
        "amenity": "car_wash",
        "brand": "H-E-B",
        "brand:wikidata": "Q830621",
        "brand:wikipedia": "en:H-E-B",
        "name": "H-E-B Car Wash",
        "short_name": "H-E-B"
      }
    },
    {
      "displayName": "H2O",
      "id": "h2o-43b899",
      "locationSet": {"include": ["001"]},
      "tags": {
        "amenity": "car_wash",
        "brand": "H2O",
        "name": "H2O"
      }
    },
    {
      "displayName": "IMO Car Wash",
      "id": "imocarwash-5d96a3",
      "locationSet": {
        "include": ["001"],
        "exclude": ["pl"]
      },
      "tags": {
        "amenity": "car_wash",
        "brand": "IMO Car Wash",
        "brand:wikidata": "Q1654122",
        "brand:wikipedia": "de:IMO Car Wash Group",
        "name": "IMO Car Wash",
        "short_name": "IMO"
      }
    },
    {
      "displayName": "Intermarché",
      "id": "intermarche-5d96a3",
      "locationSet": {
        "include": ["001"],
        "exclude": ["pl"]
      },
      "tags": {
        "amenity": "car_wash",
        "brand": "Intermarché",
        "brand:wikidata": "Q3153200",
        "brand:wikipedia": "fr:Intermarché",
        "name": "Intermarché"
      }
    },
    {
      "displayName": "Migrol Car Wash",
      "id": "migrolcarwash-4c245c",
      "locationSet": {"include": ["ch"]},
      "tags": {
        "amenity": "car_wash",
        "brand": "Migrol",
        "brand:wikidata": "Q1747771",
        "brand:wikipedia": "de:Migrol",
        "name": "Migrol Car Wash"
      }
    },
    {
      "displayName": "Mister Car Wash",
      "id": "mistercarwash-43b899",
      "locationSet": {"include": ["001"]},
      "tags": {
        "amenity": "car_wash",
        "brand": "Mister Car Wash",
        "name": "Mister Car Wash"
      }
    },
    {
      "displayName": "Mr. Wash",
      "id": "mrwash-26327d",
      "locationSet": {"include": ["de"]},
      "tags": {
        "amenity": "car_wash",
        "brand": "Mr. Wash",
        "brand:wikidata": "Q1951447",
        "brand:wikipedia": "de:Mr. Wash",
        "name": "Mr. Wash"
      }
    },
    {
      "displayName": "OMV",
      "id": "omv-43b899",
      "locationSet": {"include": ["001"]},
      "tags": {
        "amenity": "car_wash",
        "brand": "OMV",
        "brand:wikidata": "Q168238",
        "brand:wikipedia": "en:OMV",
        "name": "OMV"
      }
    },
    {
      "displayName": "Quick Quack Car Wash",
      "id": "quickquackcarwash-244496",
      "locationSet": {"include": ["us"]},
      "tags": {
        "amenity": "car_wash",
        "brand": "Quick Quack Car Wash",
        "brand:wikidata": "Q16968054",
        "brand:wikipedia": "en:Quick Quack Car Wash",
        "name": "Quick Quack Car Wash"
      }
    },
    {
      "displayName": "Shell",
      "id": "shell-a01e11",
      "locationSet": {
        "include": ["001"],
        "exclude": ["jp"]
      },
      "matchNames": ["shell car wash"],
      "tags": {
        "amenity": "car_wash",
        "brand": "Shell",
        "brand:wikidata": "Q154950",
        "brand:wikipedia": "en:Royal Dutch Shell",
        "name": "Shell"
      }
    },
    {
      "displayName": "Super Wash",
      "id": "superwash-244496",
      "locationSet": {"include": ["us"]},
      "tags": {
        "amenity": "car_wash",
        "brand": "Super Wash",
        "name": "Super Wash"
      }
    },
    {
      "displayName": "Total Wash",
      "id": "totalwash-43b899",
      "locationSet": {"include": ["001"]},
      "tags": {
        "amenity": "car_wash",
        "brand": "Total",
        "brand:wikidata": "Q154037",
        "brand:wikipedia": "fr:TotalEnergies",
        "name": "Total Wash"
      }
    },
    {
      "displayName": "Waves",
      "id": "waves-d2c834",
      "locationSet": {"include": ["gb"]},
      "tags": {
        "amenity": "car_wash",
        "brand": "Waves",
        "brand:wikidata": "Q81802122",
        "name": "Waves"
      }
    },
    {
      "displayName": "Автобаня",
      "id": "6af9e7-458305",
      "locationSet": {"include": ["ua"]},
      "tags": {
        "amenity": "car_wash",
        "brand": "Автобаня",
        "name": "Автобаня"
      }
    }
  ]
}
