{
  "properties": {
    "path": "brands/amenity/casino",
    "exclude": {"generic": ["^casino$"]}
  },
  "items": [
    {
      "displayName": "BANCO CASINO",
      "locationSet": {"include": ["cz", "sk"]},
      "tags": {
        "amenity": "casino",
        "brand": "BANCO CASINO",
        "brand:wikidata": "Q58555038",
        "name": "BANCO CASINO"
      }
    },
    {
      "displayName": "Codere",
      "id": "codere-3dfd07",
      "locationSet": {
        "include": [
          "ar",
          "co",
          "es",
          "it",
          "mx",
          "pa",
          "uy"
        ]
      },
      "tags": {
        "amenity": "casino",
        "brand": "Codere",
        "brand:wikidata": "Q2918415",
        "name": "Codere"
      }
    },
    {
      "displayName": "Crown Resorts",
      "id": "crownresorts-683d57",
      "locationSet": {"include": ["au"]},
      "tags": {
        "amenity": "casino",
        "brand": "Crown Resorts",
        "brand:wikidata": "Q1029724",
        "name": "Crown Resorts"
      }
    },
    {
      "displayName": "efbet",
      "id": "efbet-cfc6fe",
      "locationSet": {"include": ["bg"]},
      "tags": {
        "amenity": "casino",
        "brand": "efbet",
        "brand:wikidata": "Q25484853",
        "name": "efbet",
        "name:bg": "ефбет"
      }
    },
    {
      "displayName": "Fair Play Casino",
      "id": "fairplaycasino-cf45c0",
      "locationSet": {"include": ["nl"]},
      "preserveTags": ["^name"],
      "tags": {
        "amenity": "casino",
        "brand": "Fair Play Casino",
        "brand:wikidata": "Q108923693",
        "name": "Fair Play Casino"
      }
    },
    {
      "displayName": "Flamingo Casino",
      "id": "flamingocasino-cf45c0",
      "locationSet": {"include": ["nl"]},
      "tags": {
        "amenity": "casino",
        "brand": "Flamingo Casino",
        "brand:wikidata": "Q108926539",
        "name": "Flamingo Casino"
      }
    },
    {
      "displayName": "Holland Casino",
      "id": "hollandcasino-cf45c0",
      "locationSet": {"include": ["nl"]},
      "preserveTags": ["^name"],
      "tags": {
        "amenity": "casino",
        "brand": "Holland Casino",
        "brand:wikidata": "Q361554",
        "name": "Holland Casino"
      }
    },
    {
      "displayName": "inbet",
      "id": "inbet-cfc6fe",
      "locationSet": {"include": ["bg"]},
      "tags": {
        "amenity": "casino",
        "brand": "inbet",
        "brand:wikidata": "Q114053810",
        "name": "inbet"
      }
    },
    {
      "displayName": "Jack's Casino",
      "id": "jackscasino-cf45c0",
      "locationSet": {"include": ["nl"]},
      "preserveTags": ["^name"],
      "tags": {
        "amenity": "casino",
        "brand": "Jack's Casino",
        "brand:wikidata": "Q108926684",
        "name": "Jack's Casino"
      }
    },
    {
      "displayName": "Luckia",
      "id": "luckia-5a89e4",
      "locationSet": {
        "include": ["001"],
        "exclude": ["pl"]
      },
      "tags": {
        "amenity": "casino",
        "brand": "Luckia",
        "brand:wikidata": "Q42304308",
        "name": "Luckia"
      }
    },
    {
      "displayName": "Olympic Casino",
      "locationSet": {
        "include": [
          "ee",
          "it",
          "lt",
          "lv",
          "mt",
          "sk"
        ]
      },
      "tags": {
        "amenity": "casino",
        "brand": "Olympic Casino",
        "brand:wikidata": "Q11150186",
        "name": "Olympic Casino"
      }
    },
    {
      "displayName": "Palms Bet",
      "id": "palmsbet-cfc6fe",
      "locationSet": {"include": ["bg"]},
      "tags": {
        "amenity": "casino",
        "brand": "Palms Bet",
        "brand:wikidata": "Q114053870",
        "name": "Palms Bet"
      }
    },
    {
      "displayName": "Topsport",
      "id": "topsport-c593f4",
      "locationSet": {"include": ["lt"]},
      "tags": {
        "amenity": "casino",
        "brand": "Topsport",
        "brand:wikidata": "Q105343094",
        "name": "Topsport"
      }
    },
    {
      "displayName": "WinBet",
      "id": "winbet-cfc6fe",
      "locationSet": {"include": ["bg"]},
      "tags": {
        "amenity": "casino",
        "brand": "WinBet",
        "brand:wikidata": "Q61140282",
        "name": "WinBet"
      }
    }
  ]
}
