{
  "brands/amenity/charging_station": [
    {
      "displayName": "bike-energy",
      "id": "bikeenergy-984d90",
      "locationSet": {
        "include": [
          "at",
          "ch",
          "de",
          "fr",
          "it",
          "lu"
        ]
      },
      "matchNames": ["bike-energy ladestation"],
      "tags": {
        "amenity": "charging_station",
        "brand": "bike-energy",
        "brand:wikidata": "Q67770877",
        "name": "bike-energy"
      }
    },
    {
      "displayName": "BKK",
      "id": "bkk-4bd82e",
      "locationSet": {"include": ["001"]},
      "tags": {
        "amenity": "charging_station",
        "brand": "BKK",
        "name": "BKK"
      }
    },
    {
      "displayName": "Blink",
      "id": "blink-5598dd",
      "locationSet": {"include": ["us"]},
      "tags": {
        "amenity": "charging_station",
        "brand": "Blink",
        "brand:wikidata": "Q62065645",
        "name": "Blink"
      }
    },
    {
      "displayName": "Bosch eBike Systems",
      "id": "boschebikesystems-4bd82e",
      "locationSet": {"include": ["001"]},
      "tags": {
        "amenity": "charging_station",
        "brand": "Bosch eBike Systems",
        "name": "Bosch eBike Systems"
      }
    },
    {
      "displayName": "ChargePoint",
      "id": "chargepoint-4bd82e",
      "locationSet": {"include": ["001"]},
      "tags": {
        "amenity": "charging_station",
        "brand": "ChargePoint",
        "brand:wikidata": "Q5176149",
        "brand:wikipedia": "en:ChargePoint",
        "name": "ChargePoint"
      }
    },
    {
      "displayName": "Chargy",
      "id": "chargy-e87a7c",
      "locationSet": {"include": ["lu"]},
      "tags": {
        "amenity": "charging_station",
        "brand": "Chargy",
        "brand:wikidata": "Q62702950",
        "brand:wikipedia": "lb:Chargy",
        "name": "Chargy"
      }
    },
    {
      "displayName": "Circuit électrique",
      "id": "circuitelectrique-1f220b",
      "locationSet": {"include": ["ca"]},
      "tags": {
        "amenity": "charging_station",
        "brand": "Circuit électrique",
        "brand:en": "Electric Circuit",
        "brand:fr": "Circuit électrique",
        "brand:wikidata": "Q24934590",
        "brand:wikipedia": "fr:Le Circuit électrique",
        "name": "Circuit électrique",
        "name:en": "Electric Circuit",
        "name:fr": "Circuit électrique"
      }
    },
    {
      "displayName": "E-WALD",
      "id": "ewald-190c99",
      "locationSet": {"include": ["de"]},
      "matchNames": ["e-wald ladestation"],
      "tags": {
        "amenity": "charging_station",
        "brand": "E-WALD",
        "brand:wikidata": "Q61804335",
        "name": "E-WALD"
      }
    },
    {
      "displayName": "Enel",
      "id": "enel-0532c0",
      "locationSet": {"include": ["it"]},
      "matchNames": [
        "enel - stazione di ricarica"
      ],
      "tags": {
        "amenity": "charging_station",
        "brand": "Enel",
        "brand:wikidata": "Q651222",
        "brand:wikipedia": "en:Enel",
        "name": "Enel"
      }
    },
    {
      "displayName": "Enel X",
      "id": "enelx-d924db",
      "locationSet": {"include": ["cl", "it"]},
      "matchNames": ["enel x metbus"],
      "tags": {
        "amenity": "charging_station",
        "brand": "Enel X",
        "brand:wikidata": "Q5376815",
        "brand:wikipedia": "en:Enel X",
        "name": "Enel X"
      }
    },
    {
      "displayName": "eVgo",
      "id": "evgo-5598dd",
      "locationSet": {"include": ["us"]},
      "tags": {
        "amenity": "charging_station",
        "brand": "eVgo",
        "brand:wikidata": "Q61803820",
        "name": "eVgo"
      }
    },
    {
      "displayName": "FLO",
      "id": "flo-d2b245",
      "locationSet": {"include": ["ca", "us"]},
      "tags": {
        "amenity": "charging_station",
        "brand": "FLO",
        "brand:wikidata": "Q64971203",
        "name": "FLO"
      }
    },
    {
      "displayName": "Fortum",
      "id": "fortum-4bd82e",
      "locationSet": {"include": ["001"]},
      "tags": {
        "amenity": "charging_station",
        "brand": "Fortum",
        "brand:wikidata": "Q1439075",
        "brand:wikipedia": "en:Fortum",
        "name": "Fortum"
      }
    },
    {
      "displayName": "Gogoro 電池交換站",
      "id": "62c656-4bd82e",
      "locationSet": {"include": ["001"]},
      "tags": {
        "amenity": "charging_station",
        "brand": "Gogoro 電池交換站",
        "brand:wikidata": "Q19880591",
        "brand:wikipedia": "zh:Gogoro",
        "name": "Gogoro 電池交換站"
      }
    },
    {
      "displayName": "Grønn kontakt",
      "id": "gronnkontakt-0b324a",
      "locationSet": {"include": ["no", "se"]},
      "tags": {
        "amenity": "charging_station",
        "brand": "Grønn kontakt",
        "brand:wikidata": "Q100821564",
        "name": "Grønn kontakt"
      }
    },
    {
      "displayName": "InCharge",
      "id": "incharge-4bd82e",
      "locationSet": {"include": ["001"]},
      "matchNames": ["vattenfall"],
      "tags": {
        "amenity": "charging_station",
        "brand": "InCharge",
        "brand:wikidata": "Q71041027",
        "name": "InCharge"
      }
    },
    {
      "displayName": "Innogy",
      "id": "innogy-190c99",
      "locationSet": {"include": ["de"]},
      "matchNames": ["rwe"],
      "tags": {
        "amenity": "charging_station",
        "brand": "Innogy",
        "brand:wikidata": "Q2124721",
        "brand:wikipedia": "de:Innogy",
        "name": "Innogy"
      }
    },
    {
      "displayName": "Mobiliti",
      "id": "mobiliti-39fea5",
      "locationSet": {"include": ["hu"]},
      "tags": {
        "amenity": "charging_station",
        "brand": "Mobiliti",
        "name": "Mobiliti"
      }
    },
    {
      "displayName": "Source London",
      "id": "sourcelondon-cc3397",
      "locationSet": {"include": ["gb"]},
      "tags": {
        "amenity": "charging_station",
        "brand": "Source London",
        "brand:wikidata": "Q7565133",
        "brand:wikipedia": "en:Source London",
        "name": "Source London"
      }
    },
    {
      "displayName": "Tesla Supercharger",
      "id": "teslasupercharger-4bd82e",
      "locationSet": {"include": ["001"]},
      "tags": {
        "amenity": "charging_station",
        "brand": "Tesla Supercharger",
        "brand:wikidata": "Q17089620",
        "brand:wikipedia": "en:Tesla Supercharger",
        "name": "Tesla Supercharger",
        "short_name": "Tesla"
      }
    },
    {
      "displayName": "Toka",
      "id": "toka-4bd82e",
      "locationSet": {"include": ["001"]},
      "tags": {
        "amenity": "charging_station",
        "brand": "Toka",
        "name": "Toka"
      }
    },
    {
      "displayName": "VIRTA",
      "id": "virta-4bd82e",
      "locationSet": {"include": ["001"]},
      "tags": {
        "amenity": "charging_station",
        "brand": "VIRTA",
        "name": "VIRTA"
      }
    },
    {
      "displayName": "Белоруснефть",
      "id": "ed92ce-4bd82e",
      "locationSet": {"include": ["001"]},
      "tags": {
        "amenity": "charging_station",
        "brand": "Белоруснефть",
        "name": "Белоруснефть"
      }
    },
    {
      "displayName": "東光高岳",
      "id": "takaokatoko-b8d4d7",
      "locationSet": {"include": ["jp"]},
      "tags": {
        "amenity": "charging_station",
        "brand": "東光高岳",
        "brand:en": "Takaoka Toko",
        "brand:ja": "東光高岳",
        "brand:wikidata": "Q17220263",
        "brand:wikipedia": "ja:東光高岳",
        "name": "東光高岳",
        "name:en": "Takaoka Toko",
        "name:ja": "東光高岳"
      }
    }
  ]
}