{
  "properties": {
    "path": "brands/amenity/childcare",
    "exclude": {
      "generic": [
        "^(childcare|day\\s?care center)$"
      ]
    }
  },
  "items": [
    {
      "displayName": "Anganvady",
      "id": "anganvady-bc5258",
      "locationSet": {"include": ["001"]},
      "tags": {
        "amenity": "childcare",
        "brand": "Anganvady",
        "name": "Anganvady"
      }
    },
    {
      "displayName": "Anganwadi",
      "id": "anganwadi-115c62",
      "locationSet": {"include": ["in"]},
      "matchNames": [
        "anganavadi",
        "anganawadi",
        "anganawady",
        "anganvadi"
      ],
      "tags": {
        "amenity": "childcare",
        "brand": "Anganwadi",
        "brand:en": "Anganwadi",
        "brand:hi": "आँगनवाडी",
        "brand:pa": "ਆਂਗਣਵਾੜੀ",
        "brand:pnb": "آنگن واڑی",
        "brand:ur": "آنگن واڑی",
        "brand:wikidata": "Q16251231",
        "name": "Anganwadi",
        "name:en": "Anganwadi",
        "name:hi": "आँगनवाडी",
        "name:pa": "ਆਂਗਣਵਾੜੀ",
        "name:pnb": "آنگن واڑی",
        "name:ur": "آنگن واڑی"
      }
    },
    {
      "displayName": "Arbeiterwohlfahrt",
      "id": "arbeiterwohlfahrt-284c2e",
      "locationSet": {"include": ["de"]},
      "tags": {
        "amenity": "childcare",
        "brand": "Arbeiterwohlfahrt",
        "brand:short": "AWO",
        "brand:wikidata": "Q627256"
      }
    },
    {
      "displayName": "CEN-CINAI",
      "id": "cencinai-299b2d",
      "locationSet": {"include": ["cr"]},
      "tags": {
        "amenity": "childcare",
        "brand": "CEN-CINAI",
        "name": "CEN-CINAI"
      }
    },
    {
      "displayName": "Deutsches Rotes Kreuz",
      "id": "deutschesroteskreuz-284c2e",
      "locationSet": {"include": ["de"]},
      "tags": {
        "amenity": "childcare",
        "brand": "Deutsches Rotes Kreuz",
        "brand:short": "DRK",
        "brand:wikidata": "Q694104"
      }
    },
    {
      "displayName": "Kidango",
      "id": "kidango-fd7b3f",
      "locationSet": {"include": ["us"]},
      "tags": {
        "amenity": "childcare",
        "brand": "Kidango",
        "brand:wikidata": "Q105378193",
        "name": "Kidango"
      }
    },
    {
      "displayName": "Kids 'R' Kids",
      "id": "kidsrkids-fd7b3f",
      "locationSet": {"include": ["us"]},
      "matchNames": ["kids are kids"],
      "tags": {
        "after_school": "yes",
        "amenity": "childcare",
        "brand": "Kids 'R' Kids",
        "brand:wikidata": "Q65560342",
        "grades": "PK",
        "name": "Kids 'R' Kids",
        "nursery": "yes",
        "official_name": "Kids 'R' Kids Learning Academies",
        "preschool": "yes"
      }
    },
    {
      "displayName": "Merryhill Preschool",
      "id": "merryhillpreschool-fd7b3f",
      "locationSet": {"include": ["us"]},
      "tags": {
        "amenity": "childcare",
        "brand": "Merryhill Preschool",
        "brand:wikidata": "Q6820493",
        "name": "Merryhill Preschool"
      }
    },
    {
      "displayName": "YMCA Child Care",
      "id": "ymcachildcare-fd7b3f",
      "locationSet": {"include": ["us"]},
      "matchNames": ["ymca child care center"],
      "tags": {
        "amenity": "childcare",
        "brand": "YMCA",
        "brand:wikidata": "Q157169",
        "name": "YMCA Child Care"
      }
    },
    {
      "displayName": "Бэби-клуб",
      "id": "babyclub-22863f",
      "locationSet": {
        "include": ["cz", "kz", "ru"]
      },
      "tags": {
        "amenity": "childcare",
        "brand": "Бэби-клуб",
        "brand:en": "Baby-Club",
        "brand:ru": "Бэби-клуб",
        "name": "Бэби-клуб",
        "name:en": "Baby-Club",
        "name:ru": "Бэби-клуб"
      }
    },
    {
      "displayName": "グローバルキッズ",
      "id": "globalkids-46ae55",
      "locationSet": {"include": ["jp"]},
      "tags": {
        "amenity": "childcare",
        "brand": "グローバルキッズ",
        "brand:en": "Global Kids",
        "brand:ja": "グローバルキッズ",
        "brand:wikidata": "Q91950777",
        "name": "グローバルキッズ",
        "name:en": "Global Kids",
        "name:ja": "グローバルキッズ"
      }
    },
    {
      "displayName": "ちびっこランド",
      "id": "chibikkoland-46ae55",
      "locationSet": {"include": ["jp"]},
      "tags": {
        "amenity": "childcare",
        "brand": "ちびっこランド",
        "brand:en": "Chibikko Land",
        "brand:ja": "ちびっこランド",
        "brand:wikidata": "Q91948998",
        "name": "ちびっこランド",
        "name:en": "Chibikko Land",
        "name:ja": "ちびっこランド"
      }
    },
    {
      "displayName": "ポポラー",
      "id": "popolar-46ae55",
      "locationSet": {"include": ["jp"]},
      "tags": {
        "amenity": "childcare",
        "brand": "ポポラー",
        "brand:en": "Popolar",
        "brand:ja": "ポポラー",
        "brand:wikidata": "Q91945087",
        "name": "ポポラー",
        "name:en": "Popolar",
        "name:ja": "ポポラー"
      }
    }
  ]
}
