{
  "properties": {
    "path": "brands/amenity/dentist",
    "exclude": {
      "generic": [
        "^(cl[ií]nica|consultorio)?\\s?(dental|odontologi(a|co))$",
        "^(dentist[ae]?|дантист)$",
        "^cabinet dentaire$",
        "^dental( (clinic|surgery))?$",
        "^family dentistry$",
        "^zahnarzt(praxis)?$",
        "^стоматолог"
      ]
    }
  },
  "items": [
    {
      "displayName": "Aspen Dental",
      "id": "aspendental-708bdc",
      "locationSet": {"include": ["us"]},
      "tags": {
        "amenity": "dentist",
        "brand": "Aspen Dental",
        "brand:wikidata": "Q4807808",
        "brand:wikipedia": "en:Aspen Dental",
        "healthcare": "dentist",
        "name": "Aspen Dental"
      }
    },
    {
      "displayName": "Bright Now! Dental",
      "id": "brightnowdental-708bdc",
      "locationSet": {"include": ["us"]},
      "tags": {
        "amenity": "dentist",
        "brand": "Bright Now! Dental",
        "brand:wikidata": "Q108286875",
        "healthcare": "dentist",
        "name": "Bright Now! Dental"
      }
    },
    {
      "displayName": "Bupa Dental Care",
      "id": "bupadentalcare-475ab9",
      "locationSet": {"include": ["gb"]},
      "tags": {
        "amenity": "dentist",
        "brand": "Bupa",
        "brand:wikidata": "Q931628",
        "brand:wikipedia": "en:Bupa",
        "healthcare": "dentist",
        "name": "Bupa Dental Care"
      }
    },
    {
      "displayName": "Castle Dental",
      "id": "castledental-708bdc",
      "locationSet": {"include": ["us"]},
      "tags": {
        "amenity": "dentist",
        "brand": "Castle Dental",
        "brand:wikidata": "Q108288471",
        "healthcare": "dentist",
        "name": "Castle Dental"
      }
    },
    {
      "displayName": "Comfort Dental",
      "id": "comfortdental-708bdc",
      "locationSet": {"include": ["us"]},
      "tags": {
        "amenity": "dentist",
        "brand": "Comfort Dental",
        "brand:wikidata": "Q22079521",
        "brand:wikipedia": "en:Comfort Dental",
        "healthcare": "dentist",
        "name": "Comfort Dental"
      }
    },
    {
      "displayName": "Dentix",
      "id": "dentix-1194d5",
      "locationSet": {"include": ["001"]},
      "tags": {
        "amenity": "dentist",
        "brand": "Dentix",
        "brand:wikidata": "Q30505320",
        "brand:wikipedia": "es:Dentix",
        "healthcare": "dentist",
        "name": "Dentix"
      }
    },
    {
      "displayName": "Folktandvården",
      "id": "folktandvarden-a3d4a5",
      "locationSet": {"include": ["se"]},
      "tags": {
        "amenity": "dentist",
        "brand": "Folktandvården",
        "brand:wikidata": "Q10497476",
        "brand:wikipedia": "sv:Folktandvården",
        "healthcare": "dentist",
        "name": "Folktandvården"
      }
    },
    {
      "displayName": "Gentle Dental",
      "id": "gentledental-708bdc",
      "locationSet": {"include": ["us"]},
      "tags": {
        "amenity": "dentist",
        "brand": "Gentle Dental",
        "brand:wikidata": "Q108410773",
        "healthcare": "dentist",
        "name": "Gentle Dental"
      }
    },
    {
      "displayName": "Kool Smiles",
      "id": "koolsmiles-708bdc",
      "locationSet": {"include": ["us"]},
      "tags": {
        "amenity": "dentist",
        "brand": "Kool Smiles",
        "brand:wikidata": "Q6430587",
        "brand:wikipedia": "en:Kool Smiles",
        "healthcare": "dentist",
        "name": "Kool Smiles"
      }
    },
    {
      "displayName": "Merit Dental",
      "id": "meritdental-708bdc",
      "locationSet": {"include": ["us"]},
      "tags": {
        "amenity": "dentist",
        "brand": "Merit Dental",
        "brand:wikidata": "Q108288723",
        "healthcare": "dentist",
        "name": "Merit Dental"
      }
    },
    {
      "displayName": "Midwest Dental",
      "id": "midwestdental-708bdc",
      "locationSet": {"include": ["us"]},
      "tags": {
        "amenity": "dentist",
        "brand": "Midwest Dental",
        "brand:wikidata": "Q108288550",
        "healthcare": "dentist",
        "name": "Midwest Dental"
      }
    },
    {
      "displayName": "Monarch Dental",
      "id": "monarchdental-708bdc",
      "locationSet": {"include": ["us"]},
      "tags": {
        "amenity": "dentist",
        "brand": "Monarch Dental",
        "brand:wikidata": "Q108288452",
        "healthcare": "dentist",
        "name": "Monarch Dental"
      }
    },
    {
      "displayName": "Mondovi Dental",
      "id": "mondovidental-708bdc",
      "locationSet": {"include": ["us"]},
      "tags": {
        "amenity": "dentist",
        "brand": "Mondovi Dental",
        "brand:wikidata": "Q108288738",
        "healthcare": "dentist",
        "name": "Mondovi Dental"
      }
    },
    {
      "displayName": "My Dentist (US)",
      "id": "mydentist-708bdc",
      "locationSet": {"include": ["us"]},
      "tags": {
        "amenity": "dentist",
        "brand": "My Dentist",
        "brand:wikidata": "Q6945266",
        "healthcare": "dentist",
        "name": "My Dentist"
      }
    },
    {
      "displayName": "mydentist (UK)",
      "id": "mydentist-475ab9",
      "locationSet": {"include": ["gb"]},
      "tags": {
        "amenity": "dentist",
        "brand": "My Dentist",
        "brand:wikidata": "Q65118035",
        "healthcare": "dentist",
        "name": "My Dentist"
      }
    },
    {
      "displayName": "SmileKeepers",
      "id": "smilekeepers-708bdc",
      "locationSet": {"include": ["us"]},
      "tags": {
        "amenity": "dentist",
        "brand": "SmileKeepers",
        "brand:wikidata": "Q108410786",
        "healthcare": "dentist",
        "name": "SmileKeepers"
      }
    },
    {
      "displayName": "Vitaldent",
      "id": "vitaldent-23a76b",
      "locationSet": {"include": ["es", "it"]},
      "tags": {
        "amenity": "dentist",
        "brand": "Vitaldent",
        "brand:wikidata": "Q5860599",
        "brand:wikipedia": "es:Vitaldent",
        "healthcare": "dentist",
        "name": "Vitaldent"
      }
    },
    {
      "displayName": "Western Dental",
      "id": "westerndental-708bdc",
      "locationSet": {"include": ["us"]},
      "tags": {
        "alt_name": "Western Dental & Orthodontics",
        "amenity": "dentist",
        "brand": "Western Dental",
        "brand:wikidata": "Q64211989",
        "brand:wikipedia": "en:Western Dental",
        "healthcare": "dentist",
        "name": "Western Dental"
      }
    },
    {
      "displayName": "White Essence",
      "id": "whiteessence-287a03",
      "locationSet": {"include": ["jp"]},
      "tags": {
        "amenity": "dentist",
        "brand": "White Essence",
        "brand:ja": "ホワイトエッセンス",
        "brand:wikidata": "Q96185476",
        "healthcare": "dentist",
        "name": "White Essence",
        "name:ja": "ホワイトエッセンス"
      }
    }
  ]
}
