{
  "properties": {
    "path": "brands/amenity/fast_food",
    "exclude": {
      "generic": [
        "^(bistro|buffet|büfé|fast food|food court|kantine|frituur|imbiss|kiosk|lanchonete)$",
        "^(pizz(eri)?a|fish (and|&) chips|tacos)$",
        "^(бистро|пиццерия|столовая|ша(ве|у)рма)$",
        "^caf[eé](t[eé]r[ií]a)?$",
        "^d[oö]ner( kebab)?$",
        "^fri[tz]erie$",
        "^istanbul( kebab)?$",
        "^kebab( house)?$",
        "^snack(s)?( bar)?$",
        "^sushi\\s?(bar|house)?$",
        "^ラーメン(屋|店)?$"
      ],
      "named": [
        "^(ali baba|antalya|asia[ -](bistro|imbiss|wok)|(berlin|city) döner|china garden|city (grill|pizza)|kebabai|kfc/taco bell)$",
        "^(marmaris|pizza (house|time))$"
      ]
    }
  },
  "items": [
    {
      "displayName": "241 Pizza",
      "id": "241pizza-e49d2e",
      "locationSet": {"include": ["ca"]},
      "tags": {
        "amenity": "fast_food",
        "brand": "241 Pizza",
        "brand:wikidata": "Q4631768",
        "brand:wikipedia": "en:241 Pizza",
        "cuisine": "pizza",
        "name": "241 Pizza",
        "takeaway": "yes"
      }
    },
    {
      "displayName": "A&W (Canada)",
      "id": "aandw-e49d2e",
      "locationSet": {"include": ["ca"]},
      "tags": {
        "amenity": "fast_food",
        "brand": "A&W",
        "brand:wikidata": "Q2818848",
        "brand:wikipedia": "en:A&W (Canada)",
        "cuisine": "burger",
        "name": "A&W",
        "takeaway": "yes"
      }
    },
    {
      "displayName": "A&W (USA)",
      "id": "aandw-4d2ff4",
      "locationSet": {"include": ["us"]},
      "tags": {
        "amenity": "fast_food",
        "brand": "A&W",
        "brand:wikidata": "Q277641",
        "brand:wikipedia": "en:A&W Restaurants",
        "cuisine": "burger",
        "name": "A&W",
        "takeaway": "yes"
      }
    },
    {
      "displayName": "Andok's",
      "id": "andoks-33d36e",
      "locationSet": {"include": ["ph"]},
      "tags": {
        "amenity": "fast_food",
        "brand": "Andok's",
        "brand:wikidata": "Q62267166",
        "cuisine": "chicken",
        "name": "Andok's",
        "takeaway": "yes"
      }
    },
    {
      "displayName": "Angel's Burger",
      "id": "angelsburger-33d36e",
      "locationSet": {"include": ["ph"]},
      "tags": {
        "amenity": "fast_food",
        "brand": "Angel's Burger",
        "brand:wikidata": "Q62267228",
        "cuisine": "burger",
        "name": "Angel's Burger",
        "takeaway": "yes"
      }
    },
    {
      "displayName": "Apache Pizza",
      "id": "apachepizza-1b23ec",
      "locationSet": {
        "include": ["gb-nir", "ie"]
      },
      "tags": {
        "amenity": "fast_food",
        "brand": "Apache Pizza",
        "brand:wikidata": "Q22031794",
        "brand:wikipedia": "en:Apache Pizza",
        "cuisine": "pizza",
        "name": "Apache Pizza",
        "takeaway": "yes"
      }
    },
    {
      "displayName": "Arby's",
      "id": "arbys-3c08fb",
      "locationSet": {
        "include": ["ca", "tr", "us"]
      },
      "tags": {
        "amenity": "fast_food",
        "brand": "Arby's",
        "brand:wikidata": "Q630866",
        "brand:wikipedia": "en:Arby's",
        "cuisine": "sandwich",
        "name": "Arby's",
        "takeaway": "yes"
      }
    },
    {
      "displayName": "Arctic Circle",
      "id": "arcticcircle-4d2ff4",
      "locationSet": {"include": ["us"]},
      "tags": {
        "amenity": "fast_food",
        "brand": "Arctic Circle",
        "brand:wikidata": "Q4787501",
        "brand:wikipedia": "en:Arctic Circle Restaurants",
        "cuisine": "burger",
        "name": "Arctic Circle",
        "takeaway": "yes"
      }
    },
    {
      "displayName": "Asiahung",
      "id": "asiahung-6ea233",
      "locationSet": {"include": ["de"]},
      "tags": {
        "amenity": "fast_food",
        "brand": "Asiahung",
        "brand:wikidata": "Q100406310",
        "cuisine": "asian",
        "name": "Asiahung",
        "takeaway": "yes"
      }
    },
    {
      "displayName": "Au Bon Pain",
      "id": "aubonpain-9652cd",
      "locationSet": {
        "include": ["in", "th", "us"]
      },
      "tags": {
        "amenity": "fast_food",
        "brand": "Au Bon Pain",
        "brand:wikidata": "Q4818942",
        "brand:wikipedia": "en:Au Bon Pain",
        "cuisine": "sandwich",
        "name": "Au Bon Pain",
        "takeaway": "yes"
      }
    },
    {
      "displayName": "Auntie Anne's",
      "id": "auntieannes-e5e868",
      "locationSet": {"include": ["th", "us"]},
      "matchNames": ["auntie annes pretzels"],
      "tags": {
        "amenity": "fast_food",
        "brand": "Auntie Anne's",
        "brand:wikidata": "Q4822010",
        "brand:wikipedia": "en:Auntie Anne's",
        "cuisine": "pretzel",
        "name": "Auntie Anne's",
        "takeaway": "yes"
      }
    },
    {
      "displayName": "B-Bop's",
      "id": "bbops-4d2ff4",
      "locationSet": {"include": ["us"]},
      "tags": {
        "amenity": "fast_food",
        "brand": "B-Bop's",
        "brand:wikidata": "Q4833669",
        "brand:wikipedia": "en:B-Bop's",
        "name": "B-Bop's",
        "takeaway": "yes"
      }
    },
    {
      "displayName": "Back Yard Burgers",
      "id": "backyardburgers-4d2ff4",
      "locationSet": {"include": ["us"]},
      "tags": {
        "amenity": "fast_food",
        "brand": "Back Yard Burgers",
        "brand:wikidata": "Q2878376",
        "brand:wikipedia": "en:Back Yard Burgers",
        "cuisine": "burger",
        "name": "Back Yard Burgers",
        "takeaway": "yes"
      }
    },
    {
      "displayName": "Bagel Corner",
      "id": "bagelcorner-e4dee6",
      "locationSet": {"include": ["fr"]},
      "tags": {
        "amenity": "fast_food",
        "brand": "Bagel Corner",
        "brand:wikidata": "Q104649272",
        "cuisine": "bagel",
        "name": "Bagel Corner",
        "takeaway": "yes"
      }
    },
    {
      "displayName": "Baja Fresh",
      "id": "bajafresh-4d2ff4",
      "locationSet": {"include": ["us"]},
      "tags": {
        "amenity": "fast_food",
        "brand": "Baja Fresh",
        "brand:wikidata": "Q2880019",
        "brand:wikipedia": "en:Baja Fresh",
        "cuisine": "mexican",
        "name": "Baja Fresh",
        "takeaway": "yes"
      }
    },
    {
      "displayName": "Barburrito",
      "id": "barburrito-45095e",
      "locationSet": {"include": ["gb"]},
      "tags": {
        "amenity": "fast_food",
        "brand": "Barburrito",
        "brand:wikidata": "Q16983668",
        "brand:wikipedia": "en:Barburrito",
        "cuisine": "mexican",
        "name": "Barburrito",
        "takeaway": "yes"
      }
    },
    {
      "displayName": "Bembos",
      "id": "bembos-654705",
      "locationSet": {"include": ["pe"]},
      "tags": {
        "amenity": "fast_food",
        "brand": "Bembos",
        "brand:wikidata": "Q466971",
        "brand:wikipedia": "en:Bembos",
        "cuisine": "burger",
        "name": "Bembos",
        "takeaway": "yes"
      }
    },
    {
      "displayName": "Bento",
      "id": "bento-44927b",
      "locationSet": {"include": ["au-tas"]},
      "tags": {
        "amenity": "fast_food",
        "brand": "Bento",
        "brand:wikidata": "Q105906945",
        "cuisine": "japanese",
        "name": "Bento",
        "takeaway": "yes"
      }
    },
    {
      "displayName": "Big Fernand",
      "id": "bigfernand-8ddd61",
      "locationSet": {
        "include": ["ae", "fr", "lu"]
      },
      "tags": {
        "amenity": "fast_food",
        "brand": "Big Fernand",
        "brand:wikidata": "Q19521346",
        "brand:wikipedia": "fr:Big Fernand",
        "cuisine": "burger",
        "name": "Big Fernand",
        "takeaway": "yes"
      }
    },
    {
      "displayName": "Biscuitville",
      "id": "biscuitville-4d2ff4",
      "locationSet": {"include": ["us"]},
      "tags": {
        "amenity": "fast_food",
        "brand": "Biscuitville",
        "brand:wikidata": "Q4917274",
        "brand:wikipedia": "en:Biscuitville",
        "cuisine": "american;breakfast",
        "name": "Biscuitville",
        "takeaway": "yes"
      }
    },
    {
      "displayName": "Blackjack Pizza",
      "id": "blackjackpizza-4d2ff4",
      "locationSet": {"include": ["us"]},
      "tags": {
        "amenity": "fast_food",
        "brand": "Blackjack Pizza",
        "brand:wikidata": "Q4923061",
        "brand:wikipedia": "en:Blackjack Pizza",
        "cuisine": "pizza",
        "name": "Blackjack Pizza",
        "takeaway": "yes"
      }
    },
    {
      "displayName": "Blimpie",
      "id": "blimpie-4d2ff4",
      "locationSet": {"include": ["us"]},
      "tags": {
        "amenity": "fast_food",
        "brand": "Blimpie",
        "brand:wikidata": "Q4926479",
        "brand:wikipedia": "en:Blimpie",
        "cuisine": "sandwich",
        "name": "Blimpie",
        "takeaway": "yes"
      }
    },
    {
      "displayName": "Bob's",
      "id": "bobs-02d9fb",
      "locationSet": {
        "include": ["ao", "br", "cl", "pt"]
      },
      "tags": {
        "amenity": "fast_food",
        "brand": "Bob's",
        "brand:wikidata": "Q1392113",
        "brand:wikipedia": "en:Bob's",
        "cuisine": "burger",
        "name": "Bob's",
        "takeaway": "yes"
      }
    },
    {
      "displayName": "Bojangles'",
      "id": "bojangles-4d2ff4",
      "locationSet": {"include": ["us"]},
      "tags": {
        "amenity": "fast_food",
        "brand": "Bojangles'",
        "brand:wikidata": "Q891163",
        "brand:wikipedia": "en:Bojangles (restaurant)",
        "cuisine": "chicken",
        "name": "Bojangles'",
        "official_name": "Bojangles' Famous Chicken 'n Biscuits",
        "takeaway": "yes"
      }
    },
    {
      "displayName": "Booster Juice",
      "id": "boosterjuice-e49d2e",
      "locationSet": {"include": ["ca"]},
      "matchTags": ["shop/beverages"],
      "tags": {
        "amenity": "fast_food",
        "brand": "Booster Juice",
        "brand:wikidata": "Q4943796",
        "brand:wikipedia": "en:Booster Juice",
        "cuisine": "juice",
        "name": "Booster Juice",
        "takeaway": "yes"
      }
    },
    {
      "displayName": "Boston Market",
      "id": "bostonmarket-4d2ff4",
      "locationSet": {"include": ["us"]},
      "tags": {
        "amenity": "fast_food",
        "brand": "Boston Market",
        "brand:wikidata": "Q603617",
        "brand:wikipedia": "en:Boston Market",
        "cuisine": "american;chicken",
        "name": "Boston Market",
        "takeaway": "yes"
      }
    },
    {
      "displayName": "Braum's",
      "id": "braums-4d2ff4",
      "locationSet": {"include": ["us"]},
      "matchTags": ["shop/dairy"],
      "tags": {
        "amenity": "fast_food",
        "brand": "Braum's",
        "brand:wikidata": "Q4958263",
        "brand:wikipedia": "en:Braum's",
        "cuisine": "ice_cream",
        "name": "Braum's",
        "shop": "dairy",
        "takeaway": "yes"
      }
    },
    {
      "displayName": "Brown's Chicken",
      "id": "brownschicken-dbdcb8",
      "locationSet": {"include": ["il"]},
      "tags": {
        "amenity": "fast_food",
        "brand": "Brown's Chicken",
        "brand:wikidata": "Q4975925",
        "brand:wikipedia": "en:Brown's Chicken & Pasta",
        "cuisine": "chicken",
        "name": "Brown's Chicken",
        "takeaway": "yes"
      }
    },
    {
      "displayName": "Bruegger's Bagels",
      "id": "brueggersbagels-4d2ff4",
      "locationSet": {"include": ["us"]},
      "matchNames": [
        "breuger's",
        "breugger's",
        "bruger's",
        "brugger's"
      ],
      "tags": {
        "amenity": "fast_food",
        "brand": "Bruegger's Bagels",
        "brand:wikidata": "Q4978656",
        "brand:wikipedia": "en:Bruegger's",
        "cuisine": "bagel",
        "name": "Bruegger's Bagels",
        "short_name": "Bruegger's",
        "takeaway": "yes"
      }
    },
    {
      "displayName": "Buona",
      "id": "buona-4d2ff4",
      "locationSet": {"include": ["us"]},
      "tags": {
        "amenity": "fast_food",
        "brand": "Buona",
        "brand:wikidata": "Q23461372",
        "brand:wikipedia": "en:Buona",
        "cuisine": "italian",
        "name": "Buona",
        "takeaway": "yes"
      }
    },
    {
      "displayName": "Burger Fuel",
      "id": "burgerfuel-ba88db",
      "locationSet": {
        "include": ["ae", "iq", "nz", "sa", "us"]
      },
      "tags": {
        "amenity": "fast_food",
        "brand": "Burger Fuel",
        "brand:wikidata": "Q4998537",
        "brand:wikipedia": "en:Burger Fuel",
        "cuisine": "burger",
        "name": "Burger Fuel",
        "takeaway": "yes"
      }
    },
    {
      "displayName": "Burger King",
      "id": "burgerking-890dec",
      "locationSet": {
        "include": ["001"],
        "exclude": [[-88.3726, 39.4818, 32], "au"]
      },
      "matchNames": ["burguer king"],
      "tags": {
        "amenity": "fast_food",
        "brand": "Burger King",
        "brand:wikidata": "Q177054",
        "brand:wikipedia": "en:Burger King",
        "cuisine": "burger",
        "name": "Burger King",
        "takeaway": "yes"
      }
    },
    {
      "displayName": "Burger Machine",
      "id": "burgermachine-33d36e",
      "locationSet": {"include": ["ph"]},
      "tags": {
        "amenity": "fast_food",
        "brand": "Burger Machine",
        "brand:wikidata": "Q4998549",
        "brand:wikipedia": "en:Burger Machine",
        "cuisine": "burger",
        "name": "Burger Machine",
        "takeaway": "yes"
      }
    },
    {
      "displayName": "Burger Street",
      "id": "burgerstreet-4d2ff4",
      "locationSet": {"include": ["us"]},
      "tags": {
        "amenity": "fast_food",
        "brand": "Burger Street",
        "brand:wikidata": "Q4998556",
        "brand:wikipedia": "en:Burger Street",
        "cuisine": "burger;sandwich",
        "name": "Burger Street",
        "takeaway": "yes"
      }
    },
    {
      "displayName": "Burger Urge",
      "id": "burgerurge-d43c69",
      "locationSet": {"include": ["au"]},
      "tags": {
        "amenity": "fast_food",
        "brand": "Burger Urge",
        "brand:wikidata": "Q19589751",
        "brand:wikipedia": "en:Burger Urge",
        "cuisine": "burger",
        "name": "Burger Urge",
        "takeaway": "yes"
      }
    },
    {
      "displayName": "BurgerFi",
      "id": "burgerfi-4d2ff4",
      "locationSet": {"include": ["us"]},
      "tags": {
        "amenity": "fast_food",
        "brand": "BurgerFi",
        "brand:wikidata": "Q39045496",
        "brand:wikipedia": "en:BurgerFi",
        "cuisine": "burger",
        "name": "BurgerFi",
        "takeaway": "yes"
      }
    },
    {
      "displayName": "Burgerim",
      "id": "burgerim-dbdcb8",
      "locationSet": {"include": ["il"]},
      "tags": {
        "amenity": "fast_food",
        "brand": "Burgerim",
        "brand:en": "Burgerim",
        "brand:he": "בורגרים",
        "brand:wikidata": "Q64760354",
        "cuisine": "burger",
        "name": "Burgerim",
        "name:en": "Burgerim",
        "name:he": "בורגרים",
        "takeaway": "yes"
      }
    },
    {
      "displayName": "Burgers Bar",
      "id": "burgersbar-dbdcb8",
      "locationSet": {"include": ["il"]},
      "tags": {
        "amenity": "fast_food",
        "brand": "Burgers Bar",
        "brand:en": "Burgers Bar",
        "brand:he": "בורגרס בר",
        "brand:wikidata": "Q64760337",
        "cuisine": "burger",
        "diet:kosher": "yes",
        "name": "Burgers Bar",
        "name:en": "Burgers Bar",
        "name:he": "בורגרס בר",
        "takeaway": "yes"
      }
    },
    {
      "displayName": "Burgerville",
      "id": "burgerville-4d2ff4",
      "locationSet": {"include": ["us"]},
      "tags": {
        "amenity": "fast_food",
        "brand": "Burgerville",
        "brand:wikidata": "Q4998570",
        "brand:wikipedia": "en:Burgerville",
        "cuisine": "burger",
        "name": "Burgerville",
        "takeaway": "yes"
      }
    },
    {
      "displayName": "Bush's Chicken",
      "id": "bushschicken-4d2ff4",
      "locationSet": {"include": ["us"]},
      "tags": {
        "amenity": "fast_food",
        "brand": "Bush's Chicken",
        "brand:wikidata": "Q5001349",
        "brand:wikipedia": "en:Bush's Chicken",
        "cuisine": "chicken",
        "name": "Bush's Chicken",
        "takeaway": "yes"
      }
    },
    {
      "displayName": "California Fish Grill",
      "id": "californiafishgrill-4d2ff4",
      "locationSet": {"include": ["us"]},
      "tags": {
        "amenity": "fast_food",
        "brand": "California Fish Grill",
        "brand:wikidata": "Q55606435",
        "brand:wikipedia": "en:California Fish Grill",
        "cuisine": "seafood",
        "name": "California Fish Grill",
        "takeaway": "yes"
      }
    },
    {
      "displayName": "Captain D's",
      "id": "captainds-4d2ff4",
      "locationSet": {"include": ["us"]},
      "tags": {
        "amenity": "fast_food",
        "brand": "Captain D's",
        "brand:wikidata": "Q5036616",
        "brand:wikipedia": "en:Captain D's",
        "cuisine": "seafood",
        "name": "Captain D's",
        "takeaway": "yes"
      }
    },
    {
      "displayName": "Carl's Jr.",
      "id": "carlsjr-9b2018",
      "locationSet": {
        "include": ["001"],
        "exclude": ["pl"]
      },
      "tags": {
        "amenity": "fast_food",
        "brand": "Carl's Jr.",
        "brand:wikidata": "Q1043486",
        "brand:wikipedia": "en:Carl's Jr.",
        "cuisine": "burger",
        "name": "Carl's Jr.",
        "takeaway": "yes"
      }
    },
    {
      "displayName": "Charleys Philly Steaks",
      "id": "charleysphillysteaks-4d2ff4",
      "locationSet": {"include": ["us"]},
      "matchNames": ["charleys"],
      "tags": {
        "amenity": "fast_food",
        "brand": "Charleys Philly Steaks",
        "brand:wikidata": "Q1066777",
        "brand:wikipedia": "en:Charleys Philly Steaks",
        "cuisine": "sandwich",
        "name": "Charleys Philly Steaks",
        "takeaway": "yes"
      }
    },
    {
      "displayName": "Checkers",
      "id": "checkers-9b2018",
      "locationSet": {
        "include": ["001"],
        "exclude": ["pl"]
      },
      "tags": {
        "amenity": "fast_food",
        "brand": "Checkers",
        "brand:wikidata": "Q3419341",
        "brand:wikipedia": "en:Checkers and Rally's",
        "cuisine": "burger",
        "name": "Checkers",
        "takeaway": "yes"
      }
    },
    {
      "displayName": "Chefette",
      "id": "chefette-40578b",
      "locationSet": {"include": ["bb"]},
      "tags": {
        "amenity": "fast_food",
        "brand": "Chefette",
        "brand:wikidata": "Q5089525",
        "brand:wikipedia": "en:Chefette",
        "cuisine": "chicken",
        "name": "Chefette",
        "takeaway": "yes"
      }
    },
    {
      "displayName": "Chester's",
      "id": "chesters-e5e868",
      "locationSet": {"include": ["th", "us"]},
      "matchNames": ["chesters chicken"],
      "tags": {
        "amenity": "fast_food",
        "brand": "Chester's",
        "brand:wikidata": "Q5093401",
        "brand:wikipedia": "en:Chester's International",
        "cuisine": "chicken",
        "name": "Chester's",
        "takeaway": "yes"
      }
    },
    {
      "displayName": "Chez Ashton",
      "id": "chezashton-e49d2e",
      "locationSet": {"include": ["ca"]},
      "tags": {
        "amenity": "fast_food",
        "brand": "Chez Ashton",
        "brand:wikidata": "Q2963156",
        "brand:wikipedia": "en:Chez Ashton",
        "cuisine": "poutine",
        "name": "Chez Ashton",
        "takeaway": "yes"
      }
    },
    {
      "displayName": "Chick-fil-A",
      "id": "chickfila-4d2ff4",
      "locationSet": {"include": ["us"]},
      "tags": {
        "amenity": "fast_food",
        "brand": "Chick-fil-A",
        "brand:wikidata": "Q491516",
        "brand:wikipedia": "en:Chick-fil-A",
        "cuisine": "chicken",
        "name": "Chick-fil-A",
        "takeaway": "yes"
      }
    },
    {
      "displayName": "Chicken Cottage",
      "id": "chickencottage-45095e",
      "locationSet": {"include": ["gb"]},
      "tags": {
        "amenity": "fast_food",
        "brand": "Chicken Cottage",
        "brand:wikidata": "Q5096233",
        "brand:wikipedia": "en:Chicken Cottage",
        "cuisine": "chicken",
        "name": "Chicken Cottage",
        "takeaway": "yes"
      }
    },
    {
      "displayName": "Chicken Express",
      "id": "chickenexpress-4d2ff4",
      "locationSet": {"include": ["us"]},
      "tags": {
        "amenity": "fast_food",
        "brand": "Chicken Express",
        "brand:wikidata": "Q5096235",
        "brand:wikipedia": "en:Chicken Express",
        "cuisine": "chicken",
        "name": "Chicken Express",
        "takeaway": "yes"
      }
    },
    {
      "displayName": "Chicken Licken",
      "id": "chickenlicken-7fdf05",
      "locationSet": {"include": ["za"]},
      "tags": {
        "amenity": "fast_food",
        "brand": "Chicken Licken",
        "brand:wikidata": "Q4164819",
        "brand:wikipedia": "en:Chicken Licken (restaurant)",
        "cuisine": "chicken",
        "name": "Chicken Licken",
        "takeaway": "yes"
      }
    },
    {
      "displayName": "Chicken Republic",
      "id": "chickenrepublic-3eb11d",
      "locationSet": {"include": ["ng"]},
      "tags": {
        "amenity": "fast_food",
        "brand": "Chicken Republic",
        "brand:wikidata": "Q23461416",
        "brand:wikipedia": "en:Chicken Republic",
        "cuisine": "chicken",
        "name": "Chicken Republic",
        "takeaway": "yes"
      }
    },
    {
      "displayName": "Chicken Treat",
      "id": "chickentreat-4d2ff4",
      "locationSet": {"include": ["us"]},
      "tags": {
        "amenity": "fast_food",
        "brand": "Chicken Treat",
        "brand:wikidata": "Q5096274",
        "brand:wikipedia": "en:Chicken Treat",
        "cuisine": "chicken",
        "name": "Chicken Treat",
        "takeaway": "yes"
      }
    },
    {
      "displayName": "China Wok",
      "id": "chinawok-946a0b",
      "locationSet": {
        "include": ["001"],
        "exclude": ["cn", "hk", "pl", "tw"]
      },
      "tags": {
        "amenity": "fast_food",
        "brand": "China Wok",
        "brand:wikidata": "Q5766542",
        "brand:wikipedia": "es:China Wok",
        "cuisine": "chinese",
        "name": "China Wok",
        "takeaway": "yes"
      }
    },
    {
      "displayName": "Chipotle",
      "id": "chipotle-9b2018",
      "locationSet": {
        "include": ["001"],
        "exclude": ["pl"]
      },
      "tags": {
        "amenity": "fast_food",
        "brand": "Chipotle",
        "brand:wikidata": "Q465751",
        "brand:wikipedia": "en:Chipotle Mexican Grill",
        "cuisine": "mexican",
        "name": "Chipotle",
        "official_name": "Chipotle Mexican Grill",
        "takeaway": "yes"
      }
    },
    {
      "displayName": "Chooks to Go",
      "id": "chookstogo-33d36e",
      "locationSet": {"include": ["ph"]},
      "tags": {
        "amenity": "fast_food",
        "brand": "Chooks to Go",
        "brand:wikidata": "Q17065023",
        "brand:wikipedia": "en:Chooks-to-Go",
        "name": "Chooks to Go",
        "takeaway": "yes"
      }
    },
    {
      "displayName": "Chopt",
      "id": "chopt-4d2ff4",
      "locationSet": {"include": ["us"]},
      "tags": {
        "amenity": "fast_food",
        "brand": "Chopt",
        "brand:wikidata": "Q17509305",
        "brand:wikipedia": "en:Chopt",
        "cuisine": "salad",
        "name": "Chopt",
        "takeaway": "yes"
      }
    },
    {
      "displayName": "Chowking",
      "id": "chowking-33d36e",
      "locationSet": {"include": ["ph"]},
      "tags": {
        "amenity": "fast_food",
        "brand": "Chowking",
        "brand:wikidata": "Q1076816",
        "brand:wikipedia": "en:Chowking",
        "cuisine": "asian",
        "name": "Chowking",
        "takeaway": "yes"
      }
    },
    {
      "displayName": "Church's Chicken",
      "id": "churchschicken-9b2018",
      "locationSet": {
        "include": ["001"],
        "exclude": ["pl"]
      },
      "tags": {
        "amenity": "fast_food",
        "brand": "Church's Chicken",
        "brand:wikidata": "Q1089932",
        "brand:wikipedia": "en:Church's Chicken",
        "cuisine": "chicken",
        "name": "Church's Chicken",
        "takeaway": "yes"
      }
    },
    {
      "displayName": "Cinnabon",
      "id": "cinnabon-9b2018",
      "locationSet": {
        "include": ["001"],
        "exclude": ["pl"]
      },
      "matchTags": ["shop/confectionery"],
      "tags": {
        "amenity": "fast_food",
        "brand": "Cinnabon",
        "brand:wikidata": "Q1092539",
        "brand:wikipedia": "en:Cinnabon",
        "cuisine": "dessert",
        "name": "Cinnabon",
        "takeaway": "yes"
      }
    },
    {
      "displayName": "Class'croute",
      "id": "classcroute-77e135",
      "locationSet": {"include": ["fx", "lu"]},
      "tags": {
        "amenity": "fast_food",
        "brand": "Class'croute",
        "brand:wikidata": "Q2975695",
        "brand:wikipedia": "fr:Class'Croute",
        "name": "Class'croute",
        "takeaway": "yes"
      }
    },
    {
      "displayName": "CoCo壱番屋",
      "id": "cocoichibanya-98ece3",
      "locationSet": {"include": ["cn", "jp"]},
      "tags": {
        "amenity": "fast_food",
        "brand": "CoCo壱番屋",
        "brand:en": "CoCo Ichibanya",
        "brand:ja": "CoCo壱番屋",
        "brand:wikidata": "Q5986105",
        "brand:wikipedia": "en:Ichibanya",
        "cuisine": "japanese",
        "name": "CoCo壱番屋",
        "name:en": "CoCo Ichibanya",
        "name:ja": "CoCo壱番屋",
        "takeaway": "yes"
      }
    },
    {
      "displayName": "Cœur de Blé",
      "id": "coeurdeble-e4dee6",
      "locationSet": {"include": ["fr"]},
      "tags": {
        "amenity": "fast_food",
        "brand": "Cœur de Blé",
        "brand:en": "Coeur de Blé",
        "brand:fr": "Cœur de Blé",
        "brand:wikidata": "Q95745666",
        "cuisine": "sandwich",
        "name": "Cœur de Blé",
        "name:en": "Coeur de Blé",
        "name:fr": "Cœur de Blé",
        "takeaway": "yes"
      }
    },
    {
      "displayName": "Cook Door",
      "id": "cookdoor-5f7df6",
      "locationSet": {"include": ["ae", "eg"]},
      "tags": {
        "amenity": "fast_food",
        "brand": "Cook Door",
        "brand:wikidata": "Q12236500",
        "brand:wikipedia": "en:Cook Door",
        "cuisine": "sandwich",
        "name": "Cook Door",
        "takeaway": "yes"
      }
    },
    {
      "displayName": "Cook Out",
      "id": "cookout-4d2ff4",
      "locationSet": {"include": ["us"]},
      "tags": {
        "amenity": "fast_food",
        "brand": "Cook Out",
        "brand:wikidata": "Q5166992",
        "brand:wikipedia": "en:Cook Out (restaurant)",
        "cuisine": "american",
        "name": "Cook Out",
        "takeaway": "yes"
      }
    },
    {
      "displayName": "Così",
      "id": "cosi-4d2ff4",
      "locationSet": {"include": ["us"]},
      "tags": {
        "amenity": "fast_food",
        "brand": "Così",
        "brand:wikidata": "Q5175243",
        "brand:wikipedia": "en:Così (restaurant)",
        "cuisine": "sandwich",
        "name": "Così",
        "takeaway": "yes"
      }
    },
    {
      "displayName": "Costco Food Court",
      "id": "costcofoodcourt-2909a2",
      "locationSet": {
        "include": [
          "au",
          "ca",
          "jp",
          "kr",
          "mx",
          "tw",
          "uk",
          "us"
        ]
      },
      "tags": {
        "amenity": "fast_food",
        "brand": "Costco",
        "brand:wikidata": "Q715583",
        "brand:wikipedia": "en:Costco",
        "cuisine": "hot_dog;pizza;sandwich",
        "name": "Costco Food Court",
        "takeaway": "yes"
      }
    },
    {
      "displayName": "Crust",
      "id": "crust-d43c69",
      "locationSet": {"include": ["au"]},
      "tags": {
        "amenity": "fast_food",
        "brand": "Crust",
        "brand:wikidata": "Q100792715",
        "cuisine": "pizza",
        "name": "Crust",
        "official_name": "Crust Gourmet Pizza Bar",
        "takeaway": "yes"
      }
    },
    {
      "displayName": "Cultures",
      "id": "cultures-e49d2e",
      "locationSet": {"include": ["ca"]},
      "tags": {
        "amenity": "fast_food",
        "brand": "Cultures",
        "brand:wikidata": "Q64876898",
        "cuisine": "sandwich",
        "name": "Cultures",
        "takeaway": "yes"
      }
    },
    {
      "displayName": "Culver's",
      "id": "culvers-4d2ff4",
      "locationSet": {"include": ["us"]},
      "tags": {
        "amenity": "fast_food",
        "brand": "Culver's",
        "brand:wikidata": "Q1143589",
        "brand:wikipedia": "en:Culver's",
        "cuisine": "burger",
        "name": "Culver's",
        "takeaway": "yes"
      }
    },
    {
      "displayName": "Dairy Queen",
      "id": "dairyqueen-9b2018",
      "locationSet": {
        "include": ["001"],
        "exclude": ["pl"]
      },
      "matchNames": ["dq"],
      "tags": {
        "amenity": "fast_food",
        "brand": "Dairy Queen",
        "brand:wikidata": "Q1141226",
        "brand:wikipedia": "en:Dairy Queen",
        "cuisine": "ice_cream;burger",
        "name": "Dairy Queen",
        "takeaway": "yes"
      }
    },
    {
      "displayName": "Daylight Donuts",
      "id": "daylightdonuts-4d2ff4",
      "locationSet": {"include": ["us"]},
      "tags": {
        "amenity": "fast_food",
        "brand": "Daylight Donuts",
        "brand:wikidata": "Q48970508",
        "brand:wikipedia": "en:Daylight Donuts",
        "cuisine": "donut",
        "name": "Daylight Donuts",
        "takeaway": "yes"
      }
    },
    {
      "displayName": "Debonairs Pizza",
      "id": "debonairspizza-10dad6",
      "locationSet": {
        "include": [
          "ae",
          "bw",
          "ke",
          "ls",
          "mu",
          "mw",
          "mz",
          "na",
          "ng",
          "sd",
          "ss",
          "sz",
          "za",
          "zm"
        ]
      },
      "matchNames": ["debonairs"],
      "tags": {
        "amenity": "fast_food",
        "brand": "Debonairs Pizza",
        "brand:wikidata": "Q65079407",
        "brand:wikipedia": "en:Debonairs Pizza",
        "cuisine": "pizza",
        "name": "Debonairs Pizza",
        "takeaway": "yes"
      }
    },
    {
      "displayName": "Del Taco",
      "id": "deltaco-4d2ff4",
      "locationSet": {"include": ["us"]},
      "tags": {
        "amenity": "fast_food",
        "brand": "Del Taco",
        "brand:wikidata": "Q1183818",
        "brand:wikipedia": "en:Del Taco",
        "cuisine": "mexican",
        "name": "Del Taco",
        "takeaway": "yes"
      }
    },
    {
      "displayName": "Dig Inn",
      "id": "diginn-4d2ff4",
      "locationSet": {"include": ["us"]},
      "tags": {
        "amenity": "fast_food",
        "brand": "Dig Inn",
        "brand:wikidata": "Q28226241",
        "brand:wikipedia": "en:Dig (restaurant)",
        "cuisine": "regional",
        "name": "Dig Inn",
        "takeaway": "yes"
      }
    },
    {
      "displayName": "Dixy Chicken",
      "id": "dixychicken-d5291b",
      "locationSet": {
        "include": [
          "bn",
          "gb",
          "in",
          "no",
          "nz",
          "pk",
          "sa",
          "sy",
          "us"
        ]
      },
      "tags": {
        "amenity": "fast_food",
        "brand": "Dixy Chicken",
        "brand:wikidata": "Q5285003",
        "brand:wikipedia": "en:Dixy Chicken",
        "cuisine": "chicken",
        "diet:halal": "yes",
        "name": "Dixy Chicken",
        "takeaway": "yes"
      }
    },
    {
      "displayName": "Domino's",
      "id": "dominos-658eea",
      "locationSet": {"include": ["001"]},
      "matchNames": ["dominos pizza"],
      "tags": {
        "amenity": "fast_food",
        "brand": "Domino's",
        "brand:wikidata": "Q839466",
        "brand:wikipedia": "en:Domino's Pizza",
        "cuisine": "pizza",
        "name": "Domino's",
        "takeaway": "yes"
      }
    },
    {
      "displayName": "Don Pollo",
      "id": "donpollo-64ebd7",
      "locationSet": {"include": ["sv"]},
      "tags": {
        "amenity": "fast_food",
        "brand": "Don Pollo",
        "cuisine": "chicken",
        "name": "Don Pollo",
        "takeaway": "yes"
      }
    },
    {
      "displayName": "Donut King",
      "id": "donutking-d43c69",
      "locationSet": {"include": ["au"]},
      "tags": {
        "amenity": "fast_food",
        "brand": "Donut King",
        "brand:wikidata": "Q5296921",
        "brand:wikipedia": "en:Donut King",
        "cuisine": "donut;coffee_shop",
        "name": "Donut King",
        "takeaway": "yes"
      }
    },
    {
      "displayName": "DQ Grill & Chill",
      "id": "dqgrillandchill-d2abf0",
      "locationSet": {"include": ["ca", "us"]},
      "matchNames": ["dairy queen chill & grill"],
      "tags": {
        "amenity": "fast_food",
        "brand": "DQ Grill & Chill",
        "brand:wikidata": "Q1141226",
        "brand:wikipedia": "en:Dairy Queen",
        "cuisine": "ice_cream;burger",
        "name": "DQ Grill & Chill",
        "takeaway": "yes"
      }
    },
    {
      "displayName": "Dunkin'",
      "id": "dunkin-70af5e",
      "locationSet": {
        "include": ["001"],
        "exclude": ["es"]
      },
      "matchNames": ["dunkin doughnuts"],
      "tags": {
        "alt_name": "Dunkin' Donuts",
        "amenity": "fast_food",
        "brand": "Dunkin'",
        "brand:wikidata": "Q847743",
        "brand:wikipedia": "en:Dunkin' Donuts",
        "cuisine": "donut;coffee_shop",
        "name": "Dunkin'",
        "takeaway": "yes"
      }
    },
    {
      "displayName": "Dunkin' Coffee",
      "id": "dunkincoffee-34e6e8",
      "locationSet": {"include": ["es"]},
      "matchNames": [
        "dunkin doughnuts",
        "dunkin' donuts"
      ],
      "tags": {
        "amenity": "fast_food",
        "brand": "Dunkin' Coffee",
        "brand:wikidata": "Q847743",
        "brand:wikipedia": "es:Dunkin'",
        "cuisine": "donut;coffee_shop",
        "name": "Dunkin' Coffee",
        "takeaway": "yes"
      }
    },
    {
      "displayName": "East of Chicago Pizza",
      "id": "eastofchicagopizza-4d2ff4",
      "locationSet": {"include": ["us"]},
      "tags": {
        "amenity": "fast_food",
        "brand": "East of Chicago Pizza",
        "brand:wikidata": "Q5329751",
        "brand:wikipedia": "en:East of Chicago Pizza",
        "cuisine": "pizza",
        "name": "East of Chicago Pizza",
        "takeaway": "yes"
      }
    },
    {
      "displayName": "EAT.",
      "id": "eat-45095e",
      "locationSet": {"include": ["gb"]},
      "tags": {
        "amenity": "fast_food",
        "brand": "EAT.",
        "brand:wikidata": "Q5331219",
        "brand:wikipedia": "en:Eat (restaurant)",
        "cuisine": "sandwich",
        "name": "EAT.",
        "takeaway": "yes"
      }
    },
    {
      "displayName": "Eddie Rocket's",
      "id": "eddierockets-5cf996",
      "locationSet": {"include": ["ir"]},
      "tags": {
        "amenity": "fast_food",
        "brand": "Eddie Rocket's",
        "brand:wikidata": "Q1007312",
        "brand:wikipedia": "en:Eddie Rocket's",
        "cuisine": "american",
        "name": "Eddie Rocket's",
        "takeaway": "yes"
      }
    },
    {
      "displayName": "Eggslut",
      "id": "eggslut-26c4d5",
      "locationSet": {
        "include": ["gb", "jp", "kr", "kw", "us"]
      },
      "tags": {
        "amenity": "fast_food",
        "brand": "Eggslut",
        "brand:wikidata": "Q17239262",
        "brand:wikipedia": "en:Eggslut",
        "cuisine": "burger",
        "name": "Eggslut",
        "takeaway": "yes"
      }
    },
    {
      "displayName": "Egon",
      "id": "egon-86f814",
      "locationSet": {"include": ["no"]},
      "tags": {
        "amenity": "fast_food",
        "brand": "Egon",
        "brand:wikidata": "Q1298438",
        "brand:wikipedia": "en:Egon (restaurants)",
        "cuisine": "pizza",
        "name": "Egon",
        "takeaway": "yes"
      }
    },
    {
      "displayName": "Einstein Bros. Bagels",
      "id": "einsteinbrosbagels-4d2ff4",
      "locationSet": {"include": ["us"]},
      "matchNames": [
        "einstein bros",
        "einstein brothers"
      ],
      "tags": {
        "alt_name": "Einstein Brothers Bagels",
        "amenity": "fast_food",
        "brand": "Einstein Bros. Bagels",
        "brand:wikidata": "Q5349788",
        "brand:wikipedia": "en:Einstein Bros. Bagels",
        "cuisine": "bagel",
        "name": "Einstein Bros. Bagels",
        "takeaway": "yes"
      }
    },
    {
      "displayName": "El Corral",
      "id": "elcorral-9bc101",
      "locationSet": {"include": ["co"]},
      "tags": {
        "amenity": "fast_food",
        "brand": "El Corral",
        "brand:wikidata": "Q4703422",
        "brand:wikipedia": "en:Hamburguesas El Corral",
        "cuisine": "burger",
        "name": "El Corral",
        "official_name": "Hamburguesas El Corral",
        "takeaway": "yes"
      }
    },
    {
      "displayName": "El Pollo Loco",
      "id": "elpolloloco-bca76b",
      "locationSet": {"include": ["mx", "us"]},
      "tags": {
        "amenity": "fast_food",
        "brand": "El Pollo Loco",
        "brand:wikidata": "Q2353849",
        "brand:wikipedia": "en:El Pollo Loco",
        "cuisine": "mexican",
        "name": "El Pollo Loco",
        "takeaway": "yes"
      }
    },
    {
      "displayName": "Elevation Burger",
      "id": "elevationburger-203491",
      "locationSet": {
        "include": ["bh", "kw", "qa", "us"]
      },
      "tags": {
        "amenity": "fast_food",
        "brand": "Elevation Burger",
        "brand:wikidata": "Q15291092",
        "brand:wikipedia": "en:Elevation Burger",
        "cuisine": "burger",
        "name": "Elevation Burger",
        "takeaway": "yes"
      }
    },
    {
      "displayName": "Erbert & Gerbert's Sandwich Shop",
      "id": "erbertandgerberts-4d2ff4",
      "locationSet": {"include": ["us"]},
      "tags": {
        "amenity": "fast_food",
        "brand": "Erbert & Gerbert's",
        "brand:wikidata": "Q5385097",
        "brand:wikipedia": "en:Erbert & Gerbert's",
        "cuisine": "sandwich",
        "name": "Erbert & Gerbert's",
        "official_name": "Erbert & Gerbert's Sandwich Shop",
        "takeaway": "yes"
      }
    },
    {
      "displayName": "Es Teler 77",
      "id": "esteler77-9b2018",
      "locationSet": {
        "include": ["001"],
        "exclude": ["pl"]
      },
      "tags": {
        "amenity": "fast_food",
        "brand": "Es Teler 77",
        "brand:wikidata": "Q5396630",
        "brand:wikipedia": "en:Es Teler 77",
        "cuisine": "indonesian",
        "name": "Es Teler 77",
        "takeaway": "yes"
      }
    },
    {
      "displayName": "Everest",
      "id": "everest-6b115c",
      "locationSet": {"include": ["gr"]},
      "tags": {
        "amenity": "fast_food",
        "brand": "Everest",
        "brand:wikidata": "Q62273299",
        "cuisine": "burger",
        "name": "Everest",
        "takeaway": "yes"
      }
    },
    {
      "displayName": "Extreme Pita",
      "id": "extremepita-d2abf0",
      "locationSet": {"include": ["ca", "us"]},
      "tags": {
        "amenity": "fast_food",
        "brand": "Extreme Pita",
        "brand:wikidata": "Q5422367",
        "brand:wikipedia": "en:Extreme Pita",
        "cuisine": "pita",
        "name": "Extreme Pita",
        "takeaway": "yes"
      }
    },
    {
      "displayName": "Extreme Pizza",
      "id": "extremepizza-9b2018",
      "locationSet": {
        "include": ["001"],
        "exclude": ["pl"]
      },
      "tags": {
        "amenity": "fast_food",
        "brand": "Extreme Pizza",
        "brand:wikidata": "Q5422364",
        "brand:wikipedia": "en:Extreme Pizza",
        "cuisine": "pizza",
        "name": "Extreme Pizza",
        "takeaway": "yes"
      }
    },
    {
      "displayName": "Fairwood",
      "id": "fairwood-7e2e93",
      "locationSet": {"include": ["cn", "hk"]},
      "tags": {
        "amenity": "fast_food",
        "brand": "Fairwood",
        "brand:wikidata": "Q5430935",
        "brand:wikipedia": "en:Fairwood (restaurant)",
        "cuisine": "chinese;american",
        "name": "Fairwood",
        "takeaway": "yes"
      }
    },
    {
      "displayName": "Fatburger",
      "id": "fatburger-4d2ff4",
      "locationSet": {"include": ["us"]},
      "tags": {
        "amenity": "fast_food",
        "brand": "Fatburger",
        "brand:wikidata": "Q1397976",
        "brand:wikipedia": "en:Fatburger",
        "cuisine": "burger",
        "name": "Fatburger",
        "takeaway": "yes"
      }
    },
    {
      "displayName": "Fazoli's",
      "id": "fazolis-4d2ff4",
      "locationSet": {"include": ["us"]},
      "tags": {
        "amenity": "fast_food",
        "brand": "Fazoli's",
        "brand:wikidata": "Q1399195",
        "brand:wikipedia": "en:Fazoli's",
        "cuisine": "italian",
        "name": "Fazoli's",
        "takeaway": "yes"
      }
    },
    {
      "displayName": "Febo",
      "id": "febo-60a83c",
      "locationSet": {"include": ["nl"]},
      "tags": {
        "amenity": "fast_food",
        "brand": "Febo",
        "brand:wikidata": "Q582245",
        "brand:wikipedia": "nl:Febo (snackbar)",
        "cuisine": "burger",
        "name": "Febo",
        "takeaway": "yes"
      }
    },
    {
      "displayName": "Figaro's Pizza",
      "id": "figarospizza-9b2018",
      "locationSet": {
        "include": ["001"],
        "exclude": ["pl"]
      },
      "tags": {
        "amenity": "fast_food",
        "brand": "Figaro's Pizza",
        "brand:wikidata": "Q48802600",
        "brand:wikipedia": "en:Figaro's Pizza",
        "cuisine": "pizza",
        "name": "Figaro's Pizza",
        "takeaway": "yes"
      }
    },
    {
      "displayName": "Firehouse Subs",
      "id": "firehousesubs-d2abf0",
      "locationSet": {"include": ["ca", "us"]},
      "tags": {
        "amenity": "fast_food",
        "brand": "Firehouse Subs",
        "brand:wikidata": "Q5451873",
        "brand:wikipedia": "en:Firehouse Subs",
        "cuisine": "sandwich",
        "name": "Firehouse Subs",
        "takeaway": "yes"
      }
    },
    {
      "displayName": "Five Guys",
      "id": "fiveguys-200282",
      "locationSet": {
        "include": [
          "ae",
          "be",
          "ca",
          "de",
          "es",
          "fr",
          "gb",
          "hk",
          "ie",
          "it",
          "kw",
          "lu",
          "nl",
          "qa",
          "sa",
          "sg",
          "us"
        ]
      },
      "tags": {
        "amenity": "fast_food",
        "brand": "Five Guys",
        "brand:wikidata": "Q1131810",
        "brand:wikipedia": "en:Five Guys",
        "cuisine": "burger",
        "name": "Five Guys",
        "official_name": "Five Guys Burgers and Fries",
        "takeaway": "yes"
      }
    },
    {
      "displayName": "Flower Burger",
      "id": "flowerburger-777b0e",
      "locationSet": {"include": ["fr", "it"]},
      "tags": {
        "amenity": "fast_food",
        "brand": "Flower Burger",
        "brand:wikidata": "Q67168925",
        "cuisine": "burger",
        "diet:vegan": "only",
        "name": "Flower Burger",
        "takeaway": "yes"
      }
    },
    {
      "displayName": "Four Star Pizza",
      "id": "fourstarpizza-f334ca",
      "locationSet": {"include": ["ie"]},
      "tags": {
        "amenity": "fast_food",
        "brand": "Four Star Pizza",
        "brand:wikidata": "Q5475559",
        "brand:wikipedia": "en:Four Star Pizza",
        "cuisine": "pizza",
        "name": "Four Star Pizza",
        "takeaway": "yes"
      }
    },
    {
      "displayName": "Frasses",
      "id": "frasses-72e24f",
      "locationSet": {"include": ["se"]},
      "tags": {
        "amenity": "fast_food",
        "brand": "Frasses",
        "brand:wikidata": "Q3374476",
        "brand:wikipedia": "sv:Frasses (hamburgerkedja)",
        "cuisine": "burger",
        "name": "Frasses",
        "takeaway": "yes"
      }
    },
    {
      "displayName": "Freddy's",
      "id": "freddys-4d2ff4",
      "locationSet": {"include": ["us"]},
      "tags": {
        "amenity": "fast_food",
        "brand": "Freddy's",
        "brand:wikidata": "Q5496837",
        "brand:wikipedia": "en:Freddy's Frozen Custard & Steakburgers",
        "cuisine": "ice_cream;burger",
        "name": "Freddy's",
        "official_name": "Freddys Frozen Custard & Steakburgers",
        "takeaway": "yes"
      }
    },
    {
      "displayName": "Freebirds",
      "id": "freebirds-4d2ff4",
      "locationSet": {"include": ["us"]},
      "tags": {
        "amenity": "fast_food",
        "brand": "Freebirds",
        "brand:wikidata": "Q5500367",
        "cuisine": "mexican",
        "name": "Freebirds",
        "takeaway": "yes"
      }
    },
    {
      "displayName": "Freshëns",
      "id": "freshens-4d2ff4",
      "locationSet": {"include": ["us"]},
      "tags": {
        "amenity": "fast_food",
        "brand": "Freshëns",
        "brand:wikidata": "Q88353412",
        "cuisine": "juice;salad",
        "name": "Freshëns",
        "takeaway": "yes"
      }
    },
    {
      "displayName": "Freshslice Pizza",
      "id": "freshslicepizza-e49d2e",
      "locationSet": {"include": ["ca"]},
      "tags": {
        "amenity": "fast_food",
        "brand": "Freshslice Pizza",
        "brand:wikidata": "Q5503082",
        "brand:wikipedia": "en:Freshslice Pizza",
        "cuisine": "pizza",
        "name": "Freshslice Pizza",
        "takeaway": "yes"
      }
    },
    {
      "displayName": "Frisby",
      "id": "frisby-9bc101",
      "locationSet": {"include": ["co"]},
      "tags": {
        "amenity": "fast_food",
        "brand": "Frisby",
        "brand:wikidata": "Q7225732",
        "brand:wikipedia": "en:Frisby (restaurant)",
        "cuisine": "chicken",
        "delivery": "yes",
        "name": "Frisby",
        "takeaway": "yes"
      }
    },
    {
      "displayName": "Froots",
      "id": "froots-9b2018",
      "locationSet": {
        "include": ["001"],
        "exclude": ["pl"]
      },
      "tags": {
        "amenity": "fast_food",
        "brand": "Froots",
        "brand:wikidata": "Q96203860",
        "cuisine": "juice;salad",
        "name": "Froots",
        "takeaway": "yes"
      }
    },
    {
      "displayName": "Gabriel Pizza",
      "id": "gabrielpizza-e49d2e",
      "locationSet": {"include": ["ca"]},
      "tags": {
        "amenity": "fast_food",
        "brand": "Gabriel Pizza",
        "brand:wikidata": "Q5515791",
        "brand:wikipedia": "en:Gabriel Pizza",
        "cuisine": "pizza",
        "name": "Gabriel Pizza",
        "takeaway": "yes"
      }
    },
    {
      "displayName": "Gino's Pizza (Canada)",
      "id": "ginospizza-e49d2e",
      "locationSet": {"include": ["ca"]},
      "tags": {
        "amenity": "fast_food",
        "brand": "Gino's Pizza",
        "brand:wikidata": "Q84029134",
        "cuisine": "pizza",
        "name": "Gino's Pizza",
        "takeaway": "yes"
      }
    },
    {
      "displayName": "Gino's Pizza & Spaghetti House (West Virginia)",
      "id": "ginospizzaandspaghettihouse-4d2ff4",
      "locationSet": {"include": ["us"]},
      "tags": {
        "amenity": "fast_food",
        "brand": "Gino's Pizza & Spaghetti House",
        "brand:wikidata": "Q5563205",
        "brand:wikipedia": "en:Gino's Pizza and Spaghetti",
        "cuisine": "pizza",
        "name": "Gino's Pizza & Spaghetti House",
        "takeaway": "yes"
      }
    },
    {
      "displayName": "Gold Star Chili",
      "id": "goldstarchili-4d2ff4",
      "locationSet": {"include": ["us"]},
      "tags": {
        "alt_name": "Gold Star",
        "amenity": "fast_food",
        "brand": "Gold Star Chili",
        "brand:wikidata": "Q16994254",
        "brand:wikipedia": "en:Gold Star Chili",
        "cuisine": "chili",
        "name": "Gold Star Chili",
        "takeaway": "yes"
      }
    },
    {
      "displayName": "Golden Chick",
      "id": "goldenchick-4d2ff4",
      "locationSet": {"include": ["us"]},
      "tags": {
        "amenity": "fast_food",
        "brand": "Golden Chick",
        "brand:wikidata": "Q3772930",
        "brand:wikipedia": "en:Golden Chick",
        "cuisine": "chicken",
        "name": "Golden Chick",
        "takeaway": "yes"
      }
    },
    {
      "displayName": "Golden Krust Caribbean Bakery & Grill",
      "id": "goldenkrust-d2abf0",
      "locationSet": {"include": ["ca", "us"]},
      "tags": {
        "amenity": "fast_food",
        "brand": "Golden Krust Caribbean Bakery & Grill",
        "brand:wikidata": "Q5579615",
        "brand:wikipedia": "en:Golden Krust",
        "cuisine": "caribbean",
        "name": "Golden Krust",
        "takeaway": "yes"
      }
    },
    {
      "displayName": "Goli Vada Pav",
      "id": "golivadapav-aba431",
      "locationSet": {"include": ["in"]},
      "tags": {
        "alt_name": "Goli Vada Pav No.1",
        "amenity": "fast_food",
        "brand": "Goli Vada Pav",
        "brand:wikidata": "Q5580697",
        "brand:wikipedia": "en:Goli Vada Pav",
        "cuisine": "indian",
        "name": "Goli Vada Pav",
        "takeaway": "yes"
      }
    },
    {
      "displayName": "Good Times",
      "id": "goodtimes-4d2ff4",
      "locationSet": {"include": ["us"]},
      "tags": {
        "amenity": "fast_food",
        "brand": "Good Times",
        "brand:wikidata": "Q5583024",
        "brand:wikipedia": "en:Good Times Burgers & Frozen Custard",
        "cuisine": "burger;ice_cream",
        "name": "Good Times",
        "official_name": "Good Times Burgers & Frozen Custard",
        "takeaway": "yes"
      }
    },
    {
      "displayName": "Great American Cookies",
      "id": "greatamericancookies-4d2ff4",
      "locationSet": {"include": ["us"]},
      "tags": {
        "amenity": "fast_food",
        "brand": "Great American Cookies",
        "brand:wikidata": "Q5598629",
        "brand:wikipedia": "en:Great American Cookies",
        "cuisine": "cookies",
        "name": "Great American Cookies",
        "takeaway": "yes"
      }
    },
    {
      "displayName": "Greenwich",
      "id": "greenwich-33d36e",
      "locationSet": {"include": ["ph"]},
      "tags": {
        "amenity": "fast_food",
        "brand": "Greenwich",
        "brand:wikidata": "Q2691308",
        "brand:wikipedia": "en:Greenwich Pizza",
        "cuisine": "pizza",
        "name": "Greenwich",
        "takeaway": "yes"
      }
    },
    {
      "displayName": "Greggs",
      "id": "greggs-45095e",
      "locationSet": {"include": ["gb"]},
      "tags": {
        "amenity": "fast_food",
        "brand": "Greggs",
        "brand:wikidata": "Q3403981",
        "brand:wikipedia": "en:Greggs",
        "cuisine": "sandwich;bakery",
        "name": "Greggs",
        "takeaway": "yes"
      }
    },
    {
      "displayName": "Grill'd",
      "id": "grilld-d43c69",
      "locationSet": {"include": ["au"]},
      "tags": {
        "amenity": "fast_food",
        "brand": "Grill'd",
        "brand:wikidata": "Q18165852",
        "brand:wikipedia": "en:Grill'd",
        "cuisine": "burger",
        "name": "Grill'd",
        "takeaway": "yes"
      }
    },
    {
      "displayName": "Guthrie's",
      "id": "guthries-4d2ff4",
      "locationSet": {"include": ["us"]},
      "tags": {
        "amenity": "fast_food",
        "brand": "Guthrie's",
        "brand:wikidata": "Q5621751",
        "brand:wikipedia": "en:Guthrie's",
        "cuisine": "chicken",
        "name": "Guthrie's",
        "takeaway": "yes"
      }
    },
    {
      "displayName": "Habib's",
      "id": "habibs-4b8fdf",
      "locationSet": {"include": ["br", "mx"]},
      "tags": {
        "amenity": "fast_food",
        "brand": "Habib's",
        "brand:wikidata": "Q2504930",
        "brand:wikipedia": "en:Habib's",
        "cuisine": "middle_eastern",
        "name": "Habib's",
        "takeaway": "yes"
      }
    },
    {
      "displayName": "Haldiram's",
      "id": "haldirams-aba431",
      "locationSet": {"include": ["in"]},
      "tags": {
        "alt_name": "Haldiram",
        "amenity": "fast_food",
        "brand": "Haldiram's",
        "brand:wikidata": "Q17054442",
        "brand:wikipedia": "en:Haldiram's",
        "cuisine": "indian",
        "name": "Haldiram's",
        "takeaway": "yes"
      }
    },
    {
      "displayName": "Hallo Pizza",
      "id": "hallopizza-6ea233",
      "locationSet": {"include": ["de"]},
      "tags": {
        "amenity": "fast_food",
        "brand": "Hallo Pizza",
        "brand:wikidata": "Q1571798",
        "brand:wikipedia": "de:Hallo Pizza",
        "cuisine": "pizza",
        "name": "Hallo Pizza",
        "takeaway": "yes"
      }
    },
    {
      "displayName": "Hardee's",
      "id": "hardees-9b2018",
      "locationSet": {
        "include": ["001"],
        "exclude": ["pl"]
      },
      "tags": {
        "amenity": "fast_food",
        "brand": "Hardee's",
        "brand:wikidata": "Q1585088",
        "brand:wikipedia": "en:Hardee's",
        "cuisine": "burger",
        "name": "Hardee's",
        "takeaway": "yes"
      }
    },
    {
      "displayName": "Harry Ramsden's",
      "id": "harryramsdens-2dcf5d",
      "locationSet": {"include": ["gb", "ie"]},
      "tags": {
        "amenity": "fast_food",
        "brand": "Harry Ramsden's",
        "brand:wikidata": "Q5671849",
        "brand:wikipedia": "en:Harry Ramsden's",
        "cuisine": "fish_and_chips",
        "name": "Harry Ramsden's",
        "takeaway": "yes"
      }
    },
    {
      "displayName": "Harvey's",
      "id": "harveys-e49d2e",
      "locationSet": {"include": ["ca"]},
      "tags": {
        "amenity": "fast_food",
        "brand": "Harvey's",
        "brand:wikidata": "Q1466184",
        "brand:wikipedia": "en:Harvey's",
        "cuisine": "burger",
        "name": "Harvey's",
        "takeaway": "yes"
      }
    },
    {
      "displayName": "Hero Certified Burgers",
      "id": "herocertifiedburgers-e49d2e",
      "locationSet": {"include": ["ca"]},
      "tags": {
        "amenity": "fast_food",
        "brand": "Hero Certified Burgers",
        "brand:wikidata": "Q5742641",
        "brand:wikipedia": "en:Hero Certified Burgers",
        "cuisine": "burger",
        "name": "Hero Certified Burgers",
        "takeaway": "yes"
      }
    },
    {
      "displayName": "Hesburger",
      "id": "hesburger-9b2018",
      "locationSet": {
        "include": ["001"],
        "exclude": ["pl"]
      },
      "tags": {
        "amenity": "fast_food",
        "brand": "Hesburger",
        "brand:wikidata": "Q1276832",
        "brand:wikipedia": "en:Hesburger",
        "cuisine": "burger",
        "name": "Hesburger",
        "takeaway": "yes"
      }
    },
    {
      "displayName": "HokBen",
      "id": "hokben-034122",
      "locationSet": {"include": ["id"]},
      "tags": {
        "alt_name": "Hoka Hoka Bento",
        "amenity": "fast_food",
        "brand": "HokBen",
        "brand:wikidata": "Q5877948",
        "brand:wikipedia": "en:HokBen",
        "cuisine": "japanese",
        "name": "HokBen",
        "takeaway": "yes"
      }
    },
    {
      "displayName": "Honey Baked Ham",
      "id": "honeybakedham-4d2ff4",
      "locationSet": {"include": ["us"]},
      "matchNames": ["honey baked ham company"],
      "matchTags": ["shop/butcher", "shop/deli"],
      "tags": {
        "alt_name": "HoneyBaked Ham",
        "amenity": "fast_food",
        "brand": "Honey Baked Ham",
        "brand:wikidata": "Q5893363",
        "brand:wikipedia": "en:The Honey Baked Ham Company",
        "cuisine": "american",
        "name": "Honey Baked Ham",
        "official_name": "The Honey Baked Ham Company",
        "takeaway": "yes"
      }
    },
    {
      "displayName": "Hot Dog on a Stick",
      "id": "hotdogonastick-4d2ff4",
      "locationSet": {"include": ["us"]},
      "tags": {
        "amenity": "fast_food",
        "brand": "Hot Dog on a Stick",
        "brand:wikidata": "Q5909922",
        "brand:wikipedia": "en:Hot Dog on a Stick",
        "cuisine": "hot_dog",
        "name": "Hot Dog on a Stick",
        "takeaway": "yes"
      }
    },
    {
      "displayName": "Hot Head Burritos",
      "id": "hotheadburritos-4d2ff4",
      "locationSet": {"include": ["us"]},
      "tags": {
        "amenity": "fast_food",
        "brand": "Hot Head Burritos",
        "brand:wikidata": "Q5910008",
        "brand:wikipedia": "en:Hot Head Burritos",
        "cuisine": "mexican",
        "name": "Hot Head Burritos",
        "short_name": "Hot Head",
        "takeaway": "yes"
      }
    },
    {
      "displayName": "HuHot",
      "id": "huhot-4d2ff4",
      "locationSet": {"include": ["us"]},
      "tags": {
        "amenity": "fast_food",
        "brand": "HuHot",
        "brand:wikidata": "Q5924606",
        "brand:wikipedia": "en:HuHot Mongolian Grill",
        "cuisine": "bbq",
        "name": "HuHot",
        "official_name": "HuHot Mongolian Grill",
        "takeaway": "yes"
      }
    },
    {
      "displayName": "Hungry Howie's",
      "id": "hungryhowies-4d2ff4",
      "locationSet": {"include": ["us"]},
      "matchNames": ["hungry howies pizza"],
      "tags": {
        "amenity": "fast_food",
        "brand": "Hungry Howie's",
        "brand:wikidata": "Q16985303",
        "brand:wikipedia": "en:Hungry Howie's Pizza",
        "cuisine": "pizza",
        "name": "Hungry Howie's",
        "takeaway": "yes"
      }
    },
    {
      "displayName": "Hungry Jacks",
      "id": "hungryjacks-d43c69",
      "locationSet": {"include": ["au"]},
      "tags": {
        "amenity": "fast_food",
        "brand": "Hungry Jacks",
        "brand:wikidata": "Q3036373",
        "brand:wikipedia": "en:Hungry Jack's",
        "cuisine": "burger",
        "name": "Hungry Jacks",
        "takeaway": "yes"
      }
    },
    {
      "displayName": "Hungry Lion",
      "id": "hungrylion-f0dc80",
      "locationSet": {
        "include": [
          "ao",
          "bw",
          "ls",
          "na",
          "sz",
          "za",
          "zm"
        ]
      },
      "tags": {
        "amenity": "fast_food",
        "brand": "Hungry Lion",
        "cuisine": "chicken",
        "name": "Hungry Lion",
        "takeaway": "yes"
      }
    },
    {
      "displayName": "IKEA Restaurant",
      "id": "ikearestaurant-658eea",
      "locationSet": {"include": ["001"]},
      "tags": {
        "amenity": "fast_food",
        "brand": "IKEA",
        "brand:wikidata": "Q54078",
        "brand:wikipedia": "en:IKEA",
        "cuisine": "swedish",
        "name": "IKEA Restaurant",
        "takeaway": "yes"
      }
    },
    {
      "displayName": "immergrün",
      "id": "immergrun-6ea233",
      "locationSet": {"include": ["de"]},
      "matchNames": ["immergün"],
      "tags": {
        "amenity": "fast_food",
        "brand": "immergrün",
        "brand:wikidata": "Q62589254",
        "cuisine": "sandwich;salad;juice",
        "name": "immergrün",
        "takeaway": "yes"
      }
    },
    {
      "displayName": "Imo's Pizza",
      "id": "imospizza-4d2ff4",
      "locationSet": {"include": ["us"]},
      "tags": {
        "amenity": "fast_food",
        "brand": "Imo's Pizza",
        "brand:wikidata": "Q6005623",
        "brand:wikipedia": "en:Imo's Pizza",
        "cuisine": "pizza",
        "name": "Imo's Pizza",
        "takeaway": "yes"
      }
    },
    {
      "displayName": "In-N-Out Burger",
      "id": "innoutburger-4d2ff4",
      "locationSet": {"include": ["us"]},
      "tags": {
        "amenity": "fast_food",
        "brand": "In-N-Out Burger",
        "brand:wikidata": "Q1205312",
        "brand:wikipedia": "en:In-N-Out Burger",
        "cuisine": "burger",
        "name": "In-N-Out Burger",
        "takeaway": "yes"
      }
    },
    {
      "displayName": "itsu",
      "id": "itsu-56a2ff",
      "locationSet": {"include": ["gb", "us"]},
      "tags": {
        "amenity": "fast_food",
        "brand": "itsu",
        "brand:wikidata": "Q6094914",
        "brand:wikipedia": "en:Itsu",
        "cuisine": "asian",
        "name": "itsu",
        "takeaway": "yes"
      }
    },
    {
      "displayName": "Jack in the Box",
      "id": "jackinthebox-4d2ff4",
      "locationSet": {"include": ["us"]},
      "tags": {
        "amenity": "fast_food",
        "brand": "Jack in the Box",
        "brand:wikidata": "Q1538507",
        "brand:wikipedia": "en:Jack in the Box",
        "cuisine": "burger",
        "name": "Jack in the Box",
        "takeaway": "yes"
      }
    },
    {
      "displayName": "Jack's",
      "id": "jacks-4d2ff4",
      "locationSet": {"include": ["us"]},
      "tags": {
        "amenity": "fast_food",
        "brand": "Jack's",
        "brand:wikidata": "Q6110826",
        "brand:wikipedia": "en:Jack's",
        "cuisine": "burger",
        "name": "Jack's",
        "takeaway": "yes"
      }
    },
    {
      "displayName": "Jamba Juice",
      "id": "jambajuice-4d2ff4",
      "locationSet": {"include": ["us"]},
      "tags": {
        "amenity": "fast_food",
        "brand": "Jamba Juice",
        "brand:wikidata": "Q3088784",
        "brand:wikipedia": "en:Jamba Juice",
        "cuisine": "juice",
        "name": "Jamba Juice",
        "takeaway": "yes"
      }
    },
    {
      "displayName": "Jeno's Pizza",
      "id": "jenospizza-9bc101",
      "locationSet": {"include": ["co"]},
      "tags": {
        "amenity": "fast_food",
        "brand": "Jeno's Pizza",
        "brand:wikidata": "Q4269128",
        "brand:wikipedia": "en:Jeno's Pizza (Colombia)",
        "cuisine": "pizza",
        "name": "Jeno's Pizza",
        "takeaway": "yes"
      }
    },
    {
      "displayName": "Jersey Mike's Subs",
      "id": "jerseymikessubs-4d2ff4",
      "locationSet": {"include": ["us"]},
      "tags": {
        "amenity": "fast_food",
        "brand": "Jersey Mike's Subs",
        "brand:wikidata": "Q6184897",
        "brand:wikipedia": "en:Jersey Mike's Subs",
        "cuisine": "sandwich",
        "name": "Jersey Mike's Subs",
        "short_name": "Jersey Mike's",
        "takeaway": "yes"
      }
    },
    {
      "displayName": "Jimmy John's",
      "id": "jimmyjohns-4d2ff4",
      "locationSet": {"include": ["us"]},
      "tags": {
        "amenity": "fast_food",
        "brand": "Jimmy John's",
        "brand:wikidata": "Q1689380",
        "brand:wikipedia": "en:Jimmy John's",
        "cuisine": "sandwich",
        "name": "Jimmy John's",
        "official_name": "Jimmy John's Gourmet Sandwiches",
        "takeaway": "yes"
      }
    },
    {
      "displayName": "Jimmy the Greek",
      "id": "jimmythegreek-bf41de",
      "locationSet": {"include": ["ae", "ca"]},
      "tags": {
        "amenity": "fast_food",
        "brand": "Jimmy the Greek",
        "brand:wikidata": "Q17077817",
        "brand:wikipedia": "en:Jimmy the Greek (restaurant)",
        "cuisine": "greek",
        "name": "Jimmy the Greek",
        "takeaway": "yes"
      }
    },
    {
      "displayName": "Jollibee",
      "id": "jollibee-9b2018",
      "locationSet": {
        "include": ["001"],
        "exclude": ["pl"]
      },
      "tags": {
        "amenity": "fast_food",
        "brand": "Jollibee",
        "brand:wikidata": "Q37614",
        "brand:wikipedia": "en:Jollibee",
        "cuisine": "burger",
        "name": "Jollibee",
        "takeaway": "yes"
      }
    },
    {
      "displayName": "Jumbo King",
      "id": "jumboking-aba431",
      "locationSet": {"include": ["in"]},
      "tags": {
        "amenity": "fast_food",
        "brand": "Jumbo King",
        "brand:wikidata": "Q6310895",
        "brand:wikipedia": "en:Jumbo King",
        "cuisine": "burger",
        "name": "Jumbo King",
        "takeaway": "yes"
      }
    },
    {
      "displayName": "Just Salad",
      "id": "justsalad-4d2ff4",
      "locationSet": {"include": ["us"]},
      "tags": {
        "amenity": "fast_food",
        "brand": "Just Salad",
        "brand:wikidata": "Q23091823",
        "brand:wikipedia": "en:Just Salad",
        "cuisine": "salad",
        "name": "Just Salad",
        "takeaway": "yes"
      }
    },
    {
      "displayName": "KaatiZone",
      "id": "kaatizone-aba431",
      "locationSet": {"include": ["in"]},
      "tags": {
        "amenity": "fast_food",
        "brand": "KaatiZone",
        "brand:wikidata": "Q6343638",
        "brand:wikipedia": "en:KaatiZone",
        "cuisine": "indian",
        "name": "KaatiZone",
        "takeaway": "yes"
      }
    },
    {
      "displayName": "KBTR",
      "id": "kbtr-9b2018",
      "locationSet": {
        "include": ["001"],
        "exclude": ["pl"]
      },
      "tags": {
        "amenity": "fast_food",
        "brand": "KBTR",
        "brand:wikidata": "Q6382370",
        "brand:wikipedia": "en:Kebab Turki Baba Rafi",
        "cuisine": "kebab",
        "name": "KBTR",
        "official_name": "Kebab Turki Baba Rafi",
        "takeaway": "yes"
      }
    },
    {
      "displayName": "Kebab King",
      "id": "kebabking-658eea",
      "locationSet": {"include": ["pl"]},
      "tags": {
        "amenity": "fast_food",
        "brand": "Kebab King",
        "cuisine": "kebap",
        "name": "Kebab King",
        "takeaway": "yes"
      }
    },
    {
      "displayName": "Kernels Popcorn",
      "id": "kernelspopcorn-e49d2e",
      "locationSet": {"include": ["ca"]},
      "tags": {
        "amenity": "fast_food",
        "brand": "Kernels Popcorn",
        "brand:wikidata": "Q64876684",
        "cuisine": "popcorn",
        "name": "Kernels Popcorn",
        "takeaway": "yes"
      }
    },
    {
      "displayName": "KFC",
      "id": "kfc-658eea",
      "locationSet": {"include": ["001"]},
      "tags": {
        "alt_name": "Kentucky Fried Chicken",
        "amenity": "fast_food",
        "brand": "KFC",
        "brand:wikidata": "Q524757",
        "brand:wikipedia": "en:KFC",
        "cuisine": "chicken",
        "name": "KFC",
        "takeaway": "yes"
      }
    },
    {
      "displayName": "Kilimanjaro",
      "id": "kilimanjaro-3eb11d",
      "locationSet": {"include": ["ng"]},
      "tags": {
        "amenity": "fast_food",
        "brand": "Kilimanjaro",
        "brand:wikidata": "Q28453128",
        "brand:wikipedia": "en:Kilimanjaro (restaurant)",
        "cuisine": "nigerian",
        "name": "Kilimanjaro",
        "takeaway": "yes"
      }
    },
    {
      "displayName": "King of Donair",
      "id": "kingofdonair-e49d2e",
      "locationSet": {"include": ["ca"]},
      "tags": {
        "amenity": "fast_food",
        "brand": "King of Donair",
        "brand:wikidata": "Q6412223",
        "brand:wikipedia": "en:King of Donair",
        "cuisine": "kebab;pizza",
        "name": "King of Donair",
        "takeaway": "yes"
      }
    },
    {
      "displayName": "Kochlöffel",
      "id": "kochloffel-af032a",
      "locationSet": {"include": ["de", "tr"]},
      "tags": {
        "amenity": "fast_food",
        "brand": "Kochlöffel",
        "brand:wikidata": "Q315539",
        "brand:wikipedia": "en:Kochlöffel",
        "cuisine": "burger",
        "name": "Kochlöffel",
        "takeaway": "yes"
      }
    },
    {
      "displayName": "Kokoriko",
      "id": "kokoriko-9bc101",
      "locationSet": {"include": ["co"]},
      "tags": {
        "amenity": "fast_food",
        "brand": "Kokoriko",
        "brand:wikidata": "Q99433560",
        "brand:wikipedia": "es:Kokoriko",
        "cuisine": "chicken",
        "name": "Kokoriko",
        "takeaway": "yes"
      }
    },
    {
      "displayName": "Kotipizza",
      "id": "kotipizza-3dd6de",
      "locationSet": {"include": ["fi"]},
      "tags": {
        "amenity": "fast_food",
        "brand": "Kotipizza",
        "brand:wikidata": "Q1628625",
        "brand:wikipedia": "en:Kotipizza",
        "cuisine": "pizza",
        "name": "Kotipizza",
        "takeaway": "yes"
      }
    },
    {
      "displayName": "Krispy Kreme",
      "id": "krispykreme-9b2018",
      "locationSet": {
        "include": ["001"],
        "exclude": ["pl"]
      },
      "matchNames": ["krispy kreme doughnuts"],
      "tags": {
        "amenity": "fast_food",
        "brand": "Krispy Kreme",
        "brand:wikidata": "Q1192805",
        "brand:wikipedia": "en:Krispy Kreme",
        "cuisine": "donut",
        "name": "Krispy Kreme",
        "takeaway": "yes"
      }
    },
    {
      "displayName": "Krispy Krunchy Chicken",
      "id": "krispykrunchychicken-bca76b",
      "locationSet": {"include": ["mx", "us"]},
      "matchNames": ["crispy crunchy chicken"],
      "tags": {
        "amenity": "fast_food",
        "brand": "Krispy Krunchy Chicken",
        "brand:wikidata": "Q65087447",
        "brand:wikipedia": "en:Krispy Krunchy Chicken",
        "cuisine": "chicken",
        "name": "Krispy Krunchy Chicken",
        "takeaway": "yes"
      }
    },
    {
      "displayName": "Krystal",
      "id": "krystal-4d2ff4",
      "locationSet": {"include": ["us"]},
      "tags": {
        "amenity": "fast_food",
        "brand": "Krystal",
        "brand:wikidata": "Q472195",
        "brand:wikipedia": "en:Krystal (restaurant)",
        "cuisine": "burger",
        "name": "Krystal",
        "takeaway": "yes"
      }
    },
    {
      "displayName": "L&L Drive-Inn",
      "id": "landldriveinn-4d2ff4",
      "locationSet": {"include": ["us"]},
      "matchNames": ["l&l", "l&l drive-in"],
      "tags": {
        "amenity": "fast_food",
        "brand": "L&L Drive-Inn",
        "brand:wikidata": "Q6455441",
        "brand:wikipedia": "en:L&L Hawaiian Barbecue",
        "cuisine": "hawaiian",
        "name": "L&L Drive-Inn",
        "takeaway": "yes"
      }
    },
    {
      "displayName": "L&L Hawaiian Barbecue",
      "id": "landlhawaiianbarbecue-4d2ff4",
      "locationSet": {"include": ["us"]},
      "matchNames": ["l&l", "l&l hawaiian bbq"],
      "tags": {
        "amenity": "fast_food",
        "brand": "L&L Hawaiian Barbecue",
        "brand:wikidata": "Q6455441",
        "brand:wikipedia": "en:L&L Hawaiian Barbecue",
        "cuisine": "hawaiian",
        "name": "L&L Hawaiian Barbecue",
        "takeaway": "yes"
      }
    },
    {
      "displayName": "La Belle Province",
      "id": "labelleprovince-e49d2e",
      "locationSet": {"include": ["ca"]},
      "tags": {
        "amenity": "fast_food",
        "brand": "La Belle Province",
        "brand:wikidata": "Q3206579",
        "brand:wikipedia": "fr:La Belle Province (restaurant)",
        "cuisine": "burger;sandwich",
        "name": "La Belle Province",
        "takeaway": "yes"
      }
    },
    {
      "displayName": "La Boîte à Pizza",
      "id": "laboiteapizza-e4dee6",
      "locationSet": {"include": ["fr"]},
      "tags": {
        "amenity": "fast_food",
        "brand": "La Boîte à Pizza",
        "brand:wikidata": "Q3206840",
        "brand:wikipedia": "fr:La Boîte à Pizza",
        "cuisine": "pizza",
        "delivery": "yes",
        "name": "La Boîte à Pizza",
        "takeaway": "yes"
      }
    },
    {
      "displayName": "La Croissanterie",
      "id": "lacroissanterie-affad8",
      "locationSet": {
        "include": ["es", "fr", "gb"]
      },
      "tags": {
        "amenity": "fast_food",
        "brand": "La Croissanterie",
        "brand:wikidata": "Q3207961",
        "brand:wikipedia": "fr:La Croissanterie",
        "cuisine": "sandwich",
        "name": "La Croissanterie",
        "takeaway": "yes"
      }
    },
    {
      "displayName": "La Salsa",
      "id": "lasalsa-4d2ff4",
      "locationSet": {"include": ["us"]},
      "tags": {
        "amenity": "fast_food",
        "brand": "La Salsa",
        "brand:wikidata": "Q48835190",
        "brand:wikipedia": "en:La Salsa",
        "cuisine": "tex-mex",
        "name": "La Salsa",
        "takeaway": "yes"
      }
    },
    {
      "displayName": "Lafleur Restaurant",
      "id": "lafleurrestaurant-e49d2e",
      "locationSet": {"include": ["ca"]},
      "tags": {
        "amenity": "fast_food",
        "brand": "Lafleur Restaurant",
        "brand:wikidata": "Q3216107",
        "brand:wikipedia": "en:Lafleur Restaurants",
        "cuisine": "hotdog;hamburger",
        "name": "Lafleur Restaurant",
        "takeaway": "yes"
      }
    },
    {
      "displayName": "Le Kiosque à Pizzas",
      "id": "lekiosqueapizzas-1781f3",
      "locationSet": {
        "include": ["es", "fr", "pt"]
      },
      "tags": {
        "amenity": "fast_food",
        "brand": "Le Kiosque à Pizzas",
        "brand:wikidata": "Q3223839",
        "brand:wikipedia": "fr:Le Kiosque à Pizzas",
        "cuisine": "pizza",
        "name": "Le Kiosque à Pizzas",
        "takeaway": "yes"
      }
    },
    {
      "displayName": "Lee's Famous Recipe Chicken",
      "id": "leesfamousrecipechicken-d2abf0",
      "locationSet": {"include": ["ca", "us"]},
      "matchNames": ["lee's"],
      "tags": {
        "amenity": "fast_food",
        "brand": "Lee's Famous Recipe Chicken",
        "brand:wikidata": "Q6512810",
        "brand:wikipedia": "en:Lee's Famous Recipe Chicken",
        "cuisine": "chicken",
        "name": "Lee's Famous Recipe Chicken",
        "takeaway": "yes"
      }
    },
    {
      "displayName": "Lee's Sandwiches",
      "id": "leessandwiches-4d2ff4",
      "locationSet": {"include": ["us"]},
      "tags": {
        "amenity": "fast_food",
        "brand": "Lee's Sandwiches",
        "brand:wikidata": "Q6512823",
        "brand:wikipedia": "en:Lee's Sandwiches",
        "cuisine": "vietnamese;sandwich",
        "name": "Lee's Sandwiches",
        "takeaway": "yes"
      }
    },
    {
      "displayName": "LEON",
      "id": "leon-315484",
      "locationSet": {
        "include": ["ch", "gb", "ie", "nl", "us"]
      },
      "tags": {
        "amenity": "fast_food",
        "brand": "LEON",
        "brand:wikidata": "Q6524851",
        "brand:wikipedia": "en:Leon Restaurants",
        "cuisine": "burger;sandwich",
        "name": "LEON",
        "takeaway": "yes"
      }
    },
    {
      "displayName": "Little Caesars",
      "id": "littlecaesars-9b2018",
      "locationSet": {
        "include": ["001"],
        "exclude": ["pl"]
      },
      "matchNames": [
        "little caesars pizza",
        "little ceasars",
        "little ceasars pizza"
      ],
      "tags": {
        "amenity": "fast_food",
        "brand": "Little Caesars",
        "brand:wikidata": "Q1393809",
        "brand:wikipedia": "en:Little Caesars",
        "cuisine": "pizza",
        "name": "Little Caesars",
        "takeaway": "yes"
      }
    },
    {
      "displayName": "Long John Silver's",
      "id": "longjohnsilvers-9b2018",
      "locationSet": {
        "include": ["001"],
        "exclude": ["pl"]
      },
      "tags": {
        "amenity": "fast_food",
        "brand": "Long John Silver's",
        "brand:wikidata": "Q1535221",
        "brand:wikipedia": "en:Long John Silver's",
        "cuisine": "seafood",
        "name": "Long John Silver's",
        "takeaway": "yes"
      }
    },
    {
      "displayName": "Lotteria",
      "id": "lotteria-9b2018",
      "locationSet": {
        "include": ["001"],
        "exclude": ["pl"]
      },
      "tags": {
        "amenity": "fast_food",
        "brand": "Lotteria",
        "brand:wikidata": "Q249525",
        "brand:wikipedia": "en:Lotteria",
        "cuisine": "burger",
        "name": "Lotteria",
        "takeaway": "yes"
      }
    },
    {
      "displayName": "Louisiana Famous Fried Chicken",
      "id": "louisianafamousfriedchicken-4d2ff4",
      "locationSet": {"include": ["us"]},
      "tags": {
        "amenity": "fast_food",
        "brand": "Louisiana Famous Fried Chicken",
        "brand:wikidata": "Q6689122",
        "brand:wikipedia": "en:Louisiana Famous Fried Chicken",
        "cuisine": "chicken",
        "name": "Louisiana Famous Fried Chicken",
        "takeaway": "yes"
      }
    },
    {
      "displayName": "Manchu Wok",
      "id": "manchuwok-d2abf0",
      "locationSet": {"include": ["ca", "us"]},
      "tags": {
        "amenity": "fast_food",
        "brand": "Manchu Wok",
        "brand:wikidata": "Q6747622",
        "brand:wikipedia": "en:Manchu Wok",
        "cuisine": "chinese",
        "name": "Manchu Wok",
        "takeaway": "yes"
      }
    },
    {
      "displayName": "Mang Inasal",
      "id": "manginasal-33d36e",
      "locationSet": {"include": ["ph"]},
      "tags": {
        "amenity": "fast_food",
        "brand": "Mang Inasal",
        "brand:wikidata": "Q6748573",
        "brand:wikipedia": "en:Mang Inasal",
        "cuisine": "barbecue",
        "name": "Mang Inasal",
        "takeaway": "yes"
      }
    },
    {
      "displayName": "Manhattan Bagel",
      "id": "manhattanbagel-4d2ff4",
      "locationSet": {"include": ["us"]},
      "matchNames": ["manhattan bagels"],
      "tags": {
        "amenity": "fast_food",
        "brand": "Manhattan Bagel",
        "brand:wikidata": "Q64517333",
        "cuisine": "bagel",
        "name": "Manhattan Bagel",
        "takeaway": "yes"
      }
    },
    {
      "displayName": "Marrybrown",
      "id": "marrybrown-9b2018",
      "locationSet": {
        "include": ["001"],
        "exclude": ["pl"]
      },
      "tags": {
        "amenity": "fast_food",
        "brand": "Marrybrown",
        "brand:wikidata": "Q3380773",
        "brand:wikipedia": "en:Marrybrown",
        "cuisine": "malaysian;chicken;burger",
        "diet:halal": "yes",
        "name": "Marrybrown",
        "takeaway": "yes"
      }
    },
    {
      "displayName": "Mary Brown's",
      "id": "marybrowns-e49d2e",
      "locationSet": {"include": ["ca"]},
      "tags": {
        "amenity": "fast_food",
        "brand": "Mary Brown's",
        "brand:wikidata": "Q6779125",
        "brand:wikipedia": "en:Mary Brown's",
        "cuisine": "chicken",
        "name": "Mary Brown's",
        "takeaway": "yes"
      }
    },
    {
      "displayName": "Max",
      "id": "max-72e24f",
      "locationSet": {"include": ["se"]},
      "tags": {
        "amenity": "fast_food",
        "brand": "Max",
        "brand:wikidata": "Q1912172",
        "brand:wikipedia": "en:Max Hamburgers",
        "cuisine": "burger",
        "name": "Max",
        "takeaway": "yes"
      }
    },
    {
      "displayName": "McDonald's",
      "id": "mcdonalds-658eea",
      "locationSet": {"include": ["001"]},
      "tags": {
        "amenity": "fast_food",
        "brand": "McDonald's",
        "brand:wikidata": "Q38076",
        "brand:wikipedia": "en:McDonald's",
        "cuisine": "burger",
        "name": "McDonald's",
        "takeaway": "yes"
      }
    },
    {
      "displayName": "Mei & Mei",
      "id": "meiandmei-f48b39",
      "locationSet": {
        "include": ["001"],
        "exclude": ["cn", "tw"]
      },
      "tags": {
        "amenity": "fast_food",
        "brand": "Mei & Mei",
        "brand:en": "Mei & Mei",
        "brand:zh": "美而美",
        "cuisine": "breakfast",
        "name": "Mei & Mei",
        "name:en": "Mei & Mei",
        "name:zh": "美而美",
        "takeaway": "yes"
      }
    },
    {
      "displayName": "Meson Sandwiches",
      "id": "mesonsandwiches-4d2ff4",
      "locationSet": {"include": ["us"]},
      "matchNames": ["el meson"],
      "tags": {
        "alt_name": "El Meson Sandwiches",
        "amenity": "fast_food",
        "brand": "Meson Sandwiches",
        "brand:wikidata": "Q5351585",
        "brand:wikipedia": "en:El Meson Sandwiches",
        "cuisine": "sandwich",
        "name": "Meson Sandwiches",
        "short_name": "Meson",
        "takeaway": "yes"
      }
    },
    {
      "displayName": "Miami Grill",
      "id": "miamigrill-4d2ff4",
      "locationSet": {"include": ["us"]},
      "tags": {
        "amenity": "fast_food",
        "brand": "Miami Grill",
        "brand:wikidata": "Q6827420",
        "brand:wikipedia": "en:Miami Subs Grill",
        "cuisine": "american",
        "name": "Miami Grill",
        "takeaway": "yes"
      }
    },
    {
      "displayName": "Mighty Taco",
      "id": "mightytaco-4d2ff4",
      "locationSet": {"include": ["us"]},
      "tags": {
        "amenity": "fast_food",
        "brand": "Mighty Taco",
        "brand:wikidata": "Q6844210",
        "brand:wikipedia": "en:Mighty Taco",
        "cuisine": "mexican",
        "name": "Mighty Taco",
        "takeaway": "yes"
      }
    },
    {
      "displayName": "Milio's Sandwiches",
      "id": "milios-4d2ff4",
      "locationSet": {"include": ["us"]},
      "tags": {
        "amenity": "fast_food",
        "brand": "Milio's",
        "brand:wikidata": "Q6851893",
        "brand:wikipedia": "en:Milio's Sandwiches",
        "cuisine": "sandwich",
        "name": "Milio's",
        "official_name": "Milio's Sandwiches",
        "takeaway": "yes"
      }
    },
    {
      "displayName": "Minute Burger",
      "id": "minuteburger-33d36e",
      "locationSet": {"include": ["ph"]},
      "tags": {
        "amenity": "fast_food",
        "brand": "Minute Burger",
        "brand:wikidata": "Q62273503",
        "cuisine": "burger",
        "name": "Minute Burger",
        "takeaway": "yes"
      }
    },
    {
      "displayName": "Mo'men",
      "id": "momen-f39225",
      "locationSet": {
        "include": [
          "bh",
          "eg",
          "kw",
          "ly",
          "my",
          "sa",
          "sd"
        ]
      },
      "tags": {
        "amenity": "fast_food",
        "brand": "Mo'men",
        "brand:wikidata": "Q3317535",
        "brand:wikipedia": "en:Mo'men",
        "cuisine": "sandwich",
        "name": "Mo'men",
        "takeaway": "yes"
      }
    },
    {
      "displayName": "MOD Pizza",
      "id": "modpizza-9cbad3",
      "locationSet": {
        "include": ["ca", "gb-eng", "us"]
      },
      "tags": {
        "amenity": "fast_food",
        "brand": "MOD Pizza",
        "brand:wikidata": "Q19903469",
        "brand:wikipedia": "en:MOD Pizza",
        "cuisine": "pizza",
        "name": "MOD Pizza",
        "takeaway": "yes"
      }
    },
    {
      "displayName": "Moe's Southwest Grill",
      "id": "moessouthwestgrill-4d2ff4",
      "locationSet": {"include": ["us"]},
      "tags": {
        "amenity": "fast_food",
        "brand": "Moe's Southwest Grill",
        "brand:wikidata": "Q6889938",
        "brand:wikipedia": "en:Moe's Southwest Grill",
        "cuisine": "mexican",
        "name": "Moe's Southwest Grill",
        "short_name": "Moe's",
        "takeaway": "yes"
      }
    },
    {
      "displayName": "Mooyah",
      "id": "mooyah-4d2ff4",
      "locationSet": {"include": ["us"]},
      "tags": {
        "amenity": "fast_food",
        "brand": "Mooyah",
        "brand:wikidata": "Q6908759",
        "brand:wikipedia": "en:Mooyah",
        "cuisine": "burger",
        "name": "Mooyah",
        "takeaway": "yes"
      }
    },
    {
      "displayName": "Morley's",
      "id": "morleys-45095e",
      "locationSet": {"include": ["gb"]},
      "tags": {
        "amenity": "fast_food",
        "brand": "Morley's",
        "brand:wikidata": "Q21008528",
        "brand:wikipedia": "en:Morley's",
        "cuisine": "chicken",
        "name": "Morley's",
        "takeaway": "yes"
      }
    },
    {
      "displayName": "Mr Bigg's",
      "id": "mrbiggs-282078",
      "locationSet": {"include": ["gh", "ng"]},
      "tags": {
        "amenity": "fast_food",
        "brand": "Mr Bigg's",
        "brand:wikidata": "Q955488",
        "brand:wikipedia": "en:Mr Bigg's",
        "cuisine": "nigerian",
        "name": "Mr Bigg's",
        "takeaway": "yes"
      }
    },
    {
      "displayName": "Mr. Pizza",
      "id": "mrpizza-c56583",
      "locationSet": {"include": ["kr"]},
      "tags": {
        "amenity": "fast_food",
        "brand": "Mr. Pizza",
        "brand:wikidata": "Q5361801",
        "brand:wikipedia": "en:Mr. Pizza",
        "cuisine": "pizza",
        "name:en": "Mr. Pizza",
        "name:ko": "미스터피자",
        "takeaway": "yes"
      }
    },
    {
      "displayName": "Mr. Sub",
      "id": "mrsub-658eea",
      "locationSet": {"include": ["001"]},
      "tags": {
        "amenity": "fast_food",
        "brand": "Mr. Sub",
        "brand:wikidata": "Q6929225",
        "brand:wikipedia": "en:Mr. Sub",
        "cuisine": "sandwich",
        "name": "Mr. Sub",
        "takeaway": "yes"
      }
    },
    {
      "displayName": "Mucho Burrito",
      "id": "muchoburrito-437ecc",
      "locationSet": {
        "include": ["ca", "gb", "us"]
      },
      "tags": {
        "amenity": "fast_food",
        "brand": "Mucho Burrito",
        "brand:wikidata": "Q65148332",
        "cuisine": "mexican",
        "name": "Mucho Burrito",
        "takeaway": "yes"
      }
    },
    {
      "displayName": "Nathan's",
      "id": "nathans-4d2ff4",
      "locationSet": {"include": ["us"]},
      "matchNames": ["nathans famous"],
      "tags": {
        "amenity": "fast_food",
        "brand": "Nathan's",
        "brand:wikidata": "Q1319505",
        "brand:wikipedia": "en:Nathan's Famous",
        "cuisine": "hot_dog",
        "name": "Nathan's",
        "takeaway": "yes"
      }
    },
    {
      "displayName": "Nestlé Toll House Café",
      "id": "nestletollhousecafe-4d2ff4",
      "locationSet": {"include": ["us"]},
      "tags": {
        "amenity": "fast_food",
        "brand": "Nestlé Toll House Café",
        "brand:wikidata": "Q6997922",
        "brand:wikipedia": "en:Nestlé Toll House Café",
        "cuisine": "dessert",
        "name": "Nestlé Toll House Café",
        "takeaway": "yes"
      }
    },
    {
      "displayName": "New York Fries",
      "id": "newyorkfries-e49d2e",
      "locationSet": {"include": ["ca"]},
      "tags": {
        "amenity": "fast_food",
        "brand": "New York Fries",
        "brand:wikidata": "Q7013558",
        "brand:wikipedia": "en:New York Fries",
        "cuisine": "fries",
        "name": "New York Fries",
        "takeaway": "yes"
      }
    },
    {
      "displayName": "New York Pizza",
      "id": "newyorkpizza-60a83c",
      "locationSet": {"include": ["nl"]},
      "tags": {
        "amenity": "fast_food",
        "brand": "New York Pizza",
        "brand:wikidata": "Q2639128",
        "brand:wikipedia": "nl:New York Pizza",
        "cuisine": "pizza",
        "name": "New York Pizza",
        "takeaway": "yes"
      }
    },
    {
      "displayName": "Noah's Bagels",
      "id": "noahsbagels-4d2ff4",
      "locationSet": {"include": ["us"]},
      "matchNames": ["noahs ny bagels"],
      "tags": {
        "amenity": "fast_food",
        "brand": "Noah's Bagels",
        "brand:wikidata": "Q64517373",
        "cuisine": "bagel",
        "name": "Noah's Bagels",
        "official_name": "Noah's New York Bagels",
        "takeaway": "yes"
      }
    },
    {
      "displayName": "Noodle Box",
      "id": "noodlebox-d43c69",
      "locationSet": {"include": ["au"]},
      "tags": {
        "amenity": "fast_food",
        "brand": "Noodle Box",
        "brand:wikidata": "Q7049671",
        "brand:wikipedia": "en:Noodle Box",
        "cuisine": "noodle",
        "name": "Noodle Box",
        "takeaway": "yes"
      }
    },
    {
      "displayName": "Nordsee",
      "id": "nordsee-157c6b",
      "locationSet": {
        "include": ["at", "ch", "de"]
      },
      "tags": {
        "amenity": "fast_food",
        "brand": "Nordsee",
        "brand:wikidata": "Q74866",
        "brand:wikipedia": "en:Nordsee",
        "cuisine": "seafood",
        "name": "Nordsee",
        "takeaway": "yes"
      }
    },
    {
      "displayName": "Num Pang",
      "id": "numpang-4d2ff4",
      "locationSet": {"include": ["us"]},
      "tags": {
        "amenity": "fast_food",
        "brand": "Num Pang",
        "brand:wikidata": "Q62079702",
        "cuisine": "cambodian;sandwich",
        "name": "Num Pang",
        "takeaway": "yes"
      }
    },
    {
      "displayName": "O'Tacos",
      "id": "otacos-763869",
      "locationSet": {"include": ["be", "fr"]},
      "tags": {
        "amenity": "fast_food",
        "brand": "O'Tacos",
        "brand:wikidata": "Q28494040",
        "brand:wikipedia": "en:O'Tacos",
        "cuisine": "mexican",
        "name": "O'Tacos",
        "takeaway": "yes"
      }
    },
    {
      "displayName": "Oporto",
      "id": "oporto-d43c69",
      "locationSet": {"include": ["au"]},
      "tags": {
        "amenity": "fast_food",
        "brand": "Oporto",
        "brand:wikidata": "Q4412342",
        "brand:wikipedia": "en:Oporto (restaurant)",
        "cuisine": "burger;chicken",
        "name": "Oporto",
        "takeaway": "yes"
      }
    },
    {
      "displayName": "Orange Julius",
      "id": "orangejulius-4d2ff4",
      "locationSet": {"include": ["us"]},
      "tags": {
        "amenity": "fast_food",
        "brand": "Orange Julius",
        "brand:wikidata": "Q3355059",
        "brand:wikipedia": "en:Orange Julius",
        "cuisine": "juice",
        "name": "Orange Julius",
        "takeaway": "yes"
      }
    },
    {
      "displayName": "P. Terry's",
      "id": "pterrys-4d2ff4",
      "locationSet": {"include": ["us"]},
      "tags": {
        "amenity": "fast_food",
        "brand": "P. Terry's",
        "brand:wikidata": "Q19903521",
        "cuisine": "burger",
        "name": "P. Terry's",
        "official_name": "P. Terry's Burger Stand",
        "takeaway": "yes"
      }
    },
    {
      "displayName": "Pal's",
      "id": "pals-4d2ff4",
      "locationSet": {"include": ["us"]},
      "tags": {
        "amenity": "fast_food",
        "brand": "Pal's",
        "brand:wikidata": "Q7126094",
        "brand:wikipedia": "en:Pal's",
        "cuisine": "burger",
        "name": "Pal's",
        "official_name": "Pal's Sudden Service",
        "takeaway": "yes"
      }
    },
    {
      "displayName": "Panago",
      "id": "panago-e49d2e",
      "locationSet": {"include": ["ca"]},
      "tags": {
        "amenity": "fast_food",
        "brand": "Panago",
        "brand:wikidata": "Q17111672",
        "brand:wikipedia": "en:Panago",
        "cuisine": "pizza",
        "name": "Panago",
        "takeaway": "yes"
      }
    },
    {
      "displayName": "Panda Express",
      "id": "pandaexpress-4d2ff4",
      "locationSet": {"include": ["us"]},
      "matchNames": ["panda"],
      "tags": {
        "amenity": "fast_food",
        "brand": "Panda Express",
        "brand:wikidata": "Q1358690",
        "brand:wikipedia": "en:Panda Express",
        "cuisine": "chinese",
        "name": "Panda Express",
        "takeaway": "yes"
      }
    },
    {
      "displayName": "Panera Bread",
      "id": "panerabread-d2abf0",
      "locationSet": {"include": ["ca", "us"]},
      "tags": {
        "amenity": "fast_food",
        "brand": "Panera Bread",
        "brand:wikidata": "Q7130852",
        "brand:wikipedia": "en:Panera Bread",
        "cuisine": "sandwich;bakery",
        "name": "Panera Bread",
        "short_name": "Panera",
        "takeaway": "yes"
      }
    },
    {
      "displayName": "Panos",
      "id": "panos-f9b8a7",
      "locationSet": {
        "include": [
          "ae",
          "be",
          "cz",
          "nl",
          "sk",
          "tw"
        ]
      },
      "tags": {
        "amenity": "fast_food",
        "brand": "Panos",
        "brand:wikidata": "Q3384496",
        "brand:wikipedia": "nl:Panos",
        "cuisine": "sandwich",
        "name": "Panos",
        "takeaway": "yes"
      }
    },
    {
      "displayName": "Pans & Company",
      "id": "pansandcompany-b2cd69",
      "locationSet": {
        "include": ["es", "it", "pt"]
      },
      "tags": {
        "amenity": "fast_food",
        "brand": "Pans & Company",
        "brand:wikidata": "Q11697586",
        "brand:wikipedia": "es:Pans & Company",
        "cuisine": "sandwich",
        "name": "Pans & Company",
        "takeaway": "yes"
      }
    },
    {
      "displayName": "Papa John's",
      "id": "papajohns-658eea",
      "locationSet": {"include": ["001"]},
      "matchNames": [
        "papa john",
        "papa john pizza",
        "papa johns pizza"
      ],
      "tags": {
        "amenity": "fast_food",
        "brand": "Papa John's",
        "brand:wikidata": "Q2759586",
        "brand:wikipedia": "en:Papa John's Pizza",
        "cuisine": "pizza",
        "name": "Papa John's",
        "takeaway": "yes"
      }
    },
    {
      "displayName": "Papa Murphy's",
      "id": "papamurphys-d2abf0",
      "locationSet": {"include": ["ca", "us"]},
      "matchNames": [
        "papa murphy",
        "papa murphy pizza",
        "papa murphys pizza"
      ],
      "tags": {
        "amenity": "fast_food",
        "brand": "Papa Murphy's",
        "brand:wikidata": "Q7132349",
        "brand:wikipedia": "en:Papa Murphy's",
        "cuisine": "pizza",
        "name": "Papa Murphy's",
        "official_name": "Papa Murphy's Take 'N' Bake Pizza",
        "takeaway": "only"
      }
    },
    {
      "displayName": "Penn Station",
      "id": "pennstation-4d2ff4",
      "locationSet": {"include": ["us"]},
      "tags": {
        "amenity": "fast_food",
        "brand": "Penn Station",
        "brand:wikidata": "Q7163311",
        "brand:wikipedia": "en:Penn Station (restaurant)",
        "cuisine": "sandwich",
        "name": "Penn Station",
        "takeaway": "yes"
      }
    },
    {
      "displayName": "Peppes Pizza",
      "id": "peppespizza-86f814",
      "locationSet": {"include": ["no"]},
      "tags": {
        "amenity": "fast_food",
        "brand": "Peppes Pizza",
        "brand:wikidata": "Q911973",
        "brand:wikipedia": "en:Peppes Pizza",
        "cuisine": "pizza",
        "name": "Peppes Pizza",
        "takeaway": "yes"
      }
    },
    {
      "displayName": "PFK",
      "id": "pfk-a54c14",
      "locationSet": {
        "include": ["quebec.geojson"]
      },
      "matchNames": ["kentucky fried chicken"],
      "tags": {
        "alt_name": "Poulet Frit Kentucky",
        "amenity": "fast_food",
        "brand": "KFC",
        "brand:wikidata": "Q524757",
        "brand:wikipedia": "fr:Kentucky Fried Chicken",
        "cuisine": "chicken",
        "name": "PFK",
        "takeaway": "yes"
      }
    },
    {
      "displayName": "Philly Pretzel Factory",
      "id": "phillypretzelfactory-4d2ff4",
      "locationSet": {"include": ["us"]},
      "matchNames": [
        "philadelphia pretzel factory",
        "philadelphia soft pretzel factory",
        "philly soft pretzel factory"
      ],
      "tags": {
        "amenity": "fast_food",
        "brand": "Philly Pretzel Factory",
        "brand:wikidata": "Q60097339",
        "cuisine": "pretzel",
        "name": "Philly Pretzel Factory",
        "takeaway": "yes"
      }
    },
    {
      "displayName": "Pinulito",
      "id": "pinulito-41b0d1",
      "locationSet": {"include": ["gt"]},
      "tags": {
        "amenity": "fast_food",
        "brand": "Pinulito",
        "brand:wikidata": "Q62273613",
        "cuisine": "chicken",
        "name": "Pinulito",
        "takeaway": "yes"
      }
    },
    {
      "displayName": "Pita Pit",
      "id": "pitapit-658eea",
      "locationSet": {"include": ["001"]},
      "tags": {
        "amenity": "fast_food",
        "brand": "Pita Pit",
        "brand:wikidata": "Q7757289",
        "brand:wikipedia": "en:Pita Pit",
        "cuisine": "pita",
        "name": "Pita Pit",
        "takeaway": "yes"
      }
    },
    {
      "displayName": "Pizza 73",
      "id": "pizza73-e49d2e",
      "locationSet": {"include": ["ca"]},
      "tags": {
        "amenity": "fast_food",
        "brand": "Pizza 73",
        "brand:wikidata": "Q7199950",
        "brand:wikipedia": "en:Pizza 73",
        "cuisine": "pizza",
        "name": "Pizza 73",
        "takeaway": "yes"
      }
    },
    {
      "displayName": "Pizza Capers",
      "id": "pizzacapers-d43c69",
      "locationSet": {"include": ["au"]},
      "tags": {
        "amenity": "fast_food",
        "brand": "Pizza Capers",
        "brand:wikidata": "Q17021875",
        "brand:wikipedia": "en:Pizza Capers",
        "cuisine": "pizza",
        "name": "Pizza Capers",
        "takeaway": "yes"
      }
    },
    {
      "displayName": "Pizza Hut Delivery",
      "id": "pizzahutdelivery-658eea",
      "locationSet": {"include": ["001"]},
      "tags": {
        "amenity": "fast_food",
        "brand": "Pizza Hut",
        "brand:wikidata": "Q191615",
        "brand:wikipedia": "en:Pizza Hut",
        "cuisine": "pizza",
        "name": "Pizza Hut Delivery",
        "takeaway": "yes"
      }
    },
    {
      "displayName": "Pizza Hut Express",
      "id": "pizzahutexpress-658eea",
      "locationSet": {"include": ["001"]},
      "tags": {
        "amenity": "fast_food",
        "brand": "Pizza Hut",
        "brand:wikidata": "Q191615",
        "brand:wikipedia": "en:Pizza Hut",
        "cuisine": "pizza",
        "name": "Pizza Hut Express",
        "takeaway": "yes"
      }
    },
    {
      "displayName": "Pizza Inn",
      "id": "pizzainn-658eea",
      "locationSet": {"include": ["001"]},
      "tags": {
        "amenity": "fast_food",
        "brand": "Pizza Inn",
        "brand:wikidata": "Q4118850",
        "brand:wikipedia": "en:Pizza Inn",
        "cuisine": "pizza",
        "name": "Pizza Inn",
        "takeaway": "yes"
      }
    },
    {
      "displayName": "Pizza King",
      "id": "pizzaking-658eea",
      "locationSet": {"include": ["001"]},
      "tags": {
        "amenity": "fast_food",
        "brand": "Pizza King",
        "cuisine": "pizza",
        "name": "Pizza King",
        "takeaway": "yes"
      }
    },
    {
      "displayName": "Pizza Móvil",
      "id": "pizzamovil-34e6e8",
      "locationSet": {"include": ["es"]},
      "tags": {
        "amenity": "fast_food",
        "brand": "Pizza Móvil",
        "brand:wikidata": "Q12397697",
        "brand:wikipedia": "gl:Pizza Móvil",
        "cuisine": "pizza",
        "name": "Pizza Móvil",
        "takeaway": "yes"
      }
    },
    {
      "displayName": "Pizza Nova",
      "id": "pizzanova-658eea",
      "locationSet": {"include": ["001"]},
      "tags": {
        "amenity": "fast_food",
        "brand": "Pizza Nova",
        "brand:wikidata": "Q7199971",
        "brand:wikipedia": "en:Pizza Nova",
        "cuisine": "pizza",
        "name": "Pizza Nova",
        "takeaway": "yes"
      }
    },
    {
      "displayName": "Pizza Paï",
      "id": "pizzapai-e4dee6",
      "locationSet": {"include": ["fr"]},
      "tags": {
        "amenity": "fast_food",
        "brand": "Pizza Paï",
        "brand:wikidata": "Q3389501",
        "brand:wikipedia": "fr:Pizza Paï",
        "cuisine": "pizza",
        "name": "Pizza Paï",
        "takeaway": "yes"
      }
    },
    {
      "displayName": "Pizza Pizza",
      "id": "pizzapizza-e49d2e",
      "locationSet": {"include": ["ca"]},
      "tags": {
        "amenity": "fast_food",
        "brand": "Pizza Pizza",
        "brand:wikidata": "Q1194143",
        "brand:wikipedia": "en:Pizza Pizza",
        "cuisine": "pizza",
        "name": "Pizza Pizza",
        "takeaway": "yes"
      }
    },
    {
      "displayName": "Pizza Schmizza",
      "id": "pizzaschmizza-4d2ff4",
      "locationSet": {"include": ["us"]},
      "tags": {
        "amenity": "fast_food",
        "brand": "Pizza Schmizza",
        "brand:wikidata": "Q7199979",
        "brand:wikipedia": "en:Pizza Schmizza",
        "cuisine": "pizza",
        "name": "Pizza Schmizza",
        "takeaway": "yes"
      }
    },
    {
      "displayName": "Pizza Tutto",
      "id": "pizzatutto-34e6e8",
      "locationSet": {"include": ["es"]},
      "tags": {
        "amenity": "fast_food",
        "brand": "Pizza Tutto",
        "cuisine": "pizza",
        "name": "Pizza Tutto",
        "takeaway": "yes"
      }
    },
    {
      "displayName": "Pizzaville",
      "id": "pizzaville-e49d2e",
      "locationSet": {"include": ["ca"]},
      "tags": {
        "amenity": "fast_food",
        "brand": "Pizzaville",
        "cuisine": "pizza",
        "name": "Pizzaville",
        "takeaway": "yes"
      }
    },
    {
      "displayName": "Pollo Campero",
      "id": "pollocampero-658eea",
      "locationSet": {"include": ["001"]},
      "tags": {
        "amenity": "fast_food",
        "brand": "Pollo Campero",
        "brand:wikidata": "Q942741",
        "brand:wikipedia": "en:Pollo Campero",
        "cuisine": "chicken",
        "name": "Pollo Campero",
        "takeaway": "yes"
      }
    },
    {
      "displayName": "Pollo Feliz",
      "id": "pollofeliz-15d9cd",
      "locationSet": {"include": ["mx"]},
      "tags": {
        "amenity": "fast_food",
        "brand": "Pollo Feliz",
        "cuisine": "chicken",
        "name": "Pollo Feliz",
        "takeaway": "yes"
      }
    },
    {
      "displayName": "Pollo Granjero (Costa Rica)",
      "id": "pollogranjero-916d19",
      "locationSet": {"include": ["cr"]},
      "tags": {
        "amenity": "fast_food",
        "brand": "Pollo Granjero",
        "brand:wikidata": "Q62273665",
        "cuisine": "chicken",
        "name": "Pollo Granjero",
        "takeaway": "yes"
      }
    },
    {
      "displayName": "Pollo Granjero (Guatemala)",
      "id": "pollogranjero-41b0d1",
      "locationSet": {"include": ["gt"]},
      "tags": {
        "amenity": "fast_food",
        "brand": "Pollo Granjero",
        "brand:wikidata": "Q62273652",
        "cuisine": "chicken",
        "name": "Pollo Granjero",
        "takeaway": "yes"
      }
    },
    {
      "displayName": "Pollo Tropical",
      "id": "pollotropical-658eea",
      "locationSet": {"include": ["001"]},
      "tags": {
        "amenity": "fast_food",
        "brand": "Pollo Tropical",
        "brand:wikidata": "Q3395356",
        "brand:wikipedia": "en:Pollo Tropical",
        "cuisine": "chicken",
        "name": "Pollo Tropical",
        "takeaway": "yes"
      }
    },
    {
      "displayName": "Pollolandia",
      "id": "pollolandia-057a99",
      "locationSet": {
        "include": ["cr", "gt", "hn"]
      },
      "tags": {
        "amenity": "fast_food",
        "brand": "Pollolandia",
        "cuisine": "chicken",
        "name": "Pollolandia",
        "takeaway": "yes"
      }
    },
    {
      "displayName": "Pomme de Pain",
      "id": "pommedepain-508db0",
      "locationSet": {"include": ["fr", "tn"]},
      "tags": {
        "amenity": "fast_food",
        "brand": "Pomme de Pain",
        "brand:wikidata": "Q3276265",
        "brand:wikipedia": "fr:Pomme de Pain",
        "cuisine": "sandwich",
        "name": "Pomme de Pain",
        "takeaway": "yes"
      }
    },
    {
      "displayName": "Popeyes",
      "id": "popeyes-658eea",
      "locationSet": {"include": ["001"]},
      "tags": {
        "amenity": "fast_food",
        "brand": "Popeyes",
        "brand:wikidata": "Q1330910",
        "brand:wikipedia": "en:Popeyes",
        "cuisine": "chicken",
        "name": "Popeyes",
        "official_name": "Popeyes Louisiana Kitchen",
        "takeaway": "yes"
      }
    },
    {
      "displayName": "Portillo's",
      "id": "portillos-4d2ff4",
      "locationSet": {"include": ["us"]},
      "tags": {
        "amenity": "fast_food",
        "brand": "Portillo's",
        "brand:wikidata": "Q3399307",
        "brand:wikipedia": "en:Portillo's Restaurants",
        "cuisine": "hot_dog;burger",
        "name": "Portillo's",
        "takeaway": "yes"
      }
    },
    {
      "displayName": "Potbelly",
      "id": "potbelly-4d2ff4",
      "locationSet": {"include": ["us"]},
      "matchNames": ["potbelly sandwich shop"],
      "tags": {
        "amenity": "fast_food",
        "brand": "Potbelly",
        "brand:wikidata": "Q7234777",
        "brand:wikipedia": "en:Potbelly Sandwich Shop",
        "cuisine": "sandwich",
        "name": "Potbelly",
        "official_name": "Potbelly Sandwich Works",
        "takeaway": "yes"
      }
    },
    {
      "displayName": "Pret A Manger",
      "id": "pretamanger-4aea2b",
      "locationSet": {
        "include": [
          "ae",
          "cn",
          "de",
          "dk",
          "fr",
          "gb",
          "hk",
          "nl",
          "sg",
          "us"
        ]
      },
      "tags": {
        "amenity": "fast_food",
        "brand": "Pret A Manger",
        "brand:wikidata": "Q2109109",
        "brand:wikipedia": "en:Pret a Manger",
        "cuisine": "sandwich",
        "name": "Pret A Manger",
        "short_name": "Pret",
        "takeaway": "yes"
      }
    },
    {
      "displayName": "Pretzelmaker",
      "id": "pretzelmaker-4d2ff4",
      "locationSet": {"include": ["us"]},
      "matchNames": ["pretzel time"],
      "tags": {
        "amenity": "fast_food",
        "brand": "Pretzelmaker",
        "brand:wikidata": "Q7242321",
        "brand:wikipedia": "en:Pretzelmaker",
        "cuisine": "pretzel",
        "name": "Pretzelmaker",
        "takeaway": "yes"
      }
    },
    {
      "displayName": "Qdoba",
      "id": "qdoba-4d2ff4",
      "locationSet": {"include": ["us"]},
      "tags": {
        "amenity": "fast_food",
        "brand": "Qdoba",
        "brand:wikidata": "Q1363885",
        "brand:wikipedia": "en:Qdoba",
        "cuisine": "mexican",
        "name": "Qdoba",
        "official_name": "Qdoba Mexican Grill",
        "takeaway": "yes"
      }
    },
    {
      "displayName": "Quesada",
      "id": "quesada-e49d2e",
      "locationSet": {"include": ["ca"]},
      "tags": {
        "amenity": "fast_food",
        "brand": "Quesada",
        "brand:wikidata": "Q66070360",
        "cuisine": "mexican",
        "name": "Quesada",
        "official_name": "Quesada Burritos & Tacos",
        "takeaway": "yes"
      }
    },
    {
      "displayName": "Quick",
      "id": "quick-9fdafe",
      "locationSet": {
        "include": ["be", "fr", "lu"]
      },
      "tags": {
        "amenity": "fast_food",
        "brand": "Quick",
        "brand:wikidata": "Q286494",
        "brand:wikipedia": "en:Quick (restaurant)",
        "cuisine": "burger",
        "name": "Quick",
        "takeaway": "yes"
      }
    },
    {
      "displayName": "Quiznos",
      "id": "quiznos-658eea",
      "locationSet": {"include": ["001"]},
      "matchNames": [
        "quiznos sub",
        "quiznos subs"
      ],
      "tags": {
        "amenity": "fast_food",
        "brand": "Quiznos",
        "brand:wikidata": "Q1936229",
        "brand:wikipedia": "en:Quiznos",
        "cuisine": "sandwich",
        "name": "Quiznos",
        "takeaway": "yes"
      }
    },
    {
      "displayName": "Raising Cane's",
      "id": "raisingcanes-4d2ff4",
      "locationSet": {"include": ["us"]},
      "tags": {
        "amenity": "fast_food",
        "brand": "Raising Cane's",
        "brand:wikidata": "Q7285144",
        "brand:wikipedia": "en:Raising Cane's Chicken Fingers",
        "cuisine": "chicken",
        "name": "Raising Cane's",
        "official_name": "Raising Cane's Chicken Fingers",
        "takeaway": "yes"
      }
    },
    {
      "displayName": "Rally's",
      "id": "rallys-4d2ff4",
      "locationSet": {"include": ["us"]},
      "tags": {
        "amenity": "fast_food",
        "brand": "Rally's",
        "brand:wikidata": "Q63919323",
        "cuisine": "burger",
        "name": "Rally's",
        "takeaway": "yes"
      }
    },
    {
      "displayName": "Red Rooster",
      "id": "redrooster-d43c69",
      "locationSet": {"include": ["au"]},
      "tags": {
        "amenity": "fast_food",
        "brand": "Red Rooster",
        "brand:wikidata": "Q376466",
        "brand:wikipedia": "en:Red Rooster",
        "cuisine": "chicken",
        "name": "Red Rooster",
        "takeaway": "yes"
      }
    },
    {
      "displayName": "Robin's Donuts",
      "id": "robinsdonuts-e49d2e",
      "locationSet": {"include": ["ca"]},
      "tags": {
        "amenity": "fast_food",
        "brand": "Robin's Donuts",
        "brand:wikidata": "Q7352199",
        "brand:wikipedia": "en:Robin's Donuts",
        "cuisine": "donut",
        "name": "Robin's Donuts",
        "short_name": "Robin's",
        "takeaway": "yes"
      }
    },
    {
      "displayName": "Rodilla",
      "id": "rodilla-34e6e8",
      "locationSet": {"include": ["es"]},
      "tags": {
        "amenity": "fast_food",
        "brand": "Rodilla",
        "brand:wikidata": "Q7356777",
        "brand:wikipedia": "es:Rodilla (franquicia)",
        "cuisine": "sandwich",
        "name": "Rodilla",
        "takeaway": "yes"
      }
    },
    {
      "displayName": "Roy Rogers",
      "id": "royrogers-4d2ff4",
      "locationSet": {"include": ["us"]},
      "tags": {
        "amenity": "fast_food",
        "brand": "Roy Rogers",
        "brand:wikidata": "Q7373311",
        "brand:wikipedia": "en:Roy Rogers Restaurants",
        "cuisine": "burger;sandwich;chicken",
        "name": "Roy Rogers",
        "takeaway": "yes"
      }
    },
    {
      "displayName": "Rubio's",
      "id": "rubios-4d2ff4",
      "locationSet": {"include": ["us"]},
      "matchNames": [
        "rubios fresh mexican grill"
      ],
      "tags": {
        "amenity": "fast_food",
        "brand": "Rubio's",
        "brand:wikidata": "Q7376154",
        "brand:wikipedia": "en:Rubio's Coastal Grill",
        "cuisine": "mexican",
        "name": "Rubio's",
        "official_name": "Rubio's Coastal Grill",
        "takeaway": "yes"
      }
    },
    {
      "displayName": "Saladworks",
      "id": "saladworks-4d2ff4",
      "locationSet": {"include": ["us"]},
      "tags": {
        "amenity": "fast_food",
        "brand": "Saladworks",
        "brand:wikidata": "Q7403411",
        "brand:wikipedia": "en:Saladworks",
        "cuisine": "salad",
        "name": "Saladworks",
        "takeaway": "yes"
      }
    },
    {
      "displayName": "Sam's Chicken",
      "id": "samschicken-45095e",
      "locationSet": {"include": ["uk"]},
      "tags": {
        "amenity": "fast_food",
        "brand": "Sam's Chicken",
        "brand:wikidata": "Q24439129",
        "brand:wikipedia": "en:Sam's Chicken",
        "cuisine": "chicken",
        "name": "Sam's Chicken",
        "takeaway": "yes"
      }
    },
    {
      "displayName": "Saravana Bhavan",
      "id": "saravanabhavan-9b2018",
      "locationSet": {
        "include": ["001"],
        "exclude": ["pl"]
      },
      "tags": {
        "amenity": "fast_food",
        "brand": "Saravana Bhavan",
        "brand:wikidata": "Q3528082",
        "brand:wikipedia": "en:Saravana Bhavan",
        "cuisine": "indian;south_indian",
        "name": "Saravana Bhavan",
        "official_name": "Hotel Saravana Bhavan",
        "takeaway": "yes"
      }
    },
    {
      "displayName": "Sarku Japan",
      "id": "sarkujapan-4d2ff4",
      "locationSet": {"include": ["us"]},
      "tags": {
        "amenity": "fast_food",
        "brand": "Sarku Japan",
        "brand:wikidata": "Q7424243",
        "cuisine": "japanese",
        "name": "Sarku Japan",
        "takeaway": "yes"
      }
    },
    {
      "displayName": "Sarpino's Pizzeria",
      "id": "sarpinospizzeria-4d2ff4",
      "locationSet": {"include": ["us"]},
      "tags": {
        "amenity": "fast_food",
        "brand": "Sarpino's Pizzeria",
        "brand:wikidata": "Q28229116",
        "brand:wikipedia": "en:Sarpino's Pizzeria",
        "cuisine": "pizza",
        "name": "Sarpino's Pizzeria",
        "takeaway": "yes"
      }
    },
    {
      "displayName": "Sbarro",
      "id": "sbarro-658eea",
      "locationSet": {"include": ["001"]},
      "matchNames": ["sbarro pizzeria"],
      "tags": {
        "amenity": "fast_food",
        "brand": "Sbarro",
        "brand:wikidata": "Q2589409",
        "brand:wikipedia": "en:Sbarro",
        "cuisine": "pizza",
        "name": "Sbarro",
        "takeaway": "yes"
      }
    },
    {
      "displayName": "Schlotzsky's",
      "id": "schlotzskys-4d2ff4",
      "locationSet": {"include": ["us"]},
      "matchNames": ["schlotzskys deli"],
      "tags": {
        "amenity": "fast_food",
        "brand": "Schlotzsky's",
        "brand:wikidata": "Q2244796",
        "brand:wikipedia": "en:Schlotzsky's",
        "cuisine": "sandwich",
        "name": "Schlotzsky's",
        "takeaway": "yes"
      }
    },
    {
      "displayName": "Schnitz",
      "id": "schnitz-d43c69",
      "locationSet": {"include": ["au"]},
      "tags": {
        "amenity": "fast_food",
        "brand": "Schnitz",
        "brand:wikidata": "Q48792277",
        "brand:wikipedia": "en:Schnitz",
        "cuisine": "chicken",
        "name": "Schnitz",
        "takeaway": "yes"
      }
    },
    {
      "displayName": "Secret Recipe",
      "id": "secretrecipe-541408",
      "locationSet": {
        "include": [
          "bd",
          "bn",
          "cn",
          "id",
          "kh",
          "mm",
          "mv",
          "my",
          "sg",
          "th"
        ]
      },
      "tags": {
        "amenity": "fast_food",
        "brand": "Secret Recipe",
        "brand:wikidata": "Q7444079",
        "brand:wikipedia": "en:Secret Recipe (restaurant)",
        "cuisine": "cake;malaysian",
        "name": "Secret Recipe",
        "takeaway": "yes"
      }
    },
    {
      "displayName": "Shake Shack",
      "id": "shakeshack-56a2ff",
      "locationSet": {"include": ["gb", "us"]},
      "tags": {
        "amenity": "fast_food",
        "brand": "Shake Shack",
        "brand:wikidata": "Q1058722",
        "brand:wikipedia": "en:Shake Shack",
        "cuisine": "burger",
        "name": "Shake Shack",
        "takeaway": "yes"
      }
    },
    {
      "displayName": "Sibylla",
      "id": "sibylla-bdca1d",
      "locationSet": {"include": ["fi", "se"]},
      "tags": {
        "amenity": "fast_food",
        "brand": "Sibylla",
        "brand:wikidata": "Q488643",
        "brand:wikipedia": "en:Sibylla (fast food)",
        "cuisine": "burger",
        "name": "Sibylla",
        "takeaway": "yes"
      }
    },
    {
      "displayName": "Smashburger",
      "id": "smashburger-d2abf0",
      "locationSet": {"include": ["ca", "us"]},
      "tags": {
        "amenity": "fast_food",
        "brand": "Smashburger",
        "brand:wikidata": "Q17061332",
        "brand:wikipedia": "en:Smashburger",
        "cuisine": "burger",
        "name": "Smashburger",
        "takeaway": "yes"
      }
    },
    {
      "displayName": "Smoke's Poutinerie",
      "id": "smokespoutinerie-e49d2e",
      "locationSet": {"include": ["ca"]},
      "tags": {
        "amenity": "fast_food",
        "brand": "Smoke's Poutinerie",
        "brand:wikidata": "Q7545801",
        "brand:wikipedia": "en:Smoke's Poutinerie",
        "cuisine": "poutine",
        "name": "Smoke's Poutinerie",
        "takeaway": "yes"
      }
    },
    {
      "displayName": "Smokin' Joe's",
      "id": "smokinjoes-d1dde8",
      "locationSet": {"include": ["in", "om"]},
      "tags": {
        "amenity": "fast_food",
        "brand": "Smokin' Joe's",
        "brand:wikidata": "Q7546011",
        "brand:wikipedia": "en:Smokin' Joe's",
        "cuisine": "pizza",
        "name": "Smokin' Joe's",
        "takeaway": "yes"
      }
    },
    {
      "displayName": "Smoothie King",
      "id": "smoothieking-4d2ff4",
      "locationSet": {"include": ["us"]},
      "tags": {
        "amenity": "fast_food",
        "brand": "Smoothie King",
        "brand:wikidata": "Q5491421",
        "brand:wikipedia": "en:Smoothie King",
        "cuisine": "juice",
        "name": "Smoothie King",
        "takeaway": "yes"
      }
    },
    {
      "displayName": "Smullers",
      "id": "smullers-60a83c",
      "locationSet": {"include": ["nl"]},
      "tags": {
        "amenity": "fast_food",
        "brand": "Smullers",
        "brand:wikidata": "Q92552501",
        "cuisine": "burger",
        "name": "Smullers",
        "takeaway": "yes"
      }
    },
    {
      "displayName": "Sonic",
      "id": "sonic-658eea",
      "locationSet": {"include": ["001"]},
      "matchNames": ["sonic drive in"],
      "tags": {
        "amenity": "fast_food",
        "brand": "Sonic",
        "brand:wikidata": "Q7561808",
        "brand:wikipedia": "en:Sonic Drive-In",
        "cuisine": "burger",
        "drive_in": "yes",
        "name": "Sonic",
        "takeaway": "yes"
      }
    },
    {
      "displayName": "Southern Fried Chicken",
      "id": "southernfriedchicken-a6761c",
      "locationSet": {"include": ["in", "uk"]},
      "tags": {
        "amenity": "fast_food",
        "brand": "Southern Fried Chicken",
        "brand:wikidata": "Q7569934",
        "brand:wikipedia": "en:Southern Fried Chicken",
        "cuisine": "chicken",
        "name": "Southern Fried Chicken",
        "takeaway": "yes"
      }
    },
    {
      "displayName": "Specialty's",
      "id": "specialtys-4d2ff4",
      "locationSet": {"include": ["us"]},
      "tags": {
        "amenity": "fast_food",
        "brand": "Specialty's",
        "brand:wikidata": "Q64339210",
        "cuisine": "sandwich;bakery",
        "name": "Specialty's",
        "takeaway": "yes"
      }
    },
    {
      "displayName": "Spizzico",
      "id": "spizzico-7eb3e4",
      "locationSet": {
        "include": ["ch", "fr", "gr", "it", "us"]
      },
      "tags": {
        "amenity": "fast_food",
        "brand": "Spizzico",
        "brand:wikidata": "Q1419041",
        "brand:wikipedia": "en:Spizzico",
        "cuisine": "pizza",
        "name": "Spizzico",
        "takeaway": "yes"
      }
    },
    {
      "displayName": "St-Hubert Express",
      "id": "sthubertexpress-e49d2e",
      "locationSet": {"include": ["ca"]},
      "tags": {
        "amenity": "fast_food",
        "brand": "St-Hubert",
        "brand:wikidata": "Q3495225",
        "brand:wikipedia": "fr:St-Hubert (restaurant)",
        "cuisine": "chicken;barbecue",
        "name": "St-Hubert Express",
        "takeaway": "yes"
      }
    },
    {
      "displayName": "Steak 'n Shake",
      "id": "steaknshake-4d2ff4",
      "locationSet": {"include": ["us"]},
      "tags": {
        "amenity": "fast_food",
        "brand": "Steak 'n Shake",
        "brand:wikidata": "Q7605233",
        "brand:wikipedia": "en:Steak 'n Shake",
        "cuisine": "burger",
        "name": "Steak 'n Shake",
        "takeaway": "yes"
      }
    },
    {
      "displayName": "Steak Escape",
      "id": "steakescape-4d2ff4",
      "locationSet": {"include": ["us"]},
      "tags": {
        "amenity": "fast_food",
        "brand": "Steak Escape",
        "brand:wikidata": "Q7605235",
        "brand:wikipedia": "en:Steak Escape",
        "cuisine": "sandwich",
        "name": "Steak Escape",
        "takeaway": "yes"
      }
    },
    {
      "displayName": "Steers",
      "id": "steers-7fdf05",
      "locationSet": {"include": ["za"]},
      "tags": {
        "amenity": "fast_food",
        "brand": "Steers",
        "brand:wikidata": "Q3056765",
        "brand:wikipedia": "en:Steers",
        "cuisine": "burger",
        "name": "Steers",
        "takeaway": "yes"
      }
    },
    {
      "displayName": "Subway",
      "id": "subway-658eea",
      "locationSet": {"include": ["001"]},
      "matchNames": ["subway sandwiches"],
      "tags": {
        "amenity": "fast_food",
        "brand": "Subway",
        "brand:wikidata": "Q244457",
        "brand:wikipedia": "en:Subway (restaurant)",
        "cuisine": "sandwich",
        "name": "Subway",
        "takeaway": "yes"
      }
    },
    {
      "displayName": "Sumo Salad",
      "id": "sumosalad-474d0a",
      "locationSet": {
        "include": [
          "ae",
          "au",
          "br",
          "nz",
          "sg",
          "us"
        ]
      },
      "tags": {
        "amenity": "fast_food",
        "brand": "Sumo Salad",
        "brand:wikidata": "Q16951700",
        "brand:wikipedia": "en:Sumo Salad",
        "cuisine": "salad",
        "name": "Sumo Salad",
        "takeaway": "yes"
      }
    },
    {
      "displayName": "Supermac's",
      "id": "supermacs-2dcf5d",
      "locationSet": {"include": ["gb", "ie"]},
      "tags": {
        "amenity": "fast_food",
        "brand": "Supermac's",
        "brand:wikidata": "Q7643750",
        "brand:wikipedia": "en:Supermac's",
        "cuisine": "burger",
        "name": "Supermac's",
        "takeaway": "yes"
      }
    },
    {
      "displayName": "Sushi Shop (Canada)",
      "id": "sushishop-e49d2e",
      "locationSet": {"include": ["ca"]},
      "tags": {
        "amenity": "fast_food",
        "brand": "Sushi Shop",
        "brand:wikidata": "Q64840990",
        "cuisine": "sushi",
        "name": "Sushi Shop",
        "takeaway": "yes"
      }
    },
    {
      "displayName": "Sushi Shop (Europe)",
      "id": "sushishop-ac545e",
      "locationSet": {
        "include": [
          "ae",
          "be",
          "ch",
          "de",
          "es",
          "fr",
          "it",
          "lu",
          "pt",
          "sa",
          "uk"
        ]
      },
      "tags": {
        "amenity": "fast_food",
        "brand": "Sushi Shop",
        "brand:wikidata": "Q3505657",
        "brand:wikipedia": "fr:Sushi Shop",
        "cuisine": "sushi",
        "name": "Sushi Shop",
        "takeaway": "yes"
      }
    },
    {
      "displayName": "SUSU & Sons",
      "id": "susuandsons-dbdcb8",
      "locationSet": {"include": ["il"]},
      "matchNames": ["סוסו ובניו"],
      "tags": {
        "amenity": "fast_food",
        "brand": "SUSU & Sons",
        "brand:en": "SUSU & Sons",
        "brand:he": "סוסו אנד סאנס",
        "brand:wikidata": "Q64760081",
        "cuisine": "burger",
        "name": "SUSU & Sons",
        "name:en": "SUSU & Sons",
        "name:he": "סוסו אנד סאנס",
        "takeaway": "yes"
      }
    },
    {
      "displayName": "Sガスト",
      "id": "sgusto-3e7699",
      "locationSet": {"include": ["jp"]},
      "tags": {
        "amenity": "fast_food",
        "brand": "ガスト",
        "brand:en": "Gusto",
        "brand:ja": "ガスト",
        "brand:wikidata": "Q87724117",
        "cuisine": "western;japanese",
        "name": "Sガスト",
        "name:en": "S-Gusto",
        "name:ja": "Sガスト",
        "takeaway": "yes"
      }
    },
    {
      "displayName": "Taco Bell",
      "id": "tacobell-658eea",
      "locationSet": {"include": ["001"]},
      "tags": {
        "amenity": "fast_food",
        "brand": "Taco Bell",
        "brand:wikidata": "Q752941",
        "brand:wikipedia": "en:Taco Bell",
        "cuisine": "tex-mex",
        "name": "Taco Bell",
        "takeaway": "yes"
      }
    },
    {
      "displayName": "Taco Bueno",
      "id": "tacobueno-4d2ff4",
      "locationSet": {"include": ["us"]},
      "tags": {
        "amenity": "fast_food",
        "brand": "Taco Bueno",
        "brand:wikidata": "Q7673958",
        "brand:wikipedia": "en:Taco Bueno",
        "cuisine": "mexican",
        "name": "Taco Bueno",
        "takeaway": "yes"
      }
    },
    {
      "displayName": "Taco Cabana",
      "id": "tacocabana-4d2ff4",
      "locationSet": {"include": ["us"]},
      "tags": {
        "amenity": "fast_food",
        "brand": "Taco Cabana",
        "brand:wikidata": "Q12070488",
        "brand:wikipedia": "en:Taco Cabana",
        "cuisine": "mexican",
        "name": "Taco Cabana",
        "takeaway": "yes"
      }
    },
    {
      "displayName": "Taco Del Mar",
      "id": "tacodelmar-d2abf0",
      "locationSet": {"include": ["ca", "us"]},
      "tags": {
        "amenity": "fast_food",
        "brand": "Taco Del Mar",
        "brand:wikidata": "Q7673972",
        "brand:wikipedia": "en:Taco del Mar",
        "cuisine": "mexican",
        "name": "Taco Del Mar",
        "takeaway": "yes"
      }
    },
    {
      "displayName": "Taco John's",
      "id": "tacojohns-4d2ff4",
      "locationSet": {"include": ["us"]},
      "tags": {
        "amenity": "fast_food",
        "brand": "Taco John's",
        "brand:wikidata": "Q7673962",
        "brand:wikipedia": "en:Taco John's",
        "cuisine": "mexican",
        "name": "Taco John's",
        "takeaway": "yes"
      }
    },
    {
      "displayName": "Taco Mayo",
      "id": "tacomayo-4d2ff4",
      "locationSet": {"include": ["us"]},
      "tags": {
        "amenity": "fast_food",
        "brand": "Taco Mayo",
        "brand:wikidata": "Q2386946",
        "brand:wikipedia": "en:Taco Mayo",
        "cuisine": "tex-mex",
        "name": "Taco Mayo",
        "takeaway": "yes"
      }
    },
    {
      "displayName": "Taco Time",
      "id": "tacotime-d2abf0",
      "locationSet": {"include": ["ca", "us"]},
      "tags": {
        "amenity": "fast_food",
        "brand": "Taco Time",
        "brand:wikidata": "Q7673969",
        "brand:wikipedia": "en:TacoTime",
        "cuisine": "mexican",
        "name": "Taco Time",
        "takeaway": "yes"
      }
    },
    {
      "displayName": "Tantalizers",
      "id": "tantalizers-3eb11d",
      "locationSet": {"include": ["ng"]},
      "tags": {
        "amenity": "fast_food",
        "brand": "Tantalizers",
        "brand:wikidata": "Q7683795",
        "brand:wikipedia": "en:Tantalizers",
        "cuisine": "nigerian",
        "name": "Tantalizers",
        "takeaway": "yes"
      }
    },
    {
      "displayName": "Tastee Fried Chicken",
      "id": "tasteefriedchicken-3eb11d",
      "locationSet": {"include": ["ng"]},
      "tags": {
        "amenity": "fast_food",
        "brand": "Tastee Fried Chicken",
        "brand:wikidata": "Q7687722",
        "brand:wikipedia": "en:Tastee Fried Chicken",
        "cuisine": "chicken",
        "name": "Tastee Fried Chicken",
        "short_name": "Tastee",
        "takeaway": "yes"
      }
    },
    {
      "displayName": "Taziki's Mediterranean Cafe",
      "id": "tazikismediterraneancafe-4d2ff4",
      "locationSet": {"include": ["us"]},
      "tags": {
        "amenity": "fast_food",
        "brand": "Taziki's Mediterranean Cafe",
        "brand:wikidata": "Q19849840",
        "brand:wikipedia": "en:Taziki's Mediterranean Café",
        "cuisine": "mediterranean",
        "name": "Taziki's Mediterranean Cafe",
        "short_name": "Taziki's",
        "takeaway": "yes"
      }
    },
    {
      "displayName": "Ted's Hot Dogs",
      "id": "tedshotdogs-4d2ff4",
      "locationSet": {"include": ["us"]},
      "tags": {
        "amenity": "fast_food",
        "brand": "Ted's Hot Dogs",
        "brand:wikidata": "Q7692930",
        "brand:wikipedia": "en:Ted's Hot Dogs",
        "cuisine": "hot_dog",
        "name": "Ted's Hot Dogs",
        "takeaway": "yes"
      }
    },
    {
      "displayName": "Telepizza",
      "id": "telepizza-658eea",
      "locationSet": {"include": ["001"]},
      "tags": {
        "amenity": "fast_food",
        "brand": "Telepizza",
        "brand:wikidata": "Q2699863",
        "brand:wikipedia": "en:Telepizza",
        "cuisine": "pizza",
        "name": "Telepizza",
        "takeaway": "yes"
      }
    },
    {
      "displayName": "Teriyaki Experience",
      "id": "teriyakiexperience-e49d2e",
      "locationSet": {"include": ["ca"]},
      "tags": {
        "amenity": "fast_food",
        "brand": "Teriyaki Experience",
        "brand:wikidata": "Q7702453",
        "cuisine": "japanese",
        "name": "Teriyaki Experience",
        "takeaway": "yes"
      }
    },
    {
      "displayName": "Texas Burger",
      "id": "texasburger-4d2ff4",
      "locationSet": {"include": ["us"]},
      "tags": {
        "amenity": "fast_food",
        "brand": "Texas Burger",
        "cuisine": "burger",
        "name": "Texas Burger",
        "takeaway": "yes"
      }
    },
    {
      "displayName": "Texas Chicken",
      "id": "texaschicken-658eea",
      "locationSet": {"include": ["001"]},
      "tags": {
        "alt_name": "Church's Chicken",
        "amenity": "fast_food",
        "brand": "Texas Chicken",
        "brand:wikidata": "Q1089932",
        "brand:wikipedia": "en:Church's Chicken",
        "cuisine": "chicken",
        "name": "Texas Chicken",
        "takeaway": "yes"
      }
    },
    {
      "displayName": "Thaï Express (North America)",
      "id": "thaiexpress-d2abf0",
      "locationSet": {"include": ["ca", "us"]},
      "tags": {
        "amenity": "fast_food",
        "brand": "Thaï Express",
        "brand:wikidata": "Q7711610",
        "brand:wikipedia": "en:Thaï Express",
        "cuisine": "thai",
        "name": "Thaï Express",
        "takeaway": "yes"
      }
    },
    {
      "displayName": "Thai Express (Singapore)",
      "id": "thaiexpress-6f8102",
      "locationSet": {"include": ["sg"]},
      "tags": {
        "amenity": "fast_food",
        "brand": "Thai Express",
        "brand:wikidata": "Q7709119",
        "brand:wikipedia": "en:Thai Express",
        "cuisine": "thai",
        "name": "Thai Express",
        "takeaway": "yes"
      }
    },
    {
      "displayName": "The Burger's Priest",
      "id": "theburgerspriest-e49d2e",
      "locationSet": {"include": ["ca"]},
      "tags": {
        "amenity": "fast_food",
        "brand": "The Burger's Priest",
        "brand:wikidata": "Q100255453",
        "cuisine": "burger",
        "name": "The Burger's Priest",
        "takeaway": "yes"
      }
    },
    {
      "displayName": "The Chicken Rice Shop",
      "id": "thechickenriceshop-658eea",
      "locationSet": {"include": ["001"]},
      "tags": {
        "amenity": "fast_food",
        "brand": "The Chicken Rice Shop",
        "brand:wikidata": "Q7722411",
        "brand:wikipedia": "en:The Chicken Rice Shop",
        "cuisine": "malaysian;chicken_rice",
        "diet:halal": "yes",
        "name": "The Chicken Rice Shop",
        "takeaway": "yes"
      }
    },
    {
      "displayName": "The Good Burger",
      "id": "thegoodburger-34e6e8",
      "locationSet": {"include": ["es"]},
      "matchNames": [
        "la buena hamburguesa",
        "the good burguer"
      ],
      "tags": {
        "amenity": "fast_food",
        "brand": "The Good Burger",
        "brand:wikidata": "Q20962086",
        "brand:wikipedia": "es:The Good Burger",
        "cuisine": "burger",
        "delivery": "yes",
        "name": "The Good Burger",
        "short_name": "TGB",
        "takeaway": "yes"
      }
    },
    {
      "displayName": "The Habit Burger Grill",
      "id": "thehabitburgergrill-4d2ff4",
      "locationSet": {"include": ["us"]},
      "matchNames": ["the habit burger"],
      "tags": {
        "alt_name": "Habit Burger Grill",
        "amenity": "fast_food",
        "brand": "The Habit Burger Grill",
        "brand:wikidata": "Q18158741",
        "brand:wikipedia": "en:The Habit Burger Grill",
        "cuisine": "burger",
        "name": "The Habit Burger Grill",
        "short_name": "Habit Burger",
        "takeaway": "yes"
      }
    },
    {
      "displayName": "The Pizza Company",
      "id": "thepizzacompany-abbb1f",
      "locationSet": {
        "include": [
          "ae",
          "bh",
          "cn",
          "jo",
          "kh",
          "la",
          "mm",
          "my",
          "sa",
          "th",
          "vn"
        ]
      },
      "tags": {
        "alt_name": "Pizza Company",
        "amenity": "fast_food",
        "brand": "The Pizza Company",
        "brand:wikidata": "Q2413520",
        "brand:wikipedia": "en:The Pizza Company",
        "cuisine": "pizza",
        "name": "The Pizza Company",
        "takeaway": "yes"
      }
    },
    {
      "displayName": "TKK Fried Chicken",
      "id": "tkkfriedchicken-571996",
      "locationSet": {
        "include": ["cn", "tw", "us"]
      },
      "tags": {
        "amenity": "fast_food",
        "brand": "TKK Fried Chicken",
        "brand:wikidata": "Q15715284",
        "brand:wikipedia": "en:TKK Fried Chicken",
        "cuisine": "chicken",
        "name": "TKK Fried Chicken",
        "takeaway": "yes"
      }
    },
    {
      "displayName": "Togo's",
      "id": "togos-4d2ff4",
      "locationSet": {"include": ["us"]},
      "tags": {
        "amenity": "fast_food",
        "brand": "Togo's",
        "brand:wikidata": "Q3530375",
        "brand:wikipedia": "en:Togo's",
        "cuisine": "sandwich",
        "name": "Togo's",
        "takeaway": "yes"
      }
    },
    {
      "displayName": "Tokyo Tokyo",
      "id": "tokyotokyo-33d36e",
      "locationSet": {"include": ["ph"]},
      "tags": {
        "amenity": "fast_food",
        "brand": "Tokyo Tokyo",
        "brand:wikidata": "Q7814003",
        "brand:wikipedia": "en:Tokyo Tokyo",
        "cuisine": "japanese",
        "name": "Tokyo Tokyo",
        "takeaway": "yes"
      }
    },
    {
      "displayName": "Tropical Smoothie Cafe",
      "id": "tropicalsmoothiecafe-4d2ff4",
      "locationSet": {"include": ["us"]},
      "tags": {
        "amenity": "fast_food",
        "brand": "Tropical Smoothie Cafe",
        "brand:wikidata": "Q7845817",
        "brand:wikipedia": "en:Tropical Smoothie Cafe",
        "cuisine": "juice",
        "name": "Tropical Smoothie Cafe",
        "takeaway": "yes"
      }
    },
    {
      "displayName": "Tubby's",
      "id": "tubbys-8252d9",
      "locationSet": {"include": ["mi"]},
      "tags": {
        "amenity": "fast_food",
        "brand": "Tubby's",
        "brand:wikidata": "Q7850742",
        "brand:wikipedia": "en:Tubby's",
        "cuisine": "sandwich",
        "name": "Tubby's",
        "takeaway": "yes"
      }
    },
    {
      "displayName": "Tudor's Biscuit World",
      "id": "tudorsbiscuitworld-4d2ff4",
      "locationSet": {"include": ["us"]},
      "tags": {
        "amenity": "fast_food",
        "brand": "Tudor's Biscuit World",
        "brand:wikidata": "Q7851262",
        "brand:wikipedia": "en:Tudor's Biscuit World",
        "cuisine": "american",
        "name": "Tudor's Biscuit World",
        "takeaway": "yes"
      }
    },
    {
      "displayName": "Upper Crust",
      "id": "uppercrust-167d3f",
      "locationSet": {
        "include": [
          "de",
          "dk",
          "eg",
          "es",
          "fi",
          "gb",
          "ie",
          "no",
          "se"
        ]
      },
      "tags": {
        "amenity": "fast_food",
        "brand": "Upper Crust",
        "brand:wikidata": "Q7898585",
        "brand:wikipedia": "en:Upper Crust (restaurant chain)",
        "cuisine": "sandwich",
        "name": "Upper Crust",
        "takeaway": "yes"
      }
    },
    {
      "displayName": "Valentine",
      "id": "valentine-e49d2e",
      "locationSet": {"include": ["ca"]},
      "tags": {
        "amenity": "fast_food",
        "brand": "Valentine",
        "brand:wikidata": "Q3553635",
        "brand:wikipedia": "fr:Valentine (restaurant)",
        "cuisine": "burger",
        "name": "Valentine",
        "takeaway": "yes"
      }
    },
    {
      "displayName": "Veggie Grill",
      "id": "veggiegrill-4d2ff4",
      "locationSet": {"include": ["us"]},
      "tags": {
        "amenity": "fast_food",
        "brand": "Veggie Grill",
        "brand:wikidata": "Q18636427",
        "brand:wikipedia": "en:Veggie Grill",
        "cuisine": "american",
        "diet:vegan": "only",
        "name": "Veggie Grill",
        "takeaway": "yes"
      }
    },
    {
      "displayName": "Villa Madina",
      "id": "villamadina-e49d2e",
      "locationSet": {"include": ["ca"]},
      "tags": {
        "amenity": "fast_food",
        "brand": "Villa Madina",
        "brand:wikidata": "Q64876884",
        "cuisine": "mediterranean",
        "name": "Villa Madina",
        "takeaway": "yes"
      }
    },
    {
      "displayName": "Wahoo's Fish Taco",
      "id": "wahoosfishtaco-4d2ff4",
      "locationSet": {"include": ["us"]},
      "tags": {
        "amenity": "fast_food",
        "brand": "Wahoo's Fish Taco",
        "brand:wikidata": "Q7959827",
        "brand:wikipedia": "en:Wahoo's Fish Taco",
        "cuisine": "seafood",
        "name": "Wahoo's Fish Taco",
        "short_name": "Wahoo's",
        "takeaway": "yes"
      }
    },
    {
      "displayName": "Wayback Burgers",
      "id": "waybackburgers-658eea",
      "locationSet": {"include": ["001"]},
      "tags": {
        "amenity": "fast_food",
        "brand": "Wayback Burgers",
        "brand:wikidata": "Q16997570",
        "brand:wikipedia": "en:Wayback Burgers",
        "cuisine": "burger",
        "name": "Wayback Burgers",
        "takeaway": "yes"
      }
    },
    {
      "displayName": "Wendy's",
      "id": "wendys-658eea",
      "locationSet": {"include": ["001"]},
      "tags": {
        "amenity": "fast_food",
        "brand": "Wendy's",
        "brand:wikidata": "Q550258",
        "brand:wikipedia": "en:Wendy's",
        "cuisine": "burger",
        "name": "Wendy's",
        "takeaway": "yes"
      }
    },
    {
      "displayName": "West Cornwall Pasty Co.",
      "id": "westcornwallpastyco-d78b85",
      "locationSet": {
        "include": ["gb-eng", "gb-wls"]
      },
      "tags": {
        "amenity": "fast_food",
        "brand": "West Cornwall Pasty Co.",
        "brand:wikidata": "Q7774268",
        "brand:wikipedia": "en:The West Cornwall Pasty Company",
        "cuisine": "pasty",
        "name": "West Cornwall Pasty Co.",
        "takeaway": "yes"
      }
    },
    {
      "displayName": "Wetzel's Pretzels",
      "id": "wetzelspretzels-d2abf0",
      "locationSet": {"include": ["ca", "us"]},
      "tags": {
        "amenity": "fast_food",
        "brand": "Wetzel's Pretzels",
        "brand:wikidata": "Q7990205",
        "brand:wikipedia": "en:Wetzel's Pretzels",
        "cuisine": "pretzel",
        "name": "Wetzel's Pretzels",
        "takeaway": "yes"
      }
    },
    {
      "displayName": "Whataburger",
      "id": "whataburger-4d2ff4",
      "locationSet": {"include": ["us"]},
      "tags": {
        "amenity": "fast_food",
        "brand": "Whataburger",
        "brand:wikidata": "Q376627",
        "brand:wikipedia": "en:Whataburger",
        "cuisine": "burger",
        "name": "Whataburger",
        "takeaway": "yes"
      }
    },
    {
      "displayName": "Which Wich?",
      "id": "whichwich-536de9",
      "locationSet": {
        "include": [
          "ae",
          "gb",
          "gt",
          "mx",
          "om",
          "qa",
          "sa",
          "us"
        ]
      },
      "tags": {
        "amenity": "fast_food",
        "brand": "Which Wich?",
        "brand:wikidata": "Q7993556",
        "brand:wikipedia": "en:Which Wich?",
        "cuisine": "sandwich",
        "name": "Which Wich?",
        "takeaway": "yes"
      }
    },
    {
      "displayName": "White Castle",
      "id": "whitecastle-4d2ff4",
      "locationSet": {"include": ["us"]},
      "tags": {
        "amenity": "fast_food",
        "brand": "White Castle",
        "brand:wikidata": "Q1244034",
        "brand:wikipedia": "en:White Castle (restaurant)",
        "cuisine": "burger",
        "name": "White Castle",
        "takeaway": "yes"
      }
    },
    {
      "displayName": "Wienerschnitzel",
      "id": "wienerschnitzel-4d2ff4",
      "locationSet": {"include": ["us"]},
      "tags": {
        "amenity": "fast_food",
        "brand": "Wienerschnitzel",
        "brand:wikidata": "Q324679",
        "brand:wikipedia": "en:Wienerschnitzel",
        "cuisine": "hot_dog",
        "name": "Wienerschnitzel",
        "takeaway": "yes"
      }
    },
    {
      "displayName": "Wimpy",
      "id": "wimpy-658eea",
      "locationSet": {"include": ["001"]},
      "tags": {
        "amenity": "fast_food",
        "brand": "Wimpy",
        "brand:wikidata": "Q2811992",
        "brand:wikipedia": "en:Wimpy (restaurant)",
        "cuisine": "burger",
        "name": "Wimpy",
        "takeaway": "yes"
      }
    },
    {
      "displayName": "Wingstop",
      "id": "wingstop-bca76b",
      "locationSet": {"include": ["mx", "us"]},
      "tags": {
        "amenity": "fast_food",
        "brand": "Wingstop",
        "brand:wikidata": "Q8025339",
        "brand:wikipedia": "en:Wingstop",
        "cuisine": "wings",
        "name": "Wingstop",
        "takeaway": "yes"
      }
    },
    {
      "displayName": "WingStreet",
      "id": "wingstreet-1c2e03",
      "locationSet": {
        "include": ["au", "ca", "cy", "us"]
      },
      "tags": {
        "amenity": "fast_food",
        "brand": "WingStreet",
        "brand:wikidata": "Q946630",
        "brand:wikipedia": "en:WingStreet",
        "cuisine": "wings",
        "name": "WingStreet",
        "takeaway": "yes"
      }
    },
    {
      "displayName": "Wow! Momo",
      "id": "wowmomo-aba431",
      "locationSet": {"include": ["in"]},
      "tags": {
        "amenity": "fast_food",
        "brand": "Wow! Momo",
        "brand:wikidata": "Q8037446",
        "brand:wikipedia": "en:Wow! Momo",
        "cuisine": "momo",
        "name": "Wow! Momo",
        "takeaway": "yes"
      }
    },
    {
      "displayName": "Xi'an Famous Foods",
      "id": "xianfamousfoods-4d2ff4",
      "locationSet": {"include": ["us"]},
      "tags": {
        "amenity": "fast_food",
        "brand": "Xi'an Famous Foods",
        "brand:wikidata": "Q8044020",
        "brand:wikipedia": "en:Xi'an Famous Foods",
        "cuisine": "chinese",
        "name": "Xi'an Famous Foods",
        "takeaway": "yes"
      }
    },
    {
      "displayName": "Yellow Cab Pizza",
      "id": "yellowcabpizza-658eea",
      "locationSet": {"include": ["001"]},
      "tags": {
        "amenity": "fast_food",
        "brand": "Yellow Cab Pizza",
        "brand:wikidata": "Q8051689",
        "brand:wikipedia": "en:Yellow Cab Pizza",
        "cuisine": "pizza",
        "name": "Yellow Cab Pizza",
        "takeaway": "yes"
      }
    },
    {
      "displayName": "Yoshinoya",
      "id": "yoshinoya-ffe475",
      "locationSet": {
        "include": ["id", "my", "ph", "sg", "us"]
      },
      "tags": {
        "amenity": "fast_food",
        "brand": "Yoshinoya",
        "brand:en": "Yoshinoya",
        "brand:wikidata": "Q776272",
        "brand:wikipedia": "ja:吉野家",
        "cuisine": "beef_bowl",
        "name": "Yoshinoya",
        "name:en": "Yoshinoya",
        "name:ja": "吉野家",
        "takeaway": "yes"
      }
    },
    {
      "displayName": "Zaxby's",
      "id": "zaxbys-4d2ff4",
      "locationSet": {"include": ["us"]},
      "tags": {
        "amenity": "fast_food",
        "brand": "Zaxby's",
        "brand:wikidata": "Q8067525",
        "brand:wikipedia": "en:Zaxby's",
        "cuisine": "chicken",
        "name": "Zaxby's",
        "official_name": "Zaxby's Chicken Fingers & Buffalo Wings",
        "takeaway": "yes"
      }
    },
    {
      "displayName": "Zippy's",
      "id": "zippys-4d2ff4",
      "locationSet": {"include": ["us"]},
      "tags": {
        "amenity": "fast_food",
        "brand": "Zippy's",
        "brand:wikidata": "Q8072671",
        "brand:wikipedia": "en:Zippy's",
        "cuisine": "hawaiian;japanese;chinese;american",
        "name": "Zippy's",
        "takeaway": "yes"
      }
    },
    {
      "displayName": "Zoës Kitchen",
      "id": "zoeskitchen-4d2ff4",
      "locationSet": {"include": ["us"]},
      "tags": {
        "amenity": "fast_food",
        "brand": "Zoës Kitchen",
        "brand:wikidata": "Q8074747",
        "brand:wikipedia": "en:Zoës Kitchen",
        "cuisine": "mediterranean",
        "name": "Zoës Kitchen",
        "takeaway": "yes"
      }
    },
    {
      "displayName": "Γρηγόρης",
      "id": "gregorys-6b115c",
      "locationSet": {"include": ["gr"]},
      "tags": {
        "amenity": "fast_food",
        "brand": "Γρηγόρης",
        "brand:el": "Γρηγόρης",
        "brand:en": "Gregorys",
        "brand:wikidata": "Q62273834",
        "cuisine": "sandwich",
        "name": "Γρηγόρης",
        "name:el": "Γρηγόρης",
        "name:en": "Gregorys",
        "takeaway": "yes"
      }
    },
    {
      "displayName": "Белоруснефть",
      "id": "ed92ce-9b2018",
      "locationSet": {
        "include": ["001"],
        "exclude": ["pl"]
      },
      "tags": {
        "amenity": "fast_food",
        "brand": "Белоруснефть",
        "brand:wikidata": "Q4082693",
        "brand:wikipedia": "ru:Белоруснефть",
        "name": "Белоруснефть",
        "takeaway": "yes"
      }
    },
    {
      "displayName": "Бургер Кинг",
      "id": "burgerking-873380",
      "locationSet": {
        "include": ["by", "kz", "ru", "ua"]
      },
      "tags": {
        "amenity": "fast_food",
        "brand": "Бургер Кинг",
        "brand:en": "Burger King",
        "brand:ru": "Бургер Кинг",
        "brand:wikidata": "Q177054",
        "brand:wikipedia": "en:Burger King",
        "cuisine": "burger",
        "name": "Бургер Кинг",
        "name:en": "Burger King",
        "name:ru": "Бургер Кинг",
        "takeaway": "yes"
      }
    },
    {
      "displayName": "Додо Пицца",
      "id": "dodopizza-e25654",
      "locationSet": {
        "include": ["by", "kz", "ru"]
      },
      "tags": {
        "amenity": "fast_food",
        "brand": "Додо Пицца",
        "brand:en": "Dodo Pizza",
        "brand:ru": "Додо Пицца",
        "brand:wikidata": "Q61949318",
        "brand:wikipedia": "ru:Додо Пицца",
        "cuisine": "pizza",
        "name": "Додо Пицца",
        "name:en": "Dodo Pizza",
        "name:ru": "Додо Пицца",
        "takeaway": "yes"
      }
    },
    {
      "displayName": "Домино'c",
      "id": "dominos-873380",
      "locationSet": {
        "include": ["by", "kz", "ru", "ua"]
      },
      "matchNames": ["доминоc пицца"],
      "tags": {
        "amenity": "fast_food",
        "brand": "Домино'c",
        "brand:en": "Domino's",
        "brand:ru": "Домино'c",
        "brand:wikidata": "Q839466",
        "brand:wikipedia": "ru:Domino’s Pizza",
        "cuisine": "pizza",
        "name": "Домино'c",
        "name:en": "Domino's",
        "name:ru": "Домино'c",
        "takeaway": "yes"
      }
    },
    {
      "displayName": "Крошка Картошка",
      "id": "kroshkakartoshka-7582d1",
      "locationSet": {"include": ["ru"]},
      "tags": {
        "amenity": "fast_food",
        "brand": "Крошка Картошка",
        "brand:en": "Kroshka Kartoshka",
        "brand:ru": "Крошка Картошка",
        "brand:wikidata": "Q4241838",
        "brand:wikipedia": "ru:Крошка Картошка",
        "cuisine": "potato",
        "name": "Крошка Картошка",
        "name:en": "Kroshka Kartoshka",
        "name:ru": "Крошка Картошка",
        "takeaway": "yes"
      }
    },
    {
      "displayName": "Макдоналдс",
      "id": "mcdonalds-873380",
      "locationSet": {
        "include": ["by", "kz", "ru", "ua"]
      },
      "tags": {
        "amenity": "fast_food",
        "brand": "Макдоналдс",
        "brand:en": "McDonald's",
        "brand:ru": "Макдоналдс",
        "brand:wikidata": "Q38076",
        "brand:wikipedia": "en:McDonald's",
        "cuisine": "burger",
        "name": "Макдоналдс",
        "name:en": "McDonald's",
        "name:ru": "Макдоналдс",
        "takeaway": "yes"
      }
    },
    {
      "displayName": "Папа Джонс",
      "id": "papajohns-23683e",
      "locationSet": {"include": ["by", "ru"]},
      "tags": {
        "amenity": "fast_food",
        "brand": "Папа Джонс",
        "brand:en": "Papa John's",
        "brand:ru": "Папа Джонс",
        "brand:wikidata": "Q2759586",
        "brand:wikipedia": "ru:Papa John’s",
        "cuisine": "pizza",
        "name": "Папа Джонс",
        "name:en": "Papa John's",
        "name:ru": "Папа Джонс",
        "takeaway": "yes"
      }
    },
    {
      "displayName": "Пузата хата",
      "id": "puzatahata-7582d1",
      "locationSet": {"include": ["ru"]},
      "tags": {
        "amenity": "fast_food",
        "brand": "Пузата Хата",
        "brand:en": "Puzata hata",
        "brand:ru": "Пузата Хата",
        "brand:uk": "Пузата Хата",
        "brand:wikidata": "Q11832009",
        "brand:wikipedia": "uk:Пузата хата",
        "cuisine": "ukrainian;western",
        "name": "Пузата Хата",
        "name:en": "Puzata hata",
        "name:ru": "Пузата Хата",
        "name:uk": "Пузата Хата",
        "takeaway": "yes"
      }
    },
    {
      "displayName": "Робин Сдобин",
      "id": "robinsdobin-7582d1",
      "locationSet": {"include": ["ru"]},
      "tags": {
        "amenity": "fast_food",
        "brand": "Робин Сдобин",
        "brand:en": "Robins Dobin",
        "brand:ru": "Робин Сдобин",
        "brand:wikidata": "Q62273880",
        "cuisine": "burger",
        "name": "Робин Сдобин",
        "name:en": "Robins Dobin",
        "name:ru": "Робин Сдобин",
        "takeaway": "yes"
      }
    },
    {
      "displayName": "Русский Аппетит",
      "id": "russkiyappetit-7582d1",
      "locationSet": {"include": ["ru"]},
      "tags": {
        "amenity": "fast_food",
        "brand": "Русский Аппетит",
        "brand:en": "Russkiy Appetit",
        "brand:ru": "Русский Аппетит",
        "brand:wikidata": "Q62086063",
        "cuisine": "sandwich;salad;regional",
        "name": "Русский Аппетит",
        "name:en": "Russkiy Appetit",
        "name:ru": "Русский Аппетит",
        "takeaway": "yes"
      }
    },
    {
      "displayName": "Стардог!s",
      "id": "stardogs-7582d1",
      "locationSet": {"include": ["ru"]},
      "tags": {
        "amenity": "fast_food",
        "brand": "Стардог!s",
        "brand:en": "Stardog!s",
        "brand:ru": "Стардог!s",
        "brand:wikidata": "Q4439856",
        "brand:wikipedia": "ru:Стардогс",
        "cuisine": "sausage",
        "name": "Стардог!s",
        "name:en": "Stardog!s",
        "name:ru": "Стардог!s",
        "takeaway": "yes"
      }
    },
    {
      "displayName": "Суши Wok",
      "id": "sushiwok-af0c49",
      "locationSet": {"include": ["ru", "ua"]},
      "matchTags": ["shop/convenience"],
      "tags": {
        "amenity": "fast_food",
        "brand": "Суши Wok",
        "brand:en": "Sushi Wok",
        "brand:ru": "Суши Wok",
        "brand:wikidata": "Q25444754",
        "brand:wikipedia": "uk:Суши Wok (мережа магазинів)",
        "cuisine": "asian",
        "name": "Суши Wok",
        "name:en": "Sushi Wok",
        "name:ru": "Суши Wok",
        "takeaway": "yes"
      }
    },
    {
      "displayName": "Сушишоп",
      "id": "sushishop-7582d1",
      "locationSet": {"include": ["ru"]},
      "tags": {
        "amenity": "fast_food",
        "brand": "Сушишоп",
        "brand:en": "Sushishop",
        "brand:ru": "Сушишоп",
        "brand:wikidata": "Q104003006",
        "cuisine": "sushi",
        "name": "Сушишоп",
        "name:en": "Sushishop",
        "name:ru": "Сушишоп",
        "takeaway": "yes"
      }
    },
    {
      "displayName": "Теремок",
      "id": "teremok-7582d1",
      "locationSet": {"include": ["ru"]},
      "matchTags": ["shop/convenience"],
      "tags": {
        "amenity": "fast_food",
        "brand": "Теремок",
        "brand:en": "Teremok",
        "brand:ru": "Теремок",
        "brand:wikidata": "Q4455593",
        "brand:wikipedia": "ru:Теремок (сеть быстрого питания)",
        "cuisine": "crepe;russian",
        "name": "Теремок",
        "name:en": "Teremok",
        "name:ru": "Теремок",
        "takeaway": "yes"
      }
    },
    {
      "displayName": "Чебуречная",
      "id": "8bfcc6-889f2a",
      "locationSet": {
        "include": ["by", "ru", "ua"]
      },
      "tags": {
        "amenity": "fast_food",
        "brand": "Чебуречная",
        "cuisine": "uzbek;russian",
        "name": "Чебуречная",
        "takeaway": "yes"
      }
    },
    {
      "displayName": "אגדיר",
      "id": "agadir-dbdcb8",
      "locationSet": {"include": ["il"]},
      "tags": {
        "amenity": "fast_food",
        "brand": "אגדיר",
        "brand:en": "Agadir",
        "brand:he": "אגדיר",
        "brand:wikidata": "Q64760070",
        "cuisine": "burger",
        "name": "אגדיר",
        "name:en": "Agadir",
        "name:he": "אגדיר",
        "takeaway": "yes"
      }
    },
    {
      "displayName": "מקדונלד'ס",
      "id": "mcdonalds-dbdcb8",
      "locationSet": {"include": ["il"]},
      "tags": {
        "amenity": "fast_food",
        "brand": "מקדונלד'ס",
        "brand:en": "McDonald's",
        "brand:he": "מקדונלד'ס",
        "brand:wikidata": "Q12061542",
        "brand:wikipedia": "en:McDonald's Israel",
        "cuisine": "burger",
        "name": "מקדונלד'ס",
        "name:en": "McDonald's",
        "name:he": "מקדונלד'ס",
        "takeaway": "yes"
      }
    },
    {
      "displayName": "עד העצם אקספרס",
      "id": "adhaetzemexpress-dbdcb8",
      "locationSet": {"include": ["il"]},
      "tags": {
        "amenity": "fast_food",
        "brand": "עד העצם אקספרס",
        "brand:en": "Ad Haetzem Express",
        "brand:he": "עד העצם אקספרס",
        "brand:wikidata": "Q64760165",
        "cuisine": "burger",
        "name": "עד העצם אקספרס",
        "name:en": "Ad Haetzem Express",
        "name:he": "עד העצם אקספרס",
        "takeaway": "yes"
      }
    },
    {
      "displayName": "פיצה פרגו",
      "id": "pizzaprego-dbdcb8",
      "locationSet": {"include": ["il"]},
      "tags": {
        "alt_name:en": "Prego Pizza",
        "amenity": "fast_food",
        "brand": "פיצה פרגו",
        "brand:he": "פיצה פרגו",
        "brand:wikidata": "Q99769214",
        "cuisine": "pizza",
        "delivery": "yes",
        "diet:vegan": "yes",
        "name": "פיצה פרגו",
        "name:en": "Pizza Prego",
        "name:he": "פיצה פרגו",
        "takeaway": "yes"
      }
    },
    {
      "displayName": "פיצה שמש",
      "id": "pizzashemesh-dbdcb8",
      "locationSet": {"include": ["il"]},
      "tags": {
        "alt_name:en": "Shemesh Pizza",
        "amenity": "fast_food",
        "brand": "פיצה שמש",
        "brand:he": "פיצה שמש",
        "brand:wikidata": "Q99769124",
        "cuisine": "pizza",
        "delivery": "yes",
        "diet:kosher": "yes",
        "name": "פיצה שמש",
        "name:en": "Pizza Shemesh",
        "name:he": "פיצה שמש",
        "takeaway": "yes"
      }
    },
    {
      "displayName": "البيك",
      "id": "albaik-060f89",
      "locationSet": {"include": ["bh", "sa"]},
      "tags": {
        "amenity": "fast_food",
        "brand": "البيك",
        "brand:ar": "البيك",
        "brand:en": "Albaik",
        "brand:wikidata": "Q4703536",
        "brand:wikipedia": "ar:البيك",
        "cuisine": "chicken",
        "name": "البيك",
        "name:ar": "البيك",
        "name:en": "Albaik",
        "takeaway": "yes"
      }
    },
    {
      "displayName": "الطازج",
      "id": "altazaj-7c76bb",
      "locationSet": {
        "include": [
          "ae",
          "bh",
          "eg",
          "jo",
          "kw",
          "lb",
          "my",
          "om",
          "qa",
          "sa",
          "td",
          "ye"
        ]
      },
      "tags": {
        "amenity": "fast_food",
        "brand": "الطازج",
        "brand:ar": "الطازج",
        "brand:en": "Al Tazaj",
        "brand:wikidata": "Q4704878",
        "brand:wikipedia": "ar:الطازج",
        "cuisine": "chicken",
        "name": "الطازج",
        "name:ar": "الطازج",
        "name:en": "Al Tazaj",
        "takeaway": "yes"
      }
    },
    {
      "displayName": "دجاج كنتاكي",
      "id": "kfc-8cd980",
      "locationSet": {
        "include": [
          "ae",
          "bh",
          "kw",
          "om",
          "qa",
          "sa",
          "ye"
        ]
      },
      "tags": {
        "amenity": "fast_food",
        "brand": "دجاج كنتاكي",
        "brand:ar": "دجاج كنتاكي",
        "brand:en": "KFC",
        "brand:wikidata": "Q524757",
        "brand:wikipedia": "ar:دجاج كنتاكي",
        "cuisine": "chicken",
        "name": "دجاج كنتاكي",
        "name:ar": "دجاج كنتاكي",
        "name:en": "KFC",
        "takeaway": "yes"
      }
    },
    {
      "displayName": "شاورمر",
      "id": "shawarmer-ade864",
      "locationSet": {"include": ["sa"]},
      "tags": {
        "amenity": "fast_food",
        "brand": "شاورمر",
        "brand:ar": "شاورمر",
        "brand:en": "Shawarmer",
        "brand:wikidata": "Q29509653",
        "brand:wikipedia": "en:Shawarmer",
        "cuisine": "shawarma",
        "name": "شاورمر",
        "name:ar": "شاورمر",
        "name:en": "Shawarmer",
        "takeaway": "yes"
      }
    },
    {
      "displayName": "كودو",
      "id": "kudu-1b3be3",
      "locationSet": {
        "include": ["ae", "bh", "jo", "sa", "sd"]
      },
      "tags": {
        "amenity": "fast_food",
        "brand": "كودو",
        "brand:ar": "كودو",
        "brand:en": "Kudu",
        "brand:wikidata": "Q6441777",
        "brand:wikipedia": "en:Kudu (restaurant)",
        "cuisine": "sandwich",
        "name": "كودو",
        "name:ar": "كودو",
        "name:en": "Kudu",
        "takeaway": "yes"
      }
    },
    {
      "displayName": "ماكدونالدز",
      "id": "mcdonalds-8cd980",
      "locationSet": {
        "include": [
          "ae",
          "bh",
          "kw",
          "om",
          "qa",
          "sa",
          "ye"
        ]
      },
      "tags": {
        "amenity": "fast_food",
        "brand": "ماكدونالدز",
        "brand:ar": "ماكدونالدز",
        "brand:en": "McDonald's",
        "brand:wikidata": "Q38076",
        "brand:wikipedia": "ar:ماكدونالدز",
        "cuisine": "burger",
        "name": "ماكدونالدز",
        "name:ar": "ماكدونالدز",
        "name:en": "McDonald's",
        "takeaway": "yes"
      }
    },
    {
      "displayName": "هرفي",
      "id": "herfy-5a6b9f",
      "locationSet": {
        "include": [
          "ae",
          "bd",
          "bh",
          "eg",
          "kw",
          "sa"
        ]
      },
      "tags": {
        "amenity": "fast_food",
        "brand": "هرفي",
        "brand:ar": "هرفي",
        "brand:en": "Herfy",
        "brand:wikidata": "Q5738371",
        "brand:wikipedia": "en:Herfy",
        "cuisine": "burger",
        "name": "هرفي",
        "name:ar": "هرفي",
        "name:en": "Herfy",
        "takeaway": "yes"
      }
    },
    {
      "displayName": "롯데리아",
      "id": "lotteria-c56583",
      "locationSet": {"include": ["kr"]},
      "tags": {
        "amenity": "fast_food",
        "brand": "롯데리아",
        "brand:en": "Lotteria",
        "brand:ko": "롯데리아",
        "brand:wikidata": "Q249525",
        "brand:wikipedia": "ko:롯데리아",
        "cuisine": "burger",
        "name": "롯데리아",
        "name:en": "Lotteria",
        "name:ko": "롯데리아",
        "takeaway": "yes"
      }
    },
    {
      "displayName": "맘스터치",
      "id": "e7198e-c56583",
      "locationSet": {"include": ["kr"]},
      "tags": {
        "amenity": "fast_food",
        "brand": "맘스터치",
        "brand:ko": "맘스터치",
        "brand:wikidata": "Q23044856",
        "brand:wikipedia": "en:Mom's Touch",
        "cuisine": "burger",
        "name": "맘스터치",
        "name:ko": "맘스터치",
        "takeaway": "yes"
      }
    },
    {
      "displayName": "맥도날드",
      "id": "mcdonalds-c56583",
      "locationSet": {"include": ["kr"]},
      "tags": {
        "amenity": "fast_food",
        "brand": "맥도날드",
        "brand:en": "McDonald's",
        "brand:ko": "맥도날드",
        "brand:wikidata": "Q38076",
        "brand:wikipedia": "ko:맥도날드",
        "cuisine": "burger",
        "name": "맥도날드",
        "name:en": "McDonald's",
        "name:ko": "맥도날드",
        "takeaway": "yes"
      }
    },
    {
      "displayName": "ウェンディーズ",
      "id": "wendys-3e7699",
      "locationSet": {"include": ["jp"]},
      "tags": {
        "amenity": "fast_food",
        "brand": "ウェンディーズ",
        "brand:en": "Wendy's",
        "brand:ja": "ウェンディーズ",
        "brand:wikidata": "Q550258",
        "brand:wikipedia": "en:Wendy's",
        "cuisine": "burger",
        "name": "ウェンディーズ",
        "name:en": "Wendy's",
        "name:ja": "ウェンディーズ",
        "takeaway": "yes"
      }
    },
    {
      "displayName": "オリジン弁当",
      "id": "originbento-3e7699",
      "locationSet": {"include": ["jp"]},
      "tags": {
        "amenity": "fast_food",
        "brand": "オリジン弁当",
        "brand:en": "Origin Bentō",
        "brand:ja": "オリジン弁当",
        "brand:wikidata": "Q11292632",
        "brand:wikipedia": "ja:オリジン東秀",
        "cuisine": "japanese",
        "name": "オリジン弁当",
        "name:en": "Origin Bentō",
        "name:ja": "オリジン弁当",
        "takeaway": "yes"
      }
    },
    {
      "displayName": "かっぱ寿司",
      "id": "kappasushi-3e7699",
      "locationSet": {"include": ["jp"]},
      "tags": {
        "amenity": "fast_food",
        "brand": "かっぱ寿司",
        "brand:en": "Kappa Sushi",
        "brand:ja": "かっぱ寿司",
        "brand:wikidata": "Q11263916",
        "brand:wikipedia": "ja:かっぱ寿司",
        "cuisine": "sushi",
        "name": "かっぱ寿司",
        "name:en": "Kappa Sushi",
        "name:ja": "かっぱ寿司",
        "takeaway": "yes"
      }
    },
    {
      "displayName": "かつや",
      "id": "katsuya-3e7699",
      "locationSet": {"include": ["jp"]},
      "tags": {
        "amenity": "fast_food",
        "brand": "かつや",
        "brand:en": "Katsuya",
        "brand:ja": "かつや",
        "brand:wikidata": "Q2855257",
        "brand:wikipedia": "ja:かつや",
        "cuisine": "fried_food",
        "name": "かつや",
        "name:en": "Katsuya",
        "name:ja": "かつや",
        "name:ko": "카쯔야",
        "name:zh": "吉豚屋",
        "takeaway": "yes"
      }
    },
    {
      "displayName": "キッチンオリジン",
      "id": "kitchenorigin-3e7699",
      "locationSet": {"include": ["jp"]},
      "tags": {
        "amenity": "fast_food",
        "brand": "キッチンオリジン",
        "brand:en": "Kitchen Origin",
        "brand:ja": "キッチンオリジン",
        "brand:wikidata": "Q92658990",
        "cuisine": "japanese",
        "name": "キッチンオリジン",
        "name:en": "Kitchen Origin",
        "name:ja": "キッチンオリジン",
        "takeaway": "yes"
      }
    },
    {
      "displayName": "くら寿司",
      "id": "kurasushi-3e7699",
      "locationSet": {"include": ["jp"]},
      "tags": {
        "alt_name:en": "Kurazushi",
        "amenity": "fast_food",
        "brand": "くら寿司",
        "brand:en": "Kura Sushi",
        "brand:ja": "くら寿司",
        "brand:wikidata": "Q6445491",
        "brand:wikipedia": "ja:くら寿司",
        "cuisine": "sushi",
        "name": "くら寿司",
        "name:en": "Kura Sushi",
        "name:ja": "くら寿司",
        "official_name": "無添くら寿司",
        "official_name:en": "Muten Kura Sushi",
        "official_name:ja": "無添くら寿司",
        "takeaway": "yes"
      }
    },
    {
      "displayName": "ケンタッキーフライドチキン",
      "id": "kfc-3e7699",
      "locationSet": {"include": ["jp"]},
      "matchNames": ["ケンタッキー"],
      "tags": {
        "alt_name:en": "Kentucky Fried Chicken",
        "amenity": "fast_food",
        "brand": "ケンタッキーフライドチキン",
        "brand:en": "KFC",
        "brand:ja": "ケンタッキーフライドチキン",
        "brand:wikidata": "Q524757",
        "brand:wikipedia": "ja:KFCコーポレーション",
        "cuisine": "chicken",
        "name": "ケンタッキーフライドチキン",
        "name:en": "KFC",
        "name:ja": "ケンタッキーフライドチキン",
        "takeaway": "yes"
      }
    },
    {
      "displayName": "ゴーゴーカレー",
      "id": "gogocurry-3e7699",
      "locationSet": {"include": ["jp"]},
      "tags": {
        "alt_name:en": "Go Go Curry",
        "amenity": "fast_food",
        "brand": "ゴーゴーカレー",
        "brand:en": "Go!Go!Curry",
        "brand:ja": "ゴーゴーカレー",
        "brand:wikidata": "Q11303801",
        "brand:wikipedia": "ja:ゴーゴーカレーグループ",
        "cuisine": "curry",
        "name": "ゴーゴーカレー",
        "name:en": "Go!Go!Curry",
        "name:ja": "ゴーゴーカレー",
        "takeaway": "yes"
      }
    },
    {
      "displayName": "サブウェイ",
      "id": "subway-3e7699",
      "locationSet": {"include": ["jp"]},
      "tags": {
        "amenity": "fast_food",
        "brand": "サブウェイ",
        "brand:en": "Subway",
        "brand:ja": "サブウェイ",
        "brand:wikidata": "Q244457",
        "brand:wikipedia": "ja:サブウェイ",
        "cuisine": "sandwich",
        "name": "サブウェイ",
        "name:en": "Subway",
        "name:ja": "サブウェイ",
        "takeaway": "yes"
      }
    },
    {
      "displayName": "すき家",
      "id": "sukiya-3e7699",
      "locationSet": {"include": ["jp"]},
      "tags": {
        "amenity": "fast_food",
        "brand": "すき家",
        "brand:en": "Sukiya",
        "brand:ja": "すき家",
        "brand:wikidata": "Q6137375",
        "brand:wikipedia": "ja:すき家",
        "cuisine": "beef_bowl",
        "name": "すき家",
        "name:en": "Sukiya",
        "name:ja": "すき家",
        "takeaway": "yes"
      }
    },
    {
      "displayName": "スシロー",
      "id": "sushiro-3e7699",
      "locationSet": {"include": ["jp"]},
      "tags": {
        "amenity": "fast_food",
        "brand": "スシロー",
        "brand:en": "Sushiro",
        "brand:ja": "スシロー",
        "brand:wikidata": "Q11257037",
        "brand:wikipedia": "ja:あきんどスシロー",
        "cuisine": "sushi",
        "name": "スシロー",
        "name:en": "Sushiro",
        "name:ja": "スシロー",
        "name:zh": "壽司郎",
        "official_name": "あきんどスシロー",
        "official_name:en": "Akindo Sushiro",
        "official_name:ja": "あきんどスシロー",
        "takeaway": "yes"
      }
    },
    {
      "displayName": "ちよだ鮨",
      "id": "chiyodasushi-3e7699",
      "locationSet": {"include": ["jp"]},
      "matchTags": ["shop/deli"],
      "tags": {
        "amenity": "fast_food",
        "brand": "ちよだ鮨",
        "brand:en": "Chiyoda Sushi",
        "brand:ja": "ちよだ鮨",
        "brand:wikidata": "Q11272065",
        "brand:wikipedia": "ja:ちよだ鮨",
        "cuisine": "sushi",
        "name": "ちよだ鮨",
        "name:en": "Chiyoda Sushi",
        "name:ja": "ちよだ鮨",
        "takeaway": "only"
      }
    },
    {
      "displayName": "てんや",
      "id": "tenya-3e7699",
      "locationSet": {"include": ["jp"]},
      "tags": {
        "amenity": "fast_food",
        "brand": "てんや",
        "brand:en": "Tenya",
        "brand:ja": "てんや",
        "brand:wikidata": "Q11319830",
        "brand:wikipedia": "ja:テンコーポレーション",
        "cuisine": "fries",
        "name": "てんや",
        "name:en": "Tenya",
        "name:ja": "てんや",
        "official_name": "天丼てんや",
        "official_name:en": "Tendon Tenya",
        "official_name:ja": "天丼てんや",
        "takeaway": "yes"
      }
    },
    {
      "displayName": "ドミノ",
      "id": "dominos-3e7699",
      "locationSet": {"include": ["jp"]},
      "matchNames": ["ドミノ・ピザ"],
      "tags": {
        "amenity": "fast_food",
        "brand": "ドミノ",
        "brand:en": "Domino's",
        "brand:ja": "ドミノ",
        "brand:wikidata": "Q839466",
        "brand:wikipedia": "ja:ドミノ・ピザ",
        "cuisine": "pizza",
        "name": "ドミノ",
        "name:en": "Domino's",
        "name:ja": "ドミノ",
        "takeaway": "yes"
      }
    },
    {
      "displayName": "どんどん亭",
      "id": "dondontei-3e7699",
      "locationSet": {"include": ["jp"]},
      "tags": {
        "amenity": "fast_food",
        "brand": "どんどん亭",
        "brand:en": "Dondontei",
        "brand:ja": "どんどん亭",
        "brand:wikidata": "Q96101856",
        "cuisine": "japanese",
        "name": "どんどん亭",
        "name:en": "Dondontei",
        "name:ja": "どんどん亭",
        "takeaway": "yes"
      }
    },
    {
      "displayName": "なか卯",
      "id": "nakau-3e7699",
      "locationSet": {"include": ["jp"]},
      "tags": {
        "amenity": "fast_food",
        "brand": "なか卯",
        "brand:en": "Nakau",
        "brand:ja": "なか卯",
        "brand:wikidata": "Q11274132",
        "brand:wikipedia": "ja:なか卯",
        "cuisine": "udon",
        "name": "なか卯",
        "name:en": "Nakau",
        "name:ja": "なか卯",
        "takeaway": "yes"
      }
    },
    {
      "displayName": "バーガーキング",
      "id": "burgerking-3e7699",
      "locationSet": {"include": ["jp"]},
      "tags": {
        "amenity": "fast_food",
        "brand": "バーガーキング",
        "brand:en": "Burger King",
        "brand:ja": "バーガーキング",
        "brand:wikidata": "Q177054",
        "brand:wikipedia": "en:Burger King",
        "cuisine": "burger",
        "name": "バーガーキング",
        "name:en": "Burger King",
        "name:ja": "バーガーキング",
        "takeaway": "yes"
      }
    },
    {
      "displayName": "はま寿司",
      "id": "hamazushi-3e7699",
      "locationSet": {"include": ["jp"]},
      "tags": {
        "amenity": "fast_food",
        "brand": "はま寿司",
        "brand:en": "Hamazushi",
        "brand:ja": "はま寿司",
        "brand:wikidata": "Q17220385",
        "brand:wikipedia": "ja:はま寿司",
        "cuisine": "sushi",
        "name": "はま寿司",
        "name:en": "Hamazushi",
        "name:ja": "はま寿司",
        "takeaway": "yes"
      }
    },
    {
      "displayName": "ピザ・カリフォルニア",
      "id": "pizzacalifornia-3e7699",
      "locationSet": {"include": ["jp"]},
      "tags": {
        "amenity": "fast_food",
        "brand": "ピザ・カリフォルニア",
        "brand:en": "Pizza California",
        "brand:ja": "ピザ・カリフォルニア",
        "brand:wikidata": "Q75324",
        "brand:wikipedia": "ja:ピザ・カリフォルニア",
        "cuisine": "pizza",
        "name": "ピザ・カリフォルニア",
        "name:en": "Pizza California",
        "name:ja": "ピザ・カリフォルニア",
        "takeaway": "yes"
      }
    },
    {
      "displayName": "ピザーラ",
      "id": "pizzala-3e7699",
      "locationSet": {"include": ["jp"]},
      "tags": {
        "amenity": "fast_food",
        "brand": "ピザーラ",
        "brand:en": "Pizza-La",
        "brand:ja": "ピザーラ",
        "brand:wikidata": "Q7199948",
        "brand:wikipedia": "ja:ピザーラ",
        "cuisine": "pizza",
        "name": "ピザーラ",
        "name:en": "Pizza-La",
        "name:ja": "ピザーラ",
        "takeaway": "yes"
      }
    },
    {
      "displayName": "ピザハット",
      "id": "pizzahut-3e7699",
      "locationSet": {"include": ["jp"]},
      "tags": {
        "amenity": "fast_food",
        "brand": "ピザハット",
        "brand:en": "Pizza Hut",
        "brand:ja": "ピザハット",
        "brand:wikidata": "Q191615",
        "brand:wikipedia": "ja:ピザハット",
        "cuisine": "pizza",
        "name": "ピザハット",
        "name:en": "Pizza Hut",
        "name:ja": "ピザハット",
        "takeaway": "yes"
      }
    },
    {
      "displayName": "ピザポケット",
      "id": "pizzapockets-3e7699",
      "locationSet": {"include": ["jp"]},
      "tags": {
        "amenity": "fast_food",
        "brand": "ピザポケット",
        "brand:en": "Pizza Pocket's",
        "brand:ja": "ピザポケット",
        "brand:wikidata": "Q11331462",
        "brand:wikipedia": "ja:ピザポケット",
        "cuisine": "pizza",
        "name": "ピザポケット",
        "name:en": "Pizza Pocket's",
        "name:ja": "ピザポケット",
        "takeaway": "yes"
      }
    },
    {
      "displayName": "ファーストキッチン",
      "id": "firstkitchen-3e7699",
      "locationSet": {"include": ["jp"]},
      "tags": {
        "amenity": "fast_food",
        "brand": "ファーストキッチン",
        "brand:en": "First Kitchen",
        "brand:ja": "ファーストキッチン",
        "brand:wikidata": "Q5453133",
        "brand:wikipedia": "ja:ファーストキッチン",
        "cuisine": "friture",
        "name": "ファーストキッチン",
        "name:en": "First Kitchen",
        "name:ja": "ファーストキッチン",
        "takeaway": "yes"
      }
    },
    {
      "displayName": "フレッシュネスバーガー",
      "id": "freshnessburger-3e7699",
      "locationSet": {"include": ["jp"]},
      "tags": {
        "amenity": "fast_food",
        "brand": "フレッシュネスバーガー",
        "brand:en": "Freshness Burger",
        "brand:ja": "フレッシュネスバーガー",
        "brand:wikidata": "Q5503087",
        "brand:wikipedia": "ja:フレッシュネスバーガー",
        "cuisine": "burger",
        "name": "フレッシュネスバーガー",
        "name:en": "Freshness Burger",
        "name:ja": "フレッシュネスバーガー",
        "takeaway": "yes"
      }
    },
    {
      "displayName": "ほっかほっか亭",
      "id": "hokkahokkatei-3e7699",
      "locationSet": {"include": ["jp"]},
      "tags": {
        "amenity": "fast_food",
        "brand": "ほっかほっか亭",
        "brand:en": "Hokka Hokka Tei",
        "brand:ja": "ほっかほっか亭",
        "brand:wikidata": "Q5878035",
        "brand:wikipedia": "ja:ほっかほっか亭",
        "cuisine": "japanese",
        "name": "ほっかほっか亭",
        "name:en": "Hokka Hokka Tei",
        "name:ja": "ほっかほっか亭",
        "takeaway": "yes"
      }
    },
    {
      "displayName": "ほっともっと",
      "id": "hottomotto-3e7699",
      "locationSet": {"include": ["jp"]},
      "matchNames": ["hottomotto ほっともっと"],
      "matchTags": ["shop/deli"],
      "tags": {
        "amenity": "fast_food",
        "brand": "ほっともっと",
        "brand:en": "Hotto Motto",
        "brand:ja": "ほっともっと",
        "brand:wikidata": "Q10850949",
        "brand:wikipedia": "ja:ほっともっと",
        "cuisine": "japanese",
        "name": "ほっともっと",
        "name:en": "Hotto Motto",
        "name:ja": "ほっともっと",
        "takeaway": "yes"
      }
    },
    {
      "displayName": "マクドナルド",
      "id": "mcdonalds-3e7699",
      "locationSet": {"include": ["jp"]},
      "tags": {
        "amenity": "fast_food",
        "brand": "マクドナルド",
        "brand:en": "McDonald's",
        "brand:ja": "マクドナルド",
        "brand:wikidata": "Q38076",
        "brand:wikipedia": "ja:マクドナルド",
        "cuisine": "burger",
        "name": "マクドナルド",
        "name:en": "McDonald's",
        "name:ja": "マクドナルド",
        "takeaway": "yes"
      }
    },
    {
      "displayName": "ミスタードーナツ",
      "id": "misterdonut-3e7699",
      "locationSet": {"include": ["jp"]},
      "tags": {
        "amenity": "fast_food",
        "brand": "ミスタードーナツ",
        "brand:en": "Mister Donut",
        "brand:ja": "ミスタードーナツ",
        "brand:wikidata": "Q1065819",
        "brand:wikipedia": "en:Mister Donut",
        "cuisine": "donut",
        "name": "ミスタードーナツ",
        "name:en": "Mister Donut",
        "name:ja": "ミスタードーナツ",
        "takeaway": "yes"
      }
    },
    {
      "displayName": "モスバーガー",
      "id": "mosburger-3e7699",
      "locationSet": {"include": ["jp"]},
      "tags": {
        "amenity": "fast_food",
        "brand": "モスバーガー",
        "brand:en": "MOS Burger",
        "brand:ja": "モスバーガー",
        "brand:wikidata": "Q1204169",
        "brand:wikipedia": "ja:モスバーガー",
        "cuisine": "burger",
        "name": "モスバーガー",
        "name:en": "MOS Burger",
        "name:ja": "モスバーガー",
        "takeaway": "yes"
      }
    },
    {
      "displayName": "ゆで太郎",
      "id": "yudetaro-3e7699",
      "locationSet": {"include": ["jp"]},
      "tags": {
        "amenity": "fast_food",
        "brand": "ゆで太郎",
        "brand:en": "Yudetaro",
        "brand:ja": "ゆで太郎",
        "brand:wikidata": "Q11280824",
        "brand:wikipedia": "ja:ゆで太郎",
        "cuisine": "noodle",
        "name": "ゆで太郎",
        "name:en": "Yudetaro",
        "name:ja": "ゆで太郎",
        "takeaway": "yes"
      }
    },
    {
      "displayName": "ラーメン二郎",
      "id": "ramenjiro-3e7699",
      "locationSet": {"include": ["jp"]},
      "tags": {
        "amenity": "fast_food",
        "brand": "ラーメン二郎",
        "brand:en": "Ramen Jiro",
        "brand:ja": "ラーメン二郎",
        "brand:wikidata": "Q11347765",
        "brand:wikipedia": "ja:ラーメン二郎",
        "cuisine": "ramen",
        "name": "ラーメン二郎",
        "name:en": "Ramen Jiro",
        "name:ja": "ラーメン二郎",
        "takeaway": "yes"
      }
    },
    {
      "displayName": "ロッテリア",
      "id": "lotteria-3e7699",
      "locationSet": {"include": ["jp"]},
      "tags": {
        "amenity": "fast_food",
        "brand": "ロッテリア",
        "brand:en": "Lotteria",
        "brand:ja": "ロッテリア",
        "brand:wikidata": "Q249525",
        "brand:wikipedia": "ja:ロッテリア",
        "cuisine": "burger",
        "name": "ロッテリア",
        "name:en": "Lotteria",
        "name:ja": "ロッテリア",
        "takeaway": "yes"
      }
    },
    {
      "displayName": "华莱士",
      "id": "cnhls-65b4e8",
      "locationSet": {"include": ["cn"]},
      "matchNames": ["华莱士快餐", "华莱士炸鸡汉堡"],
      "tags": {
        "amenity": "fast_food",
        "brand": "华莱士",
        "brand:en": "CNHLS",
        "brand:wikidata": "Q15939607",
        "brand:wikipedia": "zh:华莱士 (快餐)",
        "brand:zh": "华莱士",
        "brand:zh-Hans": "華萊士",
        "cuisine": "burger;chicken",
        "name": "华莱士",
        "name:en": "CNHLS",
        "name:zh": "华莱士",
        "name:zh-Hans": "華萊士",
        "takeaway": "yes"
      }
    },
    {
      "displayName": "吉野家",
      "id": "yoshinoya-20e6f1",
      "locationSet": {
        "include": ["cn", "hk", "jp", "tw"]
      },
      "matchNames": ["吉野家 yoshinoya"],
      "tags": {
        "amenity": "fast_food",
        "brand": "吉野家",
        "brand:en": "Yoshinoya",
        "brand:ja": "吉野家",
        "brand:wikidata": "Q776272",
        "brand:wikipedia": "ja:吉野家",
        "cuisine": "beef_bowl",
        "name": "吉野家",
        "name:en": "Yoshinoya",
        "name:ja": "吉野家",
        "takeaway": "yes"
      }
    },
    {
      "displayName": "富士そば",
      "id": "fujisoba-3e7699",
      "locationSet": {"include": ["jp"]},
      "tags": {
        "amenity": "fast_food",
        "brand": "富士そば",
        "brand:en": "Fuji Soba",
        "brand:ja": "富士そば",
        "brand:wikidata": "Q11414722",
        "brand:wikipedia": "ja:名代富士そば",
        "cuisine": "soba",
        "name": "富士そば",
        "name:en": "Fuji Soba",
        "name:ja": "富士そば",
        "takeaway": "yes"
      }
    },
    {
      "displayName": "小僧寿し",
      "id": "kozosushi-3e7699",
      "locationSet": {"include": ["jp"]},
      "matchNames": ["sushi花館", "小僧寿司"],
      "tags": {
        "amenity": "fast_food",
        "brand": "小僧寿し",
        "brand:en": "Kozosushi",
        "brand:ja": "小僧寿し",
        "brand:wikidata": "Q11459064",
        "brand:wikipedia": "ja:小僧寿し",
        "cuisine": "sushi",
        "name": "小僧寿し",
        "name:en": "Kozosushi",
        "name:ja": "小僧寿し",
        "takeaway": "yes"
      }
    },
    {
      "displayName": "巨林美而美",
      "id": "jyulinmeiandmei-60a4d5",
      "locationSet": {"include": ["tw"]},
      "tags": {
        "amenity": "fast_food",
        "brand": "巨林美而美",
        "brand:en": "Jyulin Mei & Mei",
        "brand:wikidata": "Q56197246",
        "brand:wikipedia": "zh:美而美",
        "brand:zh": "巨林美而美",
        "cuisine": "breakfast",
        "name": "巨林美而美",
        "name:en": "Jyulin Mei & Mei",
        "name:zh": "巨林美而美",
        "operator": "巨林食品企業有限公司",
        "takeaway": "yes"
      }
    },
    {
      "displayName": "幸楽苑",
      "id": "kourakuen-3e7699",
      "locationSet": {"include": ["jp"]},
      "tags": {
        "amenity": "fast_food",
        "brand": "幸楽苑",
        "brand:en": "Kourakuen",
        "brand:ja": "幸楽苑",
        "brand:wikidata": "Q11484003",
        "brand:wikipedia": "ja:幸楽苑",
        "cuisine": "ramen",
        "name": "幸楽苑",
        "name:en": "Kourakuen",
        "name:ja": "幸楽苑",
        "takeaway": "yes"
      }
    },
    {
      "displayName": "庆丰包子铺",
      "id": "qingfengsteameddumplingshop-65b4e8",
      "locationSet": {"include": ["cn"]},
      "tags": {
        "amenity": "fast_food",
        "brand": "庆丰包子铺",
        "brand:en": "Qingfeng Steamed Dumpling Shop",
        "brand:wikidata": "Q24841010",
        "brand:wikipedia": "zh:庆丰包子铺",
        "brand:zh": "庆丰包子铺",
        "cuisine": "chinese",
        "name": "庆丰包子铺",
        "name:en": "Qingfeng Steamed Dumpling Shop",
        "name:zh": "庆丰包子铺",
        "takeaway": "yes"
      }
    },
    {
      "displayName": "弘爺漢堡",
      "id": "hongyahambuger-60a4d5",
      "locationSet": {"include": ["tw"]},
      "tags": {
        "amenity": "fast_food",
        "brand": "弘爺漢堡",
        "brand:en": "Hong Ya Hambuger",
        "brand:wikidata": "Q56197246",
        "brand:wikipedia": "zh:美而美",
        "brand:zh": "弘爺漢堡",
        "cuisine": "american;breakfast",
        "name": "弘爺漢堡",
        "name:en": "Hong Ya Hambuger",
        "name:zh": "弘爺漢堡",
        "operator": "弘爺國際企業股份有限公司",
        "takeaway": "yes"
      }
    },
    {
      "displayName": "德克士",
      "id": "dicos-65b4e8",
      "locationSet": {"include": ["cn"]},
      "tags": {
        "amenity": "fast_food",
        "brand": "德克士",
        "brand:en": "Dicos",
        "brand:wikidata": "Q5273883",
        "brand:wikipedia": "zh:德克士",
        "brand:zh": "德克士",
        "cuisine": "burger;chicken",
        "name": "德克士",
        "name:en": "Dicos",
        "name:zh": "德克士",
        "takeaway": "yes"
      }
    },
    {
      "displayName": "拉亞漢堡",
      "id": "layaburger-60a4d5",
      "locationSet": {"include": ["tw"]},
      "tags": {
        "amenity": "fast_food",
        "brand": "拉亞漢堡",
        "brand:en": "Laya Burger",
        "brand:wikidata": "Q67933743",
        "brand:wikipedia": "zh:拉亞漢堡",
        "brand:zh": "拉亞漢堡",
        "cuisine": "burger;breakfast",
        "name": "拉亞漢堡",
        "name:en": "Laya Burger",
        "name:zh": "拉亞漢堡",
        "takeaway": "yes"
      }
    },
    {
      "displayName": "摩斯漢堡",
      "id": "mosburger-1ff19c",
      "locationSet": {
        "include": ["cn", "hk", "mo", "sg", "tw"]
      },
      "tags": {
        "amenity": "fast_food",
        "brand": "摩斯漢堡",
        "brand:en": "MOS Burger",
        "brand:wikidata": "Q1204169",
        "brand:wikipedia": "zh:摩斯漢堡",
        "brand:zh": "摩斯漢堡",
        "cuisine": "burger",
        "name": "摩斯漢堡",
        "name:en": "MOS Burger",
        "name:zh": "摩斯漢堡",
        "takeaway": "yes"
      }
    },
    {
      "displayName": "日高屋",
      "id": "hidakaya-3e7699",
      "locationSet": {"include": ["jp"]},
      "tags": {
        "amenity": "fast_food",
        "brand": "日高屋",
        "brand:en": "Hidakaya",
        "brand:ja": "日高屋",
        "brand:wikidata": "Q11326050",
        "brand:wikipedia": "ja:ハイデイ日高",
        "cuisine": "noodle",
        "name": "日高屋",
        "name:en": "Hidakaya",
        "name:ja": "日高屋",
        "takeaway": "yes"
      }
    },
    {
      "displayName": "早安美芝城",
      "id": "goodmorningmacc-60a4d5",
      "locationSet": {"include": ["tw"]},
      "tags": {
        "amenity": "fast_food",
        "brand": "早安美芝城",
        "brand:en": "Good Morning MACC",
        "brand:wikidata": "Q30941219",
        "brand:wikipedia": "zh:早安美芝城",
        "brand:zh": "早安美芝城",
        "cuisine": "breakfast",
        "name": "早安美芝城",
        "name:en": "Good Morning MACC",
        "name:zh": "早安美芝城",
        "operator": "美芝城實業股份有限公司",
        "takeaway": "yes"
      }
    },
    {
      "displayName": "本家かまどや",
      "id": "honkekamadoya-3e7699",
      "locationSet": {"include": ["jp"]},
      "tags": {
        "alt_name": "かまどや",
        "amenity": "fast_food",
        "brand": "本家かまどや",
        "brand:en": "Honke Kamadoya",
        "brand:ja": "本家かまどや",
        "brand:wikidata": "Q11520140",
        "brand:wikipedia": "ja:本家かまどや",
        "cuisine": "japanese",
        "name": "本家かまどや",
        "name:en": "Honke Kamadoya",
        "name:ja": "本家かまどや",
        "takeaway": "yes"
      }
    },
    {
      "displayName": "松屋",
      "id": "matsuya-2e6562",
      "locationSet": {
        "include": [
          "cn",
          "hk",
          "jp",
          "mo",
          "sg",
          "tw"
        ]
      },
      "tags": {
        "amenity": "fast_food",
        "brand": "松屋",
        "brand:en": "Matsuya",
        "brand:ja": "松屋",
        "brand:wikidata": "Q848773",
        "brand:wikipedia": "ja:松屋フーズ",
        "cuisine": "japanese",
        "name": "松屋",
        "name:en": "Matsuya",
        "name:ja": "松屋",
        "official_name": "松屋フーズ",
        "official_name:en": "Matsuya Foods",
        "official_name:ja": "松屋フーズ",
        "takeaway": "yes"
      }
    },
    {
      "displayName": "栄寿司",
      "id": "sakaesushi-1ef1da",
      "locationSet": {
        "include": [
          "cn",
          "id",
          "my",
          "pi",
          "sg",
          "th"
        ]
      },
      "tags": {
        "amenity": "fast_food",
        "brand": "栄寿司",
        "brand:en": "Sakae Sushi",
        "brand:ja": "栄寿司",
        "brand:wikidata": "Q14955169",
        "brand:wikipedia": "en:Sakae Sushi",
        "cuisine": "japanese",
        "name": "栄寿司",
        "name:en": "Sakae Sushi",
        "name:ja": "栄寿司",
        "takeaway": "yes"
      }
    },
    {
      "displayName": "正新鸡排",
      "id": "zhengxinchickensteak-65b4e8",
      "locationSet": {"include": ["cn"]},
      "tags": {
        "amenity": "fast_food",
        "brand": "正新鸡排",
        "brand:en": "ZHENGXIN CHICKEN STEAK",
        "brand:wikipedia": "zh:正新雞排",
        "brand:zh": "正新鸡排",
        "cuisine": "chicken_steak",
        "name": "正新鸡排",
        "name:en": "ZHENGXIN CHICKEN STEAK",
        "name:zh": "正新鸡排",
        "takeaway": "yes"
      }
    },
    {
      "displayName": "永和大王",
      "id": "yongheking-9ca0ff",
      "locationSet": {"include": ["cn", "tw"]},
      "tags": {
        "amenity": "fast_food",
        "brand": "永和大王",
        "brand:en": "Yonghe King",
        "brand:wikidata": "Q8055004",
        "brand:wikipedia": "zh:永和大王",
        "brand:zh": "永和大王",
        "cuisine": "chinese",
        "name": "永和大王",
        "name:en": "Yonghe King",
        "name:zh": "永和大王",
        "takeaway": "yes"
      }
    },
    {
      "displayName": "汉堡王",
      "id": "burgerking-65b4e8",
      "locationSet": {"include": ["cn"]},
      "tags": {
        "amenity": "fast_food",
        "brand": "汉堡王",
        "brand:en": "Burger King",
        "brand:wikidata": "Q177054",
        "brand:wikipedia": "zh:漢堡王",
        "brand:zh": "汉堡王",
        "cuisine": "burger",
        "name": "汉堡王",
        "name:en": "Burger King",
        "name:zh": "汉堡王",
        "takeaway": "yes"
      }
    },
    {
      "displayName": "瑞麟美而美",
      "id": "rueilinmeiandmei-60a4d5",
      "locationSet": {"include": ["tw"]},
      "tags": {
        "amenity": "fast_food",
        "brand": "瑞麟美而美",
        "brand:en": "Rueilin Mei & Mei",
        "brand:wikidata": "Q56197246",
        "brand:wikipedia": "zh:美而美",
        "brand:zh": "瑞麟美而美",
        "cuisine": "breakfast",
        "name": "瑞麟美而美",
        "name:en": "Rueilin Mei & Mei",
        "name:zh": "瑞麟美而美",
        "operator": "美而美餐飲連鎖企業集團",
        "takeaway": "yes"
      }
    },
    {
      "displayName": "真功夫",
      "id": "kungfu-65b4e8",
      "locationSet": {"include": ["cn"]},
      "tags": {
        "amenity": "fast_food",
        "brand": "真功夫",
        "brand:en": "Kungfu",
        "brand:wikidata": "Q15909765",
        "brand:wikipedia": "zh:真功夫",
        "brand:zh": "真功夫",
        "cuisine": "chinese",
        "name": "真功夫",
        "name:en": "Kungfu",
        "name:zh": "真功夫",
        "takeaway": "yes"
      }
    },
    {
      "displayName": "箱根そば",
      "id": "hakonesoba-3e7699",
      "locationSet": {"include": ["jp"]},
      "tags": {
        "amenity": "fast_food",
        "brand": "箱根そば",
        "brand:en": "Hakone Soba",
        "brand:ja": "箱根そば",
        "brand:wikidata": "Q11603345",
        "brand:wikipedia": "ja:箱根そば",
        "cuisine": "soba",
        "name": "箱根そば",
        "name:en": "Hakone Soba",
        "name:ja": "箱根そば",
        "takeaway": "yes"
      }
    },
    {
      "displayName": "築地銀だこ",
      "id": "gindaco-3e7699",
      "locationSet": {"include": ["jp"]},
      "tags": {
        "amenity": "fast_food",
        "brand": "築地銀だこ",
        "brand:en": "Gindaco",
        "brand:ja": "築地銀だこ",
        "brand:wikidata": "Q11603490",
        "brand:wikipedia": "ja:築地銀だこ",
        "cuisine": "takoyaki",
        "name": "築地銀だこ",
        "name:en": "Gindaco",
        "name:ja": "築地銀だこ",
        "takeaway": "yes"
      }
    },
    {
      "displayName": "美而美",
      "id": "meiandmei-65b4e8",
      "locationSet": {"include": ["cn"]},
      "tags": {
        "amenity": "fast_food",
        "brand": "美而美",
        "brand:en": "Mei & Mei",
        "brand:zh": "美而美",
        "cuisine": "breakfast",
        "name": "美而美",
        "name:en": "Mei & Mei",
        "name:zh": "美而美",
        "operator": "上海瑞麟餐饮企业管理有限公司",
        "takeaway": "yes"
      }
    },
    {
      "displayName": "老曾记",
      "id": "oldchangkee-ff7eca",
      "locationSet": {
        "include": [
          "cn",
          "gb",
          "id",
          "my",
          "ph",
          "sg"
        ]
      },
      "tags": {
        "amenity": "fast_food",
        "brand": "老曾记",
        "brand:en": "Old Chang Kee",
        "brand:wikidata": "Q17005286",
        "brand:wikipedia": "en:Old Chang Kee",
        "brand:zh": "老曾记",
        "name": "老曾记",
        "name:en": "Old Chang Kee",
        "name:zh": "老曾记",
        "takeaway": "yes"
      }
    },
    {
      "displayName": "肯德基",
      "id": "kfc-1ff19c",
      "locationSet": {
        "include": ["cn", "hk", "mo", "sg", "tw"]
      },
      "tags": {
        "amenity": "fast_food",
        "brand": "肯德基",
        "brand:en": "KFC",
        "brand:wikidata": "Q524757",
        "brand:wikipedia": "zh:肯德基",
        "cuisine": "chicken",
        "name": "肯德基",
        "name:en": "KFC",
        "takeaway": "yes"
      }
    },
    {
      "displayName": "赛百味",
      "id": "subway-65b4e8",
      "locationSet": {"include": ["cn"]},
      "tags": {
        "amenity": "fast_food",
        "brand": "赛百味",
        "brand:en": "Subway",
        "brand:wikidata": "Q244457",
        "brand:wikipedia": "zh:赛百味",
        "brand:zh": "赛百味",
        "cuisine": "sandwich",
        "name": "赛百味",
        "name:en": "Subway",
        "name:zh": "赛百味",
        "takeaway": "yes"
      }
    },
    {
      "displayName": "道とん堀",
      "id": "dohtonbori-3e7699",
      "locationSet": {"include": ["jp"]},
      "tags": {
        "amenity": "fast_food",
        "brand": "道とん堀",
        "brand:en": "Dohtonbori",
        "brand:ja": "道とん堀",
        "brand:wikidata": "Q11640595",
        "brand:wikipedia": "ja:道とん堀",
        "cuisine": "okonomiyaki",
        "name": "道とん堀",
        "name:en": "Dohtonbori",
        "name:ja": "道とん堀",
        "official_name": "お好み焼道とん堀",
        "official_name:en": "Okonomiyaki Dohtonbori",
        "official_name:ja": "お好み焼道とん堀",
        "takeaway": "yes"
      }
    },
    {
      "displayName": "銚子丸",
      "id": "choushimaru-3e7699",
      "locationSet": {"include": ["jp"]},
      "tags": {
        "amenity": "fast_food",
        "brand": "銚子丸",
        "brand:en": "Choushimaru",
        "brand:ja": "銚子丸",
        "brand:wikidata": "Q11650214",
        "brand:wikipedia": "ja:銚子丸",
        "cuisine": "sushi",
        "name": "銚子丸",
        "name:en": "Choushimaru",
        "name:ja": "銚子丸",
        "official_name": "すし銚子丸",
        "takeaway": "yes"
      }
    },
    {
      "displayName": "麥當勞",
      "id": "mcdonalds-3ae6b4",
      "locationSet": {
        "include": ["hk", "mo", "tw"]
      },
      "tags": {
        "amenity": "fast_food",
        "brand": "麥當勞",
        "brand:en": "McDonald's",
        "brand:wikidata": "Q38076",
        "brand:wikipedia": "zh:麦当劳",
        "brand:zh": "麥當勞",
        "brand:zh-Hant": "麥當勞",
        "cuisine": "burger",
        "name": "麥當勞",
        "name:en": "McDonald's",
        "name:zh": "麥當勞",
        "name:zh-Hant": "麥當勞",
        "takeaway": "yes"
      }
    },
    {
      "displayName": "麦当劳",
      "id": "mcdonalds-ada782",
      "locationSet": {"include": ["cn", "sg"]},
      "tags": {
        "amenity": "fast_food",
        "brand": "麦当劳",
        "brand:en": "McDonald's",
        "brand:wikidata": "Q38076",
        "brand:wikipedia": "zh:麦当劳",
        "brand:zh": "麦当劳",
        "brand:zh-Hans": "麦当劳",
        "cuisine": "burger",
        "name": "麦当劳",
        "name:en": "McDonald's",
        "name:zh": "麦当劳",
        "name:zh-Hans": "麦当劳",
        "takeaway": "yes"
      }
    }
  ]
}
