{
  "properties": {
    "path": "brands/amenity/fuel",
    "preserveTags": ["^name"],
    "exclude": {
      "generic": [
        "^((drummed|independent|جایگاه) )?(cng|filling|fuel|gas|gpl|gnv|lpg|petrol)( (station|pump))?$",
        "^(gasoline(ra)?|minipump|station service|tankstelle)$",
        "^(аг?зс|газ|мережа азс приват|магазин при азс|метан|октан|пропан)$",
        "^(газовая )?заправка$",
        "^d[eé]p[oô]t de gaz$",
        "^stacja (benzynowa|paliw)$",
        "^агнкс( метан)?$",
        "^דלק$",
        "^پمپ (بنزین|گاز)$",
        "^محط[هة] وقود$",
        "^加(气|汽|氣)站$",
        "^加油站$"
      ],
      "named": [
        "^(ind[ei]pend(ent|\\.)|posto|spbu)$",
        "^bandera blanca$",
        "^branca$"
      ]
    }
  },
  "items": [
    {
      "displayName": "1-2-3",
      "id": "123-67b972",
      "locationSet": {"include": ["dk", "pl"]},
      "tags": {
        "amenity": "fuel",
        "brand": "1-2-3",
        "brand:wikidata": "Q4545742",
        "name": "1-2-3"
      }
    },
    {
      "displayName": "7-Eleven",
      "id": "7eleven-d19133",
      "locationSet": {
        "include": ["001"],
        "exclude": ["no", "pl"]
      },
      "matchNames": ["7-11", "seven eleven"],
      "tags": {
        "amenity": "fuel",
        "brand": "7-Eleven",
        "brand:wikidata": "Q259340",
        "name": "7-Eleven"
      }
    },
    {
      "displayName": "7-Eleven (Norge)",
      "id": "7eleven-38a742",
      "locationSet": {"include": ["no"]},
      "matchNames": ["7-11", "seven eleven"],
      "note": "https://github.com/osmlab/name-suggestion-index/issues/5500",
      "preserveTags": ["^name"],
      "tags": {
        "amenity": "fuel",
        "brand": "7-Eleven",
        "brand:wikidata": "Q259340",
        "name": "7-Eleven"
      }
    },
    {
      "displayName": "76",
      "id": "76-16b3c2",
      "locationSet": {
        "include": ["001"],
        "exclude": ["pl"]
      },
      "tags": {
        "amenity": "fuel",
        "brand": "76",
        "brand:wikidata": "Q1658320",
        "name": "76"
      }
    },
    {
      "displayName": "8 à Huit",
      "id": "8ahuit-3772a0",
      "locationSet": {"include": ["fr"]},
      "tags": {
        "amenity": "fuel",
        "brand": "8 à Huit",
        "brand:wikidata": "Q2818601",
        "name": "8 à Huit"
      }
    },
    {
      "displayName": "ABC",
      "id": "abc-1c8a41",
      "locationSet": {"include": ["fi"]},
      "tags": {
        "amenity": "fuel",
        "brand": "ABC",
        "brand:wikidata": "Q10397504",
        "name": "ABC"
      }
    },
    {
      "displayName": "Aegean",
      "id": "aegean-c67f2c",
      "locationSet": {"include": ["gr"]},
      "tags": {
        "amenity": "fuel",
        "brand": "Aegean",
        "brand:wikidata": "Q28146598",
        "name": "Aegean"
      }
    },
    {
      "displayName": "Afriquia",
      "id": "afriquia-16b3c2",
      "locationSet": {
        "include": ["001"],
        "exclude": ["pl"]
      },
      "tags": {
        "amenity": "fuel",
        "brand": "Afriquia",
        "brand:wikidata": "Q2829178",
        "name": "Afriquia"
      }
    },
    {
      "displayName": "Afriquia أفريقيا",
      "id": "3331ce-144a57",
      "locationSet": {"include": ["ma"]},
      "tags": {
        "amenity": "fuel",
        "brand": "Afriquia أفريقيا",
        "brand:wikidata": "Q56300032",
        "name": "Afriquia أفريقيا",
        "name:ar": "أفريقيا"
      }
    },
    {
      "displayName": "Agip",
      "id": "agip-b3d110",
      "locationSet": {"include": ["001"]},
      "tags": {
        "amenity": "fuel",
        "brand": "Agip",
        "brand:wikidata": "Q377915",
        "name": "Agip"
      }
    },
    {
      "displayName": "Agip Eni",
      "id": "agipeni-e8f712",
      "locationSet": {"include": ["it"]},
      "tags": {
        "amenity": "fuel",
        "brand": "Agip Eni",
        "name": "Agip Eni"
      }
    },
    {
      "displayName": "Agrola",
      "id": "agrola-27a80f",
      "locationSet": {"include": ["ch"]},
      "tags": {
        "amenity": "fuel",
        "brand": "Agrola",
        "brand:wikidata": "Q397351",
        "name": "Agrola"
      }
    },
    {
      "displayName": "Ale",
      "id": "ale-c14748",
      "locationSet": {"include": ["br"]},
      "matchNames": [
        "posto ale",
        "posto alesat",
        "postos ale",
        "postos satélite"
      ],
      "tags": {
        "amenity": "fuel",
        "brand": "Ale",
        "brand:wikidata": "Q9600717"
      }
    },
    {
      "displayName": "Alexela",
      "id": "alexela-00a67a",
      "locationSet": {"include": ["ee"]},
      "tags": {
        "amenity": "fuel",
        "brand": "Alexela",
        "brand:wikidata": "Q20529782",
        "name": "Alexela"
      }
    },
    {
      "displayName": "Allied Petroleum",
      "id": "alliedpetroleum-088dbb",
      "locationSet": {"include": ["nz"]},
      "matchNames": ["allied"],
      "tags": {
        "amenity": "fuel",
        "brand": "Allied Petroleum",
        "brand:wikidata": "Q112543637",
        "name": "Allied Petroleum"
      }
    },
    {
      "displayName": "Aloha Petroleum",
      "id": "alohapetroleum-c5cf43",
      "locationSet": {"include": ["us"]},
      "tags": {
        "amenity": "fuel",
        "brand": "Aloha Petroleum",
        "brand:wikidata": "Q4734197",
        "name": "Aloha Petroleum",
        "official_name": "Aloha Petroleum Ltd"
      }
    },
    {
      "displayName": "Alon",
      "id": "alon-c5cf43",
      "locationSet": {"include": ["us"]},
      "tags": {
        "amenity": "fuel",
        "brand": "Alon",
        "brand:wikidata": "Q62274304",
        "name": "Alon"
      }
    },
    {
      "displayName": "Alpet",
      "id": "alpet-97866d",
      "locationSet": {"include": ["al", "tr"]},
      "tags": {
        "amenity": "fuel",
        "brand": "Alpet",
        "brand:wikidata": "Q62131561",
        "name": "Alpet"
      }
    },
    {
      "displayName": "Alves Bandeira",
      "id": "alvesbandeira-bb4e16",
      "locationSet": {"include": ["pt"]},
      "tags": {
        "amenity": "fuel",
        "brand": "Alves Bandeira",
        "brand:wikidata": "Q109012157",
        "name": "Alves Bandeira"
      }
    },
    {
      "displayName": "Amic",
      "id": "amic-4797a1",
      "locationSet": {
        "include": ["at", "lt", "lv", "pl", "ua"]
      },
      "matchNames": ["amic energy"],
      "tags": {
        "amenity": "fuel",
        "brand": "Amic",
        "brand:wikidata": "Q96047373",
        "name": "Amic"
      }
    },
    {
      "displayName": "Amoco",
      "id": "amoco-c5cf43",
      "locationSet": {"include": ["us"]},
      "tags": {
        "amenity": "fuel",
        "brand": "Amoco",
        "brand:wikidata": "Q465952",
        "name": "Amoco"
      }
    },
    {
      "displayName": "Ampol",
      "id": "ampol-9ed9c0",
      "locationSet": {"include": ["au"]},
      "tags": {
        "amenity": "fuel",
        "brand": "Ampol",
        "brand:wikidata": "Q4748528",
        "name": "Ampol"
      }
    },
    {
      "displayName": "AN Energéticos",
      "id": "anenergeticos-b3d110",
      "locationSet": {"include": ["001"]},
      "tags": {
        "amenity": "fuel",
        "brand": "AN Energéticos",
        "name": "AN Energéticos"
      }
    },
    {
      "displayName": "ANCAP",
      "id": "ancap-c21fc2",
      "locationSet": {"include": ["uy"]},
      "tags": {
        "amenity": "fuel",
        "brand": "ANCAP",
        "brand:wikidata": "Q2824522",
        "name": "ANCAP",
        "official_name": "Administración Nacional de Combustibles, Alcoholes y Portland"
      }
    },
    {
      "displayName": "ANP",
      "id": "anp-ed4144",
      "locationSet": {"include": ["ua"]},
      "matchNames": ["анп"],
      "tags": {
        "amenity": "fuel",
        "brand": "ANP",
        "brand:wikidata": "Q119198381",
        "name": "ANP"
      }
    },
    {
      "displayName": "Api",
      "id": "api-e8f712",
      "locationSet": {"include": ["it"]},
      "tags": {
        "amenity": "fuel",
        "brand": "Api",
        "brand:wikidata": "Q646807",
        "name": "Api"
      }
    },
    {
      "displayName": "Api-Ip",
      "id": "apiip-e8f712",
      "locationSet": {"include": ["it"]},
      "tags": {
        "amenity": "fuel",
        "brand": "Api-Ip",
        "name": "Api-Ip"
      }
    },
    {
      "displayName": "apollostation",
      "id": "apollostation-fbe2e4",
      "locationSet": {"include": ["jp"]},
      "tags": {
        "amenity": "fuel",
        "brand": "apollostation",
        "brand:en": "apollostation",
        "brand:ja": "アポロステーション",
        "brand:wikidata": "Q114731101",
        "name": "apollostation",
        "name:en": "apollostation",
        "name:ja": "アポロステーション"
      }
    },
    {
      "displayName": "Applegreen",
      "id": "applegreen-08ff39",
      "locationSet": {
        "include": ["gb", "ie", "us"]
      },
      "tags": {
        "amenity": "fuel",
        "brand": "Applegreen",
        "brand:wikidata": "Q7178908",
        "name": "Applegreen"
      }
    },
    {
      "displayName": "Aral",
      "id": "aral-f69389",
      "locationSet": {"include": ["de", "lu"]},
      "matchNames": ["aral tankstelle"],
      "tags": {
        "amenity": "fuel",
        "brand": "Aral",
        "brand:wikidata": "Q565734",
        "name": "Aral"
      }
    },
    {
      "displayName": "Arco",
      "id": "arco-c87a80",
      "locationSet": {"include": ["mx", "us"]},
      "tags": {
        "amenity": "fuel",
        "brand": "Arco",
        "brand:wikidata": "Q304769",
        "name": "Arco"
      }
    },
    {
      "displayName": "Argos",
      "id": "argos-6cdea6",
      "locationSet": {"include": ["nl"]},
      "tags": {
        "amenity": "fuel",
        "brand": "Argos",
        "brand:wikidata": "Q4750477",
        "name": "Argos"
      }
    },
    {
      "displayName": "AS 24",
      "id": "as24-3463db",
      "locationSet": {
        "include": [
          "at",
          "be",
          "bg",
          "cz",
          "de",
          "dk",
          "es",
          "fr",
          "gb",
          "ge",
          "gr",
          "hr",
          "hu",
          "ie",
          "it",
          "lt",
          "lu",
          "mk",
          "nl",
          "pl",
          "pt",
          "ro",
          "rs",
          "se",
          "si",
          "sk",
          "ua"
        ]
      },
      "tags": {
        "amenity": "fuel",
        "brand": "AS 24",
        "brand:wikidata": "Q2819394",
        "hgv": "only",
        "name": "AS 24"
      }
    },
    {
      "displayName": "Asda",
      "id": "asda-20aed2",
      "locationSet": {"include": ["gb"]},
      "matchNames": ["asda petrol station"],
      "tags": {
        "amenity": "fuel",
        "brand": "Asda",
        "brand:wikidata": "Q297410",
        "name": "Asda"
      }
    },
    {
      "displayName": "Astro",
      "id": "astro-5d5ba1",
      "locationSet": {
        "include": [
          "us-or.geojson",
          "us-wa.geojson"
        ]
      },
      "tags": {
        "amenity": "fuel",
        "brand": "Astro",
        "brand:wikidata": "Q109338068",
        "name": "Astro"
      }
    },
    {
      "displayName": "Astron Energy",
      "id": "astronenergy-0ba9a1",
      "locationSet": {"include": ["za"]},
      "tags": {
        "amenity": "fuel",
        "brand": "Astron Energy",
        "brand:wikidata": "Q120752181",
        "name": "Astron Energy"
      }
    },
    {
      "displayName": "Atem",
      "id": "atem-c14748",
      "locationSet": {"include": ["br"]},
      "matchNames": ["posto atem"],
      "tags": {
        "amenity": "fuel",
        "brand": "Atem",
        "brand:wikidata": "Q67086035",
        "name": "Atem"
      }
    },
    {
      "displayName": "Auchan",
      "id": "auchan-fcb99f",
      "locationSet": {
        "include": ["039", "151", "155"]
      },
      "tags": {
        "amenity": "fuel",
        "brand": "Auchan",
        "brand:wikidata": "Q758603",
        "name": "Auchan"
      }
    },
    {
      "displayName": "Avanti",
      "id": "avanti-565075",
      "locationSet": {"include": ["at"]},
      "tags": {
        "amenity": "fuel",
        "brand": "Avanti",
        "brand:wikidata": "Q168238",
        "name": "Avanti"
      }
    },
    {
      "displayName": "Avia",
      "id": "avia-e0aaf8",
      "locationSet": {
        "include": [
          "at",
          "be",
          "bg",
          "ch",
          "cz",
          "de",
          "es",
          "fr",
          "hu",
          "it",
          "nl",
          "pl",
          "pt",
          "rs",
          "ua"
        ]
      },
      "matchNames": ["station avia"],
      "tags": {
        "amenity": "fuel",
        "brand": "Avia",
        "brand:wikidata": "Q300147",
        "name": "Avia"
      }
    },
    {
      "displayName": "Avin",
      "id": "avin-c67f2c",
      "locationSet": {"include": ["gr"]},
      "tags": {
        "amenity": "fuel",
        "brand": "Avin",
        "brand:wikidata": "Q22979634",
        "name": "Avin"
      }
    },
    {
      "displayName": "Axion",
      "id": "axion-b21aa1",
      "locationSet": {
        "include": ["ar", "py", "uy"]
      },
      "tags": {
        "amenity": "fuel",
        "brand": "Axion",
        "brand:wikidata": "Q62131749",
        "name": "Axion"
      }
    },
    {
      "displayName": "Aytemiz",
      "id": "aytemiz-ec7588",
      "locationSet": {"include": ["tr"]},
      "tags": {
        "amenity": "fuel",
        "brand": "Aytemiz",
        "brand:wikidata": "Q62274352",
        "name": "Aytemiz"
      }
    },
    {
      "displayName": "Azpetrol",
      "id": "azpetrol-0dbc25",
      "locationSet": {"include": ["az"]},
      "tags": {
        "amenity": "fuel",
        "brand": "Azpetrol",
        "brand:wikidata": "Q4034661",
        "name": "Azpetrol"
      }
    },
    {
      "displayName": "Ballenoil",
      "id": "ballenoil-83f854",
      "locationSet": {"include": ["es"]},
      "tags": {
        "amenity": "fuel",
        "brand": "Ballenoil",
        "brand:wikidata": "Q110743569",
        "name": "Ballenoil"
      }
    },
    {
      "displayName": "Baltic Petroleum",
      "id": "balticpetroleum-d665db",
      "locationSet": {"include": ["lt"]},
      "tags": {
        "amenity": "fuel",
        "brand": "Baltic Petroleum",
        "brand:wikidata": "Q96591447",
        "name": "Baltic Petroleum"
      }
    },
    {
      "displayName": "Bapco",
      "id": "bapco-f97176",
      "locationSet": {"include": ["bh"]},
      "matchNames": ["bahrain petroleum"],
      "tags": {
        "amenity": "fuel",
        "brand": "Bapco",
        "brand:wikidata": "Q803640",
        "name": "Bapco",
        "official_name": "Bahrain Petroleum Company"
      }
    },
    {
      "displayName": "BEBECO",
      "id": "bebeco-27a80f",
      "locationSet": {"include": ["ch"]},
      "tags": {
        "amenity": "fuel",
        "brand": "BEBECO",
        "brand:wikidata": "Q62274373",
        "name": "BEBECO"
      }
    },
    {
      "displayName": "Bennett's Petroleum",
      "id": "bennettspetroleum-5e56e7",
      "locationSet": {"include": ["au-tas"]},
      "tags": {
        "amenity": "fuel",
        "brand": "Bennett's Petroleum",
        "brand:wikidata": "Q105846396",
        "name": "Bennett's Petroleum"
      }
    },
    {
      "displayName": "Benzina",
      "id": "benzina-5f489f",
      "locationSet": {"include": ["cz", "sk"]},
      "tags": {
        "amenity": "fuel",
        "brand": "Benzina",
        "brand:wikidata": "Q11130894",
        "name": "Benzina"
      }
    },
    {
      "displayName": "Best",
      "id": "best-b3d110",
      "locationSet": {"include": ["001"]},
      "tags": {
        "amenity": "fuel",
        "brand": "Best",
        "name": "Best"
      }
    },
    {
      "displayName": "Beyfin",
      "id": "beyfin-16b3c2",
      "locationSet": {
        "include": ["001"],
        "exclude": ["pl"]
      },
      "tags": {
        "amenity": "fuel",
        "brand": "Beyfin",
        "brand:wikidata": "Q3639256",
        "name": "Beyfin"
      }
    },
    {
      "displayName": "bft",
      "id": "bft-495186",
      "locationSet": {"include": ["de"]},
      "tags": {
        "amenity": "fuel",
        "brand": "bft",
        "brand:wikidata": "Q1009104",
        "name": "bft"
      }
    },
    {
      "displayName": "Bharat Petroleum",
      "id": "bharatpetroleum-989925",
      "locationSet": {"include": ["in"]},
      "tags": {
        "amenity": "fuel",
        "brand": "Bharat Petroleum",
        "brand:wikidata": "Q854826",
        "name": "Bharat Petroleum"
      }
    },
    {
      "displayName": "BHPetrol",
      "id": "bhpetrol-d13f8d",
      "locationSet": {"include": ["my"]},
      "tags": {
        "amenity": "fuel",
        "brand": "BHPetrol",
        "brand:wikidata": "Q62274381",
        "name": "BHPetrol"
      }
    },
    {
      "displayName": "bi1",
      "id": "bi1-3772a0",
      "locationSet": {"include": ["fr"]},
      "tags": {
        "amenity": "fuel",
        "brand": "bi1",
        "brand:wikidata": "Q56325139",
        "name": "bi1"
      }
    },
    {
      "displayName": "Biomax",
      "id": "biomax-a98521",
      "locationSet": {"include": ["co"]},
      "tags": {
        "amenity": "fuel",
        "brand": "Biomax",
        "brand:wikidata": "Q62274413",
        "name": "Biomax"
      }
    },
    {
      "displayName": "BJ’s Gas",
      "id": "bjsgas-c5cf43",
      "locationSet": {"include": ["us"]},
      "matchNames": ["bjs"],
      "tags": {
        "amenity": "fuel",
        "brand": "BJ's Wholesale Club",
        "brand:wikidata": "Q4835754",
        "name": "BJ’s Gas"
      }
    },
    {
      "displayName": "Bliska",
      "id": "bliska-5fd245",
      "locationSet": {"include": ["pl"]},
      "tags": {
        "amenity": "fuel",
        "brand": "Bliska",
        "brand:wikidata": "Q4016378",
        "name": "Bliska"
      }
    },
    {
      "displayName": "BonÀrea",
      "id": "bonarea-83f854",
      "locationSet": {"include": ["es"]},
      "tags": {
        "amenity": "fuel",
        "brand": "BonÀrea",
        "brand:wikidata": "Q11924743",
        "name": "BonÀrea"
      }
    },
    {
      "displayName": "BP",
      "id": "bp-aef194",
      "locationSet": {
        "include": ["001"],
        "exclude": ["in"]
      },
      "matchNames": [
        "bp america",
        "bp connect",
        "bp gas station"
      ],
      "tags": {
        "amenity": "fuel",
        "brand": "BP",
        "brand:wikidata": "Q152057",
        "name": "BP"
      }
    },
    {
      "displayName": "BR",
      "id": "br-c14748",
      "locationSet": {"include": ["br"]},
      "matchNames": [
        "br petrobras",
        "petrobras",
        "posto br",
        "posto petrobras",
        "postos petrobras"
      ],
      "tags": {
        "amenity": "fuel",
        "brand": "BR",
        "brand:wikidata": "Q4836468",
        "name": "BR"
      }
    },
    {
      "displayName": "BVS",
      "id": "bvs-ed4144",
      "locationSet": {"include": ["ua"]},
      "tags": {
        "amenity": "fuel",
        "brand": "BVS",
        "brand:wikidata": "Q117707193",
        "name": "BVS"
      }
    },
    {
      "displayName": "BWOC",
      "id": "bwoc-20aed2",
      "locationSet": {"include": ["gb"]},
      "tags": {
        "amenity": "fuel",
        "brand": "BWOC",
        "brand:wikidata": "Q4836845",
        "name": "BWOC",
        "official_name": "Bob Wayne's Oil Company"
      }
    },
    {
      "displayName": "Caltex",
      "id": "caltex-a02c05",
      "locationSet": {
        "include": [
          "ae",
          "au",
          "eg",
          "hk",
          "id",
          "kh",
          "kr",
          "lk",
          "my",
          "nz",
          "ph",
          "pk",
          "sa",
          "sg",
          "th",
          "vn",
          "za"
        ]
      },
      "tags": {
        "amenity": "fuel",
        "brand": "Caltex",
        "brand:wikidata": "Q277470",
        "name": "Caltex"
      }
    },
    {
      "displayName": "Canadian Tire Gas+",
      "id": "canadiantire-04874d",
      "locationSet": {"include": ["ca"]},
      "matchNames": [
        "canadian tire gas +",
        "canadian tire gas bar"
      ],
      "tags": {
        "amenity": "fuel",
        "brand": "Canadian Tire",
        "brand:wikidata": "Q1032400",
        "name": "Canadian Tire"
      }
    },
    {
      "displayName": "Carenex (カーエネクス)",
      "id": "carenex-cfbbeb",
      "locationSet": {"include": ["ja"]},
      "tags": {
        "amenity": "fuel",
        "brand": "Carenex",
        "brand:": "カーエネクス",
        "brand:en": "Carenex",
        "brand:wikidata": "Q119998631",
        "name": "Carenex",
        "name:en": "Carenex",
        "name:ja": "カーエネクス"
      }
    },
    {
      "displayName": "Carrefour",
      "id": "carrefour-b3d110",
      "locationSet": {"include": ["001"]},
      "tags": {
        "amenity": "fuel",
        "brand": "Carrefour",
        "brand:wikidata": "Q217599",
        "name": "Carrefour"
      }
    },
    {
      "displayName": "Carrefour Contact",
      "id": "carrefourcontact-3772a0",
      "locationSet": {"include": ["fr"]},
      "tags": {
        "amenity": "fuel",
        "brand": "Carrefour Contact",
        "brand:wikidata": "Q2940188",
        "name": "Carrefour Contact"
      }
    },
    {
      "displayName": "Carrefour Market",
      "id": "carrefourmarket-b3d110",
      "locationSet": {"include": ["001"]},
      "tags": {
        "amenity": "fuel",
        "brand": "Carrefour Market",
        "brand:wikidata": "Q2689639",
        "name": "Carrefour Market"
      }
    },
    {
      "displayName": "Carroll Motor Fuels",
      "id": "carrollmotorfuels-c5cf43",
      "locationSet": {"include": ["us"]},
      "matchNames": ["carrollfuel"],
      "tags": {
        "amenity": "fuel",
        "brand": "Carroll",
        "name": "Carroll Motor Fuels"
      }
    },
    {
      "displayName": "Casey's General Store",
      "id": "caseysgeneralstore-b3d110",
      "locationSet": {"include": ["001"]},
      "matchNames": ["caseys"],
      "tags": {
        "amenity": "fuel",
        "brand": "Casey's General Store",
        "brand:wikidata": "Q2940968",
        "name": "Casey's General Store"
      }
    },
    {
      "displayName": "Casino",
      "id": "casino-3772a0",
      "locationSet": {"include": ["fr"]},
      "tags": {
        "amenity": "fuel",
        "brand": "Casino",
        "brand:wikidata": "Q89029184",
        "name": "Casino"
      }
    },
    {
      "displayName": "CEFCO",
      "id": "cefco-7de6f8",
      "locationSet": {
        "include": [
          "us-al.geojson",
          "us-fl.geojson",
          "us-la.geojson",
          "us-ms.geojson",
          "us-tx.geojson"
        ]
      },
      "tags": {
        "amenity": "fuel",
        "brand": "CEFCO",
        "brand:wikidata": "Q110209230",
        "name": "CEFCO"
      }
    },
    {
      "displayName": "Cenex",
      "id": "cenex-c5cf43",
      "locationSet": {"include": ["us"]},
      "tags": {
        "amenity": "fuel",
        "brand": "Cenex",
        "brand:wikidata": "Q62127191",
        "name": "Cenex"
      }
    },
    {
      "displayName": "Centrum Fuel",
      "id": "centrumfuel-b3d110",
      "locationSet": {"include": ["001"]},
      "tags": {
        "amenity": "fuel",
        "brand": "Centrum Fuel",
        "name": "Centrum Fuel"
      }
    },
    {
      "displayName": "Cepsa",
      "id": "cepsa-57abaf",
      "locationSet": {"include": ["es", "pt"]},
      "tags": {
        "amenity": "fuel",
        "brand": "Cepsa",
        "brand:wikidata": "Q608819",
        "name": "Cepsa",
        "official_name": "Compañía Española de Petróleos, S.A.U."
      }
    },
    {
      "displayName": "Certified",
      "id": "certified-c5cf43",
      "locationSet": {"include": ["us"]},
      "tags": {
        "amenity": "fuel",
        "brand": "Certified",
        "brand:wikidata": "Q100148356",
        "name": "Certified",
        "official_name": "Certified Oil"
      }
    },
    {
      "displayName": "Ceypetco",
      "id": "ceypetco-0d1ef7",
      "locationSet": {"include": ["lk"]},
      "matchNames": ["lanka filling station"],
      "tags": {
        "amenity": "fuel",
        "brand": "Ceypetco",
        "brand:wikidata": "Q5065795",
        "name": "Ceypetco"
      }
    },
    {
      "displayName": "Challenge",
      "id": "challenge-088dbb",
      "locationSet": {"include": ["nz"]},
      "tags": {
        "amenity": "fuel",
        "brand": "Challenge",
        "brand:wikidata": "Q5068888",
        "name": "Challenge"
      }
    },
    {
      "displayName": "Charrua",
      "id": "charrua-b3d110",
      "locationSet": {"include": ["001"]},
      "tags": {
        "amenity": "fuel",
        "brand": "Charrua",
        "name": "Charrua"
      }
    },
    {
      "displayName": "Chevron",
      "id": "chevron-b3d110",
      "locationSet": {"include": ["001"]},
      "tags": {
        "amenity": "fuel",
        "brand": "Chevron",
        "brand:wikidata": "Q319642",
        "name": "Chevron"
      }
    },
    {
      "displayName": "Chipo",
      "id": "chipo-ed4144",
      "locationSet": {"include": ["ua"]},
      "tags": {
        "amenity": "fuel",
        "brand": "Chipo",
        "brand:wikidata": "Q112082302",
        "name": "Chipo"
      }
    },
    {
      "displayName": "Circle K",
      "id": "circlek-b3d110",
      "locationSet": {"include": ["001"]},
      "matchNames": ["circle k canada"],
      "tags": {
        "amenity": "fuel",
        "brand": "Circle K",
        "brand:wikidata": "Q3268010",
        "name": "Circle K"
      }
    },
    {
      "displayName": "Citgo",
      "id": "citgo-16b3c2",
      "locationSet": {
        "include": ["001"],
        "exclude": ["pl"]
      },
      "tags": {
        "amenity": "fuel",
        "brand": "Citgo",
        "brand:wikidata": "Q2974437",
        "name": "Citgo"
      }
    },
    {
      "displayName": "Clark",
      "id": "clark-c5cf43",
      "locationSet": {"include": ["us"]},
      "tags": {
        "amenity": "fuel",
        "brand": "Clark",
        "brand:wikidata": "Q5127157",
        "name": "Clark"
      }
    },
    {
      "displayName": "Classic",
      "id": "classic-495186",
      "locationSet": {"include": ["de"]},
      "tags": {
        "amenity": "fuel",
        "brand": "Classic",
        "brand:wikidata": "Q33127117",
        "name": "Classic"
      }
    },
    {
      "displayName": "Clean Energy Fuels",
      "id": "cleanenergy-c5cf43",
      "locationSet": {"include": ["us"]},
      "tags": {
        "amenity": "fuel",
        "brand": "Clean Energy",
        "brand:wikidata": "Q108462506",
        "fuel:biogas": "yes",
        "name": "Clean Energy"
      }
    },
    {
      "displayName": "Co-op (Canada)",
      "id": "coop-04874d",
      "locationSet": {"include": ["ca"]},
      "tags": {
        "amenity": "fuel",
        "brand": "Federated Co-operatives",
        "brand:wikidata": "Q5440676",
        "name": "Co-op"
      }
    },
    {
      "displayName": "Coles Express",
      "id": "colesexpress-9ed9c0",
      "locationSet": {"include": ["au"]},
      "matchNames": [
        "coles",
        "shell",
        "shell australia"
      ],
      "note": "see https://github.com/osmlab/name-suggestion-index/pull/8392",
      "tags": {
        "amenity": "fuel",
        "brand": "Coles Express",
        "brand:wikidata": "Q5144653",
        "name": "Coles Express",
        "operator": "Coles Group",
        "operator:wikidata": "Q1339055"
      }
    },
    {
      "displayName": "Conoco",
      "id": "conoco-c5cf43",
      "locationSet": {"include": ["us"]},
      "tags": {
        "amenity": "fuel",
        "brand": "Conoco",
        "brand:wikidata": "Q109341187",
        "name": "Conoco"
      }
    },
    {
      "displayName": "Coop Tankstelle",
      "id": "cooptankstelle-27a80f",
      "locationSet": {"include": ["ch"]},
      "tags": {
        "amenity": "fuel",
        "brand": "Coop Tankstelle",
        "name": "Coop Tankstelle"
      }
    },
    {
      "displayName": "Copec",
      "id": "copec-16fba4",
      "locationSet": {"include": ["cl"]},
      "tags": {
        "amenity": "fuel",
        "brand": "Copec",
        "brand:wikidata": "Q1130956",
        "name": "Copec"
      }
    },
    {
      "displayName": "Copetrol",
      "id": "copetrol-c4a95f",
      "locationSet": {"include": ["py"]},
      "tags": {
        "amenity": "fuel",
        "brand": "Copetrol",
        "brand:wikidata": "Q62274431",
        "name": "Copetrol"
      }
    },
    {
      "displayName": "Coral",
      "id": "coral-b3d110",
      "locationSet": {"include": ["001"]},
      "tags": {
        "amenity": "fuel",
        "brand": "Coral",
        "name": "Coral"
      }
    },
    {
      "displayName": "Cosan",
      "id": "cosan-c14748",
      "locationSet": {"include": ["br"]},
      "tags": {
        "amenity": "fuel",
        "brand": "Cosan",
        "brand:wikidata": "Q2998228",
        "name": "Cosan"
      }
    },
    {
      "displayName": "Costantin",
      "id": "costantin-e8f712",
      "locationSet": {"include": ["it"]},
      "tags": {
        "amenity": "fuel",
        "brand": "Costantin",
        "brand:wikidata": "Q48800790",
        "name": "Costantin"
      }
    },
    {
      "displayName": "Costco Gasoline",
      "id": "costcogasoline-73aa20",
      "locationSet": {
        "include": ["au", "ca", "mx", "us"]
      },
      "matchNames": [
        "costco",
        "costco gas",
        "costco wholesale"
      ],
      "tags": {
        "amenity": "fuel",
        "brand": "Costco Gasoline",
        "brand:wikidata": "Q715583",
        "name": "Costco Gasoline"
      }
    },
    {
      "displayName": "Couche-Tard",
      "id": "couchetard-04874d",
      "locationSet": {"include": ["ca"]},
      "tags": {
        "amenity": "fuel",
        "brand": "Couche-Tard",
        "brand:wikidata": "Q2836957",
        "name": "Couche-Tard"
      }
    },
    {
      "displayName": "Crevier",
      "id": "crevier-04874d",
      "locationSet": {"include": ["ca"]},
      "tags": {
        "amenity": "fuel",
        "brand": "Crevier",
        "brand:wikidata": "Q61743451",
        "name": "Crevier"
      }
    },
    {
      "displayName": "Crodux",
      "id": "crodux-a8f5c5",
      "locationSet": {"include": ["hr"]},
      "tags": {
        "amenity": "fuel",
        "brand": "Crodux",
        "brand:wikidata": "Q62274622",
        "name": "Crodux"
      }
    },
    {
      "displayName": "Crown",
      "id": "crown-c5cf43",
      "locationSet": {"include": ["us"]},
      "tags": {
        "amenity": "fuel",
        "brand": "Crown",
        "brand:wikidata": "Q5189323",
        "name": "Crown"
      }
    },
    {
      "displayName": "Cumberland Farms",
      "id": "cumberlandfarms-c5cf43",
      "locationSet": {"include": ["us"]},
      "matchNames": ["cumberland"],
      "tags": {
        "amenity": "fuel",
        "brand": "Cumberland Farms",
        "brand:wikidata": "Q1143685",
        "name": "Cumberland Farms"
      }
    },
    {
      "displayName": "Cupet",
      "id": "cupet-e04f92",
      "locationSet": {"include": ["cu"]},
      "matchNames": [
        "cuba oil union",
        "cuba petróleo union"
      ],
      "tags": {
        "amenity": "fuel",
        "brand": "Cupet",
        "brand:wikidata": "Q3007579",
        "name": "Cupet"
      }
    },
    {
      "displayName": "CYCLON",
      "id": "cyclon-c67f2c",
      "locationSet": {"include": ["gr"]},
      "tags": {
        "amenity": "fuel",
        "brand": "CYCLON",
        "name": "CYCLON"
      }
    },
    {
      "displayName": "DALIOIL",
      "id": "dalioil-11d3b6",
      "locationSet": {"include": ["sk"]},
      "tags": {
        "amenity": "fuel",
        "brand": "DALIOIL",
        "brand:wikidata": "Q116942506",
        "name": "DALIOIL"
      }
    },
    {
      "displayName": "Dapsa",
      "id": "dapsa-dca697",
      "locationSet": {"include": ["ar"]},
      "tags": {
        "amenity": "fuel",
        "brand": "Dapsa",
        "name": "Dapsa"
      }
    },
    {
      "displayName": "DATS 24",
      "id": "dats24-08f029",
      "locationSet": {"include": ["be", "fx"]},
      "tags": {
        "amenity": "fuel",
        "brand": "DATS 24",
        "brand:wikidata": "Q15725576",
        "name": "DATS 24"
      }
    },
    {
      "displayName": "Delek",
      "id": "delek-bb4acb",
      "locationSet": {"include": ["il"]},
      "tags": {
        "amenity": "fuel",
        "brand": "Delek",
        "brand:wikidata": "Q1184087",
        "name": "Delek"
      }
    },
    {
      "displayName": "Delta (Panama & Costa Rica)",
      "id": "delta-1fbae0",
      "locationSet": {"include": ["cr", "pa"]},
      "tags": {
        "amenity": "fuel",
        "brand": "Delta",
        "brand:wikidata": "Q62274638",
        "name": "Delta"
      }
    },
    {
      "displayName": "Delta (USA)",
      "id": "delta-c5cf43",
      "locationSet": {"include": ["us"]},
      "tags": {
        "amenity": "fuel",
        "brand": "Delta",
        "brand:wikidata": "Q62274661",
        "name": "Delta"
      }
    },
    {
      "displayName": "Depot Tela",
      "id": "depottela-dc29c2",
      "locationSet": {"include": ["kh"]},
      "tags": {
        "amenity": "fuel",
        "brand": "Depot Tela",
        "name": "Depot Tela"
      }
    },
    {
      "displayName": "Diamond Shamrock",
      "id": "diamondshamrock-c5cf43",
      "locationSet": {"include": ["us"]},
      "tags": {
        "amenity": "fuel",
        "brand": "Diamond Shamrock",
        "brand:wikidata": "Q16973722",
        "name": "Diamond Shamrock"
      }
    },
    {
      "displayName": "din-X",
      "id": "dinx-a1affa",
      "locationSet": {"include": ["se"]},
      "tags": {
        "amenity": "fuel",
        "brand": "din-X",
        "brand:wikidata": "Q10472858",
        "name": "din-X"
      }
    },
    {
      "displayName": "Disa",
      "id": "disa-2e774c",
      "locationSet": {"include": ["ic"]},
      "tags": {
        "amenity": "fuel",
        "brand": "Disa",
        "brand:wikidata": "Q5797102",
        "name": "Disa"
      }
    },
    {
      "displayName": "Domo",
      "id": "domo-04874d",
      "locationSet": {"include": ["ca"]},
      "tags": {
        "amenity": "fuel",
        "brand": "Domo",
        "brand:wikidata": "Q5291326",
        "name": "Domo"
      }
    },
    {
      "displayName": "Dyneff",
      "id": "dyneff-addd1b",
      "locationSet": {"include": ["es", "fr"]},
      "tags": {
        "amenity": "fuel",
        "brand": "Dyneff",
        "brand:wikidata": "Q16630266",
        "name": "Dyneff"
      }
    },
    {
      "displayName": "Eco Petrol",
      "id": "ecopetrol-b450da",
      "locationSet": {"include": ["bg"]},
      "matchNames": ["ekopetrol"],
      "tags": {
        "amenity": "fuel",
        "brand": "Eco Petrol",
        "brand:wikidata": "Q114053440",
        "name": "Eco Petrol",
        "name:bg": "Еко Петрол"
      }
    },
    {
      "displayName": "EcoOil",
      "id": "ecooil-289efc",
      "locationSet": {"include": ["ph"]},
      "tags": {
        "amenity": "fuel",
        "brand": "EcoOil",
        "brand:wikidata": "Q119985537",
        "name": "EcoOil"
      }
    },
    {
      "displayName": "ED",
      "id": "ed-495186",
      "locationSet": {"include": ["de"]},
      "tags": {
        "amenity": "fuel",
        "brand": "ED",
        "brand:wikidata": "Q118111469",
        "name": "ED"
      }
    },
    {
      "displayName": "EG Australia",
      "id": "egaustralia-9ed9c0",
      "locationSet": {"include": ["au"]},
      "matchNames": [
        "caltex woolworths",
        "eg ampol",
        "woolworths caltex",
        "woolworths petrol"
      ],
      "tags": {
        "amenity": "fuel",
        "brand": "Ampol",
        "brand:wikidata": "Q4748528",
        "fuel:discount": "Woolworths",
        "name": "EG Australia",
        "operator": "EG Australia",
        "operator:wikidata": "Q5023980"
      }
    },
    {
      "displayName": "Ego",
      "id": "ego-e8f712",
      "locationSet": {"include": ["it"]},
      "tags": {
        "amenity": "fuel",
        "brand": "Ego",
        "name": "Ego"
      }
    },
    {
      "displayName": "EKO (Canada)",
      "id": "eko-04874d",
      "locationSet": {"include": ["ca"]},
      "tags": {
        "amenity": "fuel",
        "brand": "EKO",
        "brand:wikidata": "Q3045934",
        "name": "EKO"
      }
    },
    {
      "displayName": "EKO (Cyprus)",
      "id": "eko-019b01",
      "locationSet": {"include": ["cy"]},
      "matchNames": ["q903198", "εκο", "еко"],
      "tags": {
        "amenity": "fuel",
        "brand": "EKO",
        "brand:wikidata": "Q111604705",
        "name": "EKO"
      }
    },
    {
      "displayName": "EKO (Montenegro)",
      "id": "eko-b273c8",
      "locationSet": {"include": ["me"]},
      "matchNames": ["q903198", "εκο", "еко"],
      "tags": {
        "amenity": "fuel",
        "brand": "EKO",
        "brand:wikidata": "Q111604689",
        "name": "EKO"
      }
    },
    {
      "displayName": "EKO (Serbia)",
      "id": "eko-f2605e",
      "locationSet": {"include": ["sr"]},
      "matchNames": ["q903198", "εκο", "еко"],
      "tags": {
        "amenity": "fuel",
        "brand": "EKO",
        "brand:wikidata": "Q111604683",
        "name": "EKO"
      }
    },
    {
      "displayName": "EKO (Ελλάδα)",
      "id": "eko-c67f2c",
      "locationSet": {"include": ["gr"]},
      "matchNames": ["q903198", "εκο", "еко"],
      "tags": {
        "amenity": "fuel",
        "brand": "EKO",
        "brand:wikidata": "Q31283948",
        "name": "EKO"
      }
    },
    {
      "displayName": "EKO (България)",
      "id": "eko-b450da",
      "locationSet": {"include": ["bg"]},
      "matchNames": ["q903198", "εκο"],
      "tags": {
        "amenity": "fuel",
        "brand": "EKO",
        "brand:wikidata": "Q111603199",
        "name": "EKO",
        "name:bg": "ЕКО"
      }
    },
    {
      "displayName": "Elan",
      "id": "elan-3c75bd",
      "locationSet": {
        "include": ["de", "fr", "nl"]
      },
      "tags": {
        "amenity": "fuel",
        "brand": "Elan",
        "brand:wikidata": "Q57980752",
        "name": "Elan"
      }
    },
    {
      "displayName": "Emarat",
      "id": "emarat-b7987c",
      "locationSet": {"include": ["ae"]},
      "tags": {
        "amenity": "fuel",
        "brand": "Emarat",
        "name": "Emarat"
      }
    },
    {
      "displayName": "ENEOS",
      "id": "eneos-fbe2e4",
      "locationSet": {"include": ["jp"]},
      "matchNames": [
        "esso",
        "mobil",
        "tonen general",
        "エッソ",
        "エッソ石油",
        "エネオス エネジェット",
        "ゼネラル",
        "ゼネラル石油",
        "モービル"
      ],
      "tags": {
        "amenity": "fuel",
        "brand": "ENEOS",
        "brand:en": "ENEOS",
        "brand:ja": "エネオス",
        "brand:wikidata": "Q1640290",
        "name": "ENEOS",
        "name:en": "ENEOS",
        "name:ja": "エネオス"
      }
    },
    {
      "displayName": "Enercoop",
      "id": "enercoop-e8f712",
      "locationSet": {"include": ["it"]},
      "tags": {
        "amenity": "fuel",
        "brand": "Enercoop",
        "brand:wikidata": "Q24936353",
        "name": "Enercoop"
      }
    },
    {
      "displayName": "Energas",
      "id": "energas-e8f712",
      "locationSet": {"include": ["it"]},
      "tags": {
        "amenity": "fuel",
        "brand": "Energas",
        "name": "Energas"
      }
    },
    {
      "displayName": "Enerpetroli",
      "id": "enerpetroli-e8f712",
      "locationSet": {"include": ["it"]},
      "tags": {
        "amenity": "fuel",
        "brand": "Enerpetroli",
        "brand:wikidata": "Q114647217",
        "name": "Enerpetroli"
      }
    },
    {
      "displayName": "Engen",
      "id": "engen-b7f522",
      "locationSet": {"include": ["002"]},
      "matchNames": ["engen petroleum"],
      "tags": {
        "amenity": "fuel",
        "brand": "Engen",
        "brand:wikidata": "Q3054251",
        "name": "Engen"
      }
    },
    {
      "displayName": "Eni",
      "id": "eni-4e932a",
      "locationSet": {
        "include": ["at", "ch", "fr", "it"]
      },
      "tags": {
        "amenity": "fuel",
        "brand": "Eni",
        "brand:wikidata": "Q565594",
        "name": "Eni"
      }
    },
    {
      "displayName": "Eni Station",
      "id": "enistation-4e932a",
      "locationSet": {
        "include": ["at", "ch", "fr", "it"]
      },
      "tags": {
        "amenity": "fuel",
        "brand": "Eni",
        "brand:wikidata": "Q565594",
        "name": "Eni Station"
      }
    },
    {
      "displayName": "Enmarket",
      "id": "enmarket-c5cf43",
      "locationSet": {"include": ["us"]},
      "tags": {
        "amenity": "fuel",
        "brand": "Enmarket",
        "brand:wikidata": "Q113207779",
        "name": "Enmarket"
      }
    },
    {
      "displayName": "Equador",
      "id": "equador-c14748",
      "locationSet": {"include": ["br"]},
      "matchNames": [
        "equador energia",
        "equador petroleo",
        "posto equador"
      ],
      "tags": {
        "amenity": "fuel",
        "brand": "Equador",
        "brand:wikidata": "Q119851742",
        "name": "Equador"
      }
    },
    {
      "displayName": "Erg",
      "id": "erg-e8f712",
      "locationSet": {"include": ["it"]},
      "tags": {
        "amenity": "fuel",
        "brand": "Erg",
        "brand:wikidata": "Q739503",
        "name": "Erg"
      }
    },
    {
      "displayName": "Essar",
      "id": "essar-853965",
      "locationSet": {"include": ["gb", "in"]},
      "matchNames": ["essar enegry", "essar oil"],
      "tags": {
        "amenity": "fuel",
        "brand": "Essar",
        "brand:wikidata": "Q5399372",
        "name": "Essar"
      }
    },
    {
      "displayName": "Esso",
      "id": "esso-206565",
      "locationSet": {
        "include": ["001"],
        "exclude": ["jp", "pl", "th"]
      },
      "matchNames": [
        "esso canada",
        "esso service station",
        "station esso"
      ],
      "tags": {
        "amenity": "fuel",
        "brand": "Esso",
        "brand:wikidata": "Q867662",
        "name": "Esso"
      }
    },
    {
      "displayName": "Esso Express",
      "id": "essoexpress-16b3c2",
      "locationSet": {
        "include": ["001"],
        "exclude": ["pl"]
      },
      "tags": {
        "amenity": "fuel",
        "brand": "Esso Express",
        "brand:wikidata": "Q2350336",
        "name": "Esso Express"
      }
    },
    {
      "displayName": "EuroOil",
      "id": "eurooil-16b3c2",
      "locationSet": {
        "include": ["001"],
        "exclude": ["pl"]
      },
      "tags": {
        "amenity": "fuel",
        "brand": "EuroOil",
        "name": "EuroOil"
      }
    },
    {
      "displayName": "Europam",
      "id": "europam-e8f712",
      "locationSet": {"include": ["it"]},
      "tags": {
        "amenity": "fuel",
        "brand": "Europam",
        "brand:wikidata": "Q115268198",
        "name": "Europam"
      }
    },
    {
      "displayName": "Everfuel",
      "id": "everfuel-06f3d9",
      "locationSet": {
        "include": ["de", "dk", "nl", "no"]
      },
      "tags": {
        "amenity": "fuel",
        "brand": "Everfuel",
        "brand:wikidata": "Q114905024",
        "fuel:LH2": "yes",
        "name": "Everfuel"
      }
    },
    {
      "displayName": "Exxon",
      "id": "exxon-c5cf43",
      "locationSet": {"include": ["us"]},
      "matchNames": ["exxon gas station"],
      "tags": {
        "amenity": "fuel",
        "brand": "Exxon",
        "brand:wikidata": "Q109675651",
        "name": "Exxon"
      }
    },
    {
      "displayName": "F24",
      "id": "f24-0b8509",
      "locationSet": {"include": ["dk"]},
      "tags": {
        "amenity": "fuel",
        "brand": "F24",
        "brand:wikidata": "Q12310853",
        "name": "F24"
      }
    },
    {
      "displayName": "Fas Gas",
      "id": "fasgas-04874d",
      "locationSet": {"include": ["ca"]},
      "matchNames": ["fas gas plus"],
      "tags": {
        "amenity": "fuel",
        "brand": "Fas Gas",
        "brand:wikidata": "Q61743505",
        "name": "Fas Gas"
      }
    },
    {
      "displayName": "FAST STOP",
      "id": "faststop-13feb8",
      "locationSet": {
        "include": [
          "us-ia.geojson",
          "us-il.geojson",
          "us-mi.geojson",
          "us-mo.geojson",
          "us-ne.geojson",
          "us-wi.geojson"
        ]
      },
      "tags": {
        "amenity": "fuel",
        "brand": "FAST STOP",
        "brand:wikidata": "Q116734101",
        "name": "FAST STOP"
      }
    },
    {
      "displayName": "Fieten Olie",
      "id": "fietenolie-6cdea6",
      "locationSet": {"include": ["nl"]},
      "tags": {
        "amenity": "fuel",
        "brand": "Fieten Olie",
        "brand:wikidata": "Q98837500",
        "name": "Fieten Olie"
      }
    },
    {
      "displayName": "Firezone",
      "id": "firezone-6cdea6",
      "locationSet": {"include": ["nl"]},
      "tags": {
        "amenity": "fuel",
        "brand": "Firezone",
        "brand:wikidata": "Q14628080",
        "name": "Firezone"
      }
    },
    {
      "displayName": "Flash",
      "id": "flash-b3d110",
      "locationSet": {"include": ["001"]},
      "tags": {
        "amenity": "fuel",
        "brand": "Flash",
        "name": "Flash"
      }
    },
    {
      "displayName": "Flyers",
      "id": "flyers-c5cf43",
      "locationSet": {"include": ["us"]},
      "matchNames": ["flyers energy"],
      "tags": {
        "amenity": "fuel",
        "brand": "Flyers",
        "brand:wikidata": "Q103882231",
        "name": "Flyers",
        "payment:cash": "no",
        "payment:cfn": "yes",
        "payment:credit_cards": "no",
        "payment:debit_cards": "no"
      }
    },
    {
      "displayName": "Flying J",
      "id": "flyingj-337af2",
      "locationSet": {"include": ["ca", "us"]},
      "matchNames": ["flying j travel plaza"],
      "tags": {
        "amenity": "fuel",
        "brand": "Flying J",
        "brand:wikidata": "Q64130592",
        "name": "Flying J"
      }
    },
    {
      "displayName": "Flying V",
      "id": "flyingv-289efc",
      "locationSet": {"include": ["ph"]},
      "tags": {
        "amenity": "fuel",
        "brand": "Flying V",
        "brand:wikidata": "Q62275048",
        "name": "Flying V"
      }
    },
    {
      "displayName": "Food 4 Less",
      "id": "food4less-25dc49",
      "locationSet": {
        "include": [
          "us-ca.geojson",
          "us-il.geojson",
          "us-in.geojson"
        ]
      },
      "tags": {
        "amenity": "fuel",
        "brand": "Food 4 Less",
        "brand:wikidata": "Q5465282",
        "name": "Food 4 Less"
      }
    },
    {
      "displayName": "Foods Co",
      "id": "foodsco-b96be0",
      "locationSet": {
        "include": ["us-ca.geojson"]
      },
      "tags": {
        "amenity": "fuel",
        "brand": "Foods Co",
        "brand:wikidata": "Q5465282",
        "name": "Foods Co"
      }
    },
    {
      "displayName": "Fred Meyer",
      "id": "fredmeyer-16b3c2",
      "locationSet": {
        "include": ["001"],
        "exclude": ["pl"]
      },
      "tags": {
        "amenity": "fuel",
        "brand": "Fred Meyer",
        "brand:wikidata": "Q5495932",
        "name": "Fred Meyer"
      }
    },
    {
      "displayName": "Freie Tankstelle",
      "id": "freietankstelle-495186",
      "locationSet": {"include": ["de"]},
      "tags": {
        "amenity": "fuel",
        "brand": "Freie Tankstelle",
        "brand:wikidata": "Q1009104",
        "name": "Freie Tankstelle"
      }
    },
    {
      "displayName": "Friendly Express",
      "id": "friendlyexpress-e7c562",
      "locationSet": {
        "include": ["us-ga.geojson"]
      },
      "tags": {
        "amenity": "fuel",
        "brand": "Friendly Express",
        "brand:wikidata": "Q110300768",
        "name": "Friendly Express"
      }
    },
    {
      "displayName": "G.A.S.",
      "id": "gas-088dbb",
      "locationSet": {"include": ["nz"]},
      "matchNames": ["gasoline alley services"],
      "tags": {
        "amenity": "fuel",
        "brand": "G.A.S.",
        "brand:wikidata": "Q112189761",
        "name": "G.A.S."
      }
    },
    {
      "displayName": "G500",
      "id": "g500-8d9e82",
      "locationSet": {"include": ["mx"]},
      "tags": {
        "amenity": "fuel",
        "brand": "G500",
        "brand:wikidata": "Q115215326",
        "name": "G500"
      }
    },
    {
      "displayName": "Gabriëls",
      "id": "gabriels-a23ac0",
      "locationSet": {"include": ["be"]},
      "tags": {
        "amenity": "fuel",
        "brand": "Gabriëls",
        "name": "Gabriëls"
      }
    },
    {
      "displayName": "Galana",
      "id": "galana-c24b31",
      "locationSet": {"include": ["mg"]},
      "tags": {
        "amenity": "fuel",
        "brand": "Galana",
        "name": "Galana"
      }
    },
    {
      "displayName": "Galp",
      "id": "galp-57abaf",
      "locationSet": {"include": ["es", "pt"]},
      "note": "no name, see #7359, #29",
      "tags": {
        "amenity": "fuel",
        "brand": "Galp",
        "brand:wikidata": "Q1492739"
      }
    },
    {
      "displayName": "Gapco",
      "id": "gapco-b7f522",
      "locationSet": {"include": ["002"]},
      "tags": {
        "amenity": "fuel",
        "brand": "Gapco",
        "name": "Gapco"
      }
    },
    {
      "displayName": "Gas Plus",
      "id": "gasplus-04874d",
      "locationSet": {"include": ["ca"]},
      "tags": {
        "amenity": "fuel",
        "brand": "Gas Plus",
        "name": "Gas Plus"
      }
    },
    {
      "displayName": "Gasenergy",
      "id": "gasenergy-6daebb",
      "locationSet": {"include": ["kz"]},
      "tags": {
        "amenity": "fuel",
        "brand": "Gasenergy",
        "name": "Gasenergy"
      }
    },
    {
      "displayName": "Gazel",
      "id": "gazel-419915",
      "locationSet": {
        "include": ["co", "mx", "pe"]
      },
      "tags": {
        "amenity": "fuel",
        "brand": "Gazel",
        "brand:wikidata": "Q62529885",
        "name": "Gazel"
      }
    },
    {
      "displayName": "Gazprom",
      "id": "gazprom-a10c9b",
      "locationSet": {"include": ["ba", "ro"]},
      "tags": {
        "amenity": "fuel",
        "brand": "Gazprom",
        "brand:wikidata": "Q102673",
        "name": "Gazprom"
      }
    },
    {
      "displayName": "Gazprom (Bulgaria)",
      "id": "gazprom-b450da",
      "locationSet": {"include": ["bg"]},
      "tags": {
        "amenity": "fuel",
        "brand": "Gazprom",
        "brand:wikidata": "Q102673",
        "name": "Gazprom",
        "name:bg": "Газпром"
      }
    },
    {
      "displayName": "Genol",
      "id": "genol-565075",
      "locationSet": {"include": ["at"]},
      "tags": {
        "amenity": "fuel",
        "brand": "Genol",
        "name": "Genol"
      }
    },
    {
      "displayName": "GetGo",
      "id": "getgo-c5cf43",
      "locationSet": {"include": ["us"]},
      "matchNames": [
        "giant eagle",
        "giant eagle fuel"
      ],
      "tags": {
        "amenity": "fuel",
        "brand": "GetGo",
        "brand:wikidata": "Q5553766",
        "name": "GetGo"
      }
    },
    {
      "displayName": "Giant (Carlisle)",
      "id": "giant-c5cf43",
      "locationSet": {"include": ["us"]},
      "tags": {
        "amenity": "fuel",
        "brand": "Giant",
        "brand:wikidata": "Q5558332",
        "name": "Giant"
      }
    },
    {
      "displayName": "Giap",
      "id": "giap-e8f712",
      "locationSet": {"include": ["it"]},
      "tags": {
        "amenity": "fuel",
        "brand": "Giap",
        "name": "Giap"
      }
    },
    {
      "displayName": "Global",
      "id": "global-c2b77c",
      "locationSet": {
        "include": [
          "us-ct.geojson",
          "us-ma.geojson",
          "us-me.geojson",
          "us-nh.geojson",
          "us-nj.geojson",
          "us-ny.geojson",
          "us-pa.geojson",
          "us-ri.geojson",
          "us-vt.geojson"
        ]
      },
      "tags": {
        "amenity": "fuel",
        "brand": "Global",
        "brand:wikidata": "Q121160135",
        "name": "Global"
      }
    },
    {
      "displayName": "Global Oil",
      "id": "global-0ba9a1",
      "locationSet": {"include": ["za"]},
      "tags": {
        "amenity": "fuel",
        "brand": "Global Oil",
        "brand:wikidata": "Q120598761",
        "name": "Global"
      }
    },
    {
      "displayName": "Go'on",
      "id": "goon-0b8509",
      "locationSet": {"include": ["dk"]},
      "tags": {
        "amenity": "fuel",
        "brand": "Go'on",
        "name": "Go'on"
      }
    },
    {
      "displayName": "Goil",
      "id": "goil-fdaf22",
      "locationSet": {"include": ["gh"]},
      "tags": {
        "amenity": "fuel",
        "brand": "Goil",
        "brand:wikidata": "Q5555383",
        "name": "Goil"
      }
    },
    {
      "displayName": "GoMart",
      "id": "gomart-8a82f2",
      "locationSet": {
        "include": [
          "us-ky.geojson",
          "us-oh.geojson",
          "us-va.geojson",
          "us-wv.geojson"
        ]
      },
      "tags": {
        "amenity": "fuel",
        "brand": "GoMart",
        "brand:wikidata": "Q5574575",
        "name": "GoMart"
      }
    },
    {
      "displayName": "Green Oil",
      "id": "greenoil-144a57",
      "locationSet": {"include": ["ma"]},
      "tags": {
        "amenity": "fuel",
        "brand": "Green Oil",
        "brand:wikidata": "Q88393926",
        "name": "Green Oil"
      }
    },
    {
      "displayName": "GS칼텍스",
      "id": "gscaltex-ae677b",
      "locationSet": {"include": ["kr"]},
      "tags": {
        "amenity": "fuel",
        "brand": "GS칼텍스",
        "brand:en": "GS Caltex",
        "brand:ko": "GS칼텍스",
        "name": "GS칼텍스",
        "name:en": "GS Caltex",
        "name:ko": "GS칼텍스"
      }
    },
    {
      "displayName": "Gulf",
      "id": "gulf-16b3c2",
      "locationSet": {
        "include": ["001"],
        "exclude": ["pl"]
      },
      "tags": {
        "amenity": "fuel",
        "brand": "Gulf",
        "brand:wikidata": "Q5617505",
        "name": "Gulf"
      }
    },
    {
      "displayName": "Gull (Australia)",
      "id": "gull-9ed9c0",
      "locationSet": {"include": ["au"]},
      "tags": {
        "amenity": "fuel",
        "brand": "Gull",
        "brand:wikidata": "Q5617739",
        "name": "Gull"
      }
    },
    {
      "displayName": "Gull (New Zealand)",
      "id": "gull-088dbb",
      "locationSet": {"include": ["nz"]},
      "tags": {
        "amenity": "fuel",
        "brand": "Gull",
        "brand:wikidata": "Q111949119",
        "name": "Gull"
      }
    },
    {
      "displayName": "H-E-B Fuel",
      "id": "hebfuel-c5cf43",
      "locationSet": {"include": ["us"]},
      "matchNames": ["h-e-b gas"],
      "tags": {
        "amenity": "fuel",
        "brand": "H-E-B",
        "brand:wikidata": "Q830621",
        "name": "H-E-B Fuel",
        "short_name": "H-E-B"
      }
    },
    {
      "displayName": "Haan",
      "id": "haan-6cdea6",
      "locationSet": {"include": ["nl"]},
      "tags": {
        "amenity": "fuel",
        "brand": "Haan",
        "brand:wikidata": "Q92553521",
        "name": "Haan"
      }
    },
    {
      "displayName": "Harnois",
      "id": "harnois-04874d",
      "locationSet": {"include": ["ca"]},
      "tags": {
        "amenity": "fuel",
        "brand": "Harnois",
        "brand:wikidata": "Q61743558",
        "name": "Harnois"
      }
    },
    {
      "displayName": "Harvest Energy",
      "id": "harvestenergy-20aed2",
      "locationSet": {"include": ["gb"]},
      "tags": {
        "amenity": "fuel",
        "brand": "Harvest Energy",
        "brand:wikidata": "Q67316143",
        "name": "Harvest Energy"
      }
    },
    {
      "displayName": "Hele",
      "id": "hele-45054e",
      "locationSet": {"include": ["us-hi"]},
      "tags": {
        "amenity": "fuel",
        "brand": "Hele",
        "brand:wikidata": "Q99196505",
        "name": "Hele"
      }
    },
    {
      "displayName": "HEM",
      "id": "hem-495186",
      "locationSet": {"include": ["de"]},
      "tags": {
        "amenity": "fuel",
        "brand": "HEM",
        "brand:wikidata": "Q109930239",
        "name": "HEM"
      }
    },
    {
      "displayName": "Hess",
      "id": "hess-c5cf43",
      "locationSet": {"include": ["us"]},
      "tags": {
        "amenity": "fuel",
        "brand": "Hess",
        "brand:wikidata": "Q1615684",
        "name": "Hess"
      }
    },
    {
      "displayName": "Hidrosina",
      "id": "hidrosina-8d9e82",
      "locationSet": {"include": ["mx"]},
      "tags": {
        "amenity": "fuel",
        "brand": "Hidrosina",
        "brand:wikidata": "Q120717551",
        "name": "Hidrosina"
      }
    },
    {
      "displayName": "High's",
      "id": "highs-c5cf43",
      "locationSet": {"include": ["us"]},
      "tags": {
        "amenity": "fuel",
        "brand": "High's",
        "brand:wikidata": "Q5754383",
        "name": "High's"
      }
    },
    {
      "displayName": "Hofer Diskont",
      "id": "hoferdiskont-3baa0f",
      "locationSet": {"include": ["at", "si"]},
      "matchNames": ["diskont", "hofer"],
      "tags": {
        "amenity": "fuel",
        "brand": "Hofer Diskont",
        "brand:wikidata": "Q107803455",
        "name": "Hofer Diskont"
      }
    },
    {
      "displayName": "Holiday",
      "id": "holiday-c5cf43",
      "locationSet": {"include": ["us"]},
      "tags": {
        "amenity": "fuel",
        "brand": "Holiday",
        "brand:wikidata": "Q5880490",
        "name": "Holiday"
      }
    },
    {
      "displayName": "Hoyer",
      "id": "hoyer-495186",
      "locationSet": {"include": ["de"]},
      "tags": {
        "amenity": "fuel",
        "brand": "Hoyer",
        "brand:wikidata": "Q1606119",
        "name": "Hoyer"
      }
    },
    {
      "displayName": "HP",
      "id": "hp-989925",
      "locationSet": {"include": ["in"]},
      "matchNames": ["hp petrol pump"],
      "tags": {
        "amenity": "fuel",
        "brand": "Hindustan Petroleum",
        "brand:wikidata": "Q1619375",
        "name": "HP",
        "official_name": "Hindustan Petroleum"
      }
    },
    {
      "displayName": "Huck's Food & Fuel",
      "id": "hucksfoodandfuel-c5cf43",
      "locationSet": {"include": ["us"]},
      "tags": {
        "amenity": "fuel",
        "brand": "Huck's Food & Fuel",
        "brand:wikidata": "Q56276328",
        "name": "Huck's Food & Fuel",
        "short_name": "Huck's"
      }
    },
    {
      "displayName": "Husky",
      "id": "husky-04874d",
      "locationSet": {"include": ["ca"]},
      "tags": {
        "amenity": "fuel",
        "brand": "Husky",
        "brand:wikidata": "Q702049",
        "name": "Husky"
      }
    },
    {
      "displayName": "Hy-Vee Gas",
      "id": "hyveegas-c5cf43",
      "locationSet": {"include": ["us"]},
      "tags": {
        "amenity": "fuel",
        "brand": "Hy-Vee Gas",
        "brand:wikidata": "Q1639719",
        "name": "Hy-Vee Gas"
      }
    },
    {
      "displayName": "Iberdoex",
      "id": "iberdoex-83f854",
      "locationSet": {"include": ["es"]},
      "tags": {
        "amenity": "fuel",
        "brand": "Iberdoex",
        "brand:wikidata": "Q25689041",
        "name": "Iberdoex"
      }
    },
    {
      "displayName": "IES",
      "id": "ies-e8f712",
      "locationSet": {"include": ["it"]},
      "tags": {
        "amenity": "fuel",
        "brand": "IES",
        "brand:wikidata": "Q62287387",
        "name": "IES"
      }
    },
    {
      "displayName": "iGas",
      "id": "igas-b450da",
      "locationSet": {"include": ["bg"]},
      "tags": {
        "amenity": "fuel",
        "brand": "iGas",
        "brand:wikidata": "Q111763117",
        "name": "iGas"
      }
    },
    {
      "displayName": "INA",
      "id": "ina-f27d94",
      "locationSet": {
        "include": ["ba", "hr", "hu", "me"]
      },
      "tags": {
        "amenity": "fuel",
        "brand": "INA",
        "brand:wikidata": "Q1662137",
        "name": "INA"
      }
    },
    {
      "displayName": "Indian Oil",
      "id": "indianoil-b3d110",
      "locationSet": {"include": ["001"]},
      "tags": {
        "amenity": "fuel",
        "brand": "Indian Oil",
        "brand:wikidata": "Q1289348",
        "name": "Indian Oil"
      }
    },
    {
      "displayName": "Indian Oil Petrol Pump",
      "id": "indianoilpetrolpump-989925",
      "locationSet": {"include": ["in"]},
      "tags": {
        "amenity": "fuel",
        "brand": "Indian Oil Petrol Pump",
        "brand:wikidata": "Q1289348",
        "name": "Indian Oil Petrol Pump"
      }
    },
    {
      "displayName": "Ingles Gas Express",
      "id": "inglesgasexpress-b3451c",
      "locationSet": {
        "include": [
          "us-ga.geojson",
          "us-nc.geojson",
          "us-sc.geojson",
          "us-tn.geojson"
        ]
      },
      "tags": {
        "amenity": "fuel",
        "brand": "Ingles Gas Express",
        "brand:wikidata": "Q6032595",
        "name": "Ingles Gas Express"
      }
    },
    {
      "displayName": "Ingo",
      "id": "ingo-eef03e",
      "locationSet": {"include": ["dk", "se"]},
      "tags": {
        "amenity": "fuel",
        "brand": "Ingo",
        "brand:wikidata": "Q17048617",
        "name": "Ingo"
      }
    },
    {
      "displayName": "InsaOil",
      "id": "insaoil-b450da",
      "locationSet": {"include": ["bg"]},
      "tags": {
        "alt_name": "Insa Oil",
        "amenity": "fuel",
        "brand": "InsaOil",
        "brand:wikidata": "Q110644700",
        "name": "InsaOil",
        "name:bg": "Инса ойл",
        "name:en": "InsaOil"
      }
    },
    {
      "displayName": "Intermarché",
      "id": "intermarche-16b3c2",
      "locationSet": {
        "include": ["001"],
        "exclude": ["pl"]
      },
      "matchNames": ["intermarché super"],
      "tags": {
        "amenity": "fuel",
        "brand": "Intermarché",
        "brand:wikidata": "Q3153200",
        "name": "Intermarché"
      }
    },
    {
      "displayName": "Inver",
      "id": "inver-f499fc",
      "locationSet": {"include": ["ca", "ie"]},
      "note": "don't need to add topaz as matchnames, see #7714",
      "tags": {
        "amenity": "fuel",
        "brand": "Inver",
        "brand:wikidata": "Q112579016",
        "name": "Inver"
      }
    },
    {
      "displayName": "IP",
      "id": "ip-16b3c2",
      "locationSet": {
        "include": ["001"],
        "exclude": ["pl"]
      },
      "tags": {
        "amenity": "fuel",
        "brand": "IP",
        "brand:wikidata": "Q646807",
        "name": "IP"
      }
    },
    {
      "displayName": "Ipiranga",
      "id": "ipiranga-c14748",
      "locationSet": {"include": ["br"]},
      "matchNames": [
        "iprianga",
        "posto ipiranga"
      ],
      "tags": {
        "amenity": "fuel",
        "brand": "Ipiranga",
        "brand:wikidata": "Q2081136"
      }
    },
    {
      "displayName": "IPT",
      "id": "ipt-c4bbd1",
      "locationSet": {"include": ["lb"]},
      "tags": {
        "amenity": "fuel",
        "brand": "IPT",
        "name": "IPT"
      }
    },
    {
      "displayName": "Irving",
      "id": "irving-337af2",
      "locationSet": {"include": ["ca", "us"]},
      "matchNames": ["irving oil"],
      "tags": {
        "amenity": "fuel",
        "brand": "Irving",
        "brand:wikidata": "Q1673286",
        "name": "Irving"
      }
    },
    {
      "displayName": "JA-SS",
      "id": "jass-fbe2e4",
      "locationSet": {"include": ["jp"]},
      "tags": {
        "amenity": "fuel",
        "brand": "JA",
        "brand:en": "JA",
        "brand:ja": "ジェイエー",
        "brand:wikidata": "Q11225213",
        "name": "JA-SS",
        "name:en": "JA-SS",
        "name:ja": "ジェイエイ-エスエス"
      }
    },
    {
      "displayName": "JET",
      "id": "jet-16b3c2",
      "locationSet": {
        "include": ["001"],
        "exclude": ["pl"]
      },
      "tags": {
        "amenity": "fuel",
        "brand": "JET",
        "brand:wikidata": "Q568940",
        "name": "JET"
      }
    },
    {
      "displayName": "JETOIL",
      "id": "jetoil-b47e96",
      "locationSet": {"include": ["al", "gr"]},
      "tags": {
        "amenity": "fuel",
        "brand": "JETOIL",
        "name": "JETOIL"
      }
    },
    {
      "displayName": "Jetti",
      "id": "jetti-289efc",
      "locationSet": {"include": ["ph"]},
      "tags": {
        "amenity": "fuel",
        "brand": "Jetti",
        "brand:wikidata": "Q62288720",
        "name": "Jetti"
      }
    },
    {
      "displayName": "JIO BP",
      "id": "jiobp-989925",
      "locationSet": {"include": ["in"]},
      "matchNames": [
        "reliance bp",
        "reliance petroleum"
      ],
      "tags": {
        "amenity": "fuel",
        "brand": "JIO BP",
        "brand:wikidata": "Q7311026"
      }
    },
    {
      "displayName": "Jurki",
      "id": "jurki-11d3b6",
      "locationSet": {"include": ["sk"]},
      "tags": {
        "amenity": "fuel",
        "brand": "Jurki",
        "brand:wikidata": "Q107775944",
        "name": "Jurki"
      }
    },
    {
      "displayName": "Kadoil",
      "id": "kadoil-ec7588",
      "locationSet": {"include": ["tr"]},
      "tags": {
        "amenity": "fuel",
        "brand": "Kadoil",
        "name": "Kadoil"
      }
    },
    {
      "displayName": "Kangaroo Express",
      "id": "kangarooexpress-c5cf43",
      "locationSet": {"include": ["us"]},
      "tags": {
        "amenity": "fuel",
        "brand": "Kangaroo Express",
        "brand:wikidata": "Q61747408",
        "name": "Kangaroo Express",
        "short_name": "Kangaroo"
      }
    },
    {
      "displayName": "KAOIL",
      "id": "kaoil-c67f2c",
      "locationSet": {"include": ["gr"]},
      "tags": {
        "amenity": "fuel",
        "brand": "KAOIL",
        "name": "KAOIL"
      }
    },
    {
      "displayName": "Kastrati",
      "id": "kastrati-7b349a",
      "locationSet": {"include": ["al", "kv"]},
      "tags": {
        "amenity": "fuel",
        "brand": "Kastrati",
        "name": "Kastrati"
      }
    },
    {
      "displayName": "Keropetrol",
      "id": "keropetrol-e8f712",
      "locationSet": {"include": ["it"]},
      "tags": {
        "amenity": "fuel",
        "brand": "Keropetrol",
        "name": "Keropetrol"
      }
    },
    {
      "displayName": "King Soopers",
      "id": "kingsoopers-c5cf43",
      "locationSet": {"include": ["us"]},
      "matchNames": [
        "king soopers fuel",
        "king soopers gas"
      ],
      "tags": {
        "amenity": "fuel",
        "brand": "King Soopers",
        "brand:wikidata": "Q6412065",
        "name": "King Soopers"
      }
    },
    {
      "displayName": "KLO",
      "id": "klo-ed4144",
      "locationSet": {"include": ["ua"]},
      "matchNames": ["кло"],
      "tags": {
        "amenity": "fuel",
        "brand": "KLO",
        "brand:wikidata": "Q60966526",
        "name": "KLO"
      }
    },
    {
      "displayName": "Kobil",
      "id": "kobil-568233",
      "locationSet": {
        "include": [
          "bi",
          "et",
          "ke",
          "rw",
          "tz",
          "ug",
          "zm"
        ]
      },
      "tags": {
        "amenity": "fuel",
        "brand": "Kobil",
        "brand:wikidata": "Q22906119",
        "name": "Kobil"
      }
    },
    {
      "displayName": "Krist",
      "id": "krist-c5cf43",
      "locationSet": {"include": ["us"]},
      "tags": {
        "amenity": "fuel",
        "brand": "Krist",
        "brand:wikidata": "Q77885501",
        "name": "Krist"
      }
    },
    {
      "displayName": "Kroger",
      "id": "kroger-c5cf43",
      "locationSet": {"include": ["us"]},
      "matchNames": [
        "kroger fuel",
        "kroger fuel center",
        "kroger gas"
      ],
      "tags": {
        "amenity": "fuel",
        "brand": "Kroger",
        "brand:wikidata": "Q153417",
        "name": "Kroger"
      }
    },
    {
      "displayName": "Kum & Go",
      "id": "kumandgo-c5cf43",
      "locationSet": {"include": ["us"]},
      "tags": {
        "amenity": "fuel",
        "brand": "Kum & Go",
        "brand:wikidata": "Q6443340",
        "name": "Kum & Go"
      }
    },
    {
      "displayName": "Kwik Fill",
      "id": "kwikfill-c5cf43",
      "locationSet": {"include": ["us"]},
      "tags": {
        "amenity": "fuel",
        "brand": "Kwik Fill",
        "brand:wikidata": "Q108477252",
        "name": "Kwik Fill"
      }
    },
    {
      "displayName": "Kwik Shop",
      "id": "kwikshop-c5cf43",
      "locationSet": {"include": ["us"]},
      "tags": {
        "amenity": "fuel",
        "brand": "Kwik Shop",
        "brand:wikidata": "Q6450417",
        "name": "Kwik Shop"
      }
    },
    {
      "displayName": "Kwik Trip",
      "id": "kwiktrip-c5cf43",
      "locationSet": {"include": ["us"]},
      "tags": {
        "amenity": "fuel",
        "brand": "Kwik Trip",
        "brand:wikidata": "Q6450420",
        "name": "Kwik Trip"
      }
    },
    {
      "displayName": "Lake Oil",
      "id": "lakeoil-b3d110",
      "locationSet": {"include": ["001"]},
      "tags": {
        "amenity": "fuel",
        "brand": "Lake Oil",
        "name": "Lake Oil"
      }
    },
    {
      "displayName": "Lanka IOC",
      "id": "lankaioc-0d1ef7",
      "locationSet": {"include": ["lk"]},
      "tags": {
        "amenity": "fuel",
        "brand": "Lanka IOC",
        "brand:wikidata": "Q30595420",
        "name": "Lanka IOC"
      }
    },
    {
      "displayName": "Laugfs",
      "id": "laugfs-0d1ef7",
      "locationSet": {"include": ["lk"]},
      "tags": {
        "amenity": "fuel",
        "brand": "Laugfs Petroleum",
        "brand:wikidata": "Q112300731",
        "name": "Laugfs"
      }
    },
    {
      "displayName": "Liberty",
      "id": "liberty-c5cf43",
      "locationSet": {"include": ["us"]},
      "tags": {
        "amenity": "fuel",
        "brand": "Liberty",
        "brand:wikidata": "Q96781174",
        "name": "Liberty"
      }
    },
    {
      "displayName": "Loaf 'N Jug",
      "id": "loafnjug-c5cf43",
      "locationSet": {"include": ["us"]},
      "tags": {
        "amenity": "fuel",
        "brand": "Loaf 'N Jug",
        "brand:wikidata": "Q6663398",
        "name": "Loaf 'N Jug"
      }
    },
    {
      "displayName": "Loro",
      "id": "loro-e8f712",
      "locationSet": {"include": ["it"]},
      "tags": {
        "amenity": "fuel",
        "brand": "Loro",
        "name": "Loro"
      }
    },
    {
      "displayName": "Lotos",
      "id": "lotos-5fd245",
      "locationSet": {"include": ["pl"]},
      "tags": {
        "amenity": "fuel",
        "brand": "Lotos",
        "brand:wikidata": "Q1256909",
        "name": "Lotos"
      }
    },
    {
      "displayName": "Lotos Optima",
      "id": "lotosoptima-5fd245",
      "locationSet": {"include": ["pl"]},
      "tags": {
        "amenity": "fuel",
        "brand": "Lotos Optima",
        "brand:wikidata": "Q1256909",
        "name": "Lotos Optima"
      }
    },
    {
      "displayName": "Love's",
      "id": "loves-c5cf43",
      "locationSet": {"include": ["us"]},
      "tags": {
        "amenity": "fuel",
        "brand": "Love's",
        "brand:wikidata": "Q1872496",
        "name": "Love's"
      }
    },
    {
      "displayName": "Lukoil",
      "id": "lukoil-ca892b",
      "locationSet": {
        "include": ["001"],
        "exclude": ["bg", "by", "kz", "ru"]
      },
      "tags": {
        "amenity": "fuel",
        "brand": "Lukoil",
        "brand:wikidata": "Q329347",
        "name": "Lukoil"
      }
    },
    {
      "displayName": "Mac's",
      "id": "macs-04874d",
      "locationSet": {"include": ["ca"]},
      "tags": {
        "amenity": "fuel",
        "brand": "Mac's",
        "brand:wikidata": "Q4043527",
        "name": "Mac's"
      }
    },
    {
      "displayName": "MacEwen",
      "id": "macewen-04874d",
      "locationSet": {"include": ["ca"]},
      "tags": {
        "amenity": "fuel",
        "brand": "MacEwen",
        "brand:wikidata": "Q61740335",
        "name": "MacEwen"
      }
    },
    {
      "displayName": "Maes",
      "id": "maes-a23ac0",
      "locationSet": {"include": ["be"]},
      "tags": {
        "amenity": "fuel",
        "brand": "Maes",
        "name": "Maes"
      }
    },
    {
      "displayName": "Mapco",
      "id": "mapco-c5cf43",
      "locationSet": {"include": ["us"]},
      "tags": {
        "amenity": "fuel",
        "brand": "Mapco",
        "brand:wikidata": "Q107589462",
        "name": "Mapco"
      }
    },
    {
      "displayName": "Marathon",
      "id": "marathon-16b3c2",
      "locationSet": {
        "include": ["001"],
        "exclude": ["pl"]
      },
      "matchNames": ["marathon gas"],
      "tags": {
        "amenity": "fuel",
        "brand": "Marathon",
        "brand:wikidata": "Q458363",
        "name": "Marathon"
      }
    },
    {
      "displayName": "Markant",
      "id": "markant-495186",
      "locationSet": {"include": ["de"]},
      "tags": {
        "amenity": "fuel",
        "brand": "Markant",
        "name": "Markant"
      }
    },
    {
      "displayName": "Marshal",
      "id": "marshal-ed4144",
      "locationSet": {"include": ["ua"]},
      "matchNames": ["маршал"],
      "tags": {
        "amenity": "fuel",
        "brand": "Marshal",
        "brand:wikidata": "Q121092268",
        "name": "Marshal"
      }
    },
    {
      "displayName": "Maverik",
      "id": "maverik-c5cf43",
      "locationSet": {"include": ["us"]},
      "tags": {
        "amenity": "fuel",
        "brand": "Maverik",
        "brand:wikidata": "Q64149010",
        "name": "Maverik"
      }
    },
    {
      "displayName": "Maxol",
      "id": "maxol-9c7c7c",
      "locationSet": {"include": ["gb", "ie"]},
      "tags": {
        "amenity": "fuel",
        "brand": "Maxol",
        "brand:wikidata": "Q3302837",
        "name": "Maxol"
      }
    },
    {
      "displayName": "McKeown",
      "id": "mckeowncardfuel247-088dbb",
      "locationSet": {"include": ["nz"]},
      "tags": {
        "amenity": "fuel",
        "brand": "McKeown",
        "brand:wikidata": "Q108897907",
        "name": "McKeown CardFuel 24/7"
      }
    },
    {
      "displayName": "Medco",
      "id": "medco-c4bbd1",
      "locationSet": {"include": ["lb"]},
      "tags": {
        "amenity": "fuel",
        "brand": "Medco",
        "name": "Medco"
      }
    },
    {
      "displayName": "Meijer",
      "id": "meijer-c5cf43",
      "locationSet": {"include": ["us"]},
      "tags": {
        "amenity": "fuel",
        "brand": "Meijer",
        "brand:wikidata": "Q1917753",
        "name": "Meijer"
      }
    },
    {
      "displayName": "MEROIL",
      "id": "meroil-83f854",
      "locationSet": {"include": ["es"]},
      "tags": {
        "amenity": "fuel",
        "brand": "MEROIL",
        "brand:wikidata": "Q62292559",
        "name": "MEROIL"
      }
    },
    {
      "displayName": "Metan",
      "id": "metan-2161be",
      "locationSet": {"include": ["uz"]},
      "tags": {
        "amenity": "fuel",
        "brand": "Metan",
        "name": "Metan"
      }
    },
    {
      "displayName": "Metano",
      "id": "metano-e8f712",
      "locationSet": {"include": ["it"]},
      "tags": {
        "amenity": "fuel",
        "brand": "Metano",
        "brand:wikidata": "Q62294765",
        "name": "Metano"
      }
    },
    {
      "displayName": "METRO",
      "id": "metro-00df76",
      "locationSet": {
        "include": ["001"],
        "exclude": ["au"]
      },
      "tags": {
        "amenity": "fuel",
        "brand": "METRO",
        "brand:wikidata": "Q13610282",
        "name": "METRO"
      }
    },
    {
      "displayName": "Metro Petroleum",
      "id": "metropetroleum-9ed9c0",
      "locationSet": {"include": ["au"]},
      "matchNames": ["metro"],
      "tags": {
        "amenity": "fuel",
        "brand": "Metro Petroleum",
        "brand:wikidata": "Q111970125",
        "name": "Metro Petroleum"
      }
    },
    {
      "displayName": "Migrol",
      "id": "migrol-27a80f",
      "locationSet": {"include": ["ch"]},
      "tags": {
        "amenity": "fuel",
        "brand": "Migrol",
        "brand:wikidata": "Q1747771",
        "name": "Migrol"
      }
    },
    {
      "displayName": "Mobil",
      "id": "mobil-00679c",
      "locationSet": {
        "include": ["001"],
        "exclude": ["jp"]
      },
      "matchNames": ["mobile"],
      "note": "This wikidata isn't Q3088656",
      "tags": {
        "amenity": "fuel",
        "brand": "Mobil",
        "brand:wikidata": "Q109676002",
        "name": "Mobil"
      }
    },
    {
      "displayName": "Mohawk",
      "id": "mohawk-04874d",
      "locationSet": {"include": ["ca"]},
      "matchNames": ["mohawk oil"],
      "tags": {
        "amenity": "fuel",
        "brand": "Mohawk",
        "brand:wikidata": "Q6893796",
        "name": "Mohawk"
      }
    },
    {
      "displayName": "Moil",
      "id": "moil-ec7588",
      "locationSet": {"include": ["tr"]},
      "tags": {
        "amenity": "fuel",
        "brand": "Moil",
        "brand:wikidata": "Q62296914",
        "name": "Moil"
      }
    },
    {
      "displayName": "MOL",
      "id": "mol-b3d110",
      "locationSet": {"include": ["001"]},
      "tags": {
        "amenity": "fuel",
        "brand": "MOL",
        "brand:wikidata": "Q549181",
        "name": "MOL"
      }
    },
    {
      "displayName": "Morrisons",
      "id": "morrisons-20aed2",
      "locationSet": {"include": ["gb"]},
      "matchNames": [
        "morrisons petrol filling stations"
      ],
      "tags": {
        "amenity": "fuel",
        "brand": "Morrisons",
        "brand:wikidata": "Q922344",
        "name": "Morrisons"
      }
    },
    {
      "displayName": "motto",
      "id": "motto-ed4144",
      "locationSet": {"include": ["ua"]},
      "matchNames": ["мотто"],
      "tags": {
        "amenity": "fuel",
        "brand": "Motto",
        "brand:wikidata": "Q117706332",
        "name": "Motto"
      }
    },
    {
      "displayName": "Moya",
      "id": "moya-5fd245",
      "locationSet": {"include": ["pl"]},
      "tags": {
        "amenity": "fuel",
        "brand": "Moya",
        "brand:wikidata": "Q62297700",
        "name": "Moya"
      }
    },
    {
      "displayName": "MRS",
      "id": "mrs-0edd09",
      "locationSet": {
        "include": ["bj", "cm", "gh", "ng", "tg"]
      },
      "tags": {
        "amenity": "fuel",
        "brand": "MRS",
        "brand:wikidata": "Q56274919",
        "name": "MRS"
      }
    },
    {
      "displayName": "Murco",
      "id": "murco-20aed2",
      "locationSet": {"include": ["gb"]},
      "matchNames": ["murco petroleum"],
      "tags": {
        "amenity": "fuel",
        "brand": "Murco",
        "brand:wikidata": "Q16998281",
        "name": "Murco"
      }
    },
    {
      "displayName": "Murphy Express",
      "id": "murphyexpress-c5cf43",
      "locationSet": {"include": ["us"]},
      "tags": {
        "amenity": "fuel",
        "brand": "Murphy Express",
        "brand:wikidata": "Q19604459",
        "name": "Murphy Express"
      }
    },
    {
      "displayName": "Murphy USA",
      "id": "murphyusa-c5cf43",
      "locationSet": {"include": ["us"]},
      "tags": {
        "amenity": "fuel",
        "brand": "Murphy USA",
        "brand:wikidata": "Q19604459",
        "name": "Murphy USA"
      }
    },
    {
      "displayName": "N1",
      "id": "n1-3ac543",
      "locationSet": {"include": ["is"]},
      "tags": {
        "amenity": "fuel",
        "brand": "N1",
        "name": "N1"
      }
    },
    {
      "displayName": "NAFTAL",
      "id": "naftal-62f1b2",
      "locationSet": {"include": ["dz"]},
      "tags": {
        "amenity": "fuel",
        "brand": "NAFTAL",
        "name": "NAFTAL"
      }
    },
    {
      "displayName": "Naftë",
      "id": "nafte-83f854",
      "locationSet": {"include": ["es"]},
      "tags": {
        "amenity": "fuel",
        "brand": "Naftë",
        "brand:wikidata": "Q108322433",
        "name": "Naftë"
      }
    },
    {
      "displayName": "Nayara",
      "id": "nayara-989925",
      "locationSet": {"include": ["in"]},
      "matchNames": ["nayara energy"],
      "tags": {
        "amenity": "fuel",
        "brand": "Nayara",
        "brand:wikidata": "Q5399377",
        "name": "Nayara"
      }
    },
    {
      "displayName": "Neste",
      "id": "neste-b3d110",
      "locationSet": {"include": ["001"]},
      "matchNames": ["neste oil"],
      "tags": {
        "amenity": "fuel",
        "brand": "Neste",
        "brand:wikidata": "Q616376",
        "name": "Neste"
      }
    },
    {
      "displayName": "Nouria",
      "id": "nouria-b09892",
      "locationSet": {
        "include": [
          "us-ct.geojson",
          "us-ma.geojson",
          "us-me.geojson",
          "us-nh.geojson",
          "us-ri.geojson"
        ]
      },
      "tags": {
        "amenity": "fuel",
        "brand": "Nouria",
        "brand:wikidata": "Q120637476",
        "name": "Nouria"
      }
    },
    {
      "displayName": "NP",
      "id": "np-9a6cc7",
      "locationSet": {"include": ["tt"]},
      "tags": {
        "amenity": "fuel",
        "brand": "NP",
        "brand:wikidata": "Q7842382",
        "name": "NP"
      }
    },
    {
      "displayName": "npd",
      "id": "npd-088dbb",
      "locationSet": {"include": ["nz"]},
      "tags": {
        "amenity": "fuel",
        "brand": "npd",
        "brand:wikidata": "Q110922616",
        "name": "npd"
      }
    },
    {
      "displayName": "Octa+",
      "id": "octa-a23ac0",
      "locationSet": {"include": ["be"]},
      "tags": {
        "amenity": "fuel",
        "brand": "Octa+",
        "name": "Octa+"
      }
    },
    {
      "displayName": "OIL!",
      "id": "oil-b3d110",
      "locationSet": {"include": ["001"]},
      "tags": {
        "amenity": "fuel",
        "brand": "OIL!",
        "brand:wikidata": "Q2007561",
        "name": "OIL!"
      }
    },
    {
      "displayName": "Oilcom",
      "id": "oilcom-5a4296",
      "locationSet": {"include": ["tz", "ug"]},
      "tags": {
        "amenity": "fuel",
        "brand": "Oilcom",
        "name": "Oilcom"
      }
    },
    {
      "displayName": "Oilibya",
      "id": "oilibya-b3d110",
      "locationSet": {"include": ["001"]},
      "matchNames": [
        "oilibia",
        "oilibiya",
        "oillibia",
        "oilliby",
        "oillibya",
        "oillybia",
        "oilybia",
        "olibya",
        "olybia"
      ],
      "tags": {
        "amenity": "fuel",
        "brand": "Oilibya",
        "brand:wikidata": "Q7081491",
        "name": "Oilibya",
        "name:ar": "أويليبيا"
      }
    },
    {
      "displayName": "OK",
      "id": "ok-0b8509",
      "locationSet": {"include": ["dk"]},
      "tags": {
        "amenity": "fuel",
        "brand": "OK",
        "brand:wikidata": "Q12329785",
        "name": "OK"
      }
    },
    {
      "displayName": "OKQ8",
      "id": "okq8-a1affa",
      "locationSet": {"include": ["se"]},
      "tags": {
        "amenity": "fuel",
        "brand": "OKQ8",
        "brand:wikidata": "Q2789310",
        "name": "OKQ8"
      }
    },
    {
      "displayName": "OLA Energy",
      "id": "olaenergy-b7f522",
      "locationSet": {"include": ["002"]},
      "tags": {
        "amenity": "fuel",
        "brand": "OLA Energy",
        "name": "OLA Energy"
      }
    },
    {
      "displayName": "Olerex",
      "id": "olerex-00a67a",
      "locationSet": {"include": ["ee"]},
      "tags": {
        "amenity": "fuel",
        "brand": "Olerex",
        "brand:wikidata": "Q16931205",
        "name": "Olerex"
      }
    },
    {
      "displayName": "OMV",
      "id": "omv-b3d110",
      "locationSet": {"include": ["001"]},
      "tags": {
        "amenity": "fuel",
        "brand": "OMV",
        "brand:wikidata": "Q168238",
        "name": "OMV"
      }
    },
    {
      "displayName": "Opet",
      "id": "opet-ec7588",
      "locationSet": {"include": ["tr"]},
      "tags": {
        "amenity": "fuel",
        "brand": "Opet",
        "brand:wikidata": "Q7072824",
        "name": "Opet"
      }
    },
    {
      "displayName": "Orkan",
      "id": "orkan-3ac543",
      "locationSet": {"include": ["is"]},
      "tags": {
        "amenity": "fuel",
        "brand": "Orkan",
        "name": "Orkan"
      }
    },
    {
      "displayName": "Orlen",
      "id": "orlen-8d7d05",
      "locationSet": {
        "include": ["de", "hu", "lt", "pl"]
      },
      "tags": {
        "amenity": "fuel",
        "brand": "Orlen",
        "brand:wikidata": "Q971649",
        "name": "Orlen"
      }
    },
    {
      "displayName": "OTR",
      "id": "otr-9ed9c0",
      "locationSet": {"include": ["au"]},
      "tags": {
        "amenity": "fuel",
        "brand": "OTR",
        "brand:wikidata": "Q116394019",
        "name": "OTR"
      }
    },
    {
      "displayName": "Oxxo",
      "id": "oxxo-b3d110",
      "locationSet": {"include": ["001"]},
      "matchNames": ["oxxo gas"],
      "tags": {
        "amenity": "fuel",
        "brand": "Oxxo",
        "brand:wikidata": "Q1342538",
        "name": "Oxxo"
      }
    },
    {
      "displayName": "Pacific",
      "id": "pacific-b3d110",
      "locationSet": {"include": ["001"]},
      "tags": {
        "amenity": "fuel",
        "brand": "Pacific",
        "name": "Pacific"
      }
    },
    {
      "displayName": "Pacific Pride",
      "id": "pacificpride-c5cf43",
      "locationSet": {"include": ["us"]},
      "tags": {
        "amenity": "fuel",
        "brand": "Pacific Pride",
        "brand:wikidata": "Q7122637",
        "name": "Pacific Pride"
      }
    },
    {
      "displayName": "PAK'nSAVE Fuel",
      "id": "paknsavefuel-088dbb",
      "locationSet": {"include": ["nz"]},
      "tags": {
        "amenity": "fuel",
        "brand": "PAK'nSAVE Fuel",
        "brand:wikidata": "Q115215489",
        "name": "PAK'nSAVE Fuel"
      }
    },
    {
      "displayName": "Parallel",
      "id": "parallel-ed4144",
      "locationSet": {"include": ["ua"]},
      "matchNames": ["parallel.ua", "паралель"],
      "tags": {
        "amenity": "fuel",
        "brand": "Parallel",
        "brand:wikidata": "Q4344907",
        "name": "Parallel"
      }
    },
    {
      "displayName": "PDV",
      "id": "pdv-07d016",
      "locationSet": {"include": ["ec"]},
      "tags": {
        "amenity": "fuel",
        "brand": "PDV",
        "name": "PDV"
      }
    },
    {
      "displayName": "Pecsa",
      "id": "pecsa-877762",
      "locationSet": {"include": ["pe"]},
      "tags": {
        "amenity": "fuel",
        "brand": "Pecsa",
        "brand:wikidata": "Q62299262",
        "name": "Pecsa"
      }
    },
    {
      "displayName": "Pemex",
      "id": "pemex-8d9e82",
      "locationSet": {"include": ["mx"]},
      "tags": {
        "amenity": "fuel",
        "brand": "Pemex",
        "brand:wikidata": "Q871308",
        "name": "Pemex"
      }
    },
    {
      "displayName": "Pertamina",
      "id": "pertamina-d2ad30",
      "locationSet": {"include": ["id"]},
      "tags": {
        "amenity": "fuel",
        "brand": "Pertamina",
        "brand:wikidata": "Q1641044",
        "name": "Pertamina"
      }
    },
    {
      "displayName": "Petro",
      "id": "petro-337af2",
      "locationSet": {"include": ["ca", "us"]},
      "matchNames": ["petro stopping center"],
      "tags": {
        "alt_name": "Petro Stopping Centers",
        "amenity": "fuel",
        "brand": "Petro",
        "brand:wikidata": "Q64051305",
        "name": "Petro"
      }
    },
    {
      "displayName": "Petro Seven",
      "id": "petroseven-8d9e82",
      "locationSet": {"include": ["mx"]},
      "matchNames": ["petro 7", "petro seven 7"],
      "tags": {
        "amenity": "fuel",
        "brand": "Petro Seven",
        "brand:wikidata": "Q118601740",
        "name": "Petro Seven"
      }
    },
    {
      "displayName": "Petro-Canada",
      "id": "petrocanada-04874d",
      "locationSet": {"include": ["ca"]},
      "tags": {
        "amenity": "fuel",
        "brand": "Petro-Canada",
        "brand:wikidata": "Q1208279",
        "name": "Petro-Canada"
      }
    },
    {
      "displayName": "Petro-T",
      "id": "petrot-04874d",
      "locationSet": {"include": ["ca"]},
      "tags": {
        "amenity": "fuel",
        "brand": "Petro-T",
        "brand:wikidata": "Q61743540",
        "name": "Petro-T"
      }
    },
    {
      "displayName": "Petrocat",
      "id": "petrocat-83f854",
      "locationSet": {"include": ["es"]},
      "tags": {
        "amenity": "fuel",
        "brand": "Petrocat",
        "brand:wikidata": "Q20104358",
        "name": "Petrocat"
      }
    },
    {
      "displayName": "Petroecuador",
      "id": "petroecuador-07d016",
      "locationSet": {"include": ["ec"]},
      "tags": {
        "amenity": "fuel",
        "brand": "Petroecuador",
        "brand:wikidata": "Q1812822",
        "name": "Petroecuador"
      }
    },
    {
      "displayName": "Petrol",
      "id": "petrol-7302f5",
      "locationSet": {
        "include": ["ba", "hr", "me", "rs", "si"]
      },
      "matchNames": [
        "bencinski servis petrol",
        "bs petrol",
        "petrol"
      ],
      "note": "https://github.com/osmlab/name-suggestion-index/issues/6552",
      "tags": {
        "amenity": "fuel",
        "brand": "Petrol",
        "brand:wikidata": "Q174824",
        "name": "Petrol"
      }
    },
    {
      "displayName": "Petrol Ofisi",
      "id": "petrolofisi-b3d110",
      "locationSet": {"include": ["001"]},
      "tags": {
        "amenity": "fuel",
        "brand": "Petrol Ofisi",
        "brand:wikidata": "Q1278087",
        "name": "Petrol Ofisi"
      }
    },
    {
      "displayName": "Petrolimex",
      "id": "petrolimex-b3d110",
      "locationSet": {"include": ["001"]},
      "tags": {
        "amenity": "fuel",
        "brand": "Petrolimex",
        "brand:wikidata": "Q10831598",
        "name": "Petrolimex"
      }
    },
    {
      "displayName": "Petrolina",
      "id": "petrolina-019b01",
      "locationSet": {"include": ["cy"]},
      "tags": {
        "amenity": "fuel",
        "brand": "Petrolina",
        "brand:wikidata": "Q17013948",
        "name": "Petrolina"
      }
    },
    {
      "displayName": "Petrom",
      "id": "petrom-b3d110",
      "locationSet": {"include": ["001"]},
      "tags": {
        "amenity": "fuel",
        "brand": "Petrom",
        "brand:wikidata": "Q1755034",
        "name": "Petrom"
      }
    },
    {
      "displayName": "Petromil",
      "id": "petromil-a98521",
      "locationSet": {"include": ["co"]},
      "tags": {
        "amenity": "fuel",
        "brand": "Petromil",
        "name": "Petromil"
      }
    },
    {
      "displayName": "Petron",
      "id": "petron-21bb35",
      "locationSet": {"include": ["my", "ph"]},
      "matchNames": ["petron gas station"],
      "tags": {
        "amenity": "fuel",
        "brand": "Petron",
        "brand:wikidata": "Q7179011",
        "name": "Petron"
      }
    },
    {
      "displayName": "Petronas",
      "id": "petronas-b3d110",
      "locationSet": {"include": ["001"]},
      "tags": {
        "amenity": "fuel",
        "brand": "Petronas",
        "brand:wikidata": "Q221692",
        "name": "Petronas"
      }
    },
    {
      "displayName": "Petronor",
      "id": "petronor-83f854",
      "locationSet": {"include": ["es"]},
      "tags": {
        "amenity": "fuel",
        "brand": "Petronor",
        "brand:wikidata": "Q1726547",
        "name": "Petronor"
      }
    },
    {
      "displayName": "PetroPerú",
      "id": "petroperu-877762",
      "locationSet": {"include": ["pe"]},
      "tags": {
        "amenity": "fuel",
        "brand": "PetroPerú",
        "brand:wikidata": "Q2506390",
        "name": "PetroPerú"
      }
    },
    {
      "displayName": "Petrosol",
      "id": "petrosol-b3d110",
      "locationSet": {"include": ["001"]},
      "tags": {
        "amenity": "fuel",
        "brand": "Petrosol",
        "name": "Petrosol"
      }
    },
    {
      "displayName": "Phillips 66",
      "id": "phillips66-c5cf43",
      "locationSet": {"include": ["us"]},
      "matchNames": ["phillips 66 gas"],
      "tags": {
        "amenity": "fuel",
        "brand": "Phillips 66",
        "brand:wikidata": "Q1656230",
        "name": "Phillips 66"
      }
    },
    {
      "displayName": "Phoenix",
      "id": "phoenix-289efc",
      "locationSet": {"include": ["ph"]},
      "tags": {
        "amenity": "fuel",
        "brand": "Phoenix",
        "brand:wikidata": "Q7186949",
        "name": "Phoenix"
      }
    },
    {
      "displayName": "Pieprzyk",
      "id": "pieprzyk-b3d110",
      "locationSet": {"include": ["001"]},
      "tags": {
        "amenity": "fuel",
        "brand": "Pieprzyk",
        "name": "Pieprzyk"
      }
    },
    {
      "displayName": "Pilot",
      "id": "pilot-337af2",
      "locationSet": {"include": ["ca", "us"]},
      "matchNames": ["pilot travel center"],
      "tags": {
        "alt_name": "Pilot Travel Centers",
        "amenity": "fuel",
        "brand": "Pilot",
        "brand:wikidata": "Q64128179",
        "name": "Pilot"
      }
    },
    {
      "displayName": "Pioneer",
      "id": "pioneer-04874d",
      "locationSet": {"include": ["ca"]},
      "tags": {
        "amenity": "fuel",
        "brand": "Pioneer",
        "brand:wikidata": "Q7196684",
        "name": "Pioneer"
      }
    },
    {
      "displayName": "Pompe Bianche",
      "id": "pompebianche-b3d110",
      "locationSet": {"include": ["001"]},
      "tags": {
        "amenity": "fuel",
        "brand": "Pompe Bianche",
        "name": "Pompe Bianche"
      }
    },
    {
      "displayName": "Power",
      "id": "power-a23ac0",
      "locationSet": {"include": ["be"]},
      "tags": {
        "amenity": "fuel",
        "brand": "Power",
        "brand:wikidata": "Q98380874",
        "name": "Power"
      }
    },
    {
      "displayName": "Preem",
      "id": "preem-a611ce",
      "locationSet": {"include": ["pl", "se"]},
      "tags": {
        "amenity": "fuel",
        "brand": "Preem",
        "brand:wikidata": "Q598835",
        "name": "Preem"
      }
    },
    {
      "displayName": "Primax (Ecuador)",
      "id": "primax-07d016",
      "locationSet": {"include": ["ec"]},
      "tags": {
        "amenity": "fuel",
        "brand": "Primax",
        "brand:wikidata": "Q62332857",
        "name": "Primax"
      }
    },
    {
      "displayName": "Primax (Peru)",
      "id": "primax-877762",
      "locationSet": {"include": ["pe"]},
      "tags": {
        "amenity": "fuel",
        "brand": "Primax",
        "brand:wikidata": "Q62332638",
        "name": "Primax"
      }
    },
    {
      "displayName": "Prio",
      "id": "prio-bb4e16",
      "locationSet": {"include": ["pt"]},
      "tags": {
        "amenity": "fuel",
        "brand": "Prio",
        "brand:wikidata": "Q62530421",
        "name": "Prio"
      }
    },
    {
      "displayName": "Propan",
      "id": "propan-b3d110",
      "locationSet": {"include": ["001"]},
      "tags": {
        "amenity": "fuel",
        "brand": "Propan",
        "name": "Propan"
      }
    },
    {
      "displayName": "PT",
      "id": "pt-56d9b3",
      "locationSet": {"include": ["th"]},
      "tags": {
        "amenity": "fuel",
        "brand": "PT",
        "brand:wikidata": "Q62298612",
        "name": "PT"
      }
    },
    {
      "displayName": "PTT",
      "id": "ptt-16b3c2",
      "locationSet": {
        "include": ["001"],
        "exclude": ["pl"]
      },
      "tags": {
        "amenity": "fuel",
        "brand": "PTT",
        "brand:wikidata": "Q1810389",
        "name": "PTT"
      }
    },
    {
      "displayName": "Puma",
      "id": "puma-16b3c2",
      "locationSet": {
        "include": ["001"],
        "exclude": ["pl"]
      },
      "matchNames": ["puma energy"],
      "tags": {
        "amenity": "fuel",
        "brand": "Puma",
        "brand:wikidata": "Q7259769",
        "name": "Puma"
      }
    },
    {
      "displayName": "PV Oil",
      "id": "pvoil-c46b94",
      "locationSet": {"include": ["vn"]},
      "tags": {
        "amenity": "fuel",
        "brand": "PV Oil",
        "brand:wikidata": "Q2089536",
        "name": "PV Oil"
      }
    },
    {
      "displayName": "PyS",
      "id": "pys-07d016",
      "locationSet": {"include": ["ec"]},
      "tags": {
        "amenity": "fuel",
        "brand": "PyS",
        "name": "PyS"
      }
    },
    {
      "displayName": "Q1",
      "id": "q1-495186",
      "locationSet": {"include": ["de"]},
      "tags": {
        "amenity": "fuel",
        "brand": "Q1",
        "brand:wikidata": "Q62086498",
        "name": "Q1"
      }
    },
    {
      "displayName": "Q8",
      "id": "q8-7bb553",
      "locationSet": {
        "include": [
          "be",
          "dk",
          "es",
          "it",
          "lu",
          "nl",
          "pt"
        ]
      },
      "matchNames": ["q8italia"],
      "tags": {
        "amenity": "fuel",
        "brand": "Q8",
        "brand:wikidata": "Q1634762",
        "name": "Q8"
      }
    },
    {
      "displayName": "Q8 Easy",
      "id": "q8easy-578c5e",
      "locationSet": {"include": ["be", "it"]},
      "tags": {
        "amenity": "fuel",
        "brand": "Q8 Easy",
        "brand:wikidata": "Q1806948",
        "name": "Q8 Easy"
      }
    },
    {
      "displayName": "Qazaq Oil",
      "id": "qazaqoil-6daebb",
      "locationSet": {"include": ["kz"]},
      "tags": {
        "amenity": "fuel",
        "brand": "Qazaq Oil",
        "brand:wikidata": "Q115190155",
        "name": "Qazaq Oil"
      }
    },
    {
      "displayName": "Qik-n-EZ",
      "id": "qiknez-e7bc16",
      "locationSet": {
        "include": ["us-il.geojson"]
      },
      "tags": {
        "amenity": "fuel",
        "brand": "Qik-n-EZ",
        "brand:wikidata": "Q113629559",
        "name": "Qik-n-EZ"
      }
    },
    {
      "displayName": "Qstar",
      "id": "qstar-a1affa",
      "locationSet": {"include": ["se"]},
      "tags": {
        "amenity": "fuel",
        "brand": "Qstar",
        "brand:wikidata": "Q10647961",
        "name": "Qstar"
      }
    },
    {
      "displayName": "QuickChek",
      "id": "quickchek-c5cf43",
      "locationSet": {"include": ["us"]},
      "tags": {
        "amenity": "fuel",
        "brand": "QuickChek",
        "brand:wikidata": "Q7271689",
        "name": "QuickChek"
      }
    },
    {
      "displayName": "Quik Stop",
      "id": "quikstop-c5cf43",
      "locationSet": {"include": ["us"]},
      "tags": {
        "amenity": "fuel",
        "brand": "Quik Stop",
        "brand:wikidata": "Q105141709",
        "name": "Quik Stop"
      }
    },
    {
      "displayName": "QuikTrip",
      "id": "quiktrip-16b3c2",
      "locationSet": {
        "include": ["001"],
        "exclude": ["pl"]
      },
      "matchNames": ["quiktrip corporation"],
      "tags": {
        "amenity": "fuel",
        "brand": "QuikTrip",
        "brand:wikidata": "Q7271953",
        "name": "QuikTrip",
        "short_name": "QT"
      }
    },
    {
      "displayName": "RaceTrac",
      "id": "racetrac-16b3c2",
      "locationSet": {
        "include": ["001"],
        "exclude": ["pl"]
      },
      "tags": {
        "amenity": "fuel",
        "brand": "RaceTrac",
        "brand:wikidata": "Q735942",
        "name": "RaceTrac"
      }
    },
    {
      "displayName": "RaceWay",
      "id": "raceway-c5cf43",
      "locationSet": {"include": ["us"]},
      "tags": {
        "amenity": "fuel",
        "brand": "RaceWay",
        "brand:wikidata": "Q73039084",
        "name": "RaceWay"
      }
    },
    {
      "displayName": "Raiffeisen",
      "id": "raiffeisen-495186",
      "locationSet": {"include": ["de"]},
      "tags": {
        "amenity": "fuel",
        "brand": "Raiffeisen",
        "name": "Raiffeisen"
      }
    },
    {
      "displayName": "RD Petroleum",
      "id": "rdpetroleum-088dbb",
      "locationSet": {"include": ["nz"]},
      "matchNames": ["rd", "rdp"],
      "tags": {
        "amenity": "fuel",
        "brand": "RD Petroleum",
        "brand:wikidata": "Q115565889",
        "name": "RD Petroleum",
        "operator": "BP",
        "operator:wikidata": "Q152057"
      }
    },
    {
      "displayName": "Refinor",
      "id": "refinor-dca697",
      "locationSet": {"include": ["ar"]},
      "matchNames": ["refinaria del norte"],
      "tags": {
        "amenity": "fuel",
        "brand": "Refinor",
        "brand:wikidata": "Q10358460",
        "name": "Refinor"
      }
    },
    {
      "displayName": "RePhil",
      "id": "rephil-b3d110",
      "locationSet": {"include": ["001"]},
      "tags": {
        "amenity": "fuel",
        "brand": "RePhil",
        "name": "RePhil"
      }
    },
    {
      "displayName": "Repsol",
      "id": "repsol-b3d110",
      "locationSet": {"include": ["001"]},
      "matchNames": ["campsa"],
      "tags": {
        "amenity": "fuel",
        "brand": "Repsol",
        "brand:wikidata": "Q174747",
        "name": "Repsol"
      }
    },
    {
      "displayName": "Retitalia",
      "id": "retitalia-e8f712",
      "locationSet": {"include": ["it"]},
      "tags": {
        "amenity": "fuel",
        "brand": "Retitalia",
        "name": "Retitalia"
      }
    },
    {
      "displayName": "Revoil",
      "id": "revoil-c67f2c",
      "locationSet": {"include": ["gr"]},
      "tags": {
        "amenity": "fuel",
        "brand": "Revoil",
        "brand:wikidata": "Q62530755",
        "name": "Revoil"
      }
    },
    {
      "displayName": "Rhodes",
      "id": "rhodes-03973e",
      "locationSet": {
        "include": [
          "us-il.geojson",
          "us-mo.geojson"
        ]
      },
      "matchNames": ["rhodes 101"],
      "tags": {
        "amenity": "fuel",
        "brand": "Rhodes",
        "brand:wikidata": "Q114570150",
        "name": "Rhodes"
      }
    },
    {
      "displayName": "Rompetrol",
      "id": "rompetrol-cd5088",
      "locationSet": {
        "include": ["ge", "md", "ro"]
      },
      "tags": {
        "amenity": "fuel",
        "brand": "Rompetrol",
        "brand:wikidata": "Q1788862",
        "name": "Rompetrol"
      }
    },
    {
      "displayName": "Rotten Robbie",
      "id": "rottenrobbie-c5cf43",
      "locationSet": {"include": ["us"]},
      "tags": {
        "amenity": "fuel",
        "brand": "Rotten Robbie",
        "brand:wikidata": "Q87378070",
        "name": "Rotten Robbie"
      }
    },
    {
      "displayName": "Royal Farms",
      "id": "royalfarms-c5cf43",
      "locationSet": {"include": ["us"]},
      "tags": {
        "amenity": "fuel",
        "brand": "Royal Farms",
        "brand:wikidata": "Q7374169",
        "name": "Royal Farms"
      }
    },
    {
      "displayName": "Rubis",
      "id": "rubis-16b3c2",
      "locationSet": {
        "include": ["001"],
        "exclude": ["pl"]
      },
      "tags": {
        "amenity": "fuel",
        "brand": "Rubis",
        "brand:wikidata": "Q3446514",
        "name": "Rubis"
      }
    },
    {
      "displayName": "Ruedi Rüssel",
      "id": "ruedirussel-27a80f",
      "locationSet": {"include": ["ch"]},
      "tags": {
        "amenity": "fuel",
        "brand": "Ruedi Rüssel",
        "brand:wikidata": "Q111725154",
        "name": "Ruedi Rüssel"
      }
    },
    {
      "displayName": "Rutter's",
      "id": "rutters-c5cf43",
      "locationSet": {"include": ["us"]},
      "tags": {
        "amenity": "fuel",
        "brand": "Rutter's",
        "brand:wikidata": "Q7383544",
        "name": "Rutter's"
      }
    },
    {
      "displayName": "S-Oil",
      "id": "soil-ae677b",
      "locationSet": {"include": ["kr"]},
      "tags": {
        "amenity": "fuel",
        "brand": "S-Oil",
        "brand:wikidata": "Q185564",
        "name": "S-Oil"
      }
    },
    {
      "displayName": "Safeway Fuel Station",
      "id": "safewayfuelstation-16b3c2",
      "locationSet": {
        "include": ["001"],
        "exclude": ["pl"]
      },
      "tags": {
        "amenity": "fuel",
        "brand": "Safeway",
        "brand:wikidata": "Q1508234",
        "name": "Safeway Fuel Station"
      }
    },
    {
      "displayName": "Sainsbury's",
      "id": "sainsburys-20aed2",
      "locationSet": {"include": ["gb"]},
      "matchNames": [
        "sainsbury's filling stations"
      ],
      "tags": {
        "amenity": "fuel",
        "brand": "Sainsbury's",
        "brand:wikidata": "Q152096",
        "name": "Sainsbury's"
      }
    },
    {
      "displayName": "Sam's Club",
      "id": "samsclub-16b3c2",
      "locationSet": {
        "include": ["001"],
        "exclude": ["pl"]
      },
      "matchNames": [
        "sams club fuel center",
        "sams club gas"
      ],
      "tags": {
        "amenity": "fuel",
        "brand": "Sam's Club",
        "brand:wikidata": "Q1972120",
        "name": "Sam's Club"
      }
    },
    {
      "displayName": "San Marco Petroli",
      "id": "sanmarcopetroli-e8f712",
      "locationSet": {"include": ["it"]},
      "tags": {
        "amenity": "fuel",
        "brand": "San Marco Petroli",
        "name": "San Marco Petroli"
      }
    },
    {
      "displayName": "Sasol",
      "id": "sasol-0ba9a1",
      "locationSet": {"include": ["za"]},
      "tags": {
        "amenity": "fuel",
        "brand": "Sasol",
        "brand:wikidata": "Q905998",
        "name": "Sasol"
      }
    },
    {
      "displayName": "SB Tank",
      "id": "sbtank-495186",
      "locationSet": {"include": ["de"]},
      "tags": {
        "amenity": "fuel",
        "brand": "SB Tank",
        "brand:wikidata": "Q96758296",
        "name": "SB Tank"
      }
    },
    {
      "displayName": "Seaoil",
      "id": "seaoil-289efc",
      "locationSet": {"include": ["ph"]},
      "tags": {
        "amenity": "fuel",
        "brand": "SEAOIL",
        "brand:wikidata": "Q7389549",
        "name": "Seaoil"
      }
    },
    {
      "displayName": "Shamrock",
      "id": "shamrock-c5cf43",
      "locationSet": {"include": ["us"]},
      "tags": {
        "amenity": "fuel",
        "brand": "Shamrock",
        "name": "Shamrock"
      }
    },
    {
      "displayName": "Sheetz",
      "id": "sheetz-7c9a51",
      "locationSet": {
        "include": [
          "us-md.geojson",
          "us-nc.geojson",
          "us-oh.geojson",
          "us-pa.geojson",
          "us-va.geojson",
          "us-wv.geojson"
        ]
      },
      "tags": {
        "amenity": "fuel",
        "brand": "Sheetz",
        "brand:wikidata": "Q7492551",
        "name": "Sheetz"
      }
    },
    {
      "displayName": "Shell",
      "id": "shell-4a6616",
      "locationSet": {
        "include": ["001"],
        "exclude": ["au", "jp"]
      },
      "matchNames": [
        "posto shell",
        "shell gas station",
        "shell petrol station",
        "shell service station",
        "shell station",
        "station shell"
      ],
      "tags": {
        "amenity": "fuel",
        "brand": "Shell",
        "brand:wikidata": "Q110716465",
        "name": "Shell"
      }
    },
    {
      "displayName": "Shell Express",
      "id": "shellexpress-4a6616",
      "locationSet": {
        "include": ["001"],
        "exclude": ["au", "jp"]
      },
      "note": "The Express-branded stations are unmanned",
      "tags": {
        "amenity": "fuel",
        "brand": "Shell Express",
        "brand:wikidata": "Q2289188",
        "name": "Shell Express"
      }
    },
    {
      "displayName": "Shiptech",
      "id": "shiptech-ddc474",
      "locationSet": {
        "include": ["cd", "mw", "za", "zm", "zw"]
      },
      "tags": {
        "amenity": "fuel",
        "brand": "Shiptech",
        "brand:wikidata": "Q116894475",
        "name": "Shiptech"
      }
    },
    {
      "displayName": "SILKOIL",
      "id": "silkoil-c67f2c",
      "locationSet": {"include": ["gr"]},
      "tags": {
        "amenity": "fuel",
        "brand": "SILKOIL",
        "name": "SILKOIL"
      }
    },
    {
      "displayName": "Sinclair",
      "id": "sinclair-c5cf43",
      "locationSet": {"include": ["us"]},
      "matchNames": ["sinclair oil"],
      "tags": {
        "amenity": "fuel",
        "brand": "Sinclair",
        "brand:wikidata": "Q1290900",
        "name": "Sinclair"
      }
    },
    {
      "displayName": "Sinooil",
      "id": "sinooil-6daebb",
      "locationSet": {"include": ["kz"]},
      "tags": {
        "amenity": "fuel",
        "brand": "Sinooil",
        "brand:wikidata": "Q503182",
        "name": "Sinooil"
      }
    },
    {
      "displayName": "SK주유소",
      "id": "skgas-ae677b",
      "locationSet": {"include": ["kr"]},
      "matchNames": ["sk", "sk 가스"],
      "tags": {
        "amenity": "fuel",
        "brand": "SK주유소",
        "brand:en": "SK gas",
        "brand:ko": "SK주유소",
        "brand:wikidata": "Q121294897",
        "name": "SK주유소",
        "name:en": "SK gas",
        "name:ko": "SK주유소"
      }
    },
    {
      "displayName": "Slovnaft",
      "id": "slovnaft-d7c78f",
      "locationSet": {
        "include": ["cz", "pl", "sk"]
      },
      "tags": {
        "amenity": "fuel",
        "brand": "Slovnaft",
        "brand:wikidata": "Q1587563",
        "name": "Slovnaft"
      }
    },
    {
      "displayName": "Smartfuels",
      "id": "smartfuels-289efc",
      "locationSet": {"include": ["ph"]},
      "tags": {
        "amenity": "fuel",
        "brand": "Smartfuels",
        "brand:wikidata": "Q120281795",
        "name": "Smartfuels"
      }
    },
    {
      "displayName": "SNG",
      "id": "sng-b450da",
      "locationSet": {"include": ["bg"]},
      "tags": {
        "amenity": "fuel",
        "brand": "SNG",
        "brand:wikidata": "Q113679324",
        "name": "SNG",
        "name:bg": "Синергон Петролеум"
      }
    },
    {
      "displayName": "Socar",
      "id": "socar-619b60",
      "locationSet": {
        "include": [
          "at",
          "az",
          "ch",
          "li",
          "ro",
          "tr",
          "ua"
        ]
      },
      "tags": {
        "amenity": "fuel",
        "brand": "Socar",
        "brand:wikidata": "Q1622293",
        "name": "Socar"
      }
    },
    {
      "displayName": "Sokimex",
      "id": "sokimex-dc29c2",
      "locationSet": {"include": ["kh"]},
      "tags": {
        "amenity": "fuel",
        "brand": "Sokimex",
        "brand:wikidata": "Q1149575",
        "name": "Sokimex"
      }
    },
    {
      "displayName": "Sol",
      "id": "sol-6e9b5c",
      "locationSet": {
        "include": ["029", "gf", "gy", "sr"]
      },
      "tags": {
        "amenity": "fuel",
        "brand": "Sol",
        "brand:wikidata": "Q99939344",
        "name": "Sol"
      }
    },
    {
      "displayName": "SOLATO",
      "id": "solato-cfbbeb",
      "locationSet": {"include": ["ja"]},
      "tags": {
        "amenity": "fuel",
        "brand": "SOLATO",
        "brand:wikidata": "Q11444708",
        "name": "SOLATO"
      }
    },
    {
      "displayName": "Sonangol",
      "id": "sonangol-a1d251",
      "locationSet": {"include": ["ao"]},
      "tags": {
        "amenity": "fuel",
        "brand": "Sonangol",
        "brand:wikidata": "Q677832",
        "name": "Sonangol"
      }
    },
    {
      "displayName": "Sonic",
      "id": "sonic-04874d",
      "locationSet": {"include": ["ca"]},
      "tags": {
        "amenity": "fuel",
        "brand": "Sonic",
        "brand:wikidata": "Q118669677",
        "name": "Sonic"
      }
    },
    {
      "displayName": "SP",
      "id": "sp-16b3c2",
      "locationSet": {
        "include": ["001"],
        "exclude": ["pl"]
      },
      "tags": {
        "amenity": "fuel",
        "brand": "SP",
        "name": "SP"
      }
    },
    {
      "displayName": "SPBU Pertamina",
      "id": "spbupertamina-d2ad30",
      "locationSet": {"include": ["id"]},
      "tags": {
        "amenity": "fuel",
        "brand": "SPBU Pertamina",
        "name": "SPBU Pertamina"
      }
    },
    {
      "displayName": "Speedway",
      "id": "speedway-c5cf43",
      "locationSet": {"include": ["us"]},
      "tags": {
        "amenity": "fuel",
        "brand": "Speedway",
        "brand:wikidata": "Q7575683",
        "name": "Speedway"
      }
    },
    {
      "displayName": "Spinx",
      "id": "spinx-c5cf43",
      "locationSet": {"include": ["us"]},
      "tags": {
        "amenity": "fuel",
        "brand": "Spinx",
        "name": "Spinx"
      }
    },
    {
      "displayName": "Sprint",
      "id": "sprint-495186",
      "locationSet": {"include": ["de"]},
      "tags": {
        "amenity": "fuel",
        "brand": "Sprint",
        "brand:wikidata": "Q57588452",
        "name": "Sprint"
      }
    },
    {
      "displayName": "St1",
      "id": "st1-cf1d83",
      "locationSet": {"include": ["fi", "se"]},
      "tags": {
        "amenity": "fuel",
        "brand": "St1",
        "brand:wikidata": "Q7592214",
        "name": "St1"
      }
    },
    {
      "displayName": "star",
      "id": "star-495186",
      "locationSet": {"include": ["de"]},
      "tags": {
        "amenity": "fuel",
        "brand": "star",
        "brand:wikidata": "Q109930371",
        "name": "star"
      }
    },
    {
      "displayName": "Star Oil",
      "id": "staroil-16b3c2",
      "locationSet": {
        "include": ["001"],
        "exclude": ["pl"]
      },
      "tags": {
        "amenity": "fuel",
        "brand": "Star Oil",
        "name": "Star Oil"
      }
    },
    {
      "displayName": "Station Service E.Leclerc",
      "id": "stationserviceeleclerc-16b3c2",
      "locationSet": {
        "include": ["001"],
        "exclude": ["pl"]
      },
      "matchNames": [
        "leclerc",
        "station-service"
      ],
      "tags": {
        "amenity": "fuel",
        "brand": "E.Leclerc",
        "brand:wikidata": "Q1273376",
        "name": "Station Service E.Leclerc"
      }
    },
    {
      "displayName": "Station U",
      "id": "stationu-3772a0",
      "locationSet": {"include": ["fr"]},
      "tags": {
        "amenity": "fuel",
        "brand": "Station U",
        "name": "Station U"
      }
    },
    {
      "displayName": "Statoil",
      "id": "statoil-442e61",
      "locationSet": {
        "include": [
          "dk",
          "ee",
          "ie",
          "pl",
          "ru",
          "se"
        ]
      },
      "tags": {
        "amenity": "fuel",
        "brand": "Statoil",
        "brand:wikidata": "Q1776022",
        "name": "Statoil"
      }
    },
    {
      "displayName": "Stewart's",
      "id": "stewarts-c5cf43",
      "locationSet": {"include": ["us"]},
      "tags": {
        "amenity": "fuel",
        "brand": "Stewart's",
        "brand:wikidata": "Q7615690",
        "name": "Stewart's"
      }
    },
    {
      "displayName": "Sunoco",
      "id": "sunoco-16b3c2",
      "locationSet": {
        "include": ["001"],
        "exclude": ["pl"]
      },
      "tags": {
        "amenity": "fuel",
        "brand": "Sunoco",
        "brand:wikidata": "Q1423218",
        "name": "Sunoco"
      }
    },
    {
      "displayName": "Sunpet",
      "id": "sunpet-ec7588",
      "locationSet": {"include": ["tr"]},
      "tags": {
        "amenity": "fuel",
        "brand": "Sunpet",
        "brand:wikidata": "Q113579553",
        "name": "Sunpet"
      }
    },
    {
      "displayName": "Super U",
      "id": "superu-3772a0",
      "locationSet": {"include": ["fr"]},
      "tags": {
        "amenity": "fuel",
        "brand": "Super U",
        "brand:wikidata": "Q2529029",
        "name": "Super U"
      }
    },
    {
      "displayName": "Susco",
      "id": "susco-56d9b3",
      "locationSet": {"include": ["th"]},
      "tags": {
        "amenity": "fuel",
        "brand": "Susco",
        "name": "Susco"
      }
    },
    {
      "displayName": "Système U",
      "id": "systemeu-3772a0",
      "locationSet": {"include": ["fr"]},
      "tags": {
        "amenity": "fuel",
        "brand": "Système U",
        "brand:wikidata": "Q2529029",
        "name": "Système U"
      }
    },
    {
      "displayName": "TA",
      "id": "ta-c5cf43",
      "locationSet": {"include": ["us"]},
      "tags": {
        "amenity": "fuel",
        "brand": "TA",
        "brand:wikidata": "Q7835892",
        "name": "TA",
        "official_name": "TravelCenters of America"
      }
    },
    {
      "displayName": "TAM Autohof",
      "id": "tamautohof-5f489f",
      "locationSet": {"include": ["cz", "sk"]},
      "tags": {
        "amenity": "fuel",
        "brand": "TAM Autohof",
        "brand:wikidata": "Q96138528",
        "name": "TAM Autohof"
      }
    },
    {
      "displayName": "Tamoil",
      "id": "tamoil-c25a01",
      "locationSet": {
        "include": [
          "ch",
          "de",
          "es",
          "fr",
          "it",
          "nl"
        ]
      },
      "matchNames": ["tamoil italia spa."],
      "tags": {
        "amenity": "fuel",
        "brand": "Tamoil",
        "brand:wikidata": "Q706793",
        "name": "Tamoil"
      }
    },
    {
      "displayName": "Tango",
      "id": "tango-e5aa28",
      "locationSet": {"include": ["be", "nl"]},
      "tags": {
        "amenity": "fuel",
        "brand": "Tango",
        "brand:wikidata": "Q2423920",
        "name": "Tango"
      }
    },
    {
      "displayName": "Tanka",
      "id": "tanka-a1affa",
      "locationSet": {"include": ["se"]},
      "tags": {
        "amenity": "fuel",
        "brand": "Tanka",
        "brand:wikidata": "Q10690640",
        "name": "Tanka"
      }
    },
    {
      "displayName": "tankpool24",
      "id": "tankpool24-0c8e6e",
      "locationSet": {"include": ["150"]},
      "tags": {
        "amenity": "fuel",
        "brand": "tankpool24",
        "name": "tankpool24"
      }
    },
    {
      "displayName": "Teboil",
      "id": "teboil-1c8a41",
      "locationSet": {"include": ["fi"]},
      "tags": {
        "amenity": "fuel",
        "brand": "Teboil",
        "brand:wikidata": "Q7692079",
        "name": "Teboil"
      }
    },
    {
      "displayName": "Tela",
      "id": "tela-dc29c2",
      "locationSet": {"include": ["kh"]},
      "tags": {
        "amenity": "fuel",
        "brand": "Tela",
        "brand:wikidata": "Q62534875",
        "name": "Tela"
      }
    },
    {
      "displayName": "Tempo",
      "id": "tempo-04874d",
      "locationSet": {"include": ["ca"]},
      "tags": {
        "amenity": "fuel",
        "brand": "Tempo",
        "brand:wikidata": "Q62535175",
        "name": "Tempo"
      }
    },
    {
      "displayName": "termo",
      "id": "termo-ec7588",
      "locationSet": {"include": ["tr"]},
      "tags": {
        "amenity": "fuel",
        "brand": "termo",
        "brand:wikidata": "Q113565581",
        "name": "termo"
      }
    },
    {
      "displayName": "Terpel",
      "id": "terpel-23f925",
      "locationSet": {
        "include": [
          "cl",
          "co",
          "do",
          "ec",
          "mx",
          "pa"
        ]
      },
      "tags": {
        "amenity": "fuel",
        "brand": "Terpel",
        "brand:wikidata": "Q7703003",
        "name": "Terpel"
      }
    },
    {
      "displayName": "Terrible's",
      "id": "terribles-c5cf43",
      "locationSet": {"include": ["us"]},
      "tags": {
        "amenity": "fuel",
        "brand": "Terrible's",
        "brand:wikidata": "Q7703648",
        "name": "Terrible's"
      }
    },
    {
      "displayName": "Tesco",
      "id": "tesco-b3d110",
      "locationSet": {"include": ["001"]},
      "matchNames": [
        "tesco esso express",
        "tesco petrol station"
      ],
      "tags": {
        "amenity": "fuel",
        "brand": "Tesco",
        "brand:wikidata": "Q487494",
        "name": "Tesco"
      }
    },
    {
      "displayName": "Tesoro",
      "id": "tesoro-c5cf43",
      "locationSet": {"include": ["us"]},
      "tags": {
        "amenity": "fuel",
        "brand": "Tesoro",
        "brand:wikidata": "Q2037080",
        "name": "Tesoro"
      }
    },
    {
      "displayName": "Texaco",
      "id": "texaco-b3d110",
      "locationSet": {"include": ["001"]},
      "matchNames": [
        "texaco service station",
        "texaco with techron"
      ],
      "tags": {
        "amenity": "fuel",
        "brand": "Texaco",
        "brand:wikidata": "Q775060",
        "name": "Texaco"
      }
    },
    {
      "displayName": "Thorntons",
      "id": "thorntons-c5cf43",
      "locationSet": {"include": ["us"]},
      "tags": {
        "amenity": "fuel",
        "brand": "Thorntons",
        "brand:wikidata": "Q7796584",
        "name": "Thorntons"
      }
    },
    {
      "displayName": "Tinq",
      "id": "tinq-56839d",
      "locationSet": {"include": ["de", "nl"]},
      "tags": {
        "amenity": "fuel",
        "brand": "Tinq",
        "brand:wikidata": "Q2132028",
        "name": "Tinq"
      }
    },
    {
      "displayName": "Tirex Petrol",
      "id": "tirexpetrol-66cb39",
      "locationSet": {"include": ["md"]},
      "tags": {
        "amenity": "fuel",
        "brand": "Tirex Petrol",
        "brand:wikidata": "Q20432218",
        "name": "Tirex Petrol"
      }
    },
    {
      "displayName": "Tom Thumb",
      "id": "tomthumb-bc7b86",
      "locationSet": {
        "include": ["us-tx.geojson"]
      },
      "tags": {
        "amenity": "fuel",
        "brand": "Tom Thumb",
        "brand:wikidata": "Q7817826",
        "name": "Tom Thumb"
      }
    },
    {
      "displayName": "Top",
      "id": "top-5afa7a",
      "locationSet": {"include": ["ie"]},
      "matchNames": ["top oil"],
      "tags": {
        "amenity": "fuel",
        "brand": "Top",
        "brand:wikidata": "Q7693933",
        "name": "Top",
        "official_name": "Tedcastles Oil Products"
      }
    },
    {
      "displayName": "Topaz",
      "id": "topaz-b3d110",
      "locationSet": {"include": ["001"]},
      "tags": {
        "amenity": "fuel",
        "brand": "Topaz",
        "name": "Topaz"
      }
    },
    {
      "displayName": "Total",
      "id": "total-b3d110",
      "locationSet": {"include": ["001"]},
      "matchNames": ["station total"],
      "tags": {
        "amenity": "fuel",
        "brand": "Total",
        "brand:wikidata": "Q154037",
        "name": "Total"
      }
    },
    {
      "displayName": "Total Access",
      "id": "totalaccess-3772a0",
      "locationSet": {"include": ["fr"]},
      "matchNames": ["totalenergies access"],
      "tags": {
        "amenity": "fuel",
        "brand": "Total Access",
        "brand:wikidata": "Q154037",
        "name": "Total Access"
      }
    },
    {
      "displayName": "Total Contact",
      "id": "totalcontact-acec89",
      "locationSet": {"include": ["fx"]},
      "tags": {
        "amenity": "fuel",
        "brand": "Total Contact",
        "name": "Total Contact"
      }
    },
    {
      "displayName": "Total طوطال",
      "id": "total-389b37",
      "locationSet": {
        "include": ["dj", "er", "ma"]
      },
      "tags": {
        "amenity": "fuel",
        "brand": "طوطال",
        "brand:ar": "طوطال",
        "brand:en": "Total",
        "brand:wikidata": "Q154037",
        "name": "Total طوطال"
      }
    },
    {
      "displayName": "TotalEnergies",
      "id": "totalenergies-495186",
      "locationSet": {"include": ["de"]},
      "tags": {
        "amenity": "fuel",
        "brand": "TotalEnergies",
        "brand:wikidata": "Q154037",
        "name": "TotalEnergies"
      }
    },
    {
      "displayName": "TotalErg",
      "id": "totalerg-e8f712",
      "locationSet": {"include": ["it"]},
      "tags": {
        "amenity": "fuel",
        "brand": "TotalErg",
        "brand:wikidata": "Q3995933",
        "name": "TotalErg"
      }
    },
    {
      "displayName": "Trạm xăng",
      "id": "tramxang-c46b94",
      "locationSet": {"include": ["vn"]},
      "tags": {
        "amenity": "fuel",
        "brand": "Trạm xăng",
        "name": "Trạm xăng"
      }
    },
    {
      "displayName": "True Zero",
      "id": "truezero-c5cf43",
      "locationSet": {"include": ["us"]},
      "tags": {
        "amenity": "fuel",
        "brand": "True Zero",
        "brand:wikidata": "Q106320436",
        "fuel:h70": "yes",
        "name": "True Zero"
      }
    },
    {
      "displayName": "Turkey Hill",
      "id": "turkeyhill-c5cf43",
      "locationSet": {"include": ["us"]},
      "tags": {
        "amenity": "fuel",
        "brand": "Turkey Hill",
        "brand:wikidata": "Q42376970",
        "name": "Turkey Hill"
      }
    },
    {
      "displayName": "Türkiye Petrolleri",
      "id": "turkiyepetrolleri-ec7588",
      "locationSet": {"include": ["tr"]},
      "matchNames": ["tp", "tppd"],
      "tags": {
        "amenity": "fuel",
        "brand": "Türkiye Petrolleri",
        "brand:wikidata": "Q15946806",
        "name": "Türkiye Petrolleri"
      }
    },
    {
      "displayName": "Turmöl",
      "id": "turmol-565075",
      "locationSet": {"include": ["at"]},
      "tags": {
        "amenity": "fuel",
        "brand": "Turmöl",
        "brand:wikidata": "Q1473279",
        "name": "Turmöl"
      }
    },
    {
      "displayName": "U",
      "id": "u-16b3c2",
      "locationSet": {
        "include": ["001"],
        "exclude": ["pl"]
      },
      "tags": {
        "amenity": "fuel",
        "brand": "U",
        "name": "U"
      }
    },
    {
      "displayName": "U.GO",
      "id": "ugo-ed4144",
      "locationSet": {"include": ["ua"]},
      "matchNames": ["glusco"],
      "tags": {
        "amenity": "fuel",
        "brand": "U.GO",
        "brand:wikidata": "Q116925255",
        "name": "U.GO"
      }
    },
    {
      "displayName": "UDF Fuel",
      "id": "udffuel-c5cf43",
      "locationSet": {"include": ["us"]},
      "matchNames": ["udf fuels"],
      "tags": {
        "amenity": "fuel",
        "brand": "United Dairy Farmers",
        "brand:wikidata": "Q7887677",
        "name": "UDF Fuel",
        "short_name": "UDF"
      }
    },
    {
      "displayName": "UFA",
      "id": "ufa-22e5cc",
      "locationSet": {
        "include": ["ca-ab.geojson"]
      },
      "matchNames": ["united farmers of alberta"],
      "tags": {
        "amenity": "fuel",
        "brand": "UFA",
        "brand:wikidata": "Q1809831",
        "name": "UFA"
      }
    },
    {
      "displayName": "Ukrnafta",
      "id": "ukrnafta-ed4144",
      "locationSet": {"include": ["ua"]},
      "tags": {
        "amenity": "fuel",
        "brand": "Укрнафта",
        "brand:en": "Ukrnafta",
        "brand:uk": "Укрнафта",
        "brand:wikidata": "Q2447961",
        "name": "Укрнафта",
        "name:en": "Ukrnafta",
        "name:uk": "Укрнафта"
      }
    },
    {
      "displayName": "Ultramar",
      "id": "ultramar-16b3c2",
      "locationSet": {
        "include": ["001"],
        "exclude": ["pl"]
      },
      "tags": {
        "amenity": "fuel",
        "brand": "Ultramar",
        "brand:wikidata": "Q3548078",
        "name": "Ultramar"
      }
    },
    {
      "displayName": "Unioil",
      "id": "unioil-b3d110",
      "locationSet": {"include": ["001"]},
      "tags": {
        "amenity": "fuel",
        "brand": "Unioil",
        "name": "Unioil"
      }
    },
    {
      "displayName": "United",
      "id": "united-9ed9c0",
      "locationSet": {"include": ["au"]},
      "matchNames": [
        "united (aus)",
        "united petroleum"
      ],
      "tags": {
        "amenity": "fuel",
        "brand": "United",
        "brand:wikidata": "Q28224393",
        "name": "United"
      }
    },
    {
      "displayName": "Uno",
      "id": "uno-24faf9",
      "locationSet": {
        "include": [
          "bz",
          "cr",
          "gt",
          "hn",
          "ni",
          "sv"
        ]
      },
      "tags": {
        "amenity": "fuel",
        "brand": "Uno",
        "brand:wikidata": "Q62535574",
        "name": "Uno"
      }
    },
    {
      "displayName": "Uno-X",
      "id": "unox-0b8509",
      "locationSet": {"include": ["dk"]},
      "tags": {
        "amenity": "fuel",
        "brand": "Uno-X",
        "brand:wikidata": "Q3362746",
        "name": "Uno-X"
      }
    },
    {
      "displayName": "UPG",
      "id": "upg-ed4144",
      "locationSet": {"include": ["ua"]},
      "tags": {
        "amenity": "fuel",
        "brand": "UPG",
        "brand:wikidata": "Q117706281",
        "name": "UPG"
      }
    },
    {
      "displayName": "USA Gasoline",
      "id": "usagasoline-c5cf43",
      "locationSet": {"include": ["us"]},
      "tags": {
        "amenity": "fuel",
        "brand": "USA Gasoline",
        "brand:wikidata": "Q17126373",
        "name": "USA Gasoline"
      }
    },
    {
      "displayName": "uSmile",
      "id": "usmile-6d1a35",
      "locationSet": {"include": ["hk", "mo"]},
      "tags": {
        "amenity": "fuel",
        "brand": "uSmile",
        "brand:en": "uSmile",
        "brand:wikidata": "Q66480830",
        "brand:zh": "uSmile",
        "name": "uSmile",
        "name:en": "uSmile"
      }
    },
    {
      "displayName": "uSmile 昆仑好客",
      "id": "usmile-e451ce",
      "locationSet": {
        "include": ["cn"],
        "exclude": ["hk", "mo"]
      },
      "matchNames": ["usmile 便利店", "昆仑好"],
      "tags": {
        "amenity": "fuel",
        "brand": "uSmile 昆仑好客",
        "brand:en": "uSmile",
        "brand:wikidata": "Q66480830",
        "brand:zh": "昆仑好客",
        "name": "uSmile 昆仑好",
        "name:en": "uSmile",
        "name:zh": "昆仑好客"
      }
    },
    {
      "displayName": "Valero",
      "id": "valero-16b3c2",
      "locationSet": {
        "include": ["001"],
        "exclude": ["pl"]
      },
      "tags": {
        "amenity": "fuel",
        "brand": "Valero",
        "brand:wikidata": "Q1283291",
        "name": "Valero"
      }
    },
    {
      "displayName": "Vega",
      "id": "vega-e8f712",
      "locationSet": {"include": ["it"]},
      "tags": {
        "amenity": "fuel",
        "brand": "Vega",
        "name": "Vega"
      }
    },
    {
      "displayName": "Viada",
      "id": "viada-86cad0",
      "locationSet": {"include": ["lt", "lv"]},
      "tags": {
        "amenity": "fuel",
        "brand": "Viada",
        "brand:wikidata": "Q12663942",
        "name": "Viada"
      }
    },
    {
      "displayName": "Vito",
      "id": "vito-3772a0",
      "locationSet": {"include": ["fr"]},
      "tags": {
        "amenity": "fuel",
        "brand": "Vito",
        "brand:wikidata": "Q62536473",
        "name": "Vito"
      }
    },
    {
      "displayName": "VM Petroleum",
      "id": "vmpetroleum-b450da",
      "locationSet": {"include": ["bg"]},
      "tags": {
        "amenity": "fuel",
        "brand": "VM Petroleum",
        "brand:wikidata": "Q111763294",
        "name": "VM Petroleum"
      }
    },
    {
      "displayName": "Waitomo",
      "id": "waitomo-088dbb",
      "locationSet": {"include": ["nz"]},
      "tags": {
        "amenity": "fuel",
        "brand": "Waitomo",
        "brand:wikidata": "Q112569504",
        "name": "Waitomo"
      }
    },
    {
      "displayName": "Walmart",
      "id": "walmart-16b3c2",
      "locationSet": {
        "include": ["001"],
        "exclude": ["pl"]
      },
      "tags": {
        "amenity": "fuel",
        "brand": "Walmart",
        "brand:wikidata": "Q62606411",
        "name": "Walmart"
      }
    },
    {
      "displayName": "Wawa",
      "id": "wawa-f5bad4",
      "locationSet": {
        "include": [
          "us-dc.geojson",
          "us-de.geojson",
          "us-fl.geojson",
          "us-md.geojson",
          "us-nj.geojson",
          "us-pa.geojson",
          "us-va.geojson"
        ]
      },
      "tags": {
        "amenity": "fuel",
        "brand": "Wawa",
        "brand:wikidata": "Q5936320",
        "name": "Wawa"
      }
    },
    {
      "displayName": "Weis Gas N' Go",
      "id": "weisgasngo-c5cf43",
      "locationSet": {"include": ["us"]},
      "tags": {
        "amenity": "fuel",
        "brand": "Weis",
        "brand:wikidata": "Q7980370",
        "name": "Weis Gas N' Go"
      }
    },
    {
      "displayName": "Wesco",
      "id": "wesco-c5cf43",
      "locationSet": {"include": ["us"]},
      "tags": {
        "amenity": "fuel",
        "brand": "Wesco",
        "brand:wikidata": "Q7949045",
        "name": "Wesco"
      }
    },
    {
      "displayName": "Westfalen",
      "id": "westfalen-495186",
      "locationSet": {"include": ["de"]},
      "tags": {
        "amenity": "fuel",
        "brand": "Westfalen",
        "brand:wikidata": "Q1411209",
        "name": "Westfalen"
      }
    },
    {
      "displayName": "Winxo",
      "id": "winxo-144a57",
      "locationSet": {"include": ["ma"]},
      "tags": {
        "amenity": "fuel",
        "brand": "Winxo",
        "brand:wikidata": "Q88389320",
        "name": "Winxo"
      }
    },
    {
      "displayName": "WOG",
      "id": "wog-ed4144",
      "locationSet": {"include": ["ua"]},
      "matchNames": ["вог"],
      "tags": {
        "amenity": "fuel",
        "brand": "WOG",
        "brand:wikidata": "Q12072939",
        "name": "WOG"
      }
    },
    {
      "displayName": "XTR",
      "id": "xtr-04874d",
      "locationSet": {"include": ["ca"]},
      "tags": {
        "amenity": "fuel",
        "brand": "XTR",
        "brand:wikidata": "Q62537250",
        "name": "XTR"
      }
    },
    {
      "displayName": "Xtra Fuels",
      "id": "xtrafuels-c2b77c",
      "locationSet": {
        "include": [
          "us-ct.geojson",
          "us-ma.geojson",
          "us-me.geojson",
          "us-nh.geojson",
          "us-nj.geojson",
          "us-ny.geojson",
          "us-pa.geojson",
          "us-ri.geojson",
          "us-vt.geojson"
        ]
      },
      "matchNames": ["xtramart"],
      "tags": {
        "amenity": "fuel",
        "brand": "Xtra Fuels",
        "brand:wikidata": "Q121160101",
        "name": "Xtra Fuels"
      }
    },
    {
      "displayName": "YPF",
      "id": "ypf-dca697",
      "locationSet": {"include": ["ar"]},
      "tags": {
        "amenity": "fuel",
        "brand": "YPF",
        "brand:wikidata": "Q2006989",
        "name": "YPF"
      }
    },
    {
      "displayName": "YX",
      "id": "yx-b3d110",
      "locationSet": {"include": ["001"]},
      "tags": {
        "amenity": "fuel",
        "brand": "YX",
        "name": "YX"
      }
    },
    {
      "displayName": "YX 7-Eleven",
      "id": "yx7eleven-b3d110",
      "locationSet": {"include": ["001"]},
      "tags": {
        "amenity": "fuel",
        "brand": "YX 7-Eleven",
        "name": "YX 7-Eleven"
      }
    },
    {
      "displayName": "YX Energi",
      "id": "yxenergi-9449e0",
      "locationSet": {"include": ["dk", "no"]},
      "tags": {
        "amenity": "fuel",
        "brand": "YX Energi",
        "brand:wikidata": "Q4580519",
        "name": "YX Energi"
      }
    },
    {
      "displayName": "Z",
      "id": "z-088dbb",
      "locationSet": {"include": ["nz"]},
      "tags": {
        "amenity": "fuel",
        "brand": "Z",
        "brand:wikidata": "Q8063337",
        "name": "Z"
      }
    },
    {
      "displayName": "ZG Raiffeisen Energie",
      "id": "zgraiffeisenenergie-495186",
      "locationSet": {"include": ["de"]},
      "tags": {
        "amenity": "fuel",
        "brand": "ZG Raiffeisen",
        "brand:wikidata": "Q136135",
        "name": "ZG Raiffeisen Energie"
      }
    },
    {
      "displayName": "Ziz",
      "id": "ziz-144a57",
      "locationSet": {"include": ["ma"]},
      "tags": {
        "amenity": "fuel",
        "brand": "Ziz",
        "brand:wikidata": "Q88393228",
        "name": "Ziz"
      }
    },
    {
      "displayName": "ΑΠ",
      "id": "441ec5-c67f2c",
      "locationSet": {"include": ["gr"]},
      "tags": {
        "amenity": "fuel",
        "brand": "ΑΠ",
        "name": "ΑΠ"
      }
    },
    {
      "displayName": "ΑΡΓΩ",
      "id": "7c5f98-c67f2c",
      "locationSet": {"include": ["gr"]},
      "tags": {
        "amenity": "fuel",
        "brand": "ΑΡΓΩ",
        "name": "ΑΡΓΩ"
      }
    },
    {
      "displayName": "ΕΛΙΝΟΙΛ",
      "id": "a9320e-c67f2c",
      "locationSet": {"include": ["gr"]},
      "matchNames": ["ελίν"],
      "tags": {
        "amenity": "fuel",
        "brand": "ΕΛΙΝΟΙΛ",
        "brand:wikidata": "Q12876543",
        "name": "ΕΛΙΝΟΙΛ"
      }
    },
    {
      "displayName": "ΕΤΕΚΑ",
      "id": "1b5559-c67f2c",
      "locationSet": {"include": ["gr"]},
      "tags": {
        "amenity": "fuel",
        "brand": "ΕΤΕΚΑ",
        "brand:wikidata": "Q31283952",
        "name": "ΕΤΕΚΑ"
      }
    },
    {
      "displayName": "Авіас",
      "id": "86c26e-ed4144",
      "locationSet": {"include": ["ua"]},
      "matchNames": [
        "avias",
        "авиас плюс",
        "авіас плюс"
      ],
      "tags": {
        "amenity": "fuel",
        "brand": "Авіас",
        "brand:wikidata": "Q12122687",
        "name": "Авіас"
      }
    },
    {
      "displayName": "Башнефть",
      "id": "bashneft-14ecc6",
      "locationSet": {"include": ["ru"]},
      "tags": {
        "amenity": "fuel",
        "brand": "Башнефть",
        "brand:en": "Bashneft",
        "brand:wikidata": "Q809985",
        "name": "Башнефть",
        "name:en": "Bashneft"
      }
    },
    {
      "displayName": "Белоруснефть",
      "id": "ed92ce-3aaa6d",
      "locationSet": {"include": ["by"]},
      "tags": {
        "amenity": "fuel",
        "brand": "Белоруснефть",
        "brand:wikidata": "Q4082693",
        "name": "Белоруснефть"
      }
    },
    {
      "displayName": "Бенита",
      "id": "benita-b450da",
      "locationSet": {"include": ["bg"]},
      "tags": {
        "amenity": "fuel",
        "brand": "Бенита",
        "brand:wikidata": "Q111762601",
        "name": "Бенита",
        "name:bg": "Бенита",
        "name:en": "Benita"
      }
    },
    {
      "displayName": "БРСМ-Нафта",
      "id": "69e648-ed4144",
      "locationSet": {"include": ["ua"]},
      "tags": {
        "amenity": "fuel",
        "brand": "БРСМ-Нафта",
        "brand:wikidata": "Q56356523",
        "name": "БРСМ-Нафта"
      }
    },
    {
      "displayName": "Газпромнефть",
      "id": "0b910f-bb6729",
      "locationSet": {
        "include": ["by", "kg", "kz", "ru", "tj"]
      },
      "matchNames": ["газпром"],
      "tags": {
        "amenity": "fuel",
        "brand": "Газпромнефть",
        "brand:wikidata": "Q1461799",
        "name": "Газпромнефть"
      }
    },
    {
      "displayName": "Газпромнефть АЗС",
      "id": "57ff6a-b3d110",
      "locationSet": {"include": ["001"]},
      "tags": {
        "amenity": "fuel",
        "brand": "Газпромнефть АЗС",
        "name": "Газпромнефть АЗС"
      }
    },
    {
      "displayName": "Гелиос",
      "id": "helios-6daebb",
      "locationSet": {"include": ["kz"]},
      "tags": {
        "amenity": "fuel",
        "brand": "Гелиос",
        "brand:en": "Helios",
        "brand:wikidata": "Q62286471",
        "name": "Гелиос",
        "name:en": "Helios"
      }
    },
    {
      "displayName": "Движение",
      "id": "945016-14ecc6",
      "locationSet": {"include": ["ru"]},
      "tags": {
        "amenity": "fuel",
        "brand": "Движение",
        "name": "Движение"
      }
    },
    {
      "displayName": "ЕКА",
      "id": "d6c78f-14ecc6",
      "locationSet": {"include": ["ru"]},
      "tags": {
        "amenity": "fuel",
        "brand": "ЕКА",
        "brand:wikidata": "Q62543029",
        "name": "ЕКА"
      }
    },
    {
      "displayName": "Кнез Петрол",
      "id": "3f8528-a971aa",
      "locationSet": {"include": ["rs"]},
      "tags": {
        "amenity": "fuel",
        "brand": "Кнез Петрол",
        "brand:wikidata": "Q86849682",
        "name": "Кнез Петрол",
        "name:sr": "Кнез Петрол",
        "name:sr-Latn": "Knez Petrol"
      }
    },
    {
      "displayName": "КНП",
      "id": "6ee0a7-14ecc6",
      "locationSet": {"include": ["ru"]},
      "tags": {
        "amenity": "fuel",
        "brand": "КНП",
        "name": "КНП"
      }
    },
    {
      "displayName": "Круиз",
      "id": "1ee978-b450da",
      "locationSet": {"include": ["bg"]},
      "tags": {
        "amenity": "fuel",
        "brand": "Круиз",
        "brand:wikidata": "Q113433516",
        "name": "Круиз"
      }
    },
    {
      "displayName": "ҚазМұнайГаз",
      "id": "ef63bd-6daebb",
      "locationSet": {"include": ["kz"]},
      "tags": {
        "amenity": "fuel",
        "brand": "ҚазМұнайГаз",
        "brand:kk": "ҚазМұнайГаз",
        "brand:ru": "КазМунайГаз",
        "brand:wikidata": "Q1417227",
        "name": "ҚазМұнайГаз",
        "name:kk": "ҚазМұнайГаз",
        "name:ru": "КазМунайГаз"
      }
    },
    {
      "displayName": "Лукойл",
      "id": "lukoil-0962f2",
      "locationSet": {
        "include": ["by", "kz", "ru"]
      },
      "matchNames": ["лукоил"],
      "tags": {
        "amenity": "fuel",
        "brand": "Лукойл",
        "brand:en": "Lukoil",
        "brand:ru": "Лукойл",
        "brand:wikidata": "Q329347",
        "name": "Лукойл",
        "name:en": "Lukoil",
        "name:ru": "Лукойл"
      }
    },
    {
      "displayName": "Лукойл (България)",
      "id": "lukoil-b450da",
      "locationSet": {"include": ["bg"]},
      "matchNames": ["лукоил"],
      "tags": {
        "amenity": "fuel",
        "brand": "Лукойл",
        "brand:bg": "Лукойл",
        "brand:en": "Lukoil",
        "brand:wikidata": "Q329347",
        "name": "Лукойл",
        "name:bg": "Лукойл",
        "name:en": "Lukoil"
      }
    },
    {
      "displayName": "Макпетрол",
      "id": "c21137-fb1891",
      "locationSet": {"include": ["mk"]},
      "tags": {
        "amenity": "fuel",
        "brand": "Макпетрол",
        "brand:wikidata": "Q1886438",
        "name": "Макпетрол"
      }
    },
    {
      "displayName": "Маркет",
      "id": "818678-ed4144",
      "locationSet": {"include": ["ua"]},
      "tags": {
        "amenity": "fuel",
        "brand": "Маркет",
        "brand:wikidata": "Q117715880",
        "name": "Маркет"
      }
    },
    {
      "displayName": "Нефтьмагистраль",
      "id": "neftmagistral-14ecc6",
      "locationSet": {"include": ["ru"]},
      "tags": {
        "amenity": "fuel",
        "brand": "Нефтьмагистраль",
        "brand:en": "Neftmagistral",
        "brand:wikidata": "Q62544323",
        "name": "Нефтьмагистраль",
        "name:en": "Neftmagistral"
      }
    },
    {
      "displayName": "НИС Петрол",
      "id": "717c1c-a971aa",
      "locationSet": {"include": ["rs"]},
      "matchNames": ["nis", "nis petrol", "нис"],
      "tags": {
        "amenity": "fuel",
        "brand": "НИС Петрол",
        "brand:wikidata": "Q1279721",
        "name": "НИС Петрол",
        "name:sr": "НИС Петрол",
        "name:sr-Latn": "NIS Petrol"
      }
    },
    {
      "displayName": "НК Альянс",
      "id": "allianceoil-14ecc6",
      "locationSet": {"include": ["ru"]},
      "tags": {
        "amenity": "fuel",
        "brand": "НК Альянс",
        "brand:en": "Alliance Oil",
        "brand:ru": "НК Альянс",
        "brand:wikidata": "Q4063700",
        "name": "НК Альянс",
        "name:en": "Alliance Oil",
        "name:ru": "НК Альянс"
      }
    },
    {
      "displayName": "ННК",
      "id": "6afb99-14ecc6",
      "locationSet": {"include": ["ru"]},
      "matchNames": [
        "ненецкая нефтяная компания"
      ],
      "tags": {
        "amenity": "fuel",
        "brand": "ННК",
        "name": "ННК"
      }
    },
    {
      "displayName": "ОККО",
      "id": "okko-ed4144",
      "locationSet": {"include": ["ua"]},
      "matchNames": ["азс \"окко\""],
      "tags": {
        "amenity": "fuel",
        "brand": "ОККО",
        "brand:en": "OKKO",
        "brand:wikidata": "Q7072617",
        "name": "ОККО",
        "name:en": "OKKO"
      }
    },
    {
      "displayName": "ОКТА",
      "id": "okta-fb1891",
      "locationSet": {"include": ["mk"]},
      "matchNames": [
        "eko",
        "q903198",
        "εκο",
        "еко"
      ],
      "tags": {
        "amenity": "fuel",
        "brand": "ОКТА",
        "brand:wikidata": "Q3350105",
        "name": "ОКТА",
        "name:en": "OKTA",
        "name:mk": "ОКТА"
      }
    },
    {
      "displayName": "ОМВ",
      "id": "637ba4-b450da",
      "locationSet": {"include": ["bg"]},
      "tags": {
        "amenity": "fuel",
        "brand": "ОМВ",
        "brand:wikidata": "Q168238",
        "name": "ОМВ"
      }
    },
    {
      "displayName": "Опти",
      "id": "6155f5-14ecc6",
      "locationSet": {"include": ["ru"]},
      "tags": {
        "amenity": "fuel",
        "brand": "Опти",
        "name": "Опти"
      }
    },
    {
      "displayName": "Петрол",
      "id": "petrol-b450da",
      "locationSet": {"include": ["bg"]},
      "note": "https://github.com/osmlab/name-suggestion-index/issues/6552",
      "tags": {
        "amenity": "fuel",
        "brand": "Петрол",
        "brand:en": "Petrol",
        "brand:wikidata": "Q24315",
        "name": "Петрол",
        "name:en": "Petrol"
      }
    },
    {
      "displayName": "ПТК",
      "id": "thepetersburgfuelcompany-14ecc6",
      "locationSet": {"include": ["ru"]},
      "tags": {
        "amenity": "fuel",
        "brand": "ПТК",
        "brand:en": "The Petersburg Fuel Company",
        "brand:ru": "ПТК",
        "brand:wikidata": "Q4360193",
        "name": "ПТК",
        "name:en": "The Petersburg Fuel Company",
        "name:ru": "ПТК"
      }
    },
    {
      "displayName": "Ромпетрол",
      "id": "rompetrol-b450da",
      "locationSet": {"include": ["bg"]},
      "tags": {
        "amenity": "fuel",
        "brand": "Rompetrol",
        "brand:wikidata": "Q1788862",
        "name": "Rompetrol",
        "name:bg": "Ромпетрол"
      }
    },
    {
      "displayName": "Роснефть",
      "id": "rosneft-14ecc6",
      "locationSet": {"include": ["ru"]},
      "tags": {
        "amenity": "fuel",
        "brand": "Роснефть",
        "brand:en": "Rosneft",
        "brand:ru": "Роснефть",
        "brand:wikidata": "Q1141123",
        "name": "Роснефть",
        "name:en": "Rosneft",
        "name:ru": "Роснефть"
      }
    },
    {
      "displayName": "Саханефтегазсбыт",
      "id": "c1ce53-14ecc6",
      "locationSet": {"include": ["ru"]},
      "tags": {
        "amenity": "fuel",
        "brand": "Саханефтегазсбыт",
        "name": "Саханефтегазсбыт"
      }
    },
    {
      "displayName": "Сибнефть",
      "id": "165678-14ecc6",
      "locationSet": {"include": ["ru"]},
      "tags": {
        "amenity": "fuel",
        "brand": "Сибнефть",
        "name": "Сибнефть"
      }
    },
    {
      "displayName": "Сургутнефтегаз",
      "id": "surgutneftegas-14ecc6",
      "locationSet": {"include": ["ru"]},
      "tags": {
        "amenity": "fuel",
        "brand": "Сургутнефтегаз",
        "brand:en": "Surgutneftegas",
        "brand:ru": "Сургутнефтегаз",
        "brand:wikidata": "Q680776",
        "name": "Сургутнефтегаз",
        "name:en": "Surgutneftegas",
        "name:ru": "Сургутнефтегаз"
      }
    },
    {
      "displayName": "Таиф-НК",
      "id": "4e2093-14ecc6",
      "locationSet": {"include": ["ru"]},
      "tags": {
        "amenity": "fuel",
        "brand": "Таиф-НК",
        "name": "Таиф-НК"
      }
    },
    {
      "displayName": "Татнефтепродукт",
      "id": "tatnefteprodukt-14ecc6",
      "locationSet": {"include": ["ru"]},
      "tags": {
        "amenity": "fuel",
        "brand": "Татнефтепродукт",
        "brand:en": "Tatnefteprodukt",
        "brand:ru": "Татнефтепродукт",
        "brand:wikidata": "Q62545686",
        "name": "Татнефтепродукт",
        "name:en": "Tatnefteprodukt",
        "name:ru": "Татнефтепродукт"
      }
    },
    {
      "displayName": "Татнефть",
      "id": "tatneft-14ecc6",
      "locationSet": {"include": ["ru"]},
      "tags": {
        "amenity": "fuel",
        "brand": "Татнефть",
        "brand:en": "Tatneft",
        "brand:ru": "Татнефть",
        "brand:wikidata": "Q1616858",
        "name": "Татнефть",
        "name:en": "Tatneft",
        "name:ru": "Татнефть"
      }
    },
    {
      "displayName": "ТНК",
      "id": "21d03b-14ecc6",
      "locationSet": {"include": ["ru"]},
      "tags": {
        "amenity": "fuel",
        "brand": "ТНК",
        "brand:wikidata": "Q2298901",
        "name": "ТНК"
      }
    },
    {
      "displayName": "Трасса",
      "id": "a5dffb-14ecc6",
      "locationSet": {"include": ["ru"]},
      "tags": {
        "amenity": "fuel",
        "brand": "Трасса",
        "name": "Трасса"
      }
    },
    {
      "displayName": "Укр-Петроль",
      "id": "2b21d3-ed4144",
      "locationSet": {"include": ["ua"]},
      "matchNames": ["пп \"укр-петроль\""],
      "tags": {
        "amenity": "fuel",
        "brand": "Укр-Петроль",
        "brand:wikidata": "Q117706274",
        "name": "Укр-Петроль"
      }
    },
    {
      "displayName": "ШТС",
      "id": "87a0bd-405a48",
      "locationSet": {"include": ["mn"]},
      "tags": {
        "amenity": "fuel",
        "brand": "ШТС",
        "name": "ШТС"
      }
    },
    {
      "displayName": "გულფი",
      "id": "b22879-b3d110",
      "locationSet": {"include": ["001"]},
      "tags": {
        "amenity": "fuel",
        "brand": "გულფი",
        "name": "გულფი"
      }
    },
    {
      "displayName": "სოკარი",
      "id": "socar-7489db",
      "locationSet": {"include": ["ge"]},
      "tags": {
        "amenity": "fuel",
        "brand": "სოკარი",
        "brand:en": "Socar",
        "brand:ka": "სოკარი",
        "brand:wikidata": "Q1622293",
        "name": "სოკარი",
        "name:en": "Socar",
        "name:ka": "სოკარი"
      }
    },
    {
      "displayName": "דור אלון",
      "id": "doralon-bb4acb",
      "locationSet": {"include": ["il"]},
      "tags": {
        "amenity": "fuel",
        "brand": "דור אלון",
        "brand:en": "Dor Alon",
        "brand:he": "דור אלון",
        "brand:wikidata": "Q16130352",
        "name": "דור אלון",
        "name:en": "Dor Alon",
        "name:he": "דור אלון"
      }
    },
    {
      "displayName": "סונול",
      "id": "sonol-bb4acb",
      "locationSet": {"include": ["il"]},
      "tags": {
        "amenity": "fuel",
        "brand": "סונול",
        "brand:en": "Sonol",
        "brand:he": "סונול",
        "brand:wikidata": "Q3701622",
        "name": "סונול",
        "name:en": "Sonol",
        "name:he": "סונול"
      }
    },
    {
      "displayName": "פז",
      "id": "paz-bb4acb",
      "locationSet": {"include": ["il"]},
      "tags": {
        "amenity": "fuel",
        "brand": "פז",
        "brand:en": "Paz",
        "brand:he": "פז",
        "brand:wikidata": "Q2211731",
        "name": "פז",
        "name:en": "Paz",
        "name:he": "פז"
      }
    },
    {
      "displayName": "أدنوك",
      "id": "adnoc-cfa330",
      "locationSet": {"include": ["ae", "sa"]},
      "matchNames": ["ادنوك"],
      "tags": {
        "amenity": "fuel",
        "brand": "أدنوك",
        "brand:ar": "أدنوك",
        "brand:en": "ADNOC",
        "brand:wikidata": "Q166729",
        "name": "أدنوك",
        "name:ar": "أدنوك",
        "name:en": "ADNOC"
      }
    },
    {
      "displayName": "أرامكو",
      "id": "aramco-13ec76",
      "locationSet": {"include": ["sa"]},
      "tags": {
        "amenity": "fuel",
        "brand": "أرامكو",
        "brand:ar": "أرامكو",
        "brand:en": "aramco",
        "brand:wikidata": "Q679322",
        "name": "أرامكو",
        "name:ar": "أرامكو",
        "name:en": "aramco"
      }
    },
    {
      "displayName": "الدريس",
      "id": "aldrees-13ec76",
      "locationSet": {"include": ["sa"]},
      "tags": {
        "amenity": "fuel",
        "brand": "الدريس",
        "brand:ar": "شركة الدريس للخدمات البترولية والنقليات",
        "brand:en": "Aldrees Petroleum and Transport Services Company",
        "brand:wikidata": "Q4652322",
        "name": "الدريس",
        "name:ar": "الدريس",
        "name:en": "ALdrees"
      }
    },
    {
      "displayName": "امارات",
      "id": "6f8891-47133a",
      "locationSet": {"include": ["pk"]},
      "tags": {
        "amenity": "fuel",
        "brand": "امارات",
        "name": "امارات"
      }
    },
    {
      "displayName": "اينوك",
      "id": "enoc-7d34dd",
      "locationSet": {
        "include": [
          "ae",
          "bh",
          "kw",
          "om",
          "qa",
          "sa",
          "ye"
        ]
      },
      "tags": {
        "amenity": "fuel",
        "brand": "اينوك",
        "brand:ar": "اينوك",
        "brand:en": "ENOC",
        "brand:wikidata": "Q3045998",
        "name": "اينوك",
        "name:ar": "اينوك",
        "name:en": "ENOC"
      }
    },
    {
      "displayName": "بترومين",
      "id": "petromin-13ec76",
      "locationSet": {"include": ["sa"]},
      "matchNames": [
        "petrom بتروم",
        "petromin corp",
        "بتروم"
      ],
      "tags": {
        "amenity": "fuel",
        "brand": "شركة بترومين",
        "brand:ar": "شركة بترومين",
        "brand:en": "Petromin Corporation",
        "brand:wikidata": "Q7179006",
        "name": "بترومين",
        "name:ar": "بترومين",
        "name:en": "Petromin"
      }
    },
    {
      "displayName": "پاکستان اسٹیٹ آئل",
      "id": "pakistanstateoil-47133a",
      "locationSet": {"include": ["pk"]},
      "matchNames": ["pso petrol pump"],
      "tags": {
        "amenity": "fuel",
        "brand": "پاکستان اسٹیٹ آئل",
        "brand:en": "Pakistan State Oil",
        "brand:pa": "ਪਾਕਸਤਾਨ ਸਟੇਟ ਆਇਲ",
        "brand:pnb": "پاکستان سٹیٹ آئیل",
        "brand:ur": "پاکستان اسٹیٹ آئل",
        "brand:wikidata": "Q2741455",
        "name": "پاکستان اسٹیٹ آئل",
        "name:en": "Pakistan State Oil",
        "name:pa": "ਪਾਕਸਤਾਨ ਸਟੇਟ ਆਇਲ",
        "name:pnb": "پاکستان سٹیٹ آئیل",
        "name:ur": "پاکستان اسٹیٹ آئل",
        "short_name:en": "PSO"
      }
    },
    {
      "displayName": "توتال",
      "id": "total-7d34dd",
      "locationSet": {
        "include": [
          "ae",
          "bh",
          "kw",
          "om",
          "qa",
          "sa",
          "ye"
        ]
      },
      "tags": {
        "amenity": "fuel",
        "brand": "توتال",
        "brand:ar": "توتال",
        "brand:en": "Total",
        "brand:wikidata": "Q154037",
        "name": "توتال",
        "name:ar": "توتال",
        "name:en": "Total"
      }
    },
    {
      "displayName": "ٹوٹل",
      "id": "54d896-47133a",
      "locationSet": {"include": ["pk"]},
      "tags": {
        "amenity": "fuel",
        "brand": "ٹوٹل",
        "name": "ٹوٹل"
      }
    },
    {
      "displayName": "ساسكو",
      "id": "sasco-13ec76",
      "locationSet": {"include": ["sa"]},
      "tags": {
        "amenity": "fuel",
        "brand": "ساسكو",
        "brand:ar": "الشركة السعودية لخدمات السيارات والمعدات",
        "brand:en": "Saudi Automotive Services Company",
        "brand:wikidata": "Q12188891",
        "name": "ساسكو",
        "name:ar": "ساسكو",
        "name:en": "SASCO"
      }
    },
    {
      "displayName": "سی این جی",
      "id": "6bd6bd-16b3c2",
      "locationSet": {
        "include": ["001"],
        "exclude": ["pl"]
      },
      "tags": {
        "amenity": "fuel",
        "brand": "سی این جی",
        "name": "سی این جی"
      }
    },
    {
      "displayName": "شل",
      "id": "shell-7a1cc2",
      "locationSet": {
        "include": ["eg", "ma", "om", "tn"]
      },
      "matchNames": ["shell شل"],
      "tags": {
        "amenity": "fuel",
        "brand": "شل",
        "brand:ar": "شل",
        "brand:en": "Shell",
        "brand:wikidata": "Q110716465",
        "name": "شل",
        "name:ar": "شل",
        "name:en": "Shell"
      }
    },
    {
      "displayName": "شیل",
      "id": "shell-47133a",
      "locationSet": {"include": ["pk"]},
      "tags": {
        "amenity": "fuel",
        "brand": "شیل",
        "brand:ar": "شل",
        "brand:en": "Shell",
        "brand:fa": "شل",
        "brand:ur": "شیل",
        "brand:wikidata": "Q110716465",
        "name": "شیل",
        "name:ar": "شل",
        "name:en": "Shell",
        "name:fa": "شل",
        "name:ur": "شیل"
      }
    },
    {
      "displayName": "طوطال",
      "id": "bcdcc9-16b3c2",
      "locationSet": {
        "include": ["001"],
        "exclude": ["pl"]
      },
      "tags": {
        "amenity": "fuel",
        "brand": "طوطال",
        "name": "طوطال"
      }
    },
    {
      "displayName": "عجيل",
      "id": "agil-7aee9d",
      "locationSet": {"include": ["tn"]},
      "tags": {
        "amenity": "fuel",
        "brand": "عجيل",
        "brand:ar": "عجيل",
        "brand:en": "Agil",
        "brand:wikidata": "Q96017301",
        "name": "عجيل",
        "name:ar": "عجيل",
        "name:en": "Agil"
      }
    },
    {
      "displayName": "گازوئیل",
      "id": "1c8dad-b3d110",
      "locationSet": {"include": ["001"]},
      "tags": {
        "amenity": "fuel",
        "brand": "گازوئیل",
        "name": "گازوئیل"
      }
    },
    {
      "displayName": "محطة",
      "id": "95219a-7d34dd",
      "locationSet": {
        "include": [
          "ae",
          "bh",
          "kw",
          "om",
          "qa",
          "sa",
          "ye"
        ]
      },
      "tags": {
        "amenity": "fuel",
        "brand": "محطة",
        "name": "محطة"
      }
    },
    {
      "displayName": "نفط",
      "id": "naft-13ec76",
      "locationSet": {"include": ["sa"]},
      "tags": {
        "amenity": "fuel",
        "brand": "نفط",
        "brand:ar": "نفط",
        "brand:en": "NAFT",
        "brand:wikidata": "Q105572509",
        "name": "نفط",
        "name:ar": "نفط",
        "name:en": "NAFT"
      }
    },
    {
      "displayName": "نفطال",
      "id": "ce06e7-7d34dd",
      "locationSet": {
        "include": [
          "ae",
          "bh",
          "kw",
          "om",
          "qa",
          "sa",
          "ye"
        ]
      },
      "tags": {
        "amenity": "fuel",
        "brand": "نفطال",
        "name": "نفطال"
      }
    },
    {
      "displayName": "เชลล์",
      "id": "shell-56d9b3",
      "locationSet": {"include": ["th"]},
      "tags": {
        "amenity": "fuel",
        "brand": "เชลล์",
        "brand:en": "Shell",
        "brand:th": "เชลล์",
        "brand:wikidata": "Q110716465",
        "name": "เชลล์",
        "name:en": "Shell",
        "name:th": "เชลล์"
      }
    },
    {
      "displayName": "บางจาก",
      "id": "bangchak-56d9b3",
      "locationSet": {"include": ["th"]},
      "tags": {
        "amenity": "fuel",
        "brand": "บางจาก",
        "brand:en": "Bangchak",
        "brand:th": "บางจาก",
        "brand:wikidata": "Q6579719",
        "name": "บางจาก",
        "name:en": "Bangchak",
        "name:th": "บางจาก"
      }
    },
    {
      "displayName": "ป.ต.ท.",
      "id": "ptt-56d9b3",
      "locationSet": {"include": ["th"]},
      "tags": {
        "amenity": "fuel",
        "brand": "ป.ต.ท.",
        "brand:en": "PTT",
        "brand:th": "ป.ต.ท.",
        "brand:wikidata": "Q1810389",
        "name": "ป.ต.ท.",
        "name:en": "PTT",
        "name:th": "ป.ต.ท."
      }
    },
    {
      "displayName": "เอสโซ่",
      "id": "esso-56d9b3",
      "locationSet": {"include": ["th"]},
      "tags": {
        "amenity": "fuel",
        "brand": "เอสโซ่",
        "brand:en": "Esso",
        "brand:th": "เอสโซ่",
        "brand:wikidata": "Q867662",
        "name": "เอสโซ่",
        "name:en": "Esso",
        "name:th": "เอสโซ่"
      }
    },
    {
      "displayName": "현대오일뱅크",
      "id": "hyundaioilbank-ae677b",
      "locationSet": {"include": ["kr"]},
      "tags": {
        "amenity": "fuel",
        "brand": "현대오일뱅크",
        "brand:en": "Hyundai Oilbank",
        "brand:ko": "현대오일뱅크",
        "brand:wikidata": "Q5962649",
        "name": "현대오일뱅크",
        "name:en": "Hyundai Oilbank",
        "name:ko": "현대오일뱅크"
      }
    },
    {
      "displayName": "キグナス石油",
      "id": "kygnus-fbe2e4",
      "locationSet": {"include": ["jp"]},
      "matchNames": ["キグナス"],
      "tags": {
        "amenity": "fuel",
        "brand": "キグナス石油",
        "brand:en": "KYGNUS",
        "brand:ja": "キグナス石油",
        "brand:wikidata": "Q11296629",
        "name": "キグナス石油",
        "name:en": "Kygnus",
        "name:ja": "キグナス石油"
      }
    },
    {
      "displayName": "コスモ",
      "id": "cosmo-fbe2e4",
      "locationSet": {"include": ["jp"]},
      "tags": {
        "amenity": "fuel",
        "brand": "コスモ",
        "brand:en": "Cosmo",
        "brand:ja": "コスモ",
        "brand:wikidata": "Q2498318",
        "name": "コスモ",
        "name:en": "Cosmo",
        "name:ja": "コスモ",
        "official_name": "コスモ石油"
      }
    },
    {
      "displayName": "ホクレンSS",
      "id": "hokurenss-fbe2e4",
      "locationSet": {"include": ["jp"]},
      "tags": {
        "amenity": "fuel",
        "brand": "ホクレン",
        "brand:en": "Hokuren",
        "brand:ja": "ホクレン",
        "brand:wikidata": "Q114880707",
        "name": "ホクレンSS",
        "name:en": "Hokuren SS",
        "name:ja": "ホクレンSS"
      }
    },
    {
      "displayName": "中国国际能源",
      "id": "chinainternationalenergy-e4b6c0",
      "locationSet": {"include": ["cn"]},
      "tags": {
        "amenity": "fuel",
        "brand": "中国国际能源",
        "brand:en": "CHINA INTERNATIONAL ENERGY",
        "brand:wikidata": "Q110232333",
        "brand:zh": "中国国际能源",
        "name": "中国国际能源",
        "name:en": "CHINA INTERNATIONAL ENERGY",
        "name:zh": "中国国际能源"
      }
    },
    {
      "displayName": "中国海油",
      "id": "cnooc-e4b6c0",
      "locationSet": {"include": ["cn"]},
      "matchNames": [
        "中国海洋石油",
        "中海油",
        "中海油加油站",
        "中海油站"
      ],
      "tags": {
        "amenity": "fuel",
        "brand": "中国海油",
        "brand:en": "CNOOC",
        "brand:wikidata": "Q795354",
        "brand:zh": "中国海油",
        "name": "中国海油",
        "name:en": "CNOOC",
        "name:zh": "中国海油"
      }
    },
    {
      "displayName": "中国燃气",
      "id": "chinagas-e4b6c0",
      "locationSet": {"include": ["cn"]},
      "tags": {
        "amenity": "fuel",
        "brand": "中国燃气",
        "brand:en": "China Gas",
        "brand:wikidata": "Q10874672",
        "brand:zh": "中国燃气",
        "name": "中国燃气",
        "name:en": "China Gas",
        "name:zh": "中国燃气"
      }
    },
    {
      "displayName": "中国石化",
      "id": "sinopec-7eecbc",
      "locationSet": {
        "include": ["cn"],
        "exclude": ["hk"]
      },
      "matchNames": [
        "sinopec fuel",
        "中国石化 sinopec",
        "中国石化加油站",
        "中石化",
        "中石化加油站",
        "中石化油站"
      ],
      "tags": {
        "amenity": "fuel",
        "brand": "中国石化",
        "brand:en": "Sinopec",
        "brand:wikidata": "Q831445",
        "brand:zh": "中国石化",
        "name": "中国石化",
        "name:en": "Sinopec",
        "name:zh": "中国石化"
      }
    },
    {
      "displayName": "中国石油",
      "id": "petrochina-7eecbc",
      "locationSet": {
        "include": ["cn"],
        "exclude": ["hk"]
      },
      "matchNames": [
        "中国石油 petrochina",
        "中国石油加油站",
        "中油",
        "中油加油站",
        "中石油",
        "中石油加油站"
      ],
      "tags": {
        "amenity": "fuel",
        "brand": "中国石油",
        "brand:en": "PetroChina",
        "brand:wikidata": "Q503182",
        "brand:zh": "中国石油",
        "name": "中国石油",
        "name:en": "PetroChina",
        "name:zh": "中国石油"
      }
    },
    {
      "displayName": "中國石化 Sinopec",
      "id": "sinopec-a5d248",
      "locationSet": {"include": ["hk"]},
      "tags": {
        "amenity": "fuel",
        "brand": "中國石化 Sinopec",
        "brand:en": "Sinopec",
        "brand:wikidata": "Q831445",
        "brand:zh": "中國石化",
        "brand:zh-Hans": "中国石化",
        "brand:zh-Hant": "中國石化",
        "name": "中國石化 Sinopec",
        "name:en": "Sinopec",
        "name:zh": "中國石化",
        "name:zh-Hans": "中国石化",
        "name:zh-Hant": "中國石化"
      }
    },
    {
      "displayName": "中國石油 PetroChina",
      "id": "petrochina-a5d248",
      "locationSet": {"include": ["hk"]},
      "tags": {
        "amenity": "fuel",
        "brand": "中國石油 PetroChina",
        "brand:en": "PetroChina",
        "brand:wikidata": "Q503182",
        "brand:zh": "中國石油",
        "brand:zh-Hans": "中国石油",
        "brand:zh-Hant": "中國石油",
        "name": "中國石油 PetroChina",
        "name:en": "PetroChina",
        "name:zh": "中國石油",
        "name:zh-Hans": "中国石油",
        "name:zh-Hant": "中國石油"
      }
    },
    {
      "displayName": "中油碧辟",
      "id": "bppetrochina-e4b6c0",
      "locationSet": {"include": ["cn"]},
      "tags": {
        "alt_name": "中油BP",
        "amenity": "fuel",
        "brand": "中油碧辟",
        "brand:en": "BP PetroChina",
        "brand:wikidata": "Q109280112",
        "brand:zh": "中油碧辟",
        "name": "中油碧辟",
        "name:en": "BP PetroChina",
        "name:zh": "中油碧辟"
      }
    },
    {
      "displayName": "全國加油站",
      "id": "npc-db3418",
      "locationSet": {"include": ["tw"]},
      "tags": {
        "amenity": "fuel",
        "brand": "全國加油站",
        "brand:en": "NPC",
        "brand:wikidata": "Q20410455",
        "brand:zh": "全國加油站",
        "name": "全國加油站",
        "name:en": "NPC",
        "name:zh": "全國加油站"
      }
    },
    {
      "displayName": "出光",
      "id": "idemitsu-fbe2e4",
      "locationSet": {"include": ["jp"]},
      "matchNames": ["idemitsu kosan", "出光興産"],
      "tags": {
        "amenity": "fuel",
        "brand": "出光",
        "brand:en": "Idemitsu",
        "brand:ja": "出光",
        "brand:wikidata": "Q2216770",
        "name": "出光",
        "name:en": "Idemitsu",
        "name:ja": "出光"
      }
    },
    {
      "displayName": "台塑石油",
      "id": "formosapetrochemicalcorporation-db3418",
      "locationSet": {"include": ["tw"]},
      "matchNames": ["台塑石化"],
      "tags": {
        "amenity": "fuel",
        "brand": "台塑石油",
        "brand:en": "Formosa Petrochemical Corporation",
        "brand:wikidata": "Q1437742",
        "brand:zh": "台塑石油",
        "name": "台塑石油",
        "name:en": "Formosa Petrochemical Corporation",
        "name:zh": "台塑石油"
      }
    },
    {
      "displayName": "台灣中油",
      "id": "cpccorporationtaiwan-db3418",
      "locationSet": {"include": ["tw"]},
      "matchNames": ["中油"],
      "tags": {
        "amenity": "fuel",
        "brand": "台灣中油",
        "brand:en": "CPC Corporation, Taiwan",
        "brand:wikidata": "Q698024",
        "brand:zh": "台灣中油",
        "name": "台灣中油",
        "name:en": "CPC Corporation, Taiwan",
        "name:zh": "台灣中油"
      }
    },
    {
      "displayName": "国家管网",
      "id": "pipechina-e4b6c0",
      "locationSet": {"include": ["cn"]},
      "tags": {
        "amenity": "fuel",
        "brand": "国家管网",
        "brand:en": "PipeChina",
        "brand:wikidata": "Q86727966",
        "brand:zh": "国家管网",
        "name": "国家管网",
        "name:en": "PipeChina",
        "name:zh": "国家管网"
      }
    },
    {
      "displayName": "好市多加油站",
      "id": "costcogasoline-db3418",
      "locationSet": {"include": ["tw"]},
      "matchNames": [
        "costco",
        "costco gas",
        "costco wholesale"
      ],
      "tags": {
        "amenity": "fuel",
        "brand": "好市多加油站",
        "brand:en": "Costco Gasoline",
        "brand:wikidata": "Q715583",
        "brand:zh": "好市多加油站",
        "name": "好市多加油站",
        "name:en": "Costco Gasoline",
        "name:zh": "好市多加油站"
      }
    },
    {
      "displayName": "广西交投",
      "id": "cd5eeb-e4b6c0",
      "locationSet": {"include": ["cn"]},
      "matchNames": ["广西交投加油站"],
      "tags": {
        "amenity": "fuel",
        "brand": "广西交投",
        "brand:wikidata": "Q11062364",
        "brand:zh": "广西交投",
        "name": "广西交投",
        "name:zh": "广西交投",
        "operator": "广西交通投资集团有限公司",
        "operator:type": "public"
      }
    },
    {
      "displayName": "昭和シェル",
      "id": "showashell-fbe2e4",
      "locationSet": {"include": ["jp"]},
      "matchNames": ["ロイヤル・ダッチ・シェル", "昭和シェル石油"],
      "tags": {
        "amenity": "fuel",
        "brand": "シェル",
        "brand:en": "Shell",
        "brand:ja": "シェル",
        "brand:wikidata": "Q110716465",
        "name": "昭和シェル",
        "name:en": "Showa Shell",
        "name:ja": "昭和シェル"
      }
    },
    {
      "displayName": "福懋加油站",
      "id": "2dae50-db3418",
      "locationSet": {"include": ["tw"]},
      "tags": {
        "amenity": "fuel",
        "brand": "福懋加油站",
        "name": "福懋加油站"
      }
    }
  ]
}
