{
  "brands/amenity/ice_cream": [
    {
      "displayName": "33 пингвина",
      "id": "fd1d7e-7c9908",
      "locationSet": {
        "include": ["by", "kz", "ru"]
      },
      "tags": {
        "amenity": "ice_cream",
        "brand": "33 пингвина",
        "name": "33 пингвина"
      }
    },
    {
      "displayName": "Abbott's Frozen Custard",
      "id": "abbottsfrozencustard-8697a4",
      "locationSet": {"include": ["us"]},
      "tags": {
        "amenity": "ice_cream",
        "brand": "Abbott's Frozen Custard",
        "brand:wikidata": "Q4664334",
        "brand:wikipedia": "en:Abbott's Frozen Custard",
        "name": "Abbott's Frozen Custard",
        "short_name": "Abbott's"
      }
    },
    {
      "displayName": "Amorino",
      "id": "amorino-6cf168",
      "locationSet": {
        "include": [
          "ae",
          "ch",
          "cz",
          "de",
          "es",
          "fr",
          "gb",
          "gr",
          "ie",
          "it",
          "lu",
          "ma",
          "mt",
          "mx",
          "nc",
          "pt",
          "qa",
          "re",
          "us"
        ]
      },
      "tags": {
        "amenity": "ice_cream",
        "brand": "Amorino",
        "brand:wikidata": "Q2843884",
        "brand:wikipedia": "fr:Amorino",
        "name": "Amorino"
      }
    },
    {
      "displayName": "Amy's Ice Creams",
      "id": "amysicecreams-8697a4",
      "locationSet": {"include": ["us"]},
      "tags": {
        "amenity": "ice_cream",
        "brand": "Amy's Ice Creams",
        "brand:wikidata": "Q4749045",
        "brand:wikipedia": "en:Amy's Ice Creams",
        "name": "Amy's Ice Creams"
      }
    },
    {
      "displayName": "Andy's Frozen Custard",
      "id": "andysfrozencustard-8697a4",
      "locationSet": {"include": ["us"]},
      "tags": {
        "amenity": "ice_cream",
        "brand": "Andy's Frozen Custard",
        "brand:wikidata": "Q4760327",
        "brand:wikipedia": "en:Andy's Frozen Custard",
        "name": "Andy's Frozen Custard",
        "short_name": "Andy's"
      }
    },
    {
      "displayName": "Baskin-Robbins",
      "id": "baskinrobbins-87d971",
      "locationSet": {"include": ["001"]},
      "tags": {
        "amenity": "ice_cream",
        "brand": "Baskin-Robbins",
        "brand:wikidata": "Q584601",
        "brand:wikipedia": "en:Baskin-Robbins",
        "cuisine": "ice_cream",
        "name": "Baskin-Robbins"
      }
    },
    {
      "displayName": "Ben & Jerry's",
      "id": "benandjerrys-87d971",
      "locationSet": {"include": ["001"]},
      "tags": {
        "amenity": "ice_cream",
        "brand": "Ben & Jerry's",
        "brand:wikidata": "Q816412",
        "brand:wikipedia": "en:Ben & Jerry's",
        "cuisine": "ice_cream",
        "name": "Ben & Jerry's"
      }
    },
    {
      "displayName": "Bico de Xeado",
      "id": "bicodexeado-2a89e9",
      "locationSet": {"include": ["es"]},
      "tags": {
        "amenity": "ice_cream",
        "brand": "Bico de Xeado",
        "brand:wikidata": "Q94575629",
        "name": "Bico de Xeado"
      }
    },
    {
      "displayName": "Bruster's Ice Cream",
      "id": "brustersicecream-8697a4",
      "locationSet": {"include": ["us"]},
      "matchNames": ["brusters"],
      "tags": {
        "amenity": "ice_cream",
        "brand": "Bruster's Ice Cream",
        "brand:wikidata": "Q4979810",
        "brand:wikipedia": "en:Bruster's Ice Cream",
        "cuisine": "ice_cream",
        "name": "Bruster's Ice Cream"
      }
    },
    {
      "displayName": "Carvel",
      "id": "carvel-8697a4",
      "locationSet": {"include": ["us"]},
      "tags": {
        "amenity": "ice_cream",
        "brand": "Carvel",
        "brand:wikidata": "Q5047520",
        "brand:wikipedia": "en:Carvel (franchise)",
        "cuisine": "ice_cream",
        "name": "Carvel",
        "takeaway": "yes"
      }
    },
    {
      "displayName": "Cold Rock Ice Creamery",
      "id": "coldrockicecreamery-e699dd",
      "locationSet": {"include": ["au"]},
      "tags": {
        "amenity": "ice_cream",
        "brand": "Cold Rock Ice Creamery",
        "brand:wikidata": "Q2982390",
        "brand:wikipedia": "en:Cold Rock Ice Creamery",
        "cuisine": "ice_cream",
        "name": "Cold Rock Ice Creamery",
        "takeaway": "yes"
      }
    },
    {
      "displayName": "Cold Stone Creamery",
      "id": "coldstonecreamery-2155b4",
      "locationSet": {"include": ["ng", "us"]},
      "matchNames": ["cold stone"],
      "tags": {
        "amenity": "ice_cream",
        "brand": "Cold Stone Creamery",
        "brand:wikidata": "Q1094923",
        "brand:wikipedia": "en:Cold Stone Creamery",
        "cuisine": "ice_cream",
        "name": "Cold Stone Creamery"
      }
    },
    {
      "displayName": "D'Onofrio",
      "id": "donofrio-93a72a",
      "locationSet": {"include": ["pe"]},
      "tags": {
        "amenity": "ice_cream",
        "brand": "D'Onofrio",
        "brand:wikidata": "Q5203166",
        "brand:wikipedia": "es:D'Onofrio",
        "cuisine": "ice_cream",
        "name": "D'Onofrio"
      }
    },
    {
      "displayName": "Freddo",
      "id": "freddo-3a94a6",
      "locationSet": {
        "include": [
          "ar",
          "bo",
          "br",
          "cl",
          "gb",
          "it",
          "us",
          "uy"
        ]
      },
      "tags": {
        "amenity": "ice_cream",
        "brand": "Freddo",
        "brand:wikidata": "Q28823999",
        "brand:wikipedia": "es:Freddo",
        "cuisine": "ice_cream",
        "name": "Freddo"
      }
    },
    {
      "displayName": "Graeter's",
      "id": "graeters-8697a4",
      "locationSet": {"include": ["us"]},
      "matchNames": ["greaters"],
      "tags": {
        "amenity": "ice_cream",
        "brand": "Graeter's",
        "brand:wikidata": "Q5592430",
        "brand:wikipedia": "en:Graeter's",
        "cuisine": "ice_cream",
        "name": "Graeter's",
        "takeaway": "yes"
      }
    },
    {
      "displayName": "Grido",
      "id": "grido-1a8176",
      "locationSet": {"include": ["ar"]},
      "matchNames": ["grido helado"],
      "matchTags": ["shop/confectionary"],
      "tags": {
        "amenity": "ice_cream",
        "brand": "Grido",
        "brand:wikidata": "Q5885724",
        "brand:wikipedia": "es:Grido Helado",
        "cuisine": "ice_cream",
        "name": "Grido"
      }
    },
    {
      "displayName": "Häagen-Dazs",
      "id": "haagendazs-87d971",
      "locationSet": {"include": ["001"]},
      "tags": {
        "amenity": "ice_cream",
        "brand": "Häagen-Dazs",
        "brand:wikidata": "Q1143333",
        "brand:wikipedia": "en:Häagen-Dazs",
        "name": "Häagen-Dazs"
      }
    },
    {
      "displayName": "La Michoacana",
      "id": "lamichoacana-7f1444",
      "locationSet": {"include": ["mx"]},
      "matchNames": ["paleteria la michoacana"],
      "tags": {
        "amenity": "ice_cream",
        "brand": "La Michoacana",
        "brand:wikidata": "Q17118857",
        "brand:wikipedia": "en:Paletería La Michoacana",
        "name": "La Michoacana"
      }
    },
    {
      "displayName": "Llaollao",
      "id": "llaollao-dd9462",
      "locationSet": {
        "include": [
          "au",
          "ch",
          "cl",
          "co",
          "ec",
          "es",
          "fr",
          "gt",
          "hr",
          "id",
          "iq",
          "kw",
          "ma",
          "my",
          "ph",
          "pt",
          "sa",
          "sg",
          "si",
          "sv",
          "us",
          "vn"
        ]
      },
      "tags": {
        "amenity": "ice_cream",
        "brand": "Llaollao",
        "brand:wikidata": "Q12163048",
        "brand:wikipedia": "es:Llaollao",
        "cuisine": "frozen_yogurt",
        "name": "Llaollao"
      }
    },
    {
      "displayName": "Marble Slab Creamery",
      "id": "marbleslabcreamery-a9be0b",
      "locationSet": {"include": ["ca", "us"]},
      "tags": {
        "amenity": "ice_cream",
        "brand": "Marble Slab Creamery",
        "brand:wikidata": "Q17020087",
        "brand:wikipedia": "en:Marble Slab Creamery",
        "cuisine": "ice_cream",
        "name": "Marble Slab Creamery"
      }
    },
    {
      "displayName": "Menchie's",
      "id": "menchies-411174",
      "locationSet": {
        "include": [
          "ae",
          "bh",
          "bs",
          "ca",
          "cn",
          "gb",
          "in",
          "jp",
          "kw",
          "qa",
          "sa",
          "us"
        ]
      },
      "matchNames": [
        "menchie's frozen yoghurt",
        "menchie's frozen yogurt"
      ],
      "tags": {
        "amenity": "ice_cream",
        "brand": "Menchie's",
        "brand:wikidata": "Q6816528",
        "brand:wikipedia": "en:Menchie's Frozen Yogurt",
        "cuisine": "frozen_yogurt",
        "name": "Menchie's"
      }
    },
    {
      "displayName": "Naturals",
      "id": "naturals-c284d9",
      "locationSet": {"include": ["in"]},
      "tags": {
        "amenity": "ice_cream",
        "brand": "Naturals",
        "brand:wikidata": "Q24439154",
        "brand:wikipedia": "en:Natural Ice Cream",
        "cuisine": "ice_cream",
        "name": "Naturals"
      }
    },
    {
      "displayName": "Pinkberry",
      "id": "pinkberry-87d971",
      "locationSet": {"include": ["001"]},
      "tags": {
        "amenity": "ice_cream",
        "brand": "Pinkberry",
        "brand:wikidata": "Q2904053",
        "brand:wikipedia": "en:Pinkberry",
        "cuisine": "frozen_yogurt",
        "name": "Pinkberry",
        "takeaway": "yes"
      }
    },
    {
      "displayName": "Popsy",
      "id": "popsy-d81526",
      "locationSet": {"include": ["co"]},
      "matchNames": [
        "heladeria popsi",
        "heladeria popsy",
        "popsi",
        "potsi"
      ],
      "tags": {
        "amenity": "ice_cream",
        "brand": "Popsy",
        "brand:wikidata": "Q100156171",
        "cuisine": "ice_cream",
        "name": "Popsy",
        "official_name": "Helados Gourmet Popsy",
        "takeaway": "yes"
      }
    },
    {
      "displayName": "Ralph's Italian Ices",
      "id": "ralphsitalianices-8697a4",
      "locationSet": {"include": ["us"]},
      "matchNames": [
        "ralphs famous italian ices and ice cream",
        "ralphs italian ice",
        "ralphs italian ices and ice cream"
      ],
      "tags": {
        "amenity": "ice_cream",
        "brand": "Ralph's Italian Ices",
        "brand:wikidata": "Q62576909",
        "cuisine": "ice_cream",
        "name": "Ralph's Italian Ices",
        "official_name": "Ralph's Famous Italian Ices"
      }
    },
    {
      "displayName": "Rita's Italian Ice",
      "id": "ritasitalianice-8697a4",
      "locationSet": {"include": ["us"]},
      "matchNames": ["ritas", "ritas water ice"],
      "tags": {
        "amenity": "ice_cream",
        "brand": "Rita's Italian Ice",
        "brand:wikidata": "Q7336456",
        "brand:wikipedia": "en:Rita's Italian Ice",
        "cuisine": "ice_cream",
        "name": "Rita's Italian Ice"
      }
    },
    {
      "displayName": "Shake's",
      "id": "shakes-8697a4",
      "locationSet": {"include": ["us"]},
      "tags": {
        "amenity": "ice_cream",
        "brand": "Shake's",
        "brand:wikidata": "Q17032842",
        "brand:wikipedia": "en:Shake's Frozen Custard",
        "name": "Shake's",
        "official_name": "Shake’s Frozen Custard"
      }
    },
    {
      "displayName": "smöoy",
      "id": "smooy-bac155",
      "locationSet": {
        "include": [
          "ao",
          "ci",
          "cn",
          "dz",
          "ec",
          "es",
          "fr",
          "gb",
          "gn",
          "it",
          "ma",
          "pa",
          "pe",
          "pt",
          "re",
          "sa"
        ]
      },
      "tags": {
        "amenity": "ice_cream",
        "brand": "smöoy",
        "brand:wikidata": "Q21573945",
        "brand:wikipedia": "es:Smöoy",
        "name": "smöoy",
        "official_name": "Softy Cream"
      }
    },
    {
      "displayName": "sweetFrog",
      "id": "sweetfrog-8697a4",
      "locationSet": {"include": ["us"]},
      "matchNames": [
        "sweetfrog frozen yogurt",
        "sweetfrog premium frozen yogurt"
      ],
      "tags": {
        "amenity": "ice_cream",
        "brand": "sweetFrog",
        "brand:wikidata": "Q16952110",
        "brand:wikipedia": "en:Sweet Frog",
        "cuisine": "frozen_yogurt",
        "name": "sweetFrog"
      }
    },
    {
      "displayName": "TCBY",
      "id": "tcby-87d971",
      "locationSet": {"include": ["001"]},
      "tags": {
        "amenity": "ice_cream",
        "brand": "TCBY",
        "brand:wikidata": "Q7669631",
        "brand:wikipedia": "en:TCBY",
        "cuisine": "frozen_yogurt",
        "name": "TCBY",
        "takeaway": "yes"
      }
    },
    {
      "displayName": "Toscana",
      "id": "toscana-e6af0f",
      "locationSet": {"include": ["nl"]},
      "tags": {
        "amenity": "ice_cream",
        "brand": "Toscana",
        "brand:wikidata": "Q92555442",
        "name": "Toscana"
      }
    },
    {
      "displayName": "Yogen Früz",
      "id": "yogenfruz-87d971",
      "locationSet": {"include": ["001"]},
      "tags": {
        "amenity": "ice_cream",
        "brand": "Yogen Früz",
        "brand:wikidata": "Q8054358",
        "brand:wikipedia": "en:Yogen Früz",
        "cuisine": "frozen_yogurt",
        "name": "Yogen Früz",
        "takeaway": "yes"
      }
    },
    {
      "displayName": "Yogurt Mountain",
      "id": "yogurtmountain-8697a4",
      "locationSet": {"include": ["us"]},
      "tags": {
        "amenity": "ice_cream",
        "brand": "Yogurt Mountain",
        "brand:wikidata": "Q8054427",
        "brand:wikipedia": "en:Yogurt Mountain",
        "cuisine": "frozen_yogurt",
        "name": "Yogurt Mountain",
        "takeaway": "yes"
      }
    },
    {
      "displayName": "Yogurtland",
      "id": "yogurtland-e665a7",
      "locationSet": {
        "include": [
          "ae",
          "au",
          "sg",
          "th",
          "us",
          "ve"
        ]
      },
      "tags": {
        "amenity": "ice_cream",
        "brand": "Yogurtland",
        "brand:wikidata": "Q8054428",
        "brand:wikipedia": "en:Yogurtland",
        "cuisine": "frozen_yogurt",
        "name": "Yogurtland",
        "takeaway": "yes"
      }
    },
    {
      "displayName": "サーティワンアイスクリーム",
      "id": "baskinrobbins-7ba154",
      "locationSet": {"include": ["jp"]},
      "matchNames": ["31アイスクリーム", "サーティーワン"],
      "tags": {
        "amenity": "ice_cream",
        "brand": "バスキン・ロビンス",
        "brand:en": "Baskin-Robbins",
        "brand:ja": "バスキン・ロビンス",
        "brand:wikidata": "Q584601",
        "brand:wikipedia": "ja:バスキン・ロビンス",
        "cuisine": "ice_cream",
        "name": "サーティワンアイスクリーム",
        "name:en": "Baskin-Robbins",
        "name:ja": "サーティワンアイスクリーム"
      }
    }
  ]
}