{
  "properties": {
    "path": "brands/amenity/karaoke_box",
    "exclude": {"generic": ["^karaoke box$"]}
  },
  "items": [
    {
      "displayName": "Neway",
      "id": "neway-8df299",
      "locationSet": {"include": ["cn", "my"]},
      "tags": {
        "amenity": "karaoke_box",
        "brand": "Neway",
        "brand:en": "Neway",
        "brand:wikidata": "Q7265439",
        "fee": "yes",
        "name": "Neway",
        "name:en": "Neway"
      }
    },
    {
      "displayName": "カラオケ まねきねこ",
      "id": "karaokemanekineko-c40f09",
      "locationSet": {"include": ["jp"]},
      "matchNames": ["まねきねこ"],
      "tags": {
        "amenity": "karaoke_box",
        "brand": "カラオケ まねきねこ",
        "brand:en": "Karaoke Manekineko",
        "brand:ja": "カラオケ まねきねこ",
        "brand:wikidata": "Q88326334",
        "fee": "yes",
        "name": "カラオケ まねきねこ",
        "name:en": "Karaoke Manekineko",
        "name:ja": "カラオケ まねきねこ"
      }
    },
    {
      "displayName": "カラオケバンバン",
      "id": "karaokebanban-c40f09",
      "locationSet": {"include": ["jp"]},
      "tags": {
        "amenity": "karaoke_box",
        "brand": "カラオケバンバン",
        "brand:en": "Karaoke BanBan",
        "brand:ja": "カラオケバンバン",
        "brand:wikidata": "Q88485685",
        "fee": "yes",
        "name": "カラオケバンバン",
        "name:en": "Karaoke BanBan",
        "name:ja": "カラオケバンバン"
      }
    },
    {
      "displayName": "カラオケ館",
      "id": "karaokekan-c40f09",
      "locationSet": {"include": ["jp"]},
      "tags": {
        "amenity": "karaoke_box",
        "brand": "カラオケ館",
        "brand:en": "Karaoke-kan",
        "brand:ja": "カラオケ館",
        "brand:wikidata": "Q11294889",
        "fee": "yes",
        "name": "カラオケ館",
        "name:en": "Karaoke-kan",
        "name:ja": "カラオケ館"
      }
    },
    {
      "displayName": "コート・ダ・ジュール",
      "id": "cotedazur-c40f09",
      "locationSet": {"include": ["jp"]},
      "tags": {
        "amenity": "karaoke_box",
        "brand": "コート・ダジュール",
        "brand:en": "Cote d'Azur",
        "brand:ja": "コート・ダジュール",
        "brand:wikidata": "Q93542022",
        "fee": "yes",
        "name": "コート・ダジュール",
        "name:en": "Cote d'Azur",
        "name:ja": "コート・ダジュール"
      }
    },
    {
      "displayName": "シダックス",
      "id": "shidax-c40f09",
      "locationSet": {"include": ["jp"]},
      "tags": {
        "amenity": "karaoke_box",
        "brand": "シダックス",
        "brand:en": "Shidax",
        "brand:ja": "シダックス",
        "brand:wikidata": "Q7496130",
        "fee": "yes",
        "name": "シダックス",
        "name:en": "Shidax",
        "name:ja": "シダックス"
      }
    },
    {
      "displayName": "ジョイサウンド",
      "id": "joysound-c40f09",
      "locationSet": {"include": ["jp"]},
      "tags": {
        "amenity": "karaoke_box",
        "brand": "ジョイサウンド",
        "brand:en": "Joysound",
        "brand:ja": "ジョイサウンド",
        "brand:wikidata": "Q11226033",
        "fee": "yes",
        "name": "ジョイサウンド",
        "name:en": "Joysound",
        "name:ja": "ジョイサウンド"
      }
    },
    {
      "displayName": "ビッグエコー",
      "id": "bigecho-c40f09",
      "locationSet": {"include": ["jp"]},
      "tags": {
        "amenity": "karaoke_box",
        "brand": "ビッグエコー",
        "brand:en": "Big Echo",
        "brand:ja": "ビッグエコー",
        "brand:wikidata": "Q15831707",
        "fee": "yes",
        "name": "ビッグエコー",
        "name:en": "Big Echo",
        "name:ja": "ビッグエコー"
      }
    }
  ]
}
