{
  "properties": {
    "path": "brands/amenity/kindergarten",
    "skipCollection": true,
    "preserveTags": ["^name"],
    "exclude": {
      "generic": [
        "^day\\s?care center$",
        "^kindergarten$",
        "^дитячий садок$"
      ]
    }
  },
  "items": [
    {
      "displayName": "Arbeiter-Samariter-Bund (Deutschland)",
      "id": "arbeitersamariterbund-6709ec",
      "locationSet": {"include": ["de"]},
      "tags": {
        "amenity": "kindergarten",
        "brand": "Arbeiter-Samariter-Bund",
        "brand:short": "ASB",
        "brand:wikidata": "Q627071"
      }
    },
    {
      "displayName": "Arbeiterwohlfahrt",
      "id": "arbeiterwohlfahrt-6709ec",
      "locationSet": {"include": ["de"]},
      "tags": {
        "amenity": "kindergarten",
        "brand": "Arbeiterwohlfahrt",
        "brand:short": "AWO",
        "brand:wikidata": "Q627256"
      }
    },
    {
      "displayName": "Auckland Kindergarten Association",
      "id": "aucklandkindergartenassociation-e215a2",
      "locationSet": {
        "include": ["nz-auk.geojson"]
      },
      "tags": {
        "amenity": "kindergarten",
        "brand": "Auckland Kindergarten Association",
        "brand:wikidata": "Q116824744"
      }
    },
    {
      "displayName": "BestStart Educare",
      "id": "beststarteducare-06f88c",
      "locationSet": {"include": ["nz"]},
      "tags": {
        "amenity": "kindergarten",
        "brand": "BestStart Educare",
        "brand:wikidata": "Q115565848",
        "name": "BestStart Educare"
      }
    },
    {
      "displayName": "Bright Horizons",
      "id": "brighthorizons-ab065c",
      "locationSet": {"include": ["gb", "us"]},
      "tags": {
        "amenity": "kindergarten",
        "brand": "Bright Horizons",
        "brand:wikidata": "Q4967421",
        "fee": "yes",
        "isced:level": "0",
        "name": "Bright Horizons",
        "nursery": "yes",
        "preschool": "yes"
      }
    },
    {
      "displayName": "Chesterbrook Academy",
      "id": "chesterbrookacademy-39c780",
      "locationSet": {"include": ["us"]},
      "tags": {
        "amenity": "kindergarten",
        "brand": "Chesterbrook Academy",
        "brand:wikidata": "Q109137942",
        "fee": "yes",
        "name": "Chesterbrook Academy",
        "nursery": "yes",
        "preschool": "yes"
      }
    },
    {
      "displayName": "Children's Learning Adventure",
      "id": "childrenslearningadventure-39c780",
      "locationSet": {"include": ["us"]},
      "tags": {
        "after_school": "yes",
        "amenity": "kindergarten",
        "brand": "Children's Learning Adventure",
        "brand:wikidata": "Q64821213",
        "fee": "yes",
        "isced:level": "0",
        "name": "Children's Learning Adventure",
        "nursery": "yes",
        "preschool": "yes",
        "short_name": "CLA"
      }
    },
    {
      "displayName": "Childtime",
      "id": "childtime-39c780",
      "locationSet": {"include": ["us"]},
      "matchNames": [
        "childtime learning center",
        "childtime learning centers"
      ],
      "tags": {
        "amenity": "kindergarten",
        "brand": "Childtime",
        "brand:wikidata": "Q64877793",
        "fee": "yes",
        "isced:level": "0",
        "name": "Childtime",
        "nursery": "yes",
        "preschool": "yes"
      }
    },
    {
      "displayName": "Deutscher Kinderschutzbund",
      "id": "deutscherkinderschutzbund-6709ec",
      "locationSet": {"include": ["de"]},
      "matchNames": ["kinderschutzbund"],
      "tags": {
        "amenity": "kindergarten",
        "brand": "Deutscher Kinderschutzbund",
        "brand:short": "DKSB",
        "brand:wikidata": "Q1205011"
      }
    },
    {
      "displayName": "Deutsches Rotes Kreuz",
      "id": "deutschesroteskreuz-6709ec",
      "locationSet": {"include": ["de"]},
      "matchNames": [
        "deutsches rotes kreuz kreisverband gifhorn e. v.",
        "rotes kreuz"
      ],
      "tags": {
        "amenity": "kindergarten",
        "brand": "Deutsches Rotes Kreuz",
        "brand:short": "DRK",
        "brand:wikidata": "Q694104"
      }
    },
    {
      "displayName": "Diakonie",
      "id": "diakonie-6709ec",
      "locationSet": {"include": ["de"]},
      "tags": {
        "amenity": "kindergarten",
        "brand": "Diakonie",
        "brand:wikidata": "Q126501"
      }
    },
    {
      "displayName": "Guidepost Montessori",
      "id": "guidepostmontessori-b03e52",
      "locationSet": {
        "include": [
          "at",
          "ca",
          "cn",
          "fr",
          "hn",
          "us"
        ]
      },
      "tags": {
        "amenity": "kindergarten",
        "brand": "Guidepost Montessori",
        "brand:wikidata": "Q114840336",
        "name": "Guidepost Montessori"
      }
    },
    {
      "displayName": "Kïdo",
      "id": "kido-0883b2",
      "locationSet": {
        "include": ["ae", "gb", "hk", "in", "us"]
      },
      "tags": {
        "alt_name": "Kido",
        "amenity": "kindergarten",
        "brand": "Kïdo",
        "brand:wikidata": "Q104849185",
        "fee": "yes",
        "isced:level": "0",
        "name": "Kïdo",
        "nursery": "yes",
        "official_name": "Kïdo International Preschool",
        "preschool": "yes"
      }
    },
    {
      "displayName": "Kidsfirst",
      "id": "kidsfirst-06f88c",
      "locationSet": {"include": ["nz"]},
      "tags": {
        "amenity": "kindergarten",
        "brand": "Kidsfirst Kindergartens",
        "brand:wikidata": "Q111022330",
        "name": "Kidsfirst"
      }
    },
    {
      "displayName": "Kindercare (New Zealand)",
      "id": "kindercare-06f88c",
      "locationSet": {"include": ["nz"]},
      "tags": {
        "amenity": "kindergarten",
        "brand": "Kindercare",
        "brand:wikidata": "Q111023246",
        "name": "Kindercare"
      }
    },
    {
      "displayName": "KinderCare (USA)",
      "id": "kindercare-39c780",
      "locationSet": {"include": ["us"]},
      "tags": {
        "after_school": "yes",
        "alt_name": "KinderCare Learning Center",
        "amenity": "kindergarten",
        "brand": "KinderCare",
        "brand:wikidata": "Q6410551",
        "fee": "yes",
        "isced:level": "0",
        "name": "KinderCare",
        "nursery": "yes",
        "preschool": "yes"
      }
    },
    {
      "displayName": "La Petite Academy",
      "id": "lapetiteacademy-39c780",
      "locationSet": {"include": ["us"]},
      "matchNames": ["la petite"],
      "tags": {
        "amenity": "kindergarten",
        "brand": "La Petite Academy",
        "brand:wikidata": "Q64877784",
        "fee": "yes",
        "isced:level": "0",
        "name": "La Petite Academy",
        "nursery": "yes",
        "preschool": "yes"
      }
    },
    {
      "displayName": "Lebenshilfe",
      "id": "lebenshilfe-6709ec",
      "locationSet": {"include": ["de"]},
      "tags": {
        "amenity": "kindergarten",
        "brand": "Lebenshilfe",
        "brand:wikidata": "Q20533"
      }
    },
    {
      "displayName": "Lollipops Educare",
      "id": "lollipopseducare-06f88c",
      "locationSet": {"include": ["nz"]},
      "tags": {
        "amenity": "kindergarten",
        "brand": "Lollipops Educare",
        "brand:wikidata": "Q116824919"
      }
    },
    {
      "displayName": "Merryhill Preschool",
      "id": "merryhillpreschool-39c780",
      "locationSet": {"include": ["us"]},
      "tags": {
        "amenity": "kindergarten",
        "brand": "Merryhill Preschool",
        "brand:wikidata": "Q6820493",
        "fee": "yes",
        "isced:level": "0",
        "name": "Merryhill Preschool"
      }
    },
    {
      "displayName": "New Horizon Academy",
      "id": "newhorizonacademy-39c780",
      "locationSet": {"include": ["us"]},
      "tags": {
        "after_school": "yes",
        "amenity": "kindergarten",
        "brand": "New Horizon Academy",
        "brand:wikidata": "Q64821306",
        "fee": "yes",
        "isced:level": "0",
        "name": "New Horizon Academy",
        "nursery": "yes",
        "preschool": "yes"
      }
    },
    {
      "displayName": "Primrose School",
      "id": "primroseschool-39c780",
      "locationSet": {"include": ["us"]},
      "matchNames": ["primrose"],
      "tags": {
        "after_school": "yes",
        "alt_name": "Primrose Schools",
        "amenity": "kindergarten",
        "brand": "Primrose School",
        "brand:wikidata": "Q7243677",
        "fee": "yes",
        "isced:level": "0",
        "max_age": "12",
        "min_age": "6 weeks",
        "name": "Primrose School",
        "nursery": "yes",
        "preschool": "yes"
      }
    },
    {
      "displayName": "Safari Kid",
      "id": "safarikid-39c780",
      "locationSet": {"include": ["us"]},
      "tags": {
        "amenity": "kindergarten",
        "brand": "Safari Kid",
        "brand:wikidata": "Q104849344",
        "fee": "yes",
        "isced:level": "0",
        "name": "Safari Kid",
        "nursery": "yes",
        "preschool": "yes"
      }
    },
    {
      "displayName": "The Children's Courtyard",
      "id": "thechildrenscourtyard-39c780",
      "locationSet": {"include": ["us"]},
      "matchNames": ["children's courtyard"],
      "tags": {
        "amenity": "kindergarten",
        "brand": "The Children's Courtyard",
        "brand:wikidata": "Q64877852",
        "fee": "yes",
        "isced:level": "0",
        "name": "The Children's Courtyard",
        "nursery": "yes",
        "preschool": "yes"
      }
    },
    {
      "displayName": "The Goddard School",
      "id": "thegoddardschool-39c780",
      "locationSet": {"include": ["us"]},
      "tags": {
        "after_school": "yes",
        "alt_name": "Goddard School",
        "amenity": "kindergarten",
        "brand": "The Goddard School",
        "brand:wikidata": "Q5576260",
        "fee": "yes",
        "isced:level": "0",
        "min_age": "6 weeks",
        "name": "The Goddard School",
        "nursery": "yes",
        "preschool": "yes"
      }
    },
    {
      "displayName": "Tutor Time",
      "id": "tutortime-39c780",
      "locationSet": {"include": ["us"]},
      "matchNames": [
        "tutor time child care",
        "tutor time child care learning center",
        "tutor time learning center",
        "tutor time learning centers"
      ],
      "tags": {
        "amenity": "kindergarten",
        "brand": "Tutor Time",
        "brand:wikidata": "Q64877826",
        "fee": "yes",
        "isced:level": "0",
        "name": "Tutor Time",
        "nursery": "yes",
        "preschool": "yes"
      }
    },
    {
      "displayName": "Volkssolidarität",
      "id": "volkssolidaritat-6709ec",
      "locationSet": {"include": ["de"]},
      "tags": {
        "amenity": "kindergarten",
        "brand": "Volkssolidarität",
        "brand:wikidata": "Q2532186"
      }
    },
    {
      "displayName": "大风车幼儿园",
      "id": "50607a-179cd5",
      "locationSet": {
        "include": ["cn"],
        "exclude": ["hk", "mo"]
      },
      "tags": {
        "amenity": "kindergarten",
        "brand": "大风车幼儿园",
        "brand:wikidata": "Q114390650",
        "fee": "yes",
        "preschool": "yes"
      }
    },
    {
      "displayName": "枫叶小熊",
      "id": "561f33-179cd5",
      "locationSet": {
        "include": ["cn"],
        "exclude": ["hk", "mo"]
      },
      "matchNames": ["枫叶小熊幼儿园", "枫叶熊", "枫叶熊幼儿园"],
      "tags": {
        "amenity": "kindergarten",
        "brand": "枫叶小熊",
        "brand:wikidata": "Q10324823",
        "name": "枫叶小熊",
        "operator:type": "private"
      }
    },
    {
      "displayName": "红缨幼儿园",
      "id": "236d1c-179cd5",
      "locationSet": {
        "include": ["cn"],
        "exclude": ["hk", "mo"]
      },
      "tags": {
        "amenity": "kindergarten",
        "brand": "红缨幼儿园",
        "brand:wikidata": "Q114390577",
        "fee": "yes",
        "preschool": "yes"
      }
    },
    {
      "displayName": "红黄蓝幼儿园",
      "id": "rybeducation-179cd5",
      "locationSet": {
        "include": ["cn"],
        "exclude": ["hk", "mo"]
      },
      "tags": {
        "amenity": "kindergarten",
        "brand": "红黄蓝幼儿园",
        "brand:en": "RYB Education",
        "brand:wikidata": "Q43452224",
        "brand:zh": "红黄蓝幼儿园",
        "fee": "yes",
        "name": "红黄蓝幼儿园",
        "name:en": "RYB Education",
        "name:zh": "红黄蓝幼儿园",
        "preschool": "yes"
      }
    }
  ]
}
