{
  "properties": {
    "path": "brands/amenity/language_school",
    "preserveTags": ["^name"],
    "exclude": {"generic": ["^language school$"]}
  },
  "items": [
    {
      "displayName": "AEON",
      "id": "aeon-411869",
      "locationSet": {"include": ["jp"]},
      "tags": {
        "amenity": "language_school",
        "brand": "AEON",
        "brand:en": "Aeon",
        "brand:ja": "AEON",
        "brand:ja-Hira": "イーオン",
        "brand:ja-Latn": "AEON",
        "brand:wikidata": "Q4687898",
        "language:en": "main",
        "name": "AEON",
        "name:en": "Aeon",
        "name:ja": "AEON",
        "name:ja-Hira": "イーオン",
        "name:ja-Latn": "AEON"
      }
    },
    {
      "displayName": "Berlitz",
      "id": "berlitz-ce4245",
      "locationSet": {"include": ["001"]},
      "tags": {
        "amenity": "language_school",
        "brand": "Berlitz",
        "brand:wikidata": "Q821960",
        "name": "Berlitz"
      }
    },
    {
      "displayName": "CCAA",
      "id": "ccaa-d56926",
      "locationSet": {"include": ["br"]},
      "tags": {
        "amenity": "language_school",
        "brand": "CCAA",
        "brand:wikidata": "Q9669735",
        "language:en": "yes",
        "language:es": "yes",
        "name": "CCAA"
      }
    },
    {
      "displayName": "CNA",
      "id": "cna-d56926",
      "locationSet": {"include": ["br"]},
      "tags": {
        "amenity": "language_school",
        "brand": "CNA",
        "brand:wikidata": "Q18465698",
        "language:en": "main",
        "language:es": "yes",
        "name": "CNA"
      }
    },
    {
      "displayName": "Cultura Inglesa",
      "id": "culturainglesa-d56926",
      "locationSet": {"include": ["br"]},
      "tags": {
        "amenity": "language_school",
        "brand": "Cultura Inglesa",
        "brand:wikidata": "Q777467",
        "language:en": "main",
        "name": "Cultura Inglesa"
      }
    },
    {
      "displayName": "ECC外語学院",
      "id": "eccforeignlanguageinstitute-411869",
      "locationSet": {"include": ["jp"]},
      "tags": {
        "amenity": "language_school",
        "brand": "ECC外語学院",
        "brand:en": "ECC Foreign Language Institute",
        "brand:ja": "ECC外語学院",
        "brand:ja-Hira": "イーシーシーがいごがくいん",
        "brand:ja-Latn": "ECC Gaigo Gakuin",
        "brand:wikidata": "Q5322655",
        "language:en": "main",
        "name": "ECC外語学院",
        "name:en": "ECC Foreign Language Institute",
        "name:ja": "ECC外語学院",
        "name:ja-Hira": "イーシーシーがいごがくいん",
        "name:ja-Latn": "ECC Gaigo Gakuin",
        "short_name": "ECC",
        "short_name:en": "ECC",
        "short_name:ja": "ECC",
        "short_name:ja-Hira": "イーシーシー",
        "short_name:ja-Latn": "ECC"
      }
    },
    {
      "displayName": "ELS",
      "id": "els-89568f",
      "locationSet": {
        "include": [
          "ca",
          "in",
          "my",
          "pa",
          "sa",
          "tr",
          "us",
          "vn"
        ]
      },
      "tags": {
        "amenity": "language_school",
        "brand": "ELS",
        "brand:en": "ELS",
        "brand:wikidata": "Q5323325",
        "language:en": "main",
        "name": "ELS",
        "name:en": "ELS",
        "official_name": "ELS Language Centers",
        "official_name:en": "ELS Language Centers"
      }
    },
    {
      "displayName": "Fisk",
      "id": "fisk-d56926",
      "locationSet": {"include": ["br"]},
      "tags": {
        "amenity": "language_school",
        "brand": "Fisk",
        "brand:wikidata": "Q10286392",
        "language:en": "yes",
        "language:es": "yes",
        "name": "Fisk"
      }
    },
    {
      "displayName": "GABA",
      "id": "gaba-411869",
      "locationSet": {"include": ["jp"]},
      "tags": {
        "amenity": "language_school",
        "brand": "GABA",
        "brand:en": "Gaba",
        "brand:ja": "GABA",
        "brand:ja-Kana": "ガバ",
        "brand:ja-Latn": "GABA",
        "brand:wikidata": "Q5515241",
        "language:en": "main",
        "name": "GABA",
        "name:en": "Gaba",
        "name:ja": "GABA",
        "name:ja-Kana": "ガバ",
        "name:ja-Latn": "GABA"
      }
    },
    {
      "displayName": "NOVA",
      "id": "nova-411869",
      "locationSet": {"include": ["jp"]},
      "tags": {
        "amenity": "language_school",
        "brand": "NOVA",
        "brand:en": "Nova",
        "brand:ja": "NOVA",
        "brand:ja-Hira": "ノヴァ",
        "brand:ja-Latn": "NOVA",
        "brand:wikidata": "Q7064000",
        "language:en": "main",
        "name": "NOVA",
        "name:en": "Nova",
        "name:ja": "NOVA",
        "name:ja-Hira": "ノヴァ",
        "name:ja-Latn": "NOVA"
      }
    },
    {
      "displayName": "Shane English School",
      "id": "shaneenglishschool-f8b177",
      "locationSet": {
        "include": [
          "dz",
          "gb",
          "hk",
          "id",
          "kr",
          "pl",
          "th",
          "vn"
        ]
      },
      "tags": {
        "amenity": "language_school",
        "brand": "Shane English School",
        "brand:en": "Shane English School",
        "brand:ja": "シェーン英会話",
        "brand:ja-Latn": "Shēn Eikaiwa",
        "brand:wikidata": "Q17054332",
        "language:en": "main",
        "name": "Shane English School",
        "name:en": "Shane English School",
        "name:ja": "シェーン英会話",
        "name:ja-Latn": "Shēn Eikaiwa"
      }
    },
    {
      "displayName": "Wizard",
      "id": "wizard-d56926",
      "locationSet": {"include": ["br"]},
      "matchNames": ["wizard by pearson"],
      "tags": {
        "amenity": "language_school",
        "brand": "Wizard",
        "brand:wikidata": "Q10393925",
        "name": "Wizard"
      }
    },
    {
      "displayName": "シェーン英会話",
      "id": "shaneenglishschool-411869",
      "locationSet": {"include": ["jp"]},
      "tags": {
        "amenity": "language_school",
        "brand": "シェーン英会話",
        "brand:en": "Shane English School",
        "brand:ja": "シェーン英会話",
        "brand:ja-Latn": "Shēn Eikaiwa",
        "brand:wikidata": "Q17054332",
        "language:en": "main",
        "name": "シェーン英会話",
        "name:en": "Shane English School",
        "name:ja": "シェーン英会話",
        "name:ja-Latn": "Shēn Eikaiwa"
      }
    },
    {
      "displayName": "セイハ英語学院",
      "id": "seihaenglishacademy-411869",
      "locationSet": {"include": ["jp"]},
      "tags": {
        "amenity": "language_school",
        "brand": "セイハ英語学院",
        "brand:en": "Seiha English Academy",
        "brand:ja": "セイハ英語学院",
        "brand:ja-Hani": "セイハえいごがくいん",
        "brand:ja-Latn": "Seiha Eigo Gakuin",
        "brand:wikidata": "Q7446694",
        "language:en": "main",
        "name": "セイハ英語学院",
        "name:en": "Seiha English Academy",
        "name:ja": "セイハ英語学院",
        "name:ja-Hani": "セイハえいごがくいん",
        "name:ja-Latn": "Seiha Eigo Gakuin"
      }
    },
    {
      "displayName": "ペッピーキッズクラブ",
      "id": "peppykidsclub-411869",
      "locationSet": {"include": ["jp"]},
      "tags": {
        "amenity": "language_school",
        "brand": "ペッピーキッズクラブ",
        "brand:en": "Peppy Kids Club",
        "brand:ja": "ペッピーキッズクラブ",
        "brand:ja-Latn": "Peppi Kizzu Kurabu",
        "brand:wikidata": "Q7166471",
        "language:en": "main",
        "name": "ペッピーキッズクラブ",
        "name:en": "Peppy Kids Club",
        "name:ja": "ペッピーキッズクラブ",
        "name:ja-Latn": "Peppi Kizzu Kurabu"
      }
    },
    {
      "displayName": "ベルリッツ",
      "id": "berlitz-411869",
      "locationSet": {"include": ["jp"]},
      "tags": {
        "amenity": "language_school",
        "brand": "ベルリッツ",
        "brand:en": "Berlitz",
        "brand:ja": "ベルリッツ",
        "brand:ja-Hira": "ベルリッツ",
        "brand:wikidata": "Q4892545",
        "name": "ベルリッツ",
        "name:en": "Berlitz",
        "name:ja": "ベルリッツ",
        "name:ja-Hira": "ベルリッツ"
      }
    },
    {
      "displayName": "地球村文教機構",
      "id": "globalvillageorganization-85e50b",
      "locationSet": {"include": ["tw"]},
      "matchNames": [
        "gvo",
        "milton institute",
        "地球村美日韓語",
        "美爾頓證照檢定"
      ],
      "tags": {
        "amenity": "language_school",
        "brand": "地球村",
        "brand:en": "Global Village Organization",
        "brand:wikidata": "Q65681329",
        "brand:zh": "地球村",
        "name": "地球村",
        "name:en": "Global Village Organization",
        "name:zh": "地球村"
      }
    },
    {
      "displayName": "夏恩英語學校",
      "id": "shaneenglishschool-85e50b",
      "locationSet": {"include": ["tw"]},
      "tags": {
        "amenity": "language_school",
        "brand": "夏恩英語學校",
        "brand:en": "Shane English School",
        "brand:wikidata": "Q17054332",
        "brand:zh": "夏恩英語學校",
        "language:en": "main",
        "name": "夏恩英語學校",
        "name:en": "Shane English School",
        "name:zh": "夏恩英語學校"
      }
    },
    {
      "displayName": "夏恩英语学校",
      "id": "shaneenglishschool-ffc9b7",
      "locationSet": {"include": ["cn"]},
      "tags": {
        "amenity": "language_school",
        "brand": "夏恩英语学校",
        "brand:en": "Shane English School",
        "brand:wikidata": "Q17054332",
        "brand:zh": "夏恩英语学校",
        "language:en": "main",
        "name": "夏恩英语学校",
        "name:en": "Shane English School",
        "name:zh": "夏恩英语学校"
      }
    },
    {
      "displayName": "巨匠東大日語",
      "id": "gjun-85e50b",
      "locationSet": {"include": ["tw"]},
      "tags": {
        "amenity": "language_school",
        "brand": "巨匠教育",
        "brand:en": "Gjun",
        "brand:wikidata": "Q11057516",
        "brand:zh": "巨匠教育",
        "name": "巨匠東大日語",
        "name:zh": "巨匠東大日語"
      }
    },
    {
      "displayName": "巨匠美語",
      "id": "gjunenglish-85e50b",
      "locationSet": {"include": ["tw"]},
      "tags": {
        "amenity": "language_school",
        "brand": "巨匠教育",
        "brand:en": "Gjun",
        "brand:wikidata": "Q11057516",
        "brand:zh": "巨匠教育",
        "name": "巨匠美語",
        "name:en": "Gjun English",
        "name:zh": "巨匠美語"
      }
    },
    {
      "displayName": "新东方",
      "id": "neworientaleducation-ffc9b7",
      "locationSet": {"include": ["cn"]},
      "tags": {
        "amenity": "language_school",
        "brand": "新东方",
        "brand:en": "New Oriental Education",
        "brand:wikidata": "Q13631921",
        "brand:zh": "新东方",
        "name": "新东方",
        "name:en": "New Oriental Education",
        "name:zh": "新东方"
      }
    },
    {
      "displayName": "樱花日语",
      "id": "sakurajp-ffc9b7",
      "locationSet": {"include": ["cn"]},
      "tags": {
        "amenity": "language_school",
        "brand": "樱花日语",
        "brand:en": "Sakura JP",
        "brand:ja": "桜にほんご",
        "brand:wikidata": "Q7403164",
        "brand:zh": "樱花日语",
        "name": "樱花日语",
        "name:en": "Sakura JP",
        "name:ja": "桜にほんご",
        "name:zh": "樱花日语"
      }
    }
  ]
}
