{
  "properties": {
    "path": "brands/amenity/music_school",
    "preserveTags": ["^name"],
    "exclude": {
      "generic": [
        "^(music school|école de musique|музыкальная школа)$",
        "^musikschule$",
        "^琴行$"
      ]
    }
  },
  "items": [
    {
      "displayName": "School of Rock",
      "id": "schoolofrock-30810a",
      "locationSet": {
        "include": [
          "au",
          "br",
          "ca",
          "cl",
          "co",
          "es",
          "mx",
          "pe",
          "ph",
          "py",
          "us",
          "za"
        ]
      },
      "tags": {
        "amenity": "music_school",
        "brand": "School of Rock",
        "brand:wikidata": "Q7756376",
        "name": "School of Rock"
      }
    },
    {
      "displayName": "Yamaha音樂教室",
      "id": "yamahamusicschool-fc8739",
      "locationSet": {"include": ["tw"]},
      "tags": {
        "amenity": "music_school",
        "brand": "Yamaha音樂教室",
        "brand:en": "Yamaha Music School",
        "brand:ja": "ヤマハ音楽教室",
        "brand:wikidata": "Q90327852",
        "brand:zh": "Yamaha音樂教室",
        "name": "Yamaha音樂教室",
        "name:en": "Yamaha Music School",
        "name:ja": "ヤマハ音楽教室",
        "name:zh": "Yamaha音樂教室"
      }
    },
    {
      "displayName": "ヤマハ音楽教室",
      "id": "yamahamusicschool-dc9529",
      "locationSet": {"include": ["jp"]},
      "tags": {
        "amenity": "music_school",
        "brand": "ヤマハ音楽教室",
        "brand:en": "Yamaha Music School",
        "brand:ja": "ヤマハ音楽教室",
        "brand:ja-Latn": "Yamaha Ongaku Kyōshitsu",
        "brand:wikidata": "Q90327852",
        "name": "ヤマハ音楽教室",
        "name:en": "Yamaha Music School",
        "name:ja": "ヤマハ音楽教室",
        "name:ja-Latn": "Yamaha Ongaku Kyōshitsu"
      }
    },
    {
      "displayName": "搖滾教室",
      "id": "schoolofrock-fc8739",
      "locationSet": {"include": ["tw"]},
      "tags": {
        "amenity": "music_school",
        "brand": "搖滾教室",
        "brand:en": "School of Rock",
        "brand:wikidata": "Q7756376",
        "brand:zh": "搖滾教室",
        "name": "搖滾教室",
        "name:en": "School of Rock",
        "name:zh": "搖滾教室"
      }
    }
  ]
}
