{
  "properties": {
    "path": "brands/amenity/parking",
    "skipCollection": true,
    "preserveTags": ["^name"],
    "exclude": {
      "generic": [
        "^parking( lot)?$",
        "^visitor parking$",
        "^автостоянка$",
        "^парковка$",
        "^停车场$"
      ],
      "named": ["^lot \\d+$"]
    }
  },
  "items": [
    {
      "displayName": "D-Parking",
      "id": "dparking-9f17fa",
      "locationSet": {"include": ["jp"]},
      "tags": {
        "amenity": "parking",
        "brand": "D-Parking",
        "brand:en": "D-Parking",
        "brand:ja": "Dパーキング",
        "brand:wikidata": "Q117337694",
        "fee": "yes",
        "name": "Dパーキング",
        "name:en": "D-Parking",
        "name:ja": "Dパーキング"
      }
    },
    {
      "displayName": "俥亭停車",
      "locationSet": {"include": ["tw"]},
      "matchNames": ["日月亭", "俥亭"],
      "tags": {
        "amenity": "parking",
        "brand": "俥亭停車",
        "brand:en": "youparking",
        "brand:zh": "俥亭停車",
        "brand:wikidata": "Q132009628",
        "fee": "yes",
        "name": "俥亭停車",
        "name:en": "youparking",
        "name:ja": "俥亭停車"
      }
    },
    {
      "displayName": "和雲行動",
      "locationSet": {"include": ["tw"]},
      "tags": {
        "amenity": "parking",
        "brand": "和雲行動",
        "brand:en": "Hi parking",
        "brand:zh": "和雲行動",
        "brand:wikidata": "Q132008893",
        "fee": "yes",
        "name": "和雲行動",
        "name:en": "Hi parking",
        "name:ja": "和雲行動",
        "operator": "和泰汽車",
        "operator:en": "Hotai Motor",
        "operator:wikidata": "Q10921598",
        "operator:zh": "和泰汽車"
      }
    },
    {
      "displayName": "JustPark",
      "id": "justpark-aa7823",
      "locationSet": {"include": ["gb"]},
      "tags": {
        "amenity": "parking",
        "brand": "JustPark",
        "brand:wikidata": "Q17143517",
        "fee": "yes"
      }
    }
  ]
}
