{
  "properties": {
    "path": "brands/amenity/payment_centre",
    "exclude": {"generic": ["^payment centre$"]}
  },
  "items": [
    {
      "displayName": "Abitab",
      "id": "abitab-80cf76",
      "locationSet": {"include": ["uy"]},
      "matchTags": ["amenity/bureau_de_change"],
      "tags": {
        "amenity": "payment_centre",
        "brand": "Abitab",
        "brand:wikidata": "Q16488129",
        "name": "Abitab"
      }
    },
    {
      "displayName": "EasyPay",
      "id": "easypay-56e7b3",
      "locationSet": {"include": ["bg"]},
      "matchNames": ["изипей"],
      "tags": {
        "alt_name": "Easy Pay",
        "amenity": "payment_centre",
        "brand": "EasyPay",
        "brand:wikidata": "Q110583289",
        "name": "EasyPay"
      }
    },
    {
      "displayName": "FastPay",
      "id": "fastpay-56e7b3",
      "locationSet": {"include": ["bg"]},
      "tags": {
        "alt_name": "Fast Pay",
        "alt_name:bg": "Фаст пей",
        "amenity": "payment_centre",
        "brand": "FastPay",
        "brand:wikidata": "Q110583280",
        "name": "FastPay",
        "name:bg": "Фастпей"
      }
    },
    {
      "displayName": "N Kolay",
      "id": "nkolay-18647a",
      "locationSet": {"include": ["tr"]},
      "tags": {
        "amenity": "payment_centre",
        "brand": "N Kolay",
        "brand:wikidata": "Q106802151",
        "name": "N Kolay"
      }
    },
    {
      "displayName": "Pago Fácil",
      "id": "pagofacil-8bbf0d",
      "locationSet": {"include": ["ar"]},
      "tags": {
        "amenity": "payment_centre",
        "brand": "Pago Fácil",
        "name": "Pago Fácil"
      }
    },
    {
      "displayName": "Rapipago",
      "id": "rapipago-8bbf0d",
      "locationSet": {"include": ["ar"]},
      "tags": {
        "amenity": "payment_centre",
        "brand": "Rapipago",
        "brand:wikidata": "Q6100413",
        "name": "Rapipago"
      }
    },
    {
      "displayName": "U Super Service Center",
      "locationSet": {"include": ["ph"]},
      "matchNames": ["ussc", "Universal Storefront Services Corporation"],
      "matchTags": ["amenity/bureau_de_change"],
      "tags": {
        "amenity": "payment_centre",
        "brand": "USSC",
        "brand:wikidata": "Q120679538",
        "bureau_de_change": "yes",
        "money_transfer": "money_gram;remitly;ria;uniteller;xoom;western_union",
        "name": "U Super Service Center",
        "official_name": "Universal Storefront Services Corporation"
      }
    }
  ]
}
