{
  "properties": {
    "path": "brands/amenity/photo_booth",
    "exclude": {"generic": ["^photo booth$"]}
  },
  "items": [
    {
      "displayName": "Boft",
      "id": "boft-13e05a",
      "locationSet": {"include": ["ru"]},
      "tags": {
        "amenity": "photo_booth",
        "brand": "Boft",
        "name": "Boft"
      }
    },
    {
      "displayName": "Fotofix",
      "id": "fotofix-d0be2e",
      "locationSet": {"include": ["de"]},
      "tags": {
        "amenity": "photo_booth",
        "brand": "Fotofix",
        "name": "Fotofix"
      }
    },
    {
      "displayName": "Ki-Re-i",
      "id": "kirei-23c114",
      "locationSet": {"include": ["jp"]},
      "tags": {
        "amenity": "photo_booth",
        "brand": "Ki-Re-i",
        "name": "Ki-Re-i"
      }
    },
    {
      "displayName": "Max Spielmann photo booth",
      "id": "maxspielmann-72d3a7",
      "locationSet": {"include": ["gb"]},
      "tags": {
        "amenity": "photo_booth",
        "brand": "Max Spielmann",
        "brand:wikidata": "Q76221051",
        "name": "Max Spielmann"
      }
    },
    {
      "displayName": "Photo Signature",
      "id": "photosignature-901b40",
      "locationSet": {"include": ["kr"]},
      "tags": {
        "amenity": "photo_booth",
        "brand": "Photo Signature",
        "brand:en": "Photo Signature",
        "brand:ko": "포토시그니처",
        "brand:wikidata": "Q120989590",
        "name": "Photo Signature",
        "name:en": "Photo Signature",
        "name:ko": "포토시그니처"
      }
    },
    {
      "displayName": "Photo-Me",
      "id": "photome-c17fc9",
      "locationSet": {
        "include": ["gb", "ie", "nl"]
      },
      "matchTags": ["shop/photo"],
      "tags": {
        "amenity": "photo_booth",
        "brand": "Photo-Me",
        "brand:wikidata": "Q123456627",
        "name": "Photo-Me"
      }
    },
    {
      "displayName": "Photomaton",
      "id": "photomaton-94071a",
      "locationSet": {"include": ["fr"]},
      "tags": {
        "amenity": "photo_booth",
        "brand": "Photomaton",
        "brand:wikidata": "Q27847769",
        "name": "Photomaton"
      }
    },
    {
      "displayName": "Prontophot",
      "id": "prontophot-84b0f3",
      "locationSet": {"include": ["at", "ch"]},
      "tags": {
        "amenity": "photo_booth",
        "brand": "Prontophot",
        "brand:wikidata": "Q123401542",
        "name": "Prontophot"
      }
    },
    {
      "displayName": "인생네컷",
      "id": "life4cut-901b40",
      "locationSet": {"include": ["kr"]},
      "tags": {
        "amenity": "photo_booth",
        "brand": "인생네컷",
        "brand:en": "Life4Cut",
        "brand:ko": "인생네컷",
        "brand:wikidata": "Q120990259",
        "name": "인생네컷",
        "name:en": "Life4Cut",
        "name:ko": "인생네컷"
      }
    }
  ]
}
