{
  "properties": {
    "path": "brands/amenity/post_depot",
    "skipCollection": true,
    "preserveTags": ["^name"],
    "exclude": {"generic": ["^post depot$"]}
  },
  "items": [
    {
      "displayName": "Amazon",
      "id": "amazon-2083a7",
      "locationSet": {"include": ["001"]},
      "tags": {
        "amenity": "post_depot",
        "brand": "Amazon",
        "brand:wikidata": "Q3884",
        "brand:wikipedia": "en:Amazon (company)",
        "operator": "Amazon",
        "operator:type": "private",
        "operator:wikidata": "Q3884",
        "operator:wikipedia": "en:Amazon (company)"
      }
    },
    {
      "displayName": "DHL",
      "id": "dhl-2083a7",
      "locationSet": {"include": ["001"]},
      "tags": {
        "amenity": "post_depot",
        "brand": "DHL",
        "brand:wikidata": "Q489815",
        "brand:wikipedia": "de:DHL",
        "name": "DHL",
        "operator": "DHL",
        "operator:type": "private",
        "operator:wikidata": "Q489815",
        "operator:wikipedia": "de:DHL"
      }
    },
    {
      "displayName": "DPD",
      "id": "dpd-2083a7",
      "locationSet": {"include": ["001"]},
      "matchNames": [
        "dpd dynamic parcel distribution"
      ],
      "tags": {
        "amenity": "post_depot",
        "brand": "DPD",
        "brand:wikidata": "Q541030",
        "brand:wikipedia": "de:DPDgroup",
        "name": "DPD",
        "operator": "DPD",
        "operator:type": "private",
        "operator:wikidata": "Q541030",
        "operator:wikipedia": "de:DPDgroup"
      }
    },
    {
      "displayName": "FedEx",
      "id": "fedex-2083a7",
      "locationSet": {"include": ["001"]},
      "matchNames": ["federal express"],
      "tags": {
        "amenity": "post_depot",
        "brand": "FedEx",
        "brand:wikidata": "Q459477",
        "brand:wikipedia": "en:FedEx",
        "operator": "FedEx",
        "operator:type": "private",
        "operator:wikidata": "Q459477",
        "operator:wikipedia": "en:FedEx"
      }
    },
    {
      "displayName": "Royal Mail",
      "id": "royalmail-d5dfdd",
      "locationSet": {"include": ["gb"]},
      "tags": {
        "amenity": "post_depot",
        "brand": "Royal Mail",
        "brand:wikidata": "Q638098",
        "brand:wikipedia": "en:Royal Mail",
        "name": "Royal Mail",
        "operator": "Royal Mail",
        "operator:type": "private",
        "operator:wikidata": "Q638098",
        "operator:wikipedia": "en:Royal Mail"
      }
    },
    {
      "displayName": "UPS",
      "id": "ups-2083a7",
      "locationSet": {"include": ["001"]},
      "matchNames": ["united parcel service"],
      "tags": {
        "amenity": "post_depot",
        "brand": "UPS",
        "brand:wikidata": "Q155026",
        "brand:wikipedia": "en:United Parcel Service",
        "operator": "UPS",
        "operator:type": "private",
        "operator:wikidata": "Q155026",
        "operator:wikipedia": "en:United Parcel Service"
      }
    },
    {
      "displayName": "Yodel",
      "id": "yodel-d5dfdd",
      "locationSet": {"include": ["gb"]},
      "matchNames": [
        "hdn",
        "home delivery network"
      ],
      "tags": {
        "amenity": "post_depot",
        "brand": "Yodel",
        "brand:type": "private",
        "brand:wikidata": "Q17020712",
        "brand:wikipedia": "en:Yodel (company)",
        "name": "Yodel",
        "operator": "Yodel",
        "operator:type": "private",
        "operator:wikidata": "Q17020712",
        "operator:wikipedia": "en:Yodel (company)"
      }
    }
  ]
}
