{
  "brands/amenity/pub": [
    {
      "displayName": "Brewers Fayre",
      "id": "brewersfayre-eaed91",
      "locationSet": {"include": ["gb"]},
      "tags": {
        "amenity": "pub",
        "brand": "Brewers Fayre",
        "brand:wikidata": "Q4962678",
        "brand:wikipedia": "en:Brewers Fayre",
        "cuisine": "british"
      }
    },
    {
      "displayName": "Chef & Brewer",
      "id": "chefandbrewer-eaed91",
      "locationSet": {"include": ["gb"]},
      "tags": {
        "amenity": "pub",
        "brand": "Chef & Brewer",
        "brand:wikidata": "Q5089491",
        "brand:wikipedia": "en:Chef & Brewer"
      }
    },
    {
      "displayName": "Ezītis miglā",
      "id": "ezitismigla-f4b906",
      "locationSet": {"include": ["lv"]},
      "tags": {
        "amenity": "pub",
        "brand": "Ezītis miglā",
        "name": "Ezītis miglā"
      }
    },
    {
      "displayName": "Fuller's",
      "id": "fullers-eaed91",
      "locationSet": {"include": ["gb"]},
      "note": "No name for Fuller's brand as each pub is named differently.",
      "tags": {
        "amenity": "pub",
        "brand": "Fuller's",
        "brand:wikidata": "Q5253950",
        "brand:wikipedia": "en:Fuller's Brewery"
      }
    },
    {
      "displayName": "Hall & Woodhouse",
      "id": "hallandwoodhouse-eaed91",
      "locationSet": {"include": ["gb"]},
      "tags": {
        "amenity": "pub",
        "brand": "Hall & Woodhouse",
        "brand:wikidata": "Q5642555",
        "brand:wikipedia": "en:Hall & Woodhouse"
      }
    },
    {
      "displayName": "Hungry Horse",
      "id": "hungryhorse-eaed91",
      "locationSet": {"include": ["gb"]},
      "tags": {
        "amenity": "pub",
        "brand": "Hungry Horse",
        "brand:wikidata": "Q5943510",
        "brand:wikipedia": "en:Hungry Horse"
      }
    },
    {
      "displayName": "MásQMenos",
      "id": "masqmenos-575688",
      "locationSet": {
        "include": ["es", "fr", "gb"]
      },
      "tags": {
        "amenity": "pub",
        "brand": "MásQMenos",
        "brand:wikidata": "Q98504930",
        "cuisine": "tapas",
        "name": "MásQMenos"
      }
    },
    {
      "displayName": "Pitcher & Piano",
      "id": "pitcherandpiano-eaed91",
      "locationSet": {"include": ["gb"]},
      "tags": {
        "amenity": "pub",
        "brand": "Pitcher & Piano",
        "brand:wikidata": "Q65930663",
        "cuisine": "british",
        "name": "Pitcher & Piano"
      }
    },
    {
      "displayName": "Toddy Shop",
      "id": "toddyshop-fb2db4",
      "locationSet": {"include": ["in"]},
      "tags": {
        "amenity": "pub",
        "brand": "Toddy Shop",
        "brand:wikidata": "Q7812761",
        "brand:wikipedia": "en:Toddy Shop",
        "drink:palm_wine": "yes",
        "name": "Toddy Shop"
      }
    },
    {
      "displayName": "Walkabout",
      "id": "walkabout-eaed91",
      "locationSet": {"include": ["gb"]},
      "tags": {
        "amenity": "pub",
        "brand": "Walkabout",
        "brand:wikidata": "Q7962149",
        "brand:wikipedia": "en:Walkabout (pub chain)",
        "name": "Walkabout"
      }
    },
    {
      "displayName": "Wetherspoon",
      "id": "wetherspoon-eaed91",
      "locationSet": {"include": ["gb"]},
      "matchNames": [
        "jd wetherspoon",
        "jd wetherspoons",
        "wetherspoons"
      ],
      "note": "Company is known as 'JD Wetherspoon', but current branding seems to be just 'Wetherspoon' as of Sept 2020. No social media is available for this brand, no name is set as each pub is named differently.",
      "tags": {
        "amenity": "pub",
        "brand": "Wetherspoon",
        "brand:wikidata": "Q6109362",
        "brand:wikipedia": "en:Wetherspoons"
      }
    },
    {
      "displayName": "つぼ八",
      "id": "tsubohachi-0435b9",
      "locationSet": {"include": ["jp"]},
      "tags": {
        "amenity": "pub",
        "brand": "つぼ八",
        "brand:en": "Tsubohachi",
        "brand:ja": "つぼ八",
        "brand:wikidata": "Q11272459",
        "brand:wikipedia": "ja:つぼ八",
        "name": "つぼ八",
        "name:en": "Tsubohachi",
        "name:ja": "つぼ八"
      }
    },
    {
      "displayName": "はなの舞",
      "id": "hananomai-0435b9",
      "locationSet": {"include": ["jp"]},
      "tags": {
        "amenity": "pub",
        "brand": "はなの舞",
        "brand:en": "Hananomai",
        "brand:ja": "はなの舞",
        "brand:wikidata": "Q88384850",
        "name": "はなの舞",
        "name:en": "Hananomai",
        "name:ja": "はなの舞"
      }
    },
    {
      "displayName": "和民",
      "id": "watami-0435b9",
      "locationSet": {"include": ["jp"]},
      "tags": {
        "amenity": "pub",
        "brand": "和民",
        "brand:en": "Watami",
        "brand:ja": "和民",
        "brand:wikidata": "Q10921591",
        "brand:wikipedia": "ja:ワタミ",
        "name": "和民",
        "name:en": "Watami",
        "name:ja": "和民"
      }
    },
    {
      "displayName": "白木屋",
      "id": "shirokiya-0435b9",
      "locationSet": {"include": ["jp"]},
      "tags": {
        "amenity": "pub",
        "brand": "白木屋",
        "brand:en": "Shirokiya",
        "brand:ja": "白木屋",
        "brand:wikidata": "Q489746",
        "brand:wikipedia": "ja:白木屋 (居酒屋)",
        "name": "白木屋",
        "name:en": "Shirokiya",
        "name:ja": "白木屋"
      }
    },
    {
      "displayName": "笑笑",
      "id": "warawara-0435b9",
      "locationSet": {"include": ["jp"]},
      "tags": {
        "amenity": "pub",
        "brand": "笑笑",
        "brand:en": "Warawara",
        "brand:ja": "笑笑",
        "brand:wikidata": "Q87214327",
        "name": "笑笑",
        "name:en": "Warawara",
        "name:ja": "笑笑"
      }
    },
    {
      "displayName": "風来坊",
      "id": "furaibo-0435b9",
      "locationSet": {"include": ["jp"]},
      "tags": {
        "amenity": "pub",
        "brand": "風来坊",
        "brand:en": "Furaibo",
        "brand:ja": "風来坊",
        "brand:wikidata": "Q22129759",
        "brand:wikipedia": "ja:風来坊",
        "name": "風来坊",
        "name:en": "Furaibo",
        "name:ja": "風来坊"
      }
    },
    {
      "displayName": "養老乃瀧",
      "id": "yoronotaki-0435b9",
      "locationSet": {"include": ["jp"]},
      "tags": {
        "amenity": "pub",
        "brand": "養老乃瀧",
        "brand:en": "Yoronotaki",
        "brand:ja": "養老乃瀧",
        "brand:wikidata": "Q11666874",
        "brand:wikipedia": "ja:養老乃瀧",
        "name": "養老乃瀧",
        "name:en": "Yoronotaki",
        "name:ja": "養老乃瀧"
      }
    },
    {
      "displayName": "魚民",
      "id": "uotami-0435b9",
      "locationSet": {"include": ["jp"]},
      "tags": {
        "amenity": "pub",
        "brand": "魚民",
        "brand:en": "Uotami",
        "brand:ja": "魚民",
        "brand:wikidata": "Q11673981",
        "brand:wikipedia": "ja:魚民",
        "name": "魚民",
        "name:en": "Uotami",
        "name:ja": "魚民"
      }
    },
    {
      "displayName": "鳥貴族",
      "id": "torikizoku-0435b9",
      "locationSet": {"include": ["jp"]},
      "tags": {
        "amenity": "pub",
        "brand": "鳥貴族",
        "brand:en": "Torikizoku",
        "brand:ja": "鳥貴族",
        "brand:wikidata": "Q11675129",
        "brand:wikipedia": "ja:鳥貴族",
        "name": "鳥貴族",
        "name:en": "Torikizoku",
        "name:ja": "鳥貴族"
      }
    }
  ]
}