{
  "properties": {
    "path": "brands/amenity/restaurant",
    "exclude": {
      "generic": [
        "^(bistro|buffet|büfé|fast food|food court|kantine|restaurant|resto|taverna|trattoria|warung)$",
        "^(chifa|chinese restaurant)$",
        "^(pancake|steak)( house)?$",
        "^(ресторан|столовая)$",
        "^(早点|早餐店)$",
        "^caf[eé](t[eé]r[ií]a)?$",
        "^garba(drome)?$",
        "^pizz(ari|eri)?a$",
        "^restaurant(e)?(\\suniversit(ário|aire))?$",
        "^sushi\\s?(bar|house)?$",
        "^رستوران$",
        "^مطعم$",
        "^食堂$"
      ],
      "named": [
        "^((da|la|las|el|ristorante|zum|zur)\\s)",
        "^((gasthaus|gasthof|schwarzer)?\\s?(adler|krone|löwen|zur (linde|post)))$",
        "^(ali baba|adria|alte post|akropolis|amici|aroma|artemis|asia|athen|athos|bahnhof|bamboo|bären|bella (vista|napoli))$",
        "^(belvedere|boathouse|the boathouse|brasserie|canteen|cantina|capri|carpe diem|casa\\s?(blanca|mia)|casino|comedor|comida china)$",
        "^(china (buffet|city|express|garden|house|king|palace|star|town))$",
        "^(delphi|deutsches haus|dhaba|dionysos|dolce vita|don camillo|dorfkrug|europa|frohsinn)$",
        "^(golden dragon|great wall|grüner baum|hellas|hirsch(en)?|hong kong|happy garden)$",
        "^(indian palace|ichiban|il giardino|istanbul|italia|jade garden|jägerhof)$",
        "^(kirchenwirt|koliba|kreta|kreuz|krone|lamm|le (bistrot|patio))$",
        "^(l'escale|lemongrass|linde|lindenhof|little (italy|india)|los (amigos|arcos))$",
        "^(lotus|löwen|maharaja|mamma mia|mandarin|marco polo|marmaris|mediterraneo|mensa|milano|mykonos|mythos)$",
        "^(namaste|napoli|new china|oasis|ochsen|olympia|osaka|panorama|paradise|parrilla|peking|pho|pinocchio)$",
        "^(pizza house|pizza king|pomodoro|portofino|poseidon|ratskeller|rhodos)$",
        "^(pizzeria (italia|milano|napoli|roma|venezia))$",
        "^(roadhouse|roma|rose|rössl[ei]|saffron|saigon|sakura|san marco|santorini|schützenhaus|shalimar|shanghai|sonne|sphinx)$",
        "^(sportheim|sternen|syrtaki|taj mahal|taste of india|the kitchen|toscana|tokyo( sushi)?|traube)$",
        "^(venezia|waldschänke|wok|zorbas)$"
      ]
    }
  },
  "items": [
    {
      "displayName": "100 Montaditos",
      "id": "100montaditos-f7c5fe",
      "locationSet": {
        "include": ["es", "it", "pt", "us"]
      },
      "tags": {
        "amenity": "restaurant",
        "brand": "100 Montaditos",
        "brand:wikidata": "Q8355805",
        "brand:wikipedia": "en:Cervecería 100 Montaditos",
        "cuisine": "sandwich",
        "name": "100 Montaditos"
      }
    },
    {
      "displayName": "3 Brewers (On)",
      "id": "3brewers-e68b16",
      "locationSet": {"include": ["ca"]},
      "tags": {
        "amenity": "restaurant",
        "brand": "3 Brasseurs",
        "brand:wikidata": "Q3230326",
        "brand:wikipedia": "fr:Les 3 Brasseurs",
        "cuisine": "burger;pizza;seafood",
        "name": "3 Brewers",
        "name:fr": "3 Brasseurs",
        "official_name": "Les 3 Brasseurs"
      }
    },
    {
      "displayName": "Al Dente",
      "id": "aldente-2fabb0",
      "locationSet": {"include": ["001"]},
      "tags": {
        "amenity": "restaurant",
        "brand": "Al Dente",
        "name": "Al Dente"
      }
    },
    {
      "displayName": "Amadeus",
      "id": "amadeus-2fabb0",
      "locationSet": {"include": ["001"]},
      "tags": {
        "amenity": "restaurant",
        "brand": "Amadeus",
        "name": "Amadeus"
      }
    },
    {
      "displayName": "Amici's East Coast Pizzeria",
      "id": "amici-96af40",
      "locationSet": {"include": ["us"]},
      "tags": {
        "amenity": "restaurant",
        "brand": "Amici",
        "brand:wikidata": "Q66133409",
        "cuisine": "pizza",
        "name": "Amici"
      }
    },
    {
      "displayName": "Aposto",
      "id": "aposto-051971",
      "locationSet": {"include": ["de"]},
      "tags": {
        "amenity": "restaurant",
        "brand": "Aposto",
        "cuisine": "mediterranean",
        "name": "Aposto"
      }
    },
    {
      "displayName": "Applebee's",
      "id": "applebees-2fabb0",
      "locationSet": {"include": ["001"]},
      "matchNames": [
        "applebees bar and grill",
        "applebees grill and bar",
        "applebees neighborhood bar and grill"
      ],
      "tags": {
        "amenity": "restaurant",
        "brand": "Applebee's Neighborhood Grill & Bar",
        "brand:wikidata": "Q621532",
        "brand:wikipedia": "en:Applebee's",
        "cuisine": "american",
        "name": "Applebee's",
        "official_name": "Applebee's Neighborhood Grill & Bar"
      }
    },
    {
      "displayName": "Arooga's",
      "id": "aroogas-96af40",
      "locationSet": {"include": ["us"]},
      "tags": {
        "amenity": "restaurant",
        "brand": "Arooga's",
        "brand:wikidata": "Q72963322",
        "cuisine": "american",
        "name": "Arooga's",
        "official_name": "Arooga's Grille House and Sports Bar"
      }
    },
    {
      "displayName": "ASK Italian",
      "id": "askitalian-9b5453",
      "locationSet": {"include": ["gb"]},
      "tags": {
        "amenity": "restaurant",
        "brand": "ASK Italian",
        "brand:wikidata": "Q4807056",
        "brand:wikipedia": "en:ASK Italian",
        "cuisine": "italian",
        "name": "ASK Italian"
      }
    },
    {
      "displayName": "Au Bureau",
      "id": "aubureau-dee615",
      "locationSet": {"include": ["fr"]},
      "tags": {
        "amenity": "restaurant",
        "brand": "Au Bureau",
        "brand:wikidata": "Q100701566",
        "cuisine": "french;american;european",
        "name": "Au Bureau"
      }
    },
    {
      "displayName": "Autogrill",
      "id": "autogrill-4c0f72",
      "locationSet": {
        "include": ["at", "es", "fr", "it"]
      },
      "tags": {
        "amenity": "restaurant",
        "brand": "Autogrill",
        "brand:wikidata": "Q786790",
        "brand:wikipedia": "en:Autogrill",
        "cuisine": "italian;regional",
        "name": "Autogrill"
      }
    },
    {
      "displayName": "BBB",
      "id": "bbb-b691b2",
      "locationSet": {"include": ["il"]},
      "tags": {
        "alt_name": "Burgus Burger Bar",
        "alt_name:en": "Burgus Burger Bar",
        "amenity": "restaurant",
        "brand": "Burgus Burger Bar",
        "brand:en": "Burgus Burger Bar",
        "brand:wikidata": "Q64760094",
        "cuisine": "burger",
        "name": "BBB",
        "name:en": "BBB"
      }
    },
    {
      "displayName": "bd's Mongolian Grill",
      "id": "bdsmongoliangrill-bcd08b",
      "locationSet": {"include": ["mn", "us"]},
      "matchNames": ["bd mongolian grill"],
      "tags": {
        "amenity": "restaurant",
        "brand": "bd's Mongolian Grill",
        "brand:wikidata": "Q69890408",
        "cuisine": "mongolian_bbq",
        "name": "bd's Mongolian Grill"
      }
    },
    {
      "displayName": "Beefeater",
      "id": "beefeater-9b5453",
      "locationSet": {"include": ["gb"]},
      "note": "No name for Beefeater brand as each restaurant is named differently.",
      "tags": {
        "amenity": "restaurant",
        "brand": "Beefeater",
        "brand:wikidata": "Q4879766",
        "brand:wikipedia": "en:Beefeater (restaurant)",
        "cuisine": "british"
      }
    },
    {
      "displayName": "Bella Italia",
      "id": "bellaitalia-9b5453",
      "locationSet": {"include": ["gb"]},
      "tags": {
        "amenity": "restaurant",
        "brand": "Bella Italia",
        "brand:wikidata": "Q4883362",
        "brand:wikipedia": "en:Bella Italia",
        "cuisine": "italian",
        "name": "Bella Italia"
      }
    },
    {
      "displayName": "Benihana",
      "id": "benihana-bbd124",
      "locationSet": {
        "include": [
          "aw",
          "br",
          "ca",
          "pa",
          "sv",
          "us"
        ]
      },
      "matchNames": ["benihana of tokyo"],
      "tags": {
        "amenity": "restaurant",
        "brand": "Benihana",
        "brand:wikidata": "Q4887996",
        "brand:wikipedia": "en:Benihana",
        "cuisine": "japanese;teppanyaki;steak",
        "name": "Benihana"
      }
    },
    {
      "displayName": "Benny & Co.",
      "id": "bennyandco-e68b16",
      "locationSet": {"include": ["ca"]},
      "tags": {
        "amenity": "restaurant",
        "brand": "Benny & Co.",
        "brand:wikidata": "Q106963815",
        "cuisine": "chicken;barbecue;poutine",
        "name": "Benny & Co.",
        "takeaway": "yes"
      }
    },
    {
      "displayName": "Bertucci's",
      "id": "bertuccis-96af40",
      "locationSet": {"include": ["us"]},
      "tags": {
        "amenity": "restaurant",
        "brand": "Bertucci's",
        "brand:wikidata": "Q4895917",
        "brand:wikipedia": "en:Bertucci's",
        "cuisine": "pizza;italian",
        "name": "Bertucci's"
      }
    },
    {
      "displayName": "Big Boy",
      "id": "bigboy-2fabb0",
      "locationSet": {"include": ["001"]},
      "tags": {
        "amenity": "restaurant",
        "brand": "Big Boy",
        "brand:wikidata": "Q4386779",
        "brand:wikipedia": "en:Big Boy Restaurants",
        "cuisine": "burger",
        "name": "Big Boy",
        "official_name": "Big Boy Restaurant & Bakery"
      }
    },
    {
      "displayName": "Bill's",
      "id": "bills-9b5453",
      "locationSet": {"include": ["gb"]},
      "tags": {
        "amenity": "restaurant",
        "brand": "Bill's",
        "brand:wikidata": "Q47012702",
        "brand:wikipedia": "en:Bill's",
        "cuisine": "british",
        "name": "Bill's"
      }
    },
    {
      "displayName": "BJ's",
      "id": "bjs-96af40",
      "locationSet": {"include": ["us"]},
      "tags": {
        "amenity": "restaurant",
        "brand": "BJ's",
        "brand:wikidata": "Q4835755",
        "brand:wikipedia": "en:BJ's Restaurants",
        "cuisine": "american",
        "name": "BJ's",
        "official_name": "BJ's Restaurant & Brewhouse"
      }
    },
    {
      "displayName": "Black",
      "id": "black-b691b2",
      "locationSet": {"include": ["il"]},
      "tags": {
        "amenity": "restaurant",
        "brand": "Black Bar Burger",
        "brand:en": "Black Bar Burger",
        "brand:he": "בלאק בורגר",
        "brand:wikidata": "Q64760158",
        "cuisine": "burger",
        "name": "Black",
        "name:en": "Black",
        "name:he": "בלאק"
      }
    },
    {
      "displayName": "Black Angus",
      "id": "blackangus-96af40",
      "locationSet": {"include": ["us"]},
      "tags": {
        "amenity": "restaurant",
        "brand": "Black Angus",
        "brand:wikidata": "Q4920269",
        "brand:wikipedia": "en:Black Angus Steakhouse",
        "cuisine": "steakhouse",
        "name": "Black Angus"
      }
    },
    {
      "displayName": "Black Bear Diner",
      "id": "blackbeardiner-96af40",
      "locationSet": {"include": ["us"]},
      "tags": {
        "amenity": "restaurant",
        "brand": "Black Bear Diner",
        "brand:wikidata": "Q4920343",
        "brand:wikipedia": "en:Black Bear Diner",
        "cuisine": "american",
        "name": "Black Bear Diner"
      }
    },
    {
      "displayName": "Blaze Pizza",
      "id": "blazepizza-902636",
      "locationSet": {
        "include": ["bh", "ca", "kw", "sa", "us"]
      },
      "tags": {
        "amenity": "restaurant",
        "brand": "Blaze Pizza",
        "brand:wikidata": "Q23016666",
        "brand:wikipedia": "en:Blaze Pizza",
        "cuisine": "pizza",
        "name": "Blaze Pizza"
      }
    },
    {
      "displayName": "Bob Evans",
      "id": "bobevans-96af40",
      "locationSet": {"include": ["us"]},
      "tags": {
        "amenity": "restaurant",
        "brand": "Bob Evans",
        "brand:wikidata": "Q4932386",
        "brand:wikipedia": "en:Bob Evans Restaurants",
        "cuisine": "american",
        "name": "Bob Evans"
      }
    },
    {
      "displayName": "Bonanza Steakhouse",
      "id": "bonanzasteakhouse-96af40",
      "locationSet": {"include": ["us"]},
      "matchNames": ["bonanza"],
      "tags": {
        "amenity": "restaurant",
        "brand": "Bonanza Steakhouse",
        "brand:wikidata": "Q64045992",
        "cuisine": "american;steak;buffet",
        "name": "Bonanza Steakhouse"
      }
    },
    {
      "displayName": "Bonchon Chicken",
      "id": "bonchonchicken-b76b63",
      "locationSet": {
        "include": [
          "bh",
          "kh",
          "kr",
          "kw",
          "my",
          "ph",
          "sg",
          "th",
          "us"
        ]
      },
      "tags": {
        "amenity": "restaurant",
        "brand": "Bonchon Chicken",
        "brand:wikidata": "Q4941248",
        "brand:wikipedia": "en:Bonchon Chicken",
        "cuisine": "chicken;korean;sushi",
        "name": "Bonchon Chicken"
      }
    },
    {
      "displayName": "Bonefish Grill",
      "id": "bonefishgrill-96af40",
      "locationSet": {"include": ["us"]},
      "tags": {
        "amenity": "restaurant",
        "brand": "Bonefish Grill",
        "brand:wikidata": "Q4941599",
        "brand:wikipedia": "en:Bonefish Grill",
        "cuisine": "seafood",
        "name": "Bonefish Grill"
      }
    },
    {
      "displayName": "Boston Pizza",
      "id": "bostonpizza-85c92c",
      "locationSet": {"include": ["ca", "us"]},
      "tags": {
        "amenity": "restaurant",
        "brand": "Boston Pizza",
        "brand:wikidata": "Q894578",
        "brand:wikipedia": "en:Boston Pizza",
        "cuisine": "pizza",
        "name": "Boston Pizza"
      }
    },
    {
      "displayName": "Bravo",
      "id": "bravo-96af40",
      "locationSet": {"include": ["us"]},
      "tags": {
        "alt_name": "Bravo Cucina Italiana",
        "amenity": "restaurant",
        "brand": "Bravo",
        "brand:wikidata": "Q64055574",
        "cuisine": "italian",
        "name": "Bravo"
      }
    },
    {
      "displayName": "Brio",
      "id": "brio-96af40",
      "locationSet": {"include": ["us"]},
      "tags": {
        "alt_name": "Brio Tuscan Grille",
        "amenity": "restaurant",
        "brand": "Brio",
        "brand:wikidata": "Q64055835",
        "cuisine": "italian",
        "name": "Brio"
      }
    },
    {
      "displayName": "Browns",
      "id": "browns-9b5453",
      "locationSet": {"include": ["gb"]},
      "tags": {
        "amenity": "restaurant",
        "brand": "Browns",
        "brand:wikidata": "Q4976672",
        "brand:wikipedia": "en:Browns Restaurants",
        "cuisine": "british"
      }
    },
    {
      "displayName": "Bubba Gump Shrimp Company",
      "id": "bubbagumpshrimpcompany-90d54f",
      "locationSet": {
        "include": [
          "ca",
          "co",
          "gb",
          "hk",
          "id",
          "jp",
          "mp",
          "mx",
          "ph",
          "us"
        ]
      },
      "tags": {
        "amenity": "restaurant",
        "brand": "Bubba Gump Shrimp Company",
        "brand:wikidata": "Q50024",
        "brand:wikipedia": "en:Bubba Gump Shrimp Company",
        "cuisine": "seafood",
        "name": "Bubba Gump Shrimp Company"
      }
    },
    {
      "displayName": "Buca di Beppo",
      "id": "bucadibeppo-96af40",
      "locationSet": {"include": ["us"]},
      "tags": {
        "amenity": "restaurant",
        "brand": "Buca di Beppo",
        "brand:wikidata": "Q4982340",
        "brand:wikipedia": "en:Buca di Beppo",
        "cuisine": "italian",
        "name": "Buca di Beppo"
      }
    },
    {
      "displayName": "Bucking Bull",
      "id": "buckingbull-3c82e9",
      "locationSet": {"include": ["au"]},
      "tags": {
        "amenity": "restaurant",
        "brand": "Bucking Bull",
        "brand:wikidata": "Q18208286",
        "brand:wikipedia": "en:Bucking Bull",
        "cuisine": "steak_house",
        "name": "Bucking Bull"
      }
    },
    {
      "displayName": "Buffalo Grill",
      "id": "buffalogrill-3d86c6",
      "locationSet": {"include": ["es", "fr"]},
      "tags": {
        "amenity": "restaurant",
        "brand": "Buffalo Grill",
        "brand:wikidata": "Q944655",
        "brand:wikipedia": "en:Buffalo Grill",
        "cuisine": "steak_house",
        "name": "Buffalo Grill"
      }
    },
    {
      "displayName": "Buffalo Wild Wings",
      "id": "buffalowildwings-2fabb0",
      "locationSet": {"include": ["001"]},
      "tags": {
        "amenity": "restaurant",
        "brand": "Buffalo Wild Wings",
        "brand:wikidata": "Q509255",
        "brand:wikipedia": "en:Buffalo Wild Wings",
        "cuisine": "wings",
        "name": "Buffalo Wild Wings"
      }
    },
    {
      "displayName": "Buffalo Wings & Rings",
      "id": "buffalowingsandrings-96af40",
      "locationSet": {"include": ["us"]},
      "tags": {
        "amenity": "restaurant",
        "brand": "Buffalo Wings & Rings",
        "brand:wikidata": "Q4985900",
        "brand:wikipedia": "en:Buffalo Wings & Rings",
        "cuisine": "wings",
        "name": "Buffalo Wings & Rings",
        "takeaway": "yes"
      }
    },
    {
      "displayName": "Burgerheart",
      "id": "burgerheart-051971",
      "locationSet": {"include": ["de"]},
      "tags": {
        "amenity": "restaurant",
        "brand": "Burgerheart",
        "cuisine": "burger",
        "name": "Burgerheart"
      }
    },
    {
      "displayName": "Byron",
      "id": "byron-9b5453",
      "locationSet": {"include": ["gb"]},
      "tags": {
        "amenity": "restaurant",
        "brand": "Byron",
        "brand:wikidata": "Q16828673",
        "brand:wikipedia": "en:Byron Hamburgers",
        "cuisine": "burger",
        "name": "Byron"
      }
    },
    {
      "displayName": "Cafe Rio",
      "id": "caferio-96af40",
      "locationSet": {"include": ["us"]},
      "tags": {
        "amenity": "restaurant",
        "brand": "Cafe Rio",
        "brand:wikidata": "Q5017108",
        "brand:wikipedia": "en:Cafe Rio",
        "cuisine": "mexican",
        "name": "Cafe Rio"
      }
    },
    {
      "displayName": "Café Rouge",
      "id": "caferouge-9b5453",
      "locationSet": {"include": ["gb"]},
      "tags": {
        "amenity": "restaurant",
        "brand": "Café Rouge",
        "brand:wikidata": "Q5017261",
        "brand:wikipedia": "en:Café Rouge",
        "cuisine": "french",
        "name": "Café Rouge"
      }
    },
    {
      "displayName": "California Fried Chicken",
      "id": "cfc-25c4a5",
      "locationSet": {"include": ["id"]},
      "tags": {
        "amenity": "restaurant",
        "brand": "California Fried Chicken",
        "brand:wikidata": "Q5020502",
        "brand:wikipedia": "en:California Fried Chicken",
        "cuisine": "chicken",
        "name": "CFC"
      }
    },
    {
      "displayName": "California Pizza Kitchen",
      "id": "californiapizzakitchen-2fabb0",
      "locationSet": {"include": ["001"]},
      "tags": {
        "amenity": "restaurant",
        "brand": "California Pizza Kitchen",
        "brand:wikidata": "Q15109854",
        "brand:wikipedia": "en:California Pizza Kitchen",
        "cuisine": "pizza",
        "name": "California Pizza Kitchen"
      }
    },
    {
      "displayName": "Campanile",
      "id": "campanile-ee8eff",
      "locationSet": {
        "include": ["fr", "gb", "nl"]
      },
      "tags": {
        "amenity": "restaurant",
        "brand": "Campanile",
        "brand:wikidata": "Q2412064",
        "brand:wikipedia": "fr:Campanile (chaîne d'hôtels)",
        "cuisine": "french",
        "name": "Campanile"
      }
    },
    {
      "displayName": "Carluccio's",
      "id": "carluccios-9b5453",
      "locationSet": {"include": ["gb"]},
      "tags": {
        "amenity": "restaurant",
        "brand": "Carluccio's",
        "brand:wikidata": "Q25111797",
        "brand:wikipedia": "en:Carluccio's Ltd",
        "cuisine": "italian",
        "name": "Carluccio's"
      }
    },
    {
      "displayName": "Carrabba's Italian Grill",
      "id": "carrabbasitaliangrill-96af40",
      "locationSet": {"include": ["us"]},
      "tags": {
        "amenity": "restaurant",
        "brand": "Carrabba's Italian Grill",
        "brand:wikidata": "Q5045999",
        "brand:wikipedia": "en:Carrabba's Italian Grill",
        "cuisine": "italian",
        "name": "Carrabba's Italian Grill"
      }
    },
    {
      "displayName": "Cheddar's",
      "id": "cheddars-96af40",
      "locationSet": {"include": ["us"]},
      "tags": {
        "amenity": "restaurant",
        "brand": "Cheddar's",
        "brand:wikidata": "Q5089187",
        "brand:wikipedia": "en:Cheddar's Scratch Kitchen",
        "cuisine": "american",
        "name": "Cheddar's",
        "official_name": "Cheddar's Scratch Kitchen"
      }
    },
    {
      "displayName": "Cheeburger Cheeburger",
      "id": "cheeburgercheeburger-d5e034",
      "locationSet": {
        "include": ["ca", "sa", "us"]
      },
      "tags": {
        "amenity": "restaurant",
        "brand": "Cheeburger Cheeburger",
        "brand:wikidata": "Q5089247",
        "brand:wikipedia": "en:Cheeburger Cheeburger",
        "cuisine": "burger",
        "name": "Cheeburger Cheeburger"
      }
    },
    {
      "displayName": "Chevys",
      "id": "chevys-96af40",
      "locationSet": {"include": ["us"]},
      "tags": {
        "amenity": "restaurant",
        "brand": "Chevys Fresh Mex",
        "brand:wikidata": "Q5094466",
        "brand:wikipedia": "en:Chevys Fresh Mex",
        "cuisine": "mexican",
        "name": "Chevys",
        "official_name": "Chevys Fresh Mex"
      }
    },
    {
      "displayName": "Chili's",
      "id": "chilis-2fabb0",
      "locationSet": {"include": ["001"]},
      "tags": {
        "amenity": "restaurant",
        "brand": "Chili's",
        "brand:wikidata": "Q1072948",
        "brand:wikipedia": "en:Chili's",
        "cuisine": "tex-mex",
        "name": "Chili's",
        "official_name": "Chili's Grill & Bar"
      }
    },
    {
      "displayName": "Chinatown",
      "id": "chinatown-2fabb0",
      "locationSet": {"include": ["001"]},
      "tags": {
        "amenity": "restaurant",
        "brand": "Chinatown",
        "name": "Chinatown"
      }
    },
    {
      "displayName": "Chiquito",
      "id": "chiquito-9b5453",
      "locationSet": {"include": ["gb"]},
      "tags": {
        "amenity": "restaurant",
        "brand": "Chiquito",
        "brand:wikidata": "Q5101775",
        "brand:wikipedia": "en:Chiquito (restaurant)",
        "cuisine": "tex-mex",
        "name": "Chiquito"
      }
    },
    {
      "displayName": "Chopped Leaf",
      "id": "choppedleaf-e68b16",
      "locationSet": {"include": ["ca"]},
      "tags": {
        "amenity": "restaurant",
        "brand": "Chopped Leaf",
        "cuisine": "salad",
        "name": "Chopped Leaf"
      }
    },
    {
      "displayName": "Chuck E. Cheese's",
      "id": "chuckecheeses-85c92c",
      "locationSet": {"include": ["ca", "us"]},
      "matchNames": ["chuck e cheese"],
      "matchTags": ["leisure/amusement_arcade"],
      "tags": {
        "amenity": "restaurant",
        "brand": "Chuck E. Cheese's",
        "brand:wikidata": "Q2438391",
        "brand:wikipedia": "en:Chuck E. Cheese",
        "cuisine": "pizza",
        "leisure": "amusement_arcade",
        "name": "Chuck E. Cheese's"
      }
    },
    {
      "displayName": "Chuy's",
      "id": "chuys-96af40",
      "locationSet": {"include": ["us"]},
      "tags": {
        "amenity": "restaurant",
        "brand": "Chuy's",
        "brand:wikidata": "Q5118415",
        "brand:wikipedia": "en:Chuy's",
        "cuisine": "tex-mex",
        "name": "Chuy's"
      }
    },
    {
      "displayName": "Cicis",
      "id": "cicis-96af40",
      "locationSet": {"include": ["us"]},
      "matchNames": ["cici's pizza"],
      "tags": {
        "amenity": "restaurant",
        "brand": "Cicis",
        "brand:wikidata": "Q2972189",
        "brand:wikipedia": "en:Cicis",
        "cuisine": "pizza;buffet",
        "name": "Cicis"
      }
    },
    {
      "displayName": "Claim Jumper",
      "id": "claimjumper-96af40",
      "locationSet": {"include": ["us"]},
      "tags": {
        "amenity": "restaurant",
        "brand": "Claim Jumper",
        "brand:wikidata": "Q5125081",
        "brand:wikipedia": "en:Claim Jumper",
        "cuisine": "american",
        "name": "Claim Jumper"
      }
    },
    {
      "displayName": "Coast to Coast",
      "id": "coasttocoast-9b5453",
      "locationSet": {"include": ["gb"]},
      "tags": {
        "amenity": "restaurant",
        "brand": "Coast to Coast",
        "brand:wikidata": "Q22000729",
        "brand:wikipedia": "en:Coast to Coast (restaurant)",
        "cuisine": "american",
        "name": "Coast to Coast"
      }
    },
    {
      "displayName": "Coco's Bakery",
      "id": "cocosbakery-96af40",
      "locationSet": {"include": ["us"]},
      "tags": {
        "amenity": "restaurant",
        "brand": "Coco's Bakery",
        "brand:wikidata": "Q5139723",
        "brand:wikipedia": "en:Coco's Bakery",
        "cuisine": "american",
        "name": "Coco's Bakery"
      }
    },
    {
      "displayName": "Coop Restaurant",
      "id": "cooprestaurant-282f19",
      "locationSet": {"include": ["ch"]},
      "tags": {
        "amenity": "restaurant",
        "brand": "Coop Restaurant",
        "brand:wikidata": "Q432564",
        "brand:wikipedia": "de:Coop (Schweiz)",
        "cuisine": "german",
        "name": "Coop Restaurant"
      }
    },
    {
      "displayName": "Cooper's Hawk",
      "id": "coopershawk-96af40",
      "locationSet": {"include": ["us"]},
      "matchTags": ["shop/alcohol", "shop/wine"],
      "tags": {
        "amenity": "restaurant",
        "brand": "Cooper's Hawk",
        "brand:wikidata": "Q17511079",
        "brand:wikipedia": "en:Cooper's Hawk Winery & Restaurants",
        "cuisine": "american",
        "name": "Cooper's Hawk",
        "official_name": "Cooper's Hawk Winery & Restaurants",
        "shop": "wine"
      }
    },
    {
      "displayName": "Copeland's",
      "id": "copelands-96af40",
      "locationSet": {"include": ["us"]},
      "tags": {
        "amenity": "restaurant",
        "brand": "Copeland's",
        "brand:wikidata": "Q5168346",
        "brand:wikipedia": "en:Copeland's",
        "cuisine": "american",
        "name": "Copeland's"
      }
    },
    {
      "displayName": "Cora (non-Quebec)",
      "id": "cora-3d3916",
      "locationSet": {
        "include": ["ca"],
        "exclude": ["quebec.geojson"]
      },
      "tags": {
        "amenity": "restaurant",
        "brand": "Cora",
        "brand:wikidata": "Q2996960",
        "brand:wikipedia": "en:Cora (restaurant)",
        "cuisine": "breakfast",
        "name": "Cora"
      }
    },
    {
      "displayName": "Cora (Quebec)",
      "id": "cora-31d79c",
      "locationSet": {
        "include": ["quebec.geojson"]
      },
      "tags": {
        "amenity": "restaurant",
        "brand": "Cora",
        "brand:wikidata": "Q2996960",
        "brand:wikipedia": "fr:Cora (chaîne de restaurants)",
        "cuisine": "breakfast",
        "name": "Cora"
      }
    },
    {
      "displayName": "Cosmo",
      "id": "cosmo-bd06d9",
      "locationSet": {"include": ["gb", "ie"]},
      "tags": {
        "amenity": "restaurant",
        "brand": "Cosmo",
        "brand:wikidata": "Q5174239",
        "brand:wikipedia": "en:Cosmo (restaurant)",
        "cuisine": "international",
        "name": "Cosmo"
      }
    },
    {
      "displayName": "Côte Brasserie",
      "id": "cotebrasserie-9b5453",
      "locationSet": {"include": ["gb"]},
      "tags": {
        "amenity": "restaurant",
        "brand": "Côte Brasserie",
        "brand:wikidata": "Q48699908",
        "brand:wikipedia": "en:Côte",
        "cuisine": "french",
        "name": "Côte Brasserie"
      }
    },
    {
      "displayName": "Country Pride",
      "id": "countrypride-96af40",
      "locationSet": {"include": ["us"]},
      "matchNames": ["country pride restaurant"],
      "tags": {
        "amenity": "restaurant",
        "brand": "Country Pride",
        "brand:wikidata": "Q64051992",
        "cuisine": "american",
        "name": "Country Pride"
      }
    },
    {
      "displayName": "Country Waffles",
      "id": "countrywaffles-96af40",
      "locationSet": {"include": ["us"]},
      "tags": {
        "amenity": "restaurant",
        "brand": "Country Waffles",
        "brand:wikidata": "Q86151490",
        "cuisine": "breakfast",
        "name": "Country Waffles"
      }
    },
    {
      "displayName": "Courtepaille",
      "id": "courtepaille-dee615",
      "locationSet": {"include": ["fr"]},
      "tags": {
        "amenity": "restaurant",
        "brand": "Courtepaille",
        "brand:wikidata": "Q3116688",
        "brand:wikipedia": "fr:Courtepaille",
        "cuisine": "french",
        "name": "Courtepaille"
      }
    },
    {
      "displayName": "Cracker Barrel",
      "id": "crackerbarrel-96af40",
      "locationSet": {"include": ["us"]},
      "tags": {
        "amenity": "restaurant",
        "brand": "Cracker Barrel",
        "brand:wikidata": "Q4492609",
        "brand:wikipedia": "en:Cracker Barrel",
        "cuisine": "american",
        "name": "Cracker Barrel",
        "official_name": "Cracker Barrel Old Country Store"
      }
    },
    {
      "displayName": "Dave & Buster's",
      "id": "daveandbusters-96af40",
      "locationSet": {"include": ["us"]},
      "matchTags": ["leisure/amusement_arcade"],
      "tags": {
        "amenity": "restaurant",
        "brand": "Dave & Buster's",
        "brand:wikidata": "Q5228205",
        "brand:wikipedia": "en:Dave & Buster's",
        "cuisine": "american",
        "leisure": "amusement_arcade",
        "name": "Dave & Buster's"
      }
    },
    {
      "displayName": "dean&david",
      "id": "deananddavid-813198",
      "locationSet": {
        "include": ["at", "ch", "de", "lu", "qa"]
      },
      "tags": {
        "amenity": "restaurant",
        "brand": "dean&david",
        "brand:wikidata": "Q66132404",
        "cuisine": "salad;sandwich",
        "name": "dean&david"
      }
    },
    {
      "displayName": "Denny's",
      "id": "dennys-2fabb0",
      "locationSet": {"include": ["001"]},
      "tags": {
        "amenity": "restaurant",
        "brand": "Denny's",
        "brand:wikidata": "Q1189695",
        "brand:wikipedia": "en:Denny's",
        "cuisine": "american",
        "name": "Denny's"
      }
    },
    {
      "displayName": "Dickey's Barbecue Pit",
      "id": "dickeysbarbecuepit-96af40",
      "locationSet": {"include": ["us"]},
      "matchNames": ["dickeys barbecue"],
      "tags": {
        "amenity": "restaurant",
        "brand": "Dickey's Barbecue Pit",
        "brand:wikidata": "Q19880747",
        "brand:wikipedia": "en:Dickey's Barbecue Pit",
        "cuisine": "barbecue",
        "name": "Dickey's Barbecue Pit"
      }
    },
    {
      "displayName": "Din Tai Fung",
      "id": "dintaifung-8186c5",
      "locationSet": {
        "include": [
          "ae",
          "au",
          "gb",
          "hk",
          "id",
          "jp",
          "kr",
          "mo",
          "my",
          "ph",
          "sg",
          "th",
          "us"
        ]
      },
      "tags": {
        "amenity": "restaurant",
        "brand": "Din Tai Fung",
        "brand:en": "Din Tai Fung",
        "brand:wikidata": "Q699142",
        "brand:wikipedia": "en:Din Tai Fung",
        "brand:zh": "鼎泰豐",
        "cuisine": "taiwanese",
        "name": "Din Tai Fung",
        "name:en": "Din Tai Fung",
        "name:zh": "鼎泰豐"
      }
    },
    {
      "displayName": "Donatos Pizza",
      "id": "donatospizza-96af40",
      "locationSet": {"include": ["us"]},
      "matchNames": ["donatos"],
      "tags": {
        "amenity": "restaurant",
        "brand": "Donatos Pizza",
        "brand:wikidata": "Q1240741",
        "brand:wikipedia": "en:Donatos Pizza",
        "cuisine": "pizza",
        "name": "Donatos Pizza",
        "takeaway": "yes"
      }
    },
    {
      "displayName": "East Side Mario's",
      "id": "eastsidemarios-e68b16",
      "locationSet": {"include": ["ca"]},
      "tags": {
        "amenity": "restaurant",
        "brand": "East Side Mario's",
        "brand:wikidata": "Q5329375",
        "brand:wikipedia": "en:East Side Mario's",
        "cuisine": "italian",
        "name": "East Side Mario's"
      }
    },
    {
      "displayName": "Eat'n Park",
      "id": "eatnpark-96af40",
      "locationSet": {"include": ["us"]},
      "tags": {
        "amenity": "restaurant",
        "brand": "Eat'n Park",
        "brand:wikidata": "Q5331211",
        "brand:wikipedia": "en:Eat'n Park",
        "cuisine": "american",
        "name": "Eat'n Park"
      }
    },
    {
      "displayName": "Elephant Bar",
      "id": "elephantbar-96af40",
      "locationSet": {"include": ["us"]},
      "tags": {
        "amenity": "restaurant",
        "brand": "Elephant Bar",
        "brand:wikidata": "Q5359302",
        "brand:wikipedia": "en:Elephant Bar",
        "cuisine": "american",
        "name": "Elephant Bar"
      }
    },
    {
      "displayName": "Enchilada",
      "id": "enchilada-051971",
      "locationSet": {"include": ["de"]},
      "tags": {
        "amenity": "restaurant",
        "brand": "Enchilada",
        "cuisine": "mexican",
        "name": "Enchilada"
      }
    },
    {
      "displayName": "Famous Dave's",
      "id": "famousdaves-96af40",
      "locationSet": {"include": ["us"]},
      "matchNames": ["famous daves bbq"],
      "tags": {
        "amenity": "restaurant",
        "brand": "Famous Dave's",
        "brand:wikidata": "Q5433448",
        "brand:wikipedia": "en:Famous Dave's",
        "cuisine": "barbecue",
        "name": "Famous Dave's"
      }
    },
    {
      "displayName": "Farmhouse Inns",
      "id": "farmhouseinns-9b5453",
      "locationSet": {"include": ["gb"]},
      "tags": {
        "amenity": "restaurant",
        "brand": "Farmhouse Inns",
        "brand:wikidata": "Q105504972"
      }
    },
    {
      "displayName": "Fatz",
      "id": "fatz-96af40",
      "locationSet": {"include": ["us"]},
      "tags": {
        "amenity": "restaurant",
        "brand": "Fatz",
        "brand:wikidata": "Q5424504",
        "cuisine": "american",
        "name": "Fatz"
      }
    },
    {
      "displayName": "Fernandez",
      "id": "fernandez-9b5453",
      "locationSet": {"include": ["gb"]},
      "tags": {
        "amenity": "restaurant",
        "brand": "Fernandez",
        "cuisine": "steak",
        "name": "Fernandez"
      }
    },
    {
      "displayName": "First Watch",
      "id": "firstwatch-96af40",
      "locationSet": {"include": ["us"]},
      "tags": {
        "amenity": "restaurant",
        "brand": "First Watch",
        "brand:wikidata": "Q5454064",
        "brand:wikipedia": "en:First Watch (restaurant chain)",
        "cuisine": "american;breakfast",
        "name": "First Watch"
      }
    },
    {
      "displayName": "Flunch",
      "id": "flunch-dee615",
      "locationSet": {"include": ["fr"]},
      "tags": {
        "amenity": "restaurant",
        "brand": "Flunch",
        "brand:wikidata": "Q629326",
        "brand:wikipedia": "en:Flunch",
        "cuisine": "french",
        "name": "Flunch"
      }
    },
    {
      "displayName": "Foster's Hollywood",
      "id": "fostershollywood-acf031",
      "locationSet": {"include": ["es"]},
      "tags": {
        "amenity": "restaurant",
        "brand": "Foster's Hollywood",
        "brand:wikidata": "Q5864366",
        "brand:wikipedia": "en:Foster's Hollywood",
        "cuisine": "american",
        "name": "Foster's Hollywood"
      }
    },
    {
      "displayName": "Frankie & Benny's",
      "id": "frankieandbennys-9b5453",
      "locationSet": {"include": ["gb"]},
      "tags": {
        "amenity": "restaurant",
        "brand": "Frankie & Benny's",
        "brand:wikidata": "Q5490892",
        "brand:wikipedia": "en:Frankie & Benny's",
        "cuisine": "american",
        "name": "Frankie & Benny's"
      }
    },
    {
      "displayName": "Freshii",
      "id": "freshii-85c92c",
      "locationSet": {"include": ["ca", "us"]},
      "tags": {
        "amenity": "restaurant",
        "brand": "Freshii",
        "brand:wikidata": "Q5503051",
        "brand:wikipedia": "en:Freshii",
        "cuisine": "salad",
        "name": "Freshii"
      }
    },
    {
      "displayName": "Friendly's",
      "id": "friendlys-96af40",
      "locationSet": {"include": ["us"]},
      "tags": {
        "amenity": "restaurant",
        "brand": "Friendly's",
        "brand:wikidata": "Q1464513",
        "brand:wikipedia": "en:Friendly's",
        "cuisine": "american",
        "name": "Friendly's"
      }
    },
    {
      "displayName": "Frisch's Big Boy",
      "id": "frischsbigboy-96af40",
      "locationSet": {"include": ["us"]},
      "tags": {
        "amenity": "restaurant",
        "brand": "Frisch's Big Boy",
        "brand:wikidata": "Q5504660",
        "brand:wikipedia": "en:Frisch's",
        "cuisine": "burger",
        "name": "Frisch's Big Boy",
        "takeaway": "yes"
      }
    },
    {
      "displayName": "Fuddruckers",
      "id": "fuddruckers-2fabb0",
      "locationSet": {"include": ["001"]},
      "tags": {
        "amenity": "restaurant",
        "brand": "Fuddruckers",
        "brand:wikidata": "Q5507056",
        "brand:wikipedia": "en:Fuddruckers",
        "cuisine": "burger",
        "name": "Fuddruckers"
      }
    },
    {
      "displayName": "Gatti's Pizza",
      "id": "gattispizza-96af40",
      "locationSet": {"include": ["us"]},
      "tags": {
        "amenity": "restaurant",
        "brand": "Gatti's Pizza",
        "brand:wikidata": "Q5527509",
        "brand:wikipedia": "en:Gatti's Pizza",
        "cuisine": "pizza",
        "name": "Gatti's Pizza"
      }
    },
    {
      "displayName": "Ginos",
      "id": "ginos-acf031",
      "locationSet": {"include": ["es"]},
      "tags": {
        "amenity": "restaurant",
        "brand": "Ginos",
        "brand:wikidata": "Q98503664",
        "cuisine": "italian",
        "name": "Ginos"
      }
    },
    {
      "displayName": "Giordano's Pizzeria",
      "id": "giordanospizzeria-96af40",
      "locationSet": {"include": ["us"]},
      "tags": {
        "amenity": "restaurant",
        "brand": "Giordano's Pizzeria",
        "brand:wikidata": "Q5563393",
        "brand:wikipedia": "en:Giordano's",
        "cuisine": "pizza",
        "name": "Giordano's Pizzeria"
      }
    },
    {
      "displayName": "Godfather's Pizza",
      "id": "godfatherspizza-96af40",
      "locationSet": {"include": ["us"]},
      "tags": {
        "amenity": "restaurant",
        "brand": "Godfather's Pizza",
        "brand:wikidata": "Q5576353",
        "brand:wikipedia": "en:Godfather's Pizza",
        "cuisine": "pizza",
        "name": "Godfather's Pizza"
      }
    },
    {
      "displayName": "Golden Corral",
      "id": "goldencorral-96af40",
      "locationSet": {"include": ["us"]},
      "matchNames": [
        "golden corral buffet",
        "golden corral buffet and grill"
      ],
      "tags": {
        "amenity": "restaurant",
        "brand": "Golden Corral",
        "brand:wikidata": "Q4039560",
        "brand:wikipedia": "en:Golden Corral",
        "cuisine": "american;buffet",
        "name": "Golden Corral"
      }
    },
    {
      "displayName": "Gourmet Burger Kitchen",
      "id": "gourmetburgerkitchen-8abded",
      "locationSet": {
        "include": ["gb", "gr", "ie"]
      },
      "tags": {
        "amenity": "restaurant",
        "brand": "Gourmet Burger Kitchen",
        "brand:wikidata": "Q5588445",
        "brand:wikipedia": "en:Gourmet Burger Kitchen",
        "cuisine": "burger",
        "name": "Gourmet Burger Kitchen",
        "short_name": "GBK"
      }
    },
    {
      "displayName": "Grotto Pizza",
      "id": "grottopizza-96af40",
      "locationSet": {"include": ["us"]},
      "tags": {
        "amenity": "restaurant",
        "brand": "Grotto Pizza",
        "brand:wikidata": "Q20709024",
        "brand:wikipedia": "en:Grotto Pizza",
        "cuisine": "pizza",
        "name": "Grotto Pizza"
      }
    },
    {
      "displayName": "Gusto (United Kingdom)",
      "id": "gusto-9b5453",
      "locationSet": {"include": ["gb"]},
      "tags": {
        "amenity": "restaurant",
        "brand": "Gusto",
        "brand:wikidata": "Q66087781",
        "cuisine": "italian",
        "name": "Gusto"
      }
    },
    {
      "displayName": "Guzman y Gomez",
      "id": "guzmanygomez-688cfd",
      "locationSet": {
        "include": ["au", "jp", "sg"]
      },
      "tags": {
        "amenity": "restaurant",
        "brand": "Guzman y Gomez",
        "brand:wikidata": "Q23019759",
        "brand:wikipedia": "en:Guzman y Gomez",
        "cuisine": "mexican",
        "name": "Guzman y Gomez"
      }
    },
    {
      "displayName": "Handmade Burger Co.",
      "id": "handmadeburgerco-9b5453",
      "locationSet": {"include": ["gb"]},
      "matchNames": ["handmade burger company"],
      "tags": {
        "amenity": "restaurant",
        "brand": "Handmade Burger Co.",
        "brand:wikidata": "Q56154673",
        "brand:wikipedia": "en:Handmade Burger Co",
        "cuisine": "burger",
        "name": "Handmade Burger Co."
      }
    },
    {
      "displayName": "Hans im Glück",
      "id": "hansimgluck-a53895",
      "locationSet": {
        "include": ["at", "ch", "de", "sg"]
      },
      "tags": {
        "amenity": "restaurant",
        "brand": "Hans im Glück",
        "brand:wikidata": "Q22569868",
        "brand:wikipedia": "de:Hans im Glück (Restaurantkette)",
        "cuisine": "burger",
        "name": "Hans im Glück"
      }
    },
    {
      "displayName": "Happy's Pizza",
      "id": "happyspizza-96af40",
      "locationSet": {"include": ["us"]},
      "tags": {
        "amenity": "restaurant",
        "brand": "Happy's Pizza",
        "brand:wikidata": "Q5652393",
        "brand:wikipedia": "en:Happy's Pizza",
        "cuisine": "pizza",
        "name": "Happy's Pizza"
      }
    },
    {
      "displayName": "Hard Rock Cafe",
      "id": "hardrockcafe-2fabb0",
      "locationSet": {"include": ["001"]},
      "tags": {
        "amenity": "restaurant",
        "brand": "Hard Rock Cafe",
        "brand:wikidata": "Q918151",
        "brand:wikipedia": "en:Hard Rock Cafe",
        "cuisine": "american",
        "name": "Hard Rock Cafe"
      }
    },
    {
      "displayName": "Harvester",
      "id": "harvester-9b5453",
      "locationSet": {"include": ["gb"]},
      "tags": {
        "amenity": "restaurant",
        "brand": "Harvester",
        "brand:wikidata": "Q5676915",
        "brand:wikipedia": "en:Harvester (restaurant)",
        "cuisine": "american"
      }
    },
    {
      "displayName": "Hippopotamus",
      "id": "hippopotamus-dee615",
      "locationSet": {"include": ["fr"]},
      "tags": {
        "amenity": "restaurant",
        "brand": "Hippopotamus",
        "brand:wikidata": "Q3136174",
        "brand:wikipedia": "fr:Hippopotamus (restaurant)",
        "cuisine": "steak_house",
        "name": "Hippopotamus"
      }
    },
    {
      "displayName": "Hog's Breath Cafe",
      "id": "hogsbreathcafe-3c82e9",
      "locationSet": {"include": ["au"]},
      "tags": {
        "amenity": "restaurant",
        "brand": "Hog's Breath Cafe",
        "brand:wikidata": "Q5876920",
        "brand:wikipedia": "en:Hog's Breath Cafe",
        "cuisine": "steak_house",
        "name": "Hog's Breath Cafe"
      }
    },
    {
      "displayName": "Hooters",
      "id": "hooters-2fabb0",
      "locationSet": {"include": ["001"]},
      "tags": {
        "amenity": "restaurant",
        "brand": "Hooters",
        "brand:wikidata": "Q1025921",
        "brand:wikipedia": "en:Hooters",
        "cuisine": "burger",
        "name": "Hooters"
      }
    },
    {
      "displayName": "House of Blues",
      "id": "houseofblues-2fabb0",
      "locationSet": {"include": ["001"]},
      "tags": {
        "amenity": "restaurant",
        "brand": "House of Blues",
        "brand:wikidata": "Q648898",
        "brand:wikipedia": "en:House of Blues",
        "cuisine": "american",
        "name": "House of Blues"
      }
    },
    {
      "displayName": "Hubbox",
      "id": "hubbox-9b5453",
      "locationSet": {"include": ["gb"]},
      "tags": {
        "amenity": "restaurant",
        "brand": "Hubbox",
        "brand:wikidata": "Q85297493",
        "cuisine": "burger;american;chicken;barbecue",
        "name": "Hubbox"
      }
    },
    {
      "displayName": "Huddle House",
      "id": "huddlehouse-96af40",
      "locationSet": {"include": ["us"]},
      "tags": {
        "amenity": "restaurant",
        "brand": "Huddle House",
        "brand:wikidata": "Q5928324",
        "brand:wikipedia": "en:Huddle House",
        "cuisine": "american",
        "name": "Huddle House"
      }
    },
    {
      "displayName": "Husky House",
      "id": "huskyhouse-e68b16",
      "locationSet": {"include": ["ca"]},
      "tags": {
        "amenity": "restaurant",
        "brand": "Husky",
        "brand:wikidata": "Q702049",
        "brand:wikipedia": "en:Husky Energy",
        "cuisine": "diner",
        "name": "Husky House"
      }
    },
    {
      "displayName": "IHOP",
      "id": "ihop-2fabb0",
      "locationSet": {"include": ["001"]},
      "matchNames": [
        "international house of pancakes"
      ],
      "tags": {
        "amenity": "restaurant",
        "brand": "IHOP",
        "brand:wikidata": "Q1185675",
        "brand:wikipedia": "en:IHOP",
        "cuisine": "breakfast;pancake",
        "name": "IHOP"
      }
    },
    {
      "displayName": "IL Патио",
      "id": "0aeb30-642268",
      "locationSet": {"include": ["ru"]},
      "tags": {
        "amenity": "restaurant",
        "brand": "IL Патио",
        "brand:wikidata": "Q4397763",
        "brand:wikipedia": "en:Росинтер",
        "cuisine": "italian",
        "name": "IL Патио"
      }
    },
    {
      "displayName": "Iron Skillet",
      "id": "ironskillet-96af40",
      "locationSet": {"include": ["us"]},
      "matchNames": ["iron skillet restaurant"],
      "tags": {
        "amenity": "restaurant",
        "brand": "Iron Skillet",
        "brand:wikidata": "Q64052855",
        "cuisine": "american;buffet",
        "name": "Iron Skillet"
      }
    },
    {
      "displayName": "Jack Astor's",
      "id": "jackastors-85c92c",
      "locationSet": {"include": ["ca", "us"]},
      "tags": {
        "amenity": "restaurant",
        "brand": "Jack Astor's",
        "brand:wikidata": "Q6111066",
        "brand:wikipedia": "en:Jack Astor's Bar and Grill",
        "cuisine": "american",
        "name": "Jack Astor's"
      }
    },
    {
      "displayName": "Jason's Deli",
      "id": "jasonsdeli-96af40",
      "locationSet": {"include": ["us"]},
      "tags": {
        "amenity": "restaurant",
        "brand": "Jason's Deli",
        "brand:wikidata": "Q16997641",
        "brand:wikipedia": "en:Jason's Deli",
        "cuisine": "sandwich",
        "name": "Jason's Deli"
      }
    },
    {
      "displayName": "Jet's Pizza",
      "id": "jetspizza-96af40",
      "locationSet": {"include": ["us"]},
      "tags": {
        "amenity": "restaurant",
        "brand": "Jet's Pizza",
        "brand:wikidata": "Q16997713",
        "brand:wikipedia": "en:Jet's Pizza",
        "cuisine": "pizza",
        "name": "Jet's Pizza"
      }
    },
    {
      "displayName": "Jinya Ramen Bar",
      "id": "jinyaramenbar-85c92c",
      "locationSet": {"include": ["ca", "us"]},
      "tags": {
        "amenity": "restaurant",
        "brand": "Jinya Ramen Bar",
        "brand:wikidata": "Q16997755",
        "brand:wikipedia": "en:Jinya Ramen Bar",
        "cuisine": "ramen",
        "name": "Jinya Ramen Bar"
      }
    },
    {
      "displayName": "Joe's Crab Shack",
      "id": "joescrabshack-96af40",
      "locationSet": {"include": ["us"]},
      "tags": {
        "amenity": "restaurant",
        "brand": "Joe's Crab Shack",
        "brand:wikidata": "Q6208210",
        "brand:wikipedia": "en:Joe's Crab Shack",
        "cuisine": "seafood",
        "name": "Joe's Crab Shack"
      }
    },
    {
      "displayName": "Johnny Carino's",
      "id": "johnnycarinos-96af40",
      "locationSet": {"include": ["us"]},
      "matchNames": [
        "carinios",
        "carinos italian"
      ],
      "tags": {
        "amenity": "restaurant",
        "brand": "Johnny Carino's",
        "brand:wikidata": "Q5039637",
        "brand:wikipedia": "en:Carino's Italian",
        "cuisine": "italian",
        "name": "Johnny Carino's"
      }
    },
    {
      "displayName": "Johnny Rockets",
      "id": "johnnyrockets-2fabb0",
      "locationSet": {"include": ["001"]},
      "matchNames": ["johnny rocket"],
      "tags": {
        "amenity": "restaurant",
        "brand": "Johnny Rockets",
        "brand:wikidata": "Q1051593",
        "brand:wikipedia": "en:Johnny Rockets",
        "cuisine": "burger",
        "name": "Johnny Rockets"
      }
    },
    {
      "displayName": "Kelsey's",
      "id": "kelseys-e68b16",
      "locationSet": {"include": ["ca"]},
      "tags": {
        "amenity": "restaurant",
        "brand": "Kelsey's",
        "brand:wikidata": "Q6386459",
        "brand:wikipedia": "en:Kelseys Original Roadhouse",
        "cuisine": "american",
        "name": "Kelsey's"
      }
    },
    {
      "displayName": "Kona Grill",
      "id": "konagrill-96af40",
      "locationSet": {"include": ["us"]},
      "tags": {
        "amenity": "restaurant",
        "brand": "Kona Grill",
        "brand:wikidata": "Q6428706",
        "brand:wikipedia": "en:Kona Grill",
        "cuisine": "sushi;cocktails",
        "name": "Kona Grill"
      }
    },
    {
      "displayName": "L'Atelier",
      "id": "latelier-2fabb0",
      "locationSet": {"include": ["001"]},
      "tags": {
        "amenity": "restaurant",
        "brand": "L'Atelier",
        "cuisine": "french",
        "name": "L'Atelier"
      }
    },
    {
      "displayName": "L'Osteria",
      "id": "losteria-454d96",
      "locationSet": {
        "include": [
          "at",
          "ch",
          "cz",
          "de",
          "fr",
          "gb",
          "nl"
        ]
      },
      "tags": {
        "amenity": "restaurant",
        "brand": "L'Osteria",
        "brand:wikidata": "Q17323478",
        "brand:wikipedia": "de:L’Osteria",
        "cuisine": "italian",
        "name": "L'Osteria"
      }
    },
    {
      "displayName": "La Boucherie",
      "id": "laboucherie-dee615",
      "locationSet": {"include": ["fr"]},
      "tags": {
        "amenity": "restaurant",
        "brand": "La Boucherie",
        "brand:wikidata": "Q21427479",
        "brand:wikipedia": "fr:La Boucherie (restaurant)",
        "cuisine": "steak_house",
        "name": "La Boucherie"
      }
    },
    {
      "displayName": "La Cage",
      "id": "lacage-e68b16",
      "locationSet": {"include": ["ca"]},
      "matchNames": ["la cage aux sports"],
      "tags": {
        "amenity": "restaurant",
        "brand": "La Cage",
        "brand:wikidata": "Q3206980",
        "brand:wikipedia": "fr:La Cage – Brasserie sportive",
        "cuisine": "burger;chicken;sandwich;fish;pasta",
        "name": "La Cage"
      }
    },
    {
      "displayName": "La Pataterie",
      "id": "lapataterie-dee615",
      "locationSet": {"include": ["fr"]},
      "tags": {
        "amenity": "restaurant",
        "brand": "La Pataterie",
        "brand:wikidata": "Q20899937",
        "brand:wikipedia": "fr:La Pataterie",
        "cuisine": "potato",
        "name": "La Pataterie",
        "takeaway": "yes"
      }
    },
    {
      "displayName": "La Sureña",
      "id": "lasurena-acf031",
      "locationSet": {"include": ["es"]},
      "tags": {
        "amenity": "restaurant",
        "brand": "La Sureña",
        "brand:wikidata": "Q5763573",
        "brand:wikipedia": "es:Cervecería La Sureña",
        "cuisine": "spanish",
        "name": "La Sureña"
      }
    },
    {
      "displayName": "LaRosa's Pizzeria",
      "id": "larosaspizzeria-96af40",
      "locationSet": {"include": ["us"]},
      "tags": {
        "amenity": "restaurant",
        "brand": "LaRosa's Pizzeria",
        "brand:wikidata": "Q6460833",
        "brand:wikipedia": "en:LaRosa's Pizzeria",
        "cuisine": "pizza",
        "name": "LaRosa's Pizzeria",
        "takeaway": "yes"
      }
    },
    {
      "displayName": "Ledo Pizza",
      "id": "ledopizza-96af40",
      "locationSet": {"include": ["us"]},
      "tags": {
        "amenity": "restaurant",
        "brand": "Ledo Pizza",
        "brand:wikidata": "Q6512734",
        "brand:wikipedia": "en:Ledo Pizza",
        "cuisine": "pizza;pasta",
        "name": "Ledo Pizza"
      }
    },
    {
      "displayName": "Legal Sea Foods",
      "id": "legalseafoods-96af40",
      "locationSet": {"include": ["us"]},
      "tags": {
        "amenity": "restaurant",
        "brand": "Legal Sea Foods",
        "brand:wikidata": "Q6517417",
        "brand:wikipedia": "en:Legal Sea Foods",
        "cuisine": "seafood",
        "name": "Legal Sea Foods"
      }
    },
    {
      "displayName": "Léon de Bruxelles",
      "id": "leondebruxelles-dee615",
      "locationSet": {"include": ["fr"]},
      "tags": {
        "amenity": "restaurant",
        "brand": "Léon de Bruxelles",
        "brand:wikidata": "Q21041507",
        "brand:wikipedia": "en:Léon de Bruxelles",
        "cuisine": "friture",
        "name": "Léon de Bruxelles"
      }
    },
    {
      "displayName": "Les 3 Brasseurs (Qc,Br,Fr)",
      "id": "3brasseurs-4df94e",
      "locationSet": {
        "include": ["br", "ca", "fr"]
      },
      "tags": {
        "amenity": "restaurant",
        "brand": "3 Brasseurs",
        "brand:wikidata": "Q3230326",
        "brand:wikipedia": "fr:Les 3 Brasseurs",
        "cuisine": "burger;pizza;seafood",
        "name": "3 Brasseurs",
        "name:en": "3 Brewers",
        "official_name": "Les 3 Brasseurs"
      }
    },
    {
      "displayName": "Lizarrán",
      "id": "lizarran-acf031",
      "locationSet": {"include": ["es"]},
      "tags": {
        "amenity": "restaurant",
        "brand": "Lizarrán",
        "brand:wikidata": "Q1866620",
        "brand:wikipedia": "de:Lizarran",
        "cuisine": "spanish",
        "name": "Lizarrán"
      }
    },
    {
      "displayName": "Logan's Roadhouse",
      "id": "logansroadhouse-96af40",
      "locationSet": {"include": ["us"]},
      "tags": {
        "amenity": "restaurant",
        "brand": "Logan's Roadhouse",
        "brand:wikidata": "Q6666872",
        "brand:wikipedia": "en:Logan's Roadhouse",
        "cuisine": "american",
        "name": "Logan's Roadhouse"
      }
    },
    {
      "displayName": "LongHorn Steakhouse",
      "id": "longhornsteakhouse-96af40",
      "locationSet": {"include": ["us"]},
      "tags": {
        "amenity": "restaurant",
        "brand": "LongHorn Steakhouse",
        "brand:wikidata": "Q3259007",
        "brand:wikipedia": "en:LongHorn Steakhouse",
        "cuisine": "steak_house",
        "name": "LongHorn Steakhouse"
      }
    },
    {
      "displayName": "Lou Malnati's Pizzeria",
      "id": "loumalnatispizzeria-96af40",
      "locationSet": {"include": ["us"]},
      "tags": {
        "amenity": "restaurant",
        "brand": "Lou Malnati's Pizzeria",
        "brand:wikidata": "Q6685628",
        "brand:wikipedia": "en:Lou Malnati's Pizzeria",
        "cuisine": "pizza",
        "name": "Lou Malnati's Pizzeria"
      }
    },
    {
      "displayName": "Loving Hut",
      "id": "lovinghut-2fabb0",
      "locationSet": {"include": ["001"]},
      "tags": {
        "amenity": "restaurant",
        "brand": "Loving Hut",
        "brand:wikidata": "Q3491655",
        "brand:wikipedia": "en:Loving Hut",
        "cuisine": "international",
        "diet:vegan": "only",
        "name": "Loving Hut"
      }
    },
    {
      "displayName": "Luby's",
      "id": "lubys-96af40",
      "locationSet": {"include": ["us"]},
      "tags": {
        "amenity": "restaurant",
        "brand": "Luby's",
        "brand:wikidata": "Q6695701",
        "brand:wikipedia": "en:Luby's",
        "cuisine": "american",
        "name": "Luby's"
      }
    },
    {
      "displayName": "Mad Mex Fresh Mexican",
      "id": "madmexfreshmexicangrill-bb079b",
      "locationSet": {"include": ["au", "nz"]},
      "tags": {
        "amenity": "restaurant",
        "brand": "Mad Mex Fresh Mexican Grill",
        "brand:wikidata": "Q19589766",
        "brand:wikipedia": "en:Mad Mex Fresh Mexican Grill",
        "cuisine": "mexican",
        "name": "Mad Mex Fresh Mexican Grill"
      }
    },
    {
      "displayName": "Maquis Restaurant",
      "id": "maquisrestaurant-50bee3",
      "locationSet": {"include": ["ci"]},
      "tags": {
        "amenity": "restaurant",
        "brand": "Maquis Restaurant",
        "name": "Maquis Restaurant"
      }
    },
    {
      "displayName": "Marco's Pizza",
      "id": "marcospizza-96af40",
      "locationSet": {"include": ["us"]},
      "tags": {
        "amenity": "restaurant",
        "brand": "Marco's Pizza",
        "brand:wikidata": "Q6757382",
        "brand:wikipedia": "en:Marco's Pizza",
        "cuisine": "pizza",
        "name": "Marco's Pizza"
      }
    },
    {
      "displayName": "Marie Callender's",
      "id": "mariecallenders-27c30e",
      "locationSet": {"include": ["mx", "us"]},
      "matchNames": [
        "marie calendar",
        "marie calendar's",
        "marie callendar's"
      ],
      "tags": {
        "amenity": "restaurant",
        "brand": "Marie Callender's",
        "brand:wikidata": "Q6762784",
        "brand:wikipedia": "en:Marie Callender's",
        "cuisine": "american",
        "name": "Marie Callender's"
      }
    },
    {
      "displayName": "Marina",
      "id": "marina-2fabb0",
      "locationSet": {"include": ["001"]},
      "tags": {
        "amenity": "restaurant",
        "brand": "Marina",
        "name": "Marina"
      }
    },
    {
      "displayName": "Max's Restaurant",
      "id": "maxsrestaurant-5259a4",
      "locationSet": {"include": ["ph"]},
      "matchNames": ["max's"],
      "tags": {
        "amenity": "restaurant",
        "brand": "Max's Restaurant",
        "brand:wikidata": "Q6794477",
        "brand:wikipedia": "en:Max's Restaurant",
        "cuisine": "asian",
        "name": "Max's Restaurant"
      }
    },
    {
      "displayName": "McAlister's Deli",
      "id": "mcalistersdeli-96af40",
      "locationSet": {"include": ["us"]},
      "tags": {
        "amenity": "restaurant",
        "brand": "McAlister's Deli",
        "brand:wikidata": "Q17020829",
        "brand:wikipedia": "en:McAlister's Deli",
        "cuisine": "sandwich",
        "name": "McAlister's Deli"
      }
    },
    {
      "displayName": "McCormick & Schmick's",
      "id": "mccormickandschmicks-96af40",
      "locationSet": {"include": ["us"]},
      "matchNames": [
        "mccormick and schmick",
        "mccormick and schmicks grill"
      ],
      "tags": {
        "amenity": "restaurant",
        "brand": "McCormick & Schmick's",
        "brand:wikidata": "Q6800562",
        "brand:wikipedia": "en:McCormick & Schmick's",
        "cuisine": "seafood;steak",
        "name": "McCormick & Schmick's"
      }
    },
    {
      "displayName": "Meet Fresh",
      "id": "meetfresh-44e003",
      "locationSet": {
        "include": ["au", "ca", "nz", "us"]
      },
      "tags": {
        "amenity": "restaurant",
        "brand": "Meet Fresh",
        "brand:wikidata": "Q11172707",
        "brand:wikipedia": "en:Meet Fresh",
        "cuisine": "taiwanese",
        "name": "Meet Fresh"
      }
    },
    {
      "displayName": "Mellow Mushroom",
      "id": "mellowmushroom-96af40",
      "locationSet": {"include": ["us"]},
      "tags": {
        "amenity": "restaurant",
        "brand": "Mellow Mushroom",
        "brand:wikidata": "Q17021360",
        "brand:wikipedia": "en:Mellow Mushroom",
        "cuisine": "pizza",
        "name": "Mellow Mushroom"
      }
    },
    {
      "displayName": "Memphis",
      "id": "memphis-dee615",
      "locationSet": {"include": ["fr"]},
      "tags": {
        "amenity": "restaurant",
        "brand": "Memphis",
        "brand:wikidata": "Q101641106",
        "cuisine": "american",
        "name": "Memphis"
      }
    },
    {
      "displayName": "Migros Restaurant",
      "id": "migrosrestaurant-282f19",
      "locationSet": {"include": ["ch"]},
      "tags": {
        "amenity": "restaurant",
        "brand": "Migros Restaurant",
        "brand:wikidata": "Q680727",
        "brand:wikipedia": "de:Migros",
        "cuisine": "international",
        "name": "Migros Restaurant"
      }
    },
    {
      "displayName": "Mikes",
      "id": "mikes-e68b16",
      "locationSet": {"include": ["ca"]},
      "tags": {
        "amenity": "restaurant",
        "brand": "Mikes",
        "brand:wikidata": "Q3313615",
        "brand:wikipedia": "fr:Toujours Mikes",
        "cuisine": "pizza;pasta;sandwich",
        "name": "Mikes"
      }
    },
    {
      "displayName": "Miller & Carter",
      "id": "millerandcarter-9b5453",
      "locationSet": {"include": ["gb"]},
      "tags": {
        "amenity": "restaurant",
        "brand": "Miller & Carter",
        "brand:wikidata": "Q87067401",
        "cuisine": "steak",
        "name": "Miller & Carter"
      }
    },
    {
      "displayName": "Miller's Ale House",
      "id": "millersalehouse-96af40",
      "locationSet": {"include": ["us"]},
      "tags": {
        "amenity": "restaurant",
        "brand": "Miller's Ale House",
        "brand:wikidata": "Q6858987",
        "brand:wikipedia": "en:Miller's Ale House",
        "cuisine": "american",
        "name": "Miller's Ale House"
      }
    },
    {
      "displayName": "Mimi's Cafe",
      "id": "mimiscafe-96af40",
      "locationSet": {"include": ["us"]},
      "tags": {
        "amenity": "restaurant",
        "brand": "Mimi's Cafe",
        "brand:wikidata": "Q17022081",
        "brand:wikipedia": "en:Mimi's Cafe",
        "cuisine": "french",
        "name": "Mimi's Cafe"
      }
    },
    {
      "displayName": "MK Restaurants",
      "id": "mkrestaurants-5a3582",
      "locationSet": {"include": ["th"]},
      "tags": {
        "amenity": "restaurant",
        "brand": "MK Restaurants",
        "brand:wikidata": "Q62075359",
        "cuisine": "thai",
        "name": "MK Restaurants"
      }
    },
    {
      "displayName": "Montana's",
      "id": "montanas-e68b16",
      "locationSet": {"include": ["ca"]},
      "tags": {
        "amenity": "restaurant",
        "brand": "Montana's",
        "brand:wikidata": "Q17022490",
        "brand:wikipedia": "en:Montana's BBQ & Bar",
        "cuisine": "barbecue",
        "name": "Montana's",
        "official_name": "Montana's BBQ & Bar"
      }
    },
    {
      "displayName": "Morton's The Steakhouse",
      "id": "mortonsthesteakhouse-96af40",
      "locationSet": {"include": ["us"]},
      "matchNames": ["mortons"],
      "tags": {
        "amenity": "restaurant",
        "brand": "Morton's The Steakhouse",
        "brand:wikidata": "Q17022759",
        "brand:wikipedia": "en:Morton's The Steakhouse",
        "cuisine": "steak_house",
        "name": "Morton's The Steakhouse"
      }
    },
    {
      "displayName": "Moses",
      "id": "moses-b691b2",
      "locationSet": {"include": ["il"]},
      "tags": {
        "amenity": "restaurant",
        "brand": "Moses",
        "brand:en": "Moses",
        "brand:he": "מוזס",
        "brand:wikidata": "Q64760150",
        "cuisine": "burger",
        "name": "Moses",
        "name:en": "Moses",
        "name:he": "מוזס"
      }
    },
    {
      "displayName": "Mountain Mike's",
      "id": "mountainmikes-96af40",
      "locationSet": {"include": ["us"]},
      "tags": {
        "alt_name": "Mountain Mike's Pizza",
        "amenity": "restaurant",
        "brand": "Mountain Mike's",
        "brand:wikidata": "Q6925120",
        "brand:wikipedia": "en:Mountain Mike's Pizza",
        "cuisine": "pizza",
        "name": "Mountain Mike's",
        "takeaway": "yes"
      }
    },
    {
      "displayName": "Mr. Greek",
      "id": "mrgreek-e68b16",
      "locationSet": {"include": ["ca"]},
      "tags": {
        "amenity": "restaurant",
        "brand": "Mr. Greek",
        "brand:wikidata": "Q6928719",
        "cuisine": "greek",
        "name": "Mr. Greek"
      }
    },
    {
      "displayName": "Nando's",
      "id": "nandos-32ebee",
      "locationSet": {
        "include": [
          "ae",
          "au",
          "bd",
          "bh",
          "bw",
          "ca",
          "fj",
          "gb",
          "ie",
          "in",
          "mu",
          "my",
          "nz",
          "om",
          "pk",
          "qa",
          "sa",
          "sg",
          "sz",
          "us",
          "za",
          "zm",
          "zw"
        ]
      },
      "tags": {
        "amenity": "restaurant",
        "brand": "Nando's",
        "brand:wikidata": "Q3472954",
        "brand:wikipedia": "en:Nando's",
        "cuisine": "chicken;portuguese",
        "name": "Nando's"
      }
    },
    {
      "displayName": "Ninety Nine Restaurant & Pub",
      "id": "ninetyninerestaurantandpub-96af40",
      "locationSet": {"include": ["us"]},
      "matchNames": ["99 restaurant", "pub 99"],
      "tags": {
        "amenity": "restaurant",
        "brand": "Ninety Nine Restaurant & Pub",
        "brand:wikidata": "Q64358371",
        "cuisine": "american",
        "name": "Ninety Nine Restaurant & Pub"
      }
    },
    {
      "displayName": "Noodles & Company",
      "id": "noodlesandcompany-96af40",
      "locationSet": {"include": ["us"]},
      "matchNames": [
        "noodles and co",
        "noodles co",
        "noodles company"
      ],
      "tags": {
        "amenity": "restaurant",
        "brand": "Noodles & Company",
        "brand:wikidata": "Q7049673",
        "brand:wikipedia": "en:Noodles & Company",
        "cuisine": "pasta",
        "name": "Noodles & Company"
      }
    },
    {
      "displayName": "Norky's",
      "id": "norkys-39b0af",
      "locationSet": {"include": ["pe"]},
      "tags": {
        "amenity": "restaurant",
        "brand": "Norky's",
        "cuisine": "peruvian",
        "name": "Norky's"
      }
    },
    {
      "displayName": "O'Charley's",
      "id": "ocharleys-96af40",
      "locationSet": {"include": ["us"]},
      "tags": {
        "amenity": "restaurant",
        "brand": "O'Charley's",
        "brand:wikidata": "Q7071703",
        "brand:wikipedia": "en:O'Charley's",
        "cuisine": "american",
        "name": "O'Charley's"
      }
    },
    {
      "displayName": "Ocean Basket",
      "id": "oceanbasket-69fbf5",
      "locationSet": {"include": ["za"]},
      "tags": {
        "amenity": "restaurant",
        "brand": "Ocean Basket",
        "brand:wikidata": "Q62075311",
        "cuisine": "seafood",
        "name": "Ocean Basket"
      }
    },
    {
      "displayName": "Old Chicago",
      "id": "oldchicago-96af40",
      "locationSet": {"include": ["us"]},
      "tags": {
        "amenity": "restaurant",
        "brand": "Old Chicago",
        "brand:wikidata": "Q64411347",
        "cuisine": "pizza",
        "name": "Old Chicago",
        "official_name": "Old Chicago Pizza & Taproom"
      }
    },
    {
      "displayName": "Old Country Buffet",
      "id": "oldcountrybuffet-96af40",
      "locationSet": {"include": ["us"]},
      "tags": {
        "amenity": "restaurant",
        "brand": "Old Country Buffet",
        "brand:wikidata": "Q75243208",
        "cuisine": "american",
        "name": "Old Country Buffet"
      }
    },
    {
      "displayName": "Old Wild West",
      "id": "oldwildwest-8aae3d",
      "locationSet": {"include": ["it"]},
      "tags": {
        "amenity": "restaurant",
        "brand": "Old Wild West",
        "brand:wikidata": "Q25402475",
        "brand:wikipedia": "it:Old Wild West",
        "cuisine": "american",
        "name": "Old Wild West"
      }
    },
    {
      "displayName": "Olive Garden",
      "id": "olivegarden-2fabb0",
      "locationSet": {"include": ["001"]},
      "tags": {
        "amenity": "restaurant",
        "brand": "Olive Garden",
        "brand:wikidata": "Q3045312",
        "brand:wikipedia": "en:Olive Garden",
        "cuisine": "italian",
        "name": "Olive Garden"
      }
    },
    {
      "displayName": "On The Border",
      "id": "ontheborder-96af40",
      "locationSet": {"include": ["us"]},
      "tags": {
        "amenity": "restaurant",
        "brand": "On The Border",
        "brand:wikidata": "Q7091305",
        "brand:wikipedia": "en:On the Border Mexican Grill & Cantina",
        "cuisine": "tex-mex",
        "name": "On The Border",
        "official_name": "On The Border Mexican Grill & Cantina"
      }
    },
    {
      "displayName": "Ono Hawaiian BBQ",
      "id": "onohawaiianbbq-96af40",
      "locationSet": {"include": ["us"]},
      "tags": {
        "amenity": "restaurant",
        "brand": "Ono Hawaiian BBQ",
        "brand:wikidata": "Q99526964",
        "cuisine": "barbecue;hawaiian",
        "name": "Ono Hawaiian BBQ"
      }
    },
    {
      "displayName": "Osmow's",
      "id": "osmows-e68b16",
      "locationSet": {"include": ["ca"]},
      "tags": {
        "amenity": "restaurant",
        "brand": "Osmow's",
        "cuisine": "mediterranean",
        "name": "Osmow's"
      }
    },
    {
      "displayName": "Outback Steakhouse",
      "id": "outbacksteakhouse-2fabb0",
      "locationSet": {"include": ["001"]},
      "tags": {
        "amenity": "restaurant",
        "brand": "Outback Steakhouse",
        "brand:wikidata": "Q1064893",
        "brand:wikipedia": "en:Outback Steakhouse",
        "cuisine": "american;steak",
        "name": "Outback Steakhouse"
      }
    },
    {
      "displayName": "P.F. Chang's",
      "id": "pfchangs-f036fe",
      "locationSet": {
        "include": ["ca", "mx", "us"]
      },
      "matchNames": ["pf chang"],
      "tags": {
        "amenity": "restaurant",
        "brand": "P.F. Chang's",
        "brand:wikidata": "Q5360181",
        "brand:wikipedia": "en:P. F. Chang's",
        "cuisine": "asian",
        "name": "P.F. Chang's",
        "official_name": "P.F. Chang's China Bistro"
      }
    },
    {
      "displayName": "Papa Gino's",
      "id": "papaginos-96af40",
      "locationSet": {"include": ["us"]},
      "tags": {
        "amenity": "restaurant",
        "brand": "Papa Gino's",
        "brand:wikidata": "Q7132333",
        "brand:wikipedia": "en:Papa Gino's",
        "cuisine": "pizza",
        "name": "Papa Gino's"
      }
    },
    {
      "displayName": "PappaRich",
      "id": "papparich-2fabb0",
      "locationSet": {"include": ["001"]},
      "tags": {
        "amenity": "restaurant",
        "brand": "PappaRich",
        "brand:wikidata": "Q95721282",
        "brand:wikipedia": "ms:PappaRich",
        "cuisine": "malaysian",
        "name": "PappaRich"
      }
    },
    {
      "displayName": "Pardos Chicken",
      "id": "pardoschicken-39b0af",
      "locationSet": {"include": ["pe"]},
      "tags": {
        "amenity": "restaurant",
        "brand": "Pardos Chicken",
        "brand:wikidata": "Q17624435",
        "brand:wikipedia": "en:Pardos chicken",
        "cuisine": "peruvian",
        "name": "Pardos Chicken"
      }
    },
    {
      "displayName": "Pei Wei",
      "id": "peiwei-96af40",
      "locationSet": {"include": ["us"]},
      "matchNames": ["pei wei asian diner"],
      "tags": {
        "amenity": "restaurant",
        "brand": "Pei Wei",
        "brand:wikidata": "Q7160898",
        "brand:wikipedia": "en:Pei Wei Asian Diner",
        "cuisine": "asian",
        "name": "Pei Wei"
      }
    },
    {
      "displayName": "Pepper Lunch",
      "id": "pepperlunch-2fabb0",
      "locationSet": {"include": ["001"]},
      "matchNames": ["ペッパーランチ"],
      "tags": {
        "amenity": "restaurant",
        "brand": "Pepper Lunch",
        "brand:wikidata": "Q1016072",
        "brand:wikipedia": "en:Pepper Lunch",
        "cuisine": "steak",
        "name": "Pepper Lunch"
      }
    },
    {
      "displayName": "Perkins",
      "id": "perkins-96af40",
      "locationSet": {"include": ["us"]},
      "tags": {
        "amenity": "restaurant",
        "brand": "Perkins",
        "brand:wikidata": "Q7169056",
        "brand:wikipedia": "en:Perkins Restaurant & Bakery",
        "cuisine": "american",
        "name": "Perkins",
        "official_name": "Perkins Restaurant and Bakery"
      }
    },
    {
      "displayName": "Peter Pane",
      "id": "peterpane-b8cc79",
      "locationSet": {"include": ["at", "de"]},
      "tags": {
        "amenity": "restaurant",
        "brand": "Peter Pane",
        "brand:wikidata": "Q66084419",
        "brand:wikipedia": "nl:Peter Pane",
        "cuisine": "burger",
        "name": "Peter Pane"
      }
    },
    {
      "displayName": "Peter Piper Pizza",
      "id": "peterpiperpizza-96af40",
      "locationSet": {"include": ["us"]},
      "tags": {
        "amenity": "restaurant",
        "brand": "Peter Piper Pizza",
        "brand:wikidata": "Q7176401",
        "brand:wikipedia": "en:Peter Piper Pizza",
        "cuisine": "pizza",
        "name": "Peter Piper Pizza"
      }
    },
    {
      "displayName": "Phở 24",
      "id": "pho24-d3bf7d",
      "locationSet": {"include": ["vn"]},
      "tags": {
        "amenity": "restaurant",
        "brand": "Phở 24",
        "brand:wikidata": "Q63863118",
        "cuisine": "vietnamese;noodle",
        "name": "Phở 24",
        "name:en": "Pho 24",
        "name:vi": "Phở 24"
      }
    },
    {
      "displayName": "Phở Hòa",
      "id": "phohoa-13c988",
      "locationSet": {
        "include": [
          "ca",
          "id",
          "kr",
          "ms",
          "ph",
          "us"
        ]
      },
      "tags": {
        "alt_name": "Phở Hoà",
        "alt_name:en": "Pho Hoa",
        "alt_name:vi": "Phở Hoà",
        "amenity": "restaurant",
        "brand": "Phở Hòa",
        "brand:wikidata": "Q55629932",
        "brand:wikipedia": "en:Phở Hòa",
        "cuisine": "vietnamese;noodle",
        "name": "Phở Hòa",
        "name:vi": "Phở Hòa"
      }
    },
    {
      "displayName": "Piemininster",
      "id": "pieminister-9b5453",
      "locationSet": {"include": ["gb"]},
      "tags": {
        "amenity": "restaurant",
        "brand": "Pieminister",
        "brand:wikidata": "Q16967078",
        "brand:wikipedia": "en:Pieminister",
        "cuisine": "pie",
        "diet:vegan": "yes",
        "diet:vegetarian": "yes",
        "name": "Pieminister"
      }
    },
    {
      "displayName": "Pieology Pizzeria",
      "id": "pieologypizzeria-96af40",
      "locationSet": {"include": ["us"]},
      "matchNames": ["pieology"],
      "tags": {
        "amenity": "restaurant",
        "brand": "Pieology Pizzeria",
        "brand:wikidata": "Q60746053",
        "brand:wikipedia": "en:Pieology",
        "cuisine": "pizza",
        "name": "Pieology Pizzeria"
      }
    },
    {
      "displayName": "Pizza Delight",
      "id": "pizzadelight-e68b16",
      "locationSet": {"include": ["ca"]},
      "tags": {
        "amenity": "restaurant",
        "brand": "Pizza Delight",
        "brand:wikidata": "Q3389502",
        "brand:wikipedia": "en:Pizza Delight",
        "cuisine": "pizza",
        "name": "Pizza Delight"
      }
    },
    {
      "displayName": "Pizza Factory",
      "id": "pizzafactory-96af40",
      "locationSet": {"include": ["us"]},
      "tags": {
        "amenity": "restaurant",
        "brand": "Pizza Factory",
        "brand:wikidata": "Q39054369",
        "brand:wikipedia": "en:Pizza Factory",
        "cuisine": "pizza",
        "name": "Pizza Factory"
      }
    },
    {
      "displayName": "Pizza Hut",
      "id": "pizzahut-2fabb0",
      "locationSet": {"include": ["001"]},
      "tags": {
        "amenity": "restaurant",
        "brand": "Pizza Hut",
        "brand:wikidata": "Q191615",
        "brand:wikipedia": "en:Pizza Hut",
        "cuisine": "pizza",
        "name": "Pizza Hut"
      }
    },
    {
      "displayName": "Pizza Paï",
      "id": "pizzapai-dee615",
      "locationSet": {"include": ["fr"]},
      "tags": {
        "amenity": "restaurant",
        "brand": "Pizza Paï",
        "brand:wikidata": "Q3389501",
        "brand:wikipedia": "fr:Pizza Paï",
        "cuisine": "pizza",
        "name": "Pizza Paï"
      }
    },
    {
      "displayName": "Pizza Ranch",
      "id": "pizzaranch-96af40",
      "locationSet": {"include": ["us"]},
      "tags": {
        "amenity": "restaurant",
        "brand": "Pizza Ranch",
        "brand:wikidata": "Q7199978",
        "brand:wikipedia": "en:Pizza Ranch",
        "cuisine": "pizza",
        "name": "Pizza Ranch"
      }
    },
    {
      "displayName": "Pizza Roma",
      "id": "pizzaroma-2fabb0",
      "locationSet": {"include": ["001"]},
      "tags": {
        "amenity": "restaurant",
        "brand": "Pizza Roma",
        "cuisine": "pizza",
        "name": "Pizza Roma"
      }
    },
    {
      "displayName": "PizzaExpress",
      "id": "pizzaexpress-2fabb0",
      "locationSet": {"include": ["001"]},
      "tags": {
        "amenity": "restaurant",
        "brand": "PizzaExpress",
        "brand:wikidata": "Q662845",
        "brand:wikipedia": "en:PizzaExpress",
        "cuisine": "pizza",
        "name": "PizzaExpress"
      }
    },
    {
      "displayName": "Poivre Rouge",
      "id": "poivrerouge-dee615",
      "locationSet": {"include": ["fr"]},
      "tags": {
        "amenity": "restaurant",
        "brand": "Poivre Rouge",
        "brand:wikidata": "Q7316076",
        "brand:wikipedia": "fr:Poivre Rouge (restauration)",
        "cuisine": "french",
        "name": "Poivre Rouge"
      }
    },
    {
      "displayName": "Ponderosa Steakhouse",
      "id": "ponderosasteakhouse-e617a8",
      "locationSet": {
        "include": ["ae", "eg", "qa", "tw", "us"]
      },
      "matchNames": ["ponderosa"],
      "tags": {
        "amenity": "restaurant",
        "brand": "Ponderosa Steakhouse",
        "brand:en": "Ponderosa Steakhouse",
        "brand:wikidata": "Q64038204",
        "brand:zh": "龐德羅莎",
        "cuisine": "american;steak;buffet",
        "name": "Ponderosa Steakhouse",
        "name:en": "Ponderosa Steakhouse",
        "name:zh": "龐德羅莎"
      }
    },
    {
      "displayName": "Prezzo",
      "id": "prezzo-9b5453",
      "locationSet": {"include": ["gb"]},
      "tags": {
        "amenity": "restaurant",
        "brand": "Prezzo",
        "brand:wikidata": "Q7242489",
        "brand:wikipedia": "en:Prezzo (restaurant)",
        "cuisine": "italian",
        "name": "Prezzo"
      }
    },
    {
      "displayName": "Primavera",
      "id": "primavera-2fabb0",
      "locationSet": {"include": ["001"]},
      "tags": {
        "amenity": "restaurant",
        "brand": "Primavera",
        "name": "Primavera"
      }
    },
    {
      "displayName": "Quaker Steak & Lube",
      "id": "quakersteakandlube-96af40",
      "locationSet": {"include": ["us"]},
      "tags": {
        "amenity": "restaurant",
        "brand": "Quaker Steak & Lube",
        "brand:wikidata": "Q7268570",
        "brand:wikipedia": "en:Quaker Steak & Lube",
        "cuisine": "wings",
        "name": "Quaker Steak & Lube"
      }
    },
    {
      "displayName": "Rainforest Cafe",
      "id": "rainforestcafe-96af40",
      "locationSet": {"include": ["us"]},
      "tags": {
        "amenity": "restaurant",
        "brand": "Rainforest Cafe",
        "brand:wikidata": "Q3391111",
        "brand:wikipedia": "en:Rainforest Cafe",
        "cuisine": "american",
        "name": "Rainforest Cafe"
      }
    },
    {
      "displayName": "Red Lobster",
      "id": "redlobster-2fabb0",
      "locationSet": {"include": ["001"]},
      "tags": {
        "amenity": "restaurant",
        "brand": "Red Lobster",
        "brand:wikidata": "Q846301",
        "brand:wikipedia": "en:Red Lobster",
        "cuisine": "seafood",
        "name": "Red Lobster"
      }
    },
    {
      "displayName": "Red Robin",
      "id": "redrobin-85c92c",
      "locationSet": {"include": ["ca", "us"]},
      "tags": {
        "amenity": "restaurant",
        "brand": "Red Robin",
        "brand:wikidata": "Q7304886",
        "brand:wikipedia": "en:Red Robin",
        "cuisine": "burger",
        "name": "Red Robin",
        "official_name": "Red Robin Gourmet Burgers and Brews"
      }
    },
    {
      "displayName": "Ristorante Del Arte",
      "id": "ristorantedelarte-dee615",
      "locationSet": {"include": ["fr"]},
      "tags": {
        "amenity": "restaurant",
        "brand": "Ristorante Del Arte",
        "brand:wikidata": "Q89208262",
        "cuisine": "italian",
        "name": "Ristorante Del Arte"
      }
    },
    {
      "displayName": "Roadhouse",
      "id": "roadhouse-8aae3d",
      "locationSet": {"include": ["it"]},
      "tags": {
        "amenity": "restaurant",
        "brand": "Roadhouse",
        "brand:wikidata": "Q7339591",
        "brand:wikipedia": "it:Roadhouse Grill",
        "cuisine": "steak_house",
        "name": "Roadhouse"
      }
    },
    {
      "displayName": "Rocky Rococo",
      "id": "rockyrococo-96af40",
      "locationSet": {"include": ["us"]},
      "tags": {
        "amenity": "restaurant",
        "brand": "Rocky Rococo",
        "brand:wikidata": "Q7356002",
        "brand:wikipedia": "en:Rocky Rococo",
        "cuisine": "pizza",
        "name": "Rocky Rococo"
      }
    },
    {
      "displayName": "Rolls",
      "id": "rolls-fe858e",
      "locationSet": {"include": ["fi"]},
      "tags": {
        "amenity": "restaurant",
        "brand": "Rolls",
        "brand:wikidata": "Q3195068",
        "brand:wikipedia": "fi:Rolls",
        "cuisine": "burger",
        "name": "Rolls"
      }
    },
    {
      "displayName": "Romano's Macaroni Grill",
      "id": "romanosmacaronigrill-96af40",
      "locationSet": {"include": ["us"]},
      "tags": {
        "amenity": "restaurant",
        "brand": "Romano's Macaroni Grill",
        "brand:wikidata": "Q7362714",
        "brand:wikipedia": "en:Romano's Macaroni Grill",
        "cuisine": "italian",
        "name": "Romano's Macaroni Grill"
      }
    },
    {
      "displayName": "Round Table Pizza",
      "id": "roundtablepizza-96af40",
      "locationSet": {"include": ["us"]},
      "matchNames": ["round table"],
      "tags": {
        "amenity": "restaurant",
        "brand": "Round Table Pizza",
        "brand:wikidata": "Q7371139",
        "brand:wikipedia": "en:Round Table Pizza",
        "cuisine": "pizza",
        "name": "Round Table Pizza"
      }
    },
    {
      "displayName": "Royal",
      "id": "royal-2fabb0",
      "locationSet": {"include": ["001"]},
      "tags": {
        "amenity": "restaurant",
        "brand": "Royal",
        "name": "Royal"
      }
    },
    {
      "displayName": "Ruby Tuesday",
      "id": "rubytuesday-2fabb0",
      "locationSet": {"include": ["001"]},
      "tags": {
        "amenity": "restaurant",
        "brand": "Ruby Tuesday",
        "brand:wikidata": "Q7376400",
        "brand:wikipedia": "en:Ruby Tuesday (restaurant)",
        "cuisine": "american",
        "name": "Ruby Tuesday"
      }
    },
    {
      "displayName": "Ruth's Chris Steak House",
      "id": "ruthschrissteakhouse-f036fe",
      "locationSet": {
        "include": ["ca", "mx", "us"]
      },
      "tags": {
        "amenity": "restaurant",
        "brand": "Ruth's Chris Steak House",
        "brand:wikidata": "Q7382829",
        "brand:wikipedia": "en:Ruth's Chris Steak House",
        "cuisine": "american",
        "name": "Ruth's Chris Steak House"
      }
    },
    {
      "displayName": "Saizeriya",
      "id": "saizeriya-10ab86",
      "locationSet": {
        "include": ["001"],
        "exclude": ["cn", "hk", "jp", "tw"]
      },
      "tags": {
        "amenity": "restaurant",
        "brand": "Saizeriya",
        "brand:en": "Saizeriya",
        "brand:it": "Saizeriya",
        "brand:ja": "サイゼリヤ",
        "brand:wikidata": "Q886564",
        "brand:wikipedia": "en:Saizeriya",
        "cuisine": "italian",
        "name": "Saizeriya",
        "name:en": "Saizeriya",
        "name:it": "Saizeriya",
        "name:ja": "サイゼリヤ"
      }
    },
    {
      "displayName": "Saltgrass Steak House",
      "id": "saltgrasssteakhouse-96af40",
      "locationSet": {"include": ["us"]},
      "matchNames": ["saltgrass"],
      "tags": {
        "amenity": "restaurant",
        "brand": "Saltgrass Steak House",
        "brand:wikidata": "Q7406113",
        "brand:wikipedia": "en:Saltgrass Steak House",
        "cuisine": "steak_house",
        "name": "Saltgrass Steak House"
      }
    },
    {
      "displayName": "Santa Lucia",
      "id": "santalucia-2fabb0",
      "locationSet": {"include": ["001"]},
      "tags": {
        "amenity": "restaurant",
        "brand": "Santa Lucia",
        "name": "Santa Lucia"
      }
    },
    {
      "displayName": "Sausalitos",
      "id": "sausalitos-051971",
      "locationSet": {"include": ["de"]},
      "tags": {
        "amenity": "restaurant",
        "brand": "Sausalitos",
        "brand:wikidata": "Q2227783",
        "brand:wikipedia": "de:Sausalitos",
        "cuisine": "mexican",
        "name": "Sausalitos"
      }
    },
    {
      "displayName": "Scores",
      "id": "scores-e68b16",
      "locationSet": {"include": ["ca"]},
      "tags": {
        "amenity": "restaurant",
        "brand": "Scores",
        "brand:wikidata": "Q3476059",
        "brand:wikipedia": "fr:Scores",
        "cuisine": "chicken;barbecue",
        "name": "Scores"
      }
    },
    {
      "displayName": "Shakey's",
      "id": "shakeys-2fabb0",
      "locationSet": {"include": ["001"]},
      "tags": {
        "amenity": "restaurant",
        "brand": "Shakey's",
        "brand:wikidata": "Q6134929",
        "brand:wikipedia": "en:Shakey's Pizza",
        "cuisine": "pizza",
        "name": "Shakey's"
      }
    },
    {
      "displayName": "Shari's",
      "id": "sharis-96af40",
      "locationSet": {"include": ["us"]},
      "tags": {
        "amenity": "restaurant",
        "brand": "Shari's",
        "brand:wikidata": "Q7489612",
        "brand:wikipedia": "en:Shari's Cafe & Pies",
        "cuisine": "american",
        "name": "Shari's"
      }
    },
    {
      "displayName": "Shingle Inn",
      "id": "shingleinn-3c82e9",
      "locationSet": {"include": ["au"]},
      "tags": {
        "amenity": "restaurant",
        "brand": "Shingle Inn",
        "brand:wikidata": "Q7497463",
        "brand:wikipedia": "en:Shingle Inn",
        "cuisine": "bakery",
        "name": "Shingle Inn"
      }
    },
    {
      "displayName": "Shoney's",
      "id": "shoneys-96af40",
      "locationSet": {"include": ["us"]},
      "tags": {
        "amenity": "restaurant",
        "brand": "Shoney's",
        "brand:wikidata": "Q7500392",
        "brand:wikipedia": "en:Shoney's",
        "cuisine": "american",
        "name": "Shoney's"
      }
    },
    {
      "displayName": "Signorizza",
      "id": "signorizza-47e37e",
      "locationSet": {"include": ["fx"]},
      "tags": {
        "amenity": "restaurant",
        "brand": "Signorizza",
        "brand:wikidata": "Q101603846",
        "cuisine": "pizza",
        "name": "Signorizza"
      }
    },
    {
      "displayName": "Sizzler",
      "id": "sizzler-2fabb0",
      "locationSet": {"include": ["001"]},
      "tags": {
        "amenity": "restaurant",
        "brand": "Sizzler",
        "brand:wikidata": "Q1848822",
        "brand:wikipedia": "en:Sizzler",
        "cuisine": "steak_house",
        "name": "Sizzler"
      }
    },
    {
      "displayName": "Skyline Chili",
      "id": "skylinechili-96af40",
      "locationSet": {"include": ["us"]},
      "tags": {
        "amenity": "restaurant",
        "brand": "Skyline Chili",
        "brand:wikidata": "Q151224",
        "brand:wikipedia": "en:Skyline Chili",
        "cuisine": "chili",
        "name": "Skyline Chili",
        "takeaway": "yes"
      }
    },
    {
      "displayName": "Smitty's",
      "id": "smittys-85c92c",
      "locationSet": {"include": ["ca", "us"]},
      "tags": {
        "amenity": "restaurant",
        "brand": "Smitty's",
        "brand:wikidata": "Q7545728",
        "brand:wikipedia": "en:Smitty's",
        "cuisine": "pancake",
        "name": "Smitty's"
      }
    },
    {
      "displayName": "Snappy Tomato Pizza",
      "id": "snappytomatopizza-5e4871",
      "locationSet": {"include": ["gb", "us"]},
      "tags": {
        "amenity": "restaurant",
        "brand": "Snappy Tomato Pizza",
        "brand:wikidata": "Q7547352",
        "brand:wikipedia": "en:Snappy Tomato Pizza",
        "cuisine": "pizza",
        "name": "Snappy Tomato Pizza",
        "takeaway": "yes"
      }
    },
    {
      "displayName": "Sonny's BBQ",
      "id": "sonnysbbq-96af40",
      "locationSet": {"include": ["us"]},
      "tags": {
        "amenity": "restaurant",
        "brand": "Sonny's BBQ",
        "brand:wikidata": "Q7561989",
        "brand:wikipedia": "en:Sonny's BBQ",
        "cuisine": "bbq",
        "name": "Sonny's BBQ"
      }
    },
    {
      "displayName": "Spudbar",
      "id": "spudbar-3c82e9",
      "locationSet": {"include": ["au"]},
      "tags": {
        "amenity": "restaurant",
        "brand": "Spudbar",
        "brand:wikidata": "Q19589778",
        "brand:wikipedia": "en:Spudbar",
        "cuisine": "baked_potato",
        "name": "Spudbar"
      }
    },
    {
      "displayName": "Spur",
      "id": "spur-69fbf5",
      "locationSet": {"include": ["za"]},
      "matchNames": ["spur steak ranches"],
      "tags": {
        "amenity": "restaurant",
        "brand": "Spur",
        "brand:wikidata": "Q7581546",
        "brand:wikipedia": "en:Spur Steak Ranches",
        "cuisine": "steak_house",
        "name": "Spur"
      }
    },
    {
      "displayName": "St-Hubert",
      "id": "sthubert-e68b16",
      "locationSet": {"include": ["ca"]},
      "tags": {
        "amenity": "restaurant",
        "brand": "St-Hubert",
        "brand:wikidata": "Q3495225",
        "brand:wikipedia": "fr:St-Hubert (restaurant)",
        "cuisine": "chicken;barbecue",
        "name": "St-Hubert"
      }
    },
    {
      "displayName": "St. Louis Bar & Grill",
      "id": "stlouisbarandgrill-e68b16",
      "locationSet": {"include": ["ca"]},
      "tags": {
        "amenity": "restaurant",
        "brand": "St. Louis Bar & Grill",
        "brand:wikidata": "Q65567668",
        "cuisine": "chicken",
        "name": "St. Louis Bar & Grill"
      }
    },
    {
      "displayName": "Stoney River",
      "id": "stoneyriver-96af40",
      "locationSet": {"include": ["us"]},
      "tags": {
        "amenity": "restaurant",
        "brand": "Stoney River",
        "brand:wikidata": "Q7619422",
        "brand:wikipedia": "en:Stoney River Legendary Steaks",
        "cuisine": "steak_house",
        "name": "Stoney River"
      }
    },
    {
      "displayName": "Sunset Grill",
      "id": "sunsetgrill-85c92c",
      "locationSet": {"include": ["ca", "us"]},
      "tags": {
        "amenity": "restaurant",
        "brand": "Sunset Grill",
        "brand:wikidata": "Q62112489",
        "brand:wikipedia": "en:Sunset Grill (Canadian restaurant chain)",
        "cuisine": "american",
        "name": "Sunset Grill"
      }
    },
    {
      "displayName": "Sushi King",
      "id": "sushiking-2fabb0",
      "locationSet": {"include": ["001"]},
      "tags": {
        "amenity": "restaurant",
        "brand": "Sushi King",
        "cuisine": "japanese",
        "name": "Sushi King"
      }
    },
    {
      "displayName": "Swiss Chalet",
      "id": "swisschalet-e68b16",
      "locationSet": {"include": ["ca"]},
      "tags": {
        "amenity": "restaurant",
        "brand": "Swiss Chalet",
        "brand:wikidata": "Q2372909",
        "brand:wikipedia": "en:Swiss Chalet",
        "cuisine": "chicken",
        "name": "Swiss Chalet"
      }
    },
    {
      "displayName": "Table Table",
      "id": "tabletable-9b5453",
      "locationSet": {"include": ["gb"]},
      "note": "No name for Table Table brand as each restaurant is named differently.",
      "tags": {
        "amenity": "restaurant",
        "brand": "Table Table",
        "brand:wikidata": "Q16952586",
        "brand:wikipedia": "en:Table Table",
        "cuisine": "british"
      }
    },
    {
      "displayName": "Ted's Montana Grill",
      "id": "tedsmontanagrill-96af40",
      "locationSet": {"include": ["us"]},
      "tags": {
        "amenity": "restaurant",
        "brand": "Ted's Montana Grill",
        "brand:wikidata": "Q16953170",
        "brand:wikipedia": "en:Ted's Montana Grill",
        "cuisine": "american",
        "name": "Ted's Montana Grill"
      }
    },
    {
      "displayName": "Tempero Manero",
      "id": "temperomanero-ad49e6",
      "locationSet": {"include": ["br"]},
      "tags": {
        "amenity": "restaurant",
        "brand": "Tempero Manero",
        "cuisine": "brazilian",
        "name": "Tempero Manero"
      }
    },
    {
      "displayName": "Texas Roadhouse",
      "id": "texasroadhouse-96af40",
      "locationSet": {"include": ["us"]},
      "tags": {
        "amenity": "restaurant",
        "brand": "Texas Roadhouse",
        "brand:wikidata": "Q7707945",
        "brand:wikipedia": "en:Texas Roadhouse",
        "cuisine": "steak_house",
        "name": "Texas Roadhouse"
      }
    },
    {
      "displayName": "TGI Friday's",
      "id": "tgifridays-2fabb0",
      "locationSet": {"include": ["001"]},
      "tags": {
        "amenity": "restaurant",
        "brand": "TGI Friday's",
        "brand:wikidata": "Q1524184",
        "brand:wikipedia": "en:TGI Fridays",
        "cuisine": "american",
        "name": "TGI Friday's"
      }
    },
    {
      "displayName": "The Boathouse",
      "id": "theboathouse-2fabb0",
      "locationSet": {"include": ["001"]},
      "tags": {
        "amenity": "restaurant",
        "brand": "The Boathouse",
        "name": "The Boathouse"
      }
    },
    {
      "displayName": "The Cheesecake Factory",
      "id": "thecheesecakefactory-96af40",
      "locationSet": {"include": ["us"]},
      "tags": {
        "alt_name": "Cheesecake Factory",
        "amenity": "restaurant",
        "brand": "The Cheesecake Factory",
        "brand:wikidata": "Q1045842",
        "brand:wikipedia": "en:The Cheesecake Factory",
        "cuisine": "american",
        "name": "The Cheesecake Factory"
      }
    },
    {
      "displayName": "The Counter",
      "id": "thecounter-96af40",
      "locationSet": {"include": ["us"]},
      "tags": {
        "amenity": "restaurant",
        "brand": "The Counter",
        "brand:wikidata": "Q7727763",
        "brand:wikipedia": "en:The Counter",
        "cuisine": "burger",
        "name": "The Counter"
      }
    },
    {
      "displayName": "The Keg",
      "id": "thekeg-85c92c",
      "locationSet": {"include": ["ca", "us"]},
      "matchNames": ["keg"],
      "tags": {
        "amenity": "restaurant",
        "brand": "The Keg",
        "brand:wikidata": "Q7744066",
        "brand:wikipedia": "en:The Keg",
        "cuisine": "steak_house",
        "name": "The Keg"
      }
    },
    {
      "displayName": "The Melting Pot",
      "id": "themeltingpot-96af40",
      "locationSet": {"include": ["us"]},
      "tags": {
        "alt_name": "Melting Pot",
        "amenity": "restaurant",
        "brand": "The Melting Pot",
        "brand:wikidata": "Q7750948",
        "brand:wikipedia": "en:The Melting Pot (restaurant)",
        "cuisine": "fondue",
        "name": "The Melting Pot"
      }
    },
    {
      "displayName": "The Original Pancake House",
      "id": "theoriginalpancakehouse-832bb4",
      "locationSet": {
        "include": ["jp", "kr", "us"]
      },
      "matchNames": ["original pancake house"],
      "tags": {
        "amenity": "restaurant",
        "brand": "The Original Pancake House",
        "brand:wikidata": "Q7755384",
        "brand:wikipedia": "en:The Original Pancake House",
        "cuisine": "breakfast;pancake",
        "name": "The Original Pancake House"
      }
    },
    {
      "displayName": "Tijuana Flats",
      "id": "tijuanaflats-96af40",
      "locationSet": {"include": ["us"]},
      "tags": {
        "amenity": "restaurant",
        "brand": "Tijuana Flats",
        "brand:wikidata": "Q7801833",
        "brand:wikipedia": "en:Tijuana Flats",
        "cuisine": "mexican",
        "name": "Tijuana Flats"
      }
    },
    {
      "displayName": "Tinseltown",
      "id": "tinseltown-9b5453",
      "locationSet": {"include": ["gb"]},
      "tags": {
        "amenity": "restaurant",
        "brand": "Tinseltown",
        "cuisine": "american",
        "name": "Tinseltown"
      }
    },
    {
      "displayName": "Toby Carvery",
      "id": "tobycarvery-9b5453",
      "locationSet": {"include": ["gb"]},
      "tags": {
        "amenity": "restaurant",
        "brand": "Toby Carvery",
        "brand:wikidata": "Q7811777",
        "brand:wikipedia": "en:Toby Carvery",
        "cuisine": "british",
        "name": "Toby Carvery"
      }
    },
    {
      "displayName": "Toks",
      "id": "toks-f5830e",
      "locationSet": {"include": ["mx"]},
      "tags": {
        "amenity": "restaurant",
        "brand": "Toks",
        "brand:wikidata": "Q48835586",
        "brand:wikipedia": "en:Toks",
        "cuisine": "mexican",
        "name": "Toks"
      }
    },
    {
      "displayName": "Tony Roma's",
      "id": "tonyromas-2fabb0",
      "locationSet": {"include": ["001"]},
      "matchNames": ["tony roma"],
      "tags": {
        "amenity": "restaurant",
        "brand": "Tony Roma's",
        "brand:wikidata": "Q2213883",
        "brand:wikipedia": "en:Tony Roma's",
        "cuisine": "barbecue",
        "name": "Tony Roma's"
      }
    },
    {
      "displayName": "Topper's Pizza (Canada)",
      "id": "topperspizza-e68b16",
      "locationSet": {"include": ["ca"]},
      "tags": {
        "amenity": "restaurant",
        "brand": "Topper's Pizza",
        "brand:wikidata": "Q7825105",
        "brand:wikipedia": "en:Topper's Pizza (Canadian restaurant)",
        "cuisine": "pizza",
        "name": "Topper's Pizza"
      }
    },
    {
      "displayName": "Toppers Pizza (USA)",
      "id": "topperspizza-96af40",
      "locationSet": {"include": ["us"]},
      "tags": {
        "amenity": "restaurant",
        "brand": "Toppers Pizza",
        "brand:wikidata": "Q7825113",
        "brand:wikipedia": "en:Toppers Pizza (American restaurant)",
        "cuisine": "pizza",
        "name": "Toppers Pizza"
      }
    },
    {
      "displayName": "Tortilla",
      "id": "tortilla-f43f01",
      "locationSet": {
        "include": ["ae", "sa", "uk"]
      },
      "tags": {
        "amenity": "restaurant",
        "brand": "Tortilla",
        "brand:wikidata": "Q21006828",
        "brand:wikipedia": "en:Tortilla (restaurant chain)",
        "cuisine": "tex-mex",
        "name": "Tortilla"
      }
    },
    {
      "displayName": "Twin Peaks",
      "id": "twinpeaks-96af40",
      "locationSet": {"include": ["us"]},
      "tags": {
        "amenity": "restaurant",
        "brand": "Twin Peaks",
        "brand:wikidata": "Q7858255",
        "brand:wikipedia": "en:Twin Peaks (restaurant chain)",
        "cuisine": "american",
        "name": "Twin Peaks"
      }
    },
    {
      "displayName": "Unos",
      "id": "unos-2fabb0",
      "locationSet": {"include": ["001"]},
      "tags": {
        "amenity": "restaurant",
        "brand": "Unos",
        "brand:wikidata": "Q7897209",
        "brand:wikipedia": "en:Uno Pizzeria & Grill",
        "cuisine": "pizza",
        "name": "Unos"
      }
    },
    {
      "displayName": "Valentino",
      "id": "valentino-2fabb0",
      "locationSet": {"include": ["001"]},
      "tags": {
        "amenity": "restaurant",
        "brand": "Valentino",
        "name": "Valentino"
      }
    },
    {
      "displayName": "Vapiano",
      "id": "vapiano-2fabb0",
      "locationSet": {"include": ["001"]},
      "tags": {
        "amenity": "restaurant",
        "brand": "Vapiano",
        "brand:wikidata": "Q506252",
        "brand:wikipedia": "en:Vapiano",
        "cuisine": "italian",
        "name": "Vapiano"
      }
    },
    {
      "displayName": "Victoria",
      "id": "victoria-2fabb0",
      "locationSet": {"include": ["001"]},
      "tags": {
        "amenity": "restaurant",
        "brand": "Victoria",
        "cuisine": "english",
        "name": "Victoria"
      }
    },
    {
      "displayName": "Village Inn",
      "id": "villageinn-96af40",
      "locationSet": {"include": ["us"]},
      "tags": {
        "amenity": "restaurant",
        "brand": "Village Inn",
        "brand:wikidata": "Q7930659",
        "brand:wikipedia": "en:Village Inn",
        "cuisine": "american",
        "name": "Village Inn"
      }
    },
    {
      "displayName": "Vips (España)",
      "id": "vips-acf031",
      "locationSet": {"include": ["es"]},
      "tags": {
        "amenity": "restaurant",
        "brand": "Vips",
        "brand:wikidata": "Q66087862",
        "cuisine": "international",
        "name": "Vips"
      }
    },
    {
      "displayName": "Vips (México)",
      "id": "vips-f5830e",
      "locationSet": {"include": ["mx"]},
      "tags": {
        "amenity": "restaurant",
        "brand": "Vips",
        "brand:wikidata": "Q48783378",
        "brand:wikipedia": "es:Vips",
        "cuisine": "mexican",
        "name": "Vips"
      }
    },
    {
      "displayName": "Waffle House",
      "id": "wafflehouse-96af40",
      "locationSet": {"include": ["us"]},
      "tags": {
        "amenity": "restaurant",
        "brand": "Waffle House",
        "brand:wikidata": "Q1701206",
        "brand:wikipedia": "en:Waffle House",
        "cuisine": "american",
        "name": "Waffle House",
        "opening_hours": "24/7"
      }
    },
    {
      "displayName": "Wagamama",
      "id": "wagamama-2fabb0",
      "locationSet": {"include": ["001"]},
      "tags": {
        "amenity": "restaurant",
        "brand": "Wagamama",
        "brand:wikidata": "Q503715",
        "brand:wikipedia": "en:Wagamama",
        "cuisine": "asian",
        "name": "Wagamama"
      }
    },
    {
      "displayName": "Wasabi",
      "id": "wasabi-2fabb0",
      "locationSet": {"include": ["001"]},
      "tags": {
        "amenity": "restaurant",
        "brand": "Wasabi",
        "brand:wikidata": "Q23891278",
        "brand:wikipedia": "en:Wasabi (restaurant)",
        "cuisine": "japanese",
        "name": "Wasabi"
      }
    },
    {
      "displayName": "Western Sizzlin'",
      "id": "westernsizzlin-96af40",
      "locationSet": {"include": ["us"]},
      "matchNames": ["western sizzling"],
      "tags": {
        "amenity": "restaurant",
        "brand": "Western Sizzlin'",
        "brand:wikidata": "Q7988295",
        "brand:wikipedia": "en:Western Sizzlin'",
        "cuisine": "american;steak",
        "name": "Western Sizzlin'"
      }
    },
    {
      "displayName": "White Spot",
      "id": "whitespot-e68b16",
      "locationSet": {"include": ["ca"]},
      "tags": {
        "amenity": "restaurant",
        "brand": "White Spot",
        "brand:wikidata": "Q7995414",
        "brand:wikipedia": "en:White Spot",
        "cuisine": "burger",
        "name": "White Spot"
      }
    },
    {
      "displayName": "Wild Wing",
      "id": "wildwing-e68b16",
      "locationSet": {"include": ["ca"]},
      "tags": {
        "amenity": "restaurant",
        "brand": "Wild Wing",
        "brand:wikidata": "Q8000869",
        "brand:wikipedia": "en:Wild Wing Restaurants",
        "cuisine": "chicken",
        "name": "Wild Wing"
      }
    },
    {
      "displayName": "Wildwood",
      "id": "wildwood-9b5453",
      "locationSet": {"include": ["gb"]},
      "tags": {
        "amenity": "restaurant",
        "brand": "Wildwood",
        "brand:wikidata": "Q85300869",
        "cuisine": "grill;pasta;pizza",
        "name": "Wildwood"
      }
    },
    {
      "displayName": "Yard House",
      "id": "yardhouse-96af40",
      "locationSet": {"include": ["us"]},
      "tags": {
        "alcohol": "yes",
        "amenity": "restaurant",
        "brand": "Yard House",
        "brand:wikidata": "Q21189156",
        "brand:wikipedia": "en:Yard House",
        "cuisine": "american",
        "name": "Yard House"
      }
    },
    {
      "displayName": "YO! Sushi",
      "id": "yosushi-9b5453",
      "locationSet": {"include": ["gb"]},
      "tags": {
        "amenity": "restaurant",
        "brand": "YO! Sushi",
        "brand:wikidata": "Q3105441",
        "brand:wikipedia": "en:YO! Sushi",
        "cuisine": "sushi",
        "name": "YO! Sushi"
      }
    },
    {
      "displayName": "Zambrero",
      "id": "zambrero-1498d5",
      "locationSet": {
        "include": ["au", "ie", "nz", "us"]
      },
      "tags": {
        "amenity": "restaurant",
        "brand": "Zambrero",
        "brand:wikidata": "Q18636431",
        "brand:wikipedia": "en:Zambrero",
        "cuisine": "mexican",
        "name": "Zambrero"
      }
    },
    {
      "displayName": "Zippy's",
      "id": "zippys-96af40",
      "locationSet": {"include": ["us"]},
      "tags": {
        "amenity": "restaurant",
        "brand": "Zippy's",
        "brand:wikidata": "Q8072671",
        "brand:wikipedia": "en:Zippy's",
        "cuisine": "hawaiian;japanese;chinese;american",
        "name": "Zippy's"
      }
    },
    {
      "displayName": "Zizzi",
      "id": "zizzi-9b5453",
      "locationSet": {"include": ["gb"]},
      "tags": {
        "amenity": "restaurant",
        "brand": "Zizzi",
        "brand:wikidata": "Q8072944",
        "brand:wikipedia": "en:Zizzi",
        "cuisine": "italian",
        "name": "Zizzi"
      }
    },
    {
      "displayName": "Евразия (Россия)",
      "id": "e47430-642268",
      "locationSet": {"include": ["ru"]},
      "tags": {
        "amenity": "restaurant",
        "brand": "Евразия",
        "brand:wikidata": "Q66087936",
        "cuisine": "international",
        "name": "Евразия"
      }
    },
    {
      "displayName": "Евразия (Україна)",
      "id": "d1906a-f6a2df",
      "locationSet": {"include": ["ua"]},
      "tags": {
        "amenity": "restaurant",
        "brand": "Євразія",
        "brand:ru": "Евразия",
        "brand:uk": "Євразія",
        "brand:wikidata": "Q66088028",
        "cuisine": "western;japanese",
        "name": "Євразія",
        "name:ru": "Евразия",
        "name:uk": "Євразія"
      }
    },
    {
      "displayName": "Планета Суши",
      "id": "planetsushi-642268",
      "locationSet": {"include": ["ru"]},
      "tags": {
        "amenity": "restaurant",
        "brand": "Планета Суши",
        "brand:wikidata": "Q62739250",
        "cuisine": "sushi",
        "name": "Планета Суши",
        "name:en": "Planet Sushi"
      }
    },
    {
      "displayName": "Тануки",
      "id": "tanuki-dd767d",
      "locationSet": {"include": ["kz", "ru"]},
      "tags": {
        "amenity": "restaurant",
        "brand": "Тануки",
        "brand:wikidata": "Q62758690",
        "cuisine": "japanese",
        "name": "Тануки",
        "name:en": "Tanuki",
        "name:ru": "Тануки"
      }
    },
    {
      "displayName": "Якитория",
      "id": "afb5a1-642268",
      "locationSet": {"include": ["ru"]},
      "tags": {
        "amenity": "restaurant",
        "brand": "Якитория",
        "brand:wikidata": "Q66088063",
        "cuisine": "japanese;international",
        "name": "Якитория"
      }
    },
    {
      "displayName": "בורגר סאלון",
      "id": "burgersaloon-b691b2",
      "locationSet": {"include": ["il"]},
      "tags": {
        "amenity": "restaurant",
        "brand": "בורגר סאלון",
        "brand:en": "Burger Saloon",
        "brand:he": "בורגר סאלון",
        "brand:wikidata": "Q64760057",
        "cuisine": "burger",
        "name": "בורגר סאלון",
        "name:en": "Burger Saloon",
        "name:he": "בורגר סאלון"
      }
    },
    {
      "displayName": "바다횟집",
      "id": "badafishrestaurant-5f8110",
      "locationSet": {"include": ["kr"]},
      "tags": {
        "amenity": "restaurant",
        "brand": "바다횟집",
        "brand:en": "Bada Fish Restaurant",
        "brand:ko": "바다횟집",
        "cuisine": "fish",
        "name": "바다횟집",
        "name:en": "Bada Fish Restaurant",
        "name:ko": "바다횟집"
      }
    },
    {
      "displayName": "빕스",
      "id": "vips-5f8110",
      "locationSet": {"include": ["kr"]},
      "tags": {
        "amenity": "restaurant",
        "brand": "빕스",
        "brand:en": "Vips",
        "brand:ko": "빕스",
        "brand:wikidata": "Q12599540",
        "brand:wikipedia": "ko:빕스",
        "cuisine": "salad;steak_house",
        "name": "빕스",
        "name:en": "Vips",
        "name:ko": "빕스"
      }
    },
    {
      "displayName": "あさくま",
      "id": "asakuma-36ca8e",
      "locationSet": {"include": ["jp"]},
      "tags": {
        "amenity": "restaurant",
        "brand": "あさくま",
        "brand:en": "Asakuma",
        "brand:ja": "あさくま",
        "brand:wikidata": "Q11257174",
        "brand:wikipedia": "ja:あさくま",
        "cuisine": "steak_house",
        "name": "あさくま",
        "name:en": "Asakuma",
        "name:ja": "あさくま"
      }
    },
    {
      "displayName": "いきなり！ステーキ",
      "id": "ikinaristeak-36ca8e",
      "locationSet": {"include": ["jp"]},
      "tags": {
        "amenity": "restaurant",
        "brand": "いきなり！ステーキ",
        "brand:en": "Ikinari Steak",
        "brand:ja": "いきなり！ステーキ",
        "brand:wikidata": "Q21652405",
        "brand:wikipedia": "ja:いきなり!ステーキ",
        "cuisine": "steak_house",
        "name": "いきなり！ステーキ",
        "name:en": "Ikinari Steak",
        "name:ja": "いきなり！ステーキ"
      }
    },
    {
      "displayName": "ガスト",
      "id": "gusto-36ca8e",
      "locationSet": {"include": ["jp"]},
      "tags": {
        "amenity": "restaurant",
        "brand": "ガスト",
        "brand:en": "Gusto",
        "brand:ja": "ガスト",
        "brand:wikidata": "Q87724117",
        "cuisine": "western;japanese",
        "name": "ガスト",
        "name:en": "Gusto",
        "name:ja": "ガスト"
      }
    },
    {
      "displayName": "カプリチョーザ",
      "id": "capricciosa-36ca8e",
      "locationSet": {"include": ["jp"]},
      "tags": {
        "amenity": "restaurant",
        "brand": "カプリチョーザ",
        "brand:en": "Capricciosa",
        "brand:ja": "カプリチョーザ",
        "brand:wikidata": "Q11294660",
        "brand:wikipedia": "ja:カプリチョーザ",
        "cuisine": "italian",
        "name": "カプリチョーザ",
        "name:en": "Capricciosa",
        "name:ja": "カプリチョーザ"
      }
    },
    {
      "displayName": "からやま",
      "id": "karayama-36ca8e",
      "locationSet": {"include": ["jp"]},
      "tags": {
        "amenity": "restaurant",
        "brand": "からやま",
        "brand:en": "Karayama",
        "brand:ja": "からやま",
        "brand:wikidata": "Q96145071",
        "cuisine": "friture",
        "name": "からやま",
        "name:en": "Karayama",
        "name:ja": "からやま"
      }
    },
    {
      "displayName": "ぎょうざの満洲",
      "id": "gyozanomansyu-36ca8e",
      "locationSet": {"include": ["jp"]},
      "tags": {
        "amenity": "restaurant",
        "brand": "ぎょうざの満洲",
        "brand:en": "Gyoza no Mansyu",
        "brand:ja": "ぎょうざの満洲",
        "brand:wikidata": "Q11265292",
        "brand:wikipedia": "ja:ぎょうざの満洲",
        "cuisine": "chinese;gyoza",
        "name": "ぎょうざの満洲",
        "name:en": "Gyoza no Mansyu",
        "name:ja": "ぎょうざの満洲"
      }
    },
    {
      "displayName": "ココス",
      "id": "cocos-36ca8e",
      "locationSet": {"include": ["jp"]},
      "tags": {
        "amenity": "restaurant",
        "brand": "ココス",
        "brand:en": "Coco's",
        "brand:ja": "ココス",
        "brand:wikidata": "Q11301951",
        "brand:wikipedia": "ja:ココスジャパン",
        "cuisine": "western;japanese",
        "name": "ココス",
        "name:en": "Coco's",
        "name:ja": "ココス"
      }
    },
    {
      "displayName": "サイゼリヤ",
      "id": "saizeriya-36ca8e",
      "locationSet": {"include": ["jp"]},
      "tags": {
        "amenity": "restaurant",
        "brand": "サイゼリヤ",
        "brand:en": "Saizeriya",
        "brand:ja": "サイゼリヤ",
        "brand:wikidata": "Q886564",
        "brand:wikipedia": "en:Saizeriya",
        "cuisine": "italian",
        "name": "サイゼリヤ",
        "name:en": "Saizeriya",
        "name:ja": "サイゼリヤ"
      }
    },
    {
      "displayName": "サガミ",
      "id": "sagami-36ca8e",
      "locationSet": {"include": ["jp"]},
      "tags": {
        "amenity": "restaurant",
        "brand": "サガミ",
        "brand:en": "Sagami",
        "brand:ja": "サガミ",
        "brand:wikidata": "Q11304417",
        "brand:wikipedia": "ja:サガミホールディングス",
        "cuisine": "japanese",
        "name": "サガミ",
        "name:en": "Sagami",
        "name:ja": "サガミ"
      }
    },
    {
      "displayName": "しゃぶ葉",
      "id": "syabuyo-36ca8e",
      "locationSet": {"include": ["jp"]},
      "tags": {
        "amenity": "restaurant",
        "brand": "しゃぶ葉",
        "brand:ja": "しゃぶ葉",
        "brand:wikidata": "Q67710247",
        "cuisine": "buffet",
        "name": "しゃぶ葉",
        "name:en": "Syabuyo",
        "name:ja": "しゃぶ葉"
      }
    },
    {
      "displayName": "ジョイフル",
      "id": "joyfull-36ca8e",
      "locationSet": {"include": ["jp"]},
      "tags": {
        "amenity": "restaurant",
        "brand": "ジョイフル",
        "brand:en": "Joyfull",
        "brand:ja": "ジョイフル",
        "brand:wikidata": "Q11310517",
        "brand:wikipedia": "ja:ジョイフル",
        "cuisine": "western",
        "name": "ジョイフル",
        "name:en": "Joyfull",
        "name:ja": "ジョイフル"
      }
    },
    {
      "displayName": "ジョナサン",
      "id": "jonathans-36ca8e",
      "locationSet": {"include": ["jp"]},
      "tags": {
        "amenity": "restaurant",
        "brand": "ジョナサン",
        "brand:en": "Jonathan's",
        "brand:ja": "ジョナサン",
        "brand:wikidata": "Q11310628",
        "brand:wikipedia": "ja:ジョナサン (ファミリーレストラン)",
        "cuisine": "italian;japanese",
        "name": "ジョナサン",
        "name:en": "Jonathan's",
        "name:ja": "ジョナサン"
      }
    },
    {
      "displayName": "ジョリーパスタ",
      "id": "jollypasta-36ca8e",
      "locationSet": {"include": ["jp"]},
      "tags": {
        "amenity": "restaurant",
        "brand": "ジョリーパスタ",
        "brand:en": "Jolly-Pasta",
        "brand:ja": "ジョリーパスタ",
        "brand:wikidata": "Q10852718",
        "brand:wikipedia": "ja:ジョリーパスタ",
        "cuisine": "pasta",
        "name": "ジョリーパスタ",
        "name:en": "Jolly-Pasta",
        "name:ja": "ジョリーパスタ"
      }
    },
    {
      "displayName": "すたみな太郎",
      "id": "staminataro-36ca8e",
      "locationSet": {"include": ["jp"]},
      "tags": {
        "amenity": "restaurant",
        "brand": "すたみな太郎",
        "brand:en": "Stamina Taro",
        "brand:ja": "すたみな太郎",
        "brand:wikidata": "Q11269733",
        "brand:wikipedia": "ja:すたみな太郎",
        "cuisine": "barbecue",
        "name": "すたみな太郎",
        "name:en": "Stamina Taro",
        "name:ja": "すたみな太郎"
      }
    },
    {
      "displayName": "ステーキガスト",
      "id": "steakgusto-36ca8e",
      "locationSet": {"include": ["jp"]},
      "tags": {
        "amenity": "restaurant",
        "brand": "ステーキガスト",
        "brand:en": "Steak Gusto",
        "brand:ja": "ステーキガスト",
        "brand:wikidata": "Q92599119",
        "cuisine": "steak",
        "name": "ステーキガスト",
        "name:en": "Steak Gusto",
        "name:ja": "ステーキガスト"
      }
    },
    {
      "displayName": "ステーキのどん",
      "id": "steakdon-36ca8e",
      "locationSet": {"include": ["jp"]},
      "tags": {
        "amenity": "restaurant",
        "brand": "ステーキのどん",
        "brand:en": "Steak Don",
        "brand:ja": "ステーキのどん",
        "brand:wikidata": "Q92770815",
        "cuisine": "steak",
        "name": "ステーキのどん",
        "name:en": "Steak Don",
        "name:ja": "ステーキのどん"
      }
    },
    {
      "displayName": "デニーズ",
      "id": "dennys-36ca8e",
      "locationSet": {"include": ["jp"]},
      "tags": {
        "amenity": "restaurant",
        "brand": "デニーズ",
        "brand:en": "Denny's",
        "brand:ja": "デニーズ",
        "brand:wikidata": "Q11320661",
        "brand:wikipedia": "ja:デニーズ (日本)",
        "cuisine": "western;japanese",
        "name": "デニーズ",
        "name:en": "Denny's",
        "name:ja": "デニーズ"
      }
    },
    {
      "displayName": "トマト＆オニオン",
      "id": "tomatoandonion-36ca8e",
      "locationSet": {"include": ["jp"]},
      "tags": {
        "amenity": "restaurant",
        "brand": "トマト＆オニオン",
        "brand:en": "Tomato & Onion",
        "brand:ja": "トマト＆オニオン",
        "brand:wikidata": "Q11321395",
        "brand:wikipedia": "ja:トマトアンドアソシエイツ",
        "cuisine": "steak_house",
        "name": "トマト＆オニオン",
        "name:en": "Tomato & Onion",
        "name:ja": "トマト＆オニオン"
      }
    },
    {
      "displayName": "とんでん",
      "id": "tonden-36ca8e",
      "locationSet": {"include": ["jp"]},
      "tags": {
        "amenity": "restaurant",
        "brand": "とんでん",
        "brand:en": "Tonden",
        "brand:ja": "とんでん",
        "brand:wikidata": "Q11273585",
        "brand:wikipedia": "jp:とんでん",
        "name": "とんでん",
        "name:en": "Tonden",
        "name:ja": "とんでん"
      }
    },
    {
      "displayName": "バーミヤン",
      "id": "bamiyan-36ca8e",
      "locationSet": {"include": ["jp"]},
      "tags": {
        "amenity": "restaurant",
        "brand": "バーミヤン",
        "brand:en": "Bamiyan",
        "brand:ja": "バーミヤン",
        "brand:wikidata": "Q11328598",
        "brand:wikipedia": "ja:バーミヤン (レストランチェーン)",
        "cuisine": "chinese",
        "name": "バーミヤン",
        "name:en": "Bamiyan",
        "name:ja": "バーミヤン"
      }
    },
    {
      "displayName": "はなまるうどん",
      "id": "hanamarudon-36ca8e",
      "locationSet": {"include": ["jp"]},
      "tags": {
        "amenity": "restaurant",
        "brand": "はなまるうどん",
        "brand:en": "Hanamarūdon",
        "brand:ja": "はなまるうどん",
        "brand:wikidata": "Q11275674",
        "brand:wikipedia": "ja:はなまるうどん",
        "cuisine": "japanese;udon",
        "name": "はなまるうどん",
        "name:en": "Hanamarūdon",
        "name:ja": "はなまるうどん"
      }
    },
    {
      "displayName": "ビッグボーイ",
      "id": "bigboyrestaurants-36ca8e",
      "locationSet": {"include": ["jp"]},
      "tags": {
        "amenity": "restaurant",
        "brand": "ビッグボーイ",
        "brand:en": "Big Boy Restaurants",
        "brand:ja": "ビッグボーイ",
        "brand:wikidata": "Q4386779",
        "brand:wikipedia": "en:Big Boy Restaurants",
        "cuisine": "burger",
        "name": "ビッグボーイ",
        "name:en": "Big Boy Restaurants",
        "name:ja": "ビッグボーイ"
      }
    },
    {
      "displayName": "びっくりドンキー",
      "id": "bikkuridonkey-36ca8e",
      "locationSet": {"include": ["jp"]},
      "tags": {
        "amenity": "restaurant",
        "brand": "びっくりドンキー",
        "brand:en": "Bikkuri Donkey",
        "brand:ja": "びっくりドンキー",
        "brand:wikidata": "Q11276815",
        "brand:wikipedia": "ja:びっくりドンキー",
        "cuisine": "burger",
        "name": "びっくりドンキー",
        "name:en": "Bikkuri Donkey",
        "name:ja": "びっくりドンキー"
      }
    },
    {
      "displayName": "やよい軒",
      "id": "yayoiken-36ca8e",
      "locationSet": {"include": ["jp"]},
      "tags": {
        "amenity": "restaurant",
        "brand": "やよい軒",
        "brand:en": "Yayoiken",
        "brand:ja": "やよい軒",
        "brand:wikidata": "Q11280577",
        "brand:wikipedia": "ja:やよい軒",
        "cuisine": "japanese",
        "name": "やよい軒",
        "name:en": "Yayoiken",
        "name:ja": "やよい軒"
      }
    },
    {
      "displayName": "リンガーハット",
      "id": "ringerhut-36ca8e",
      "locationSet": {"include": ["jp"]},
      "tags": {
        "amenity": "restaurant",
        "brand": "リンガーハット",
        "brand:en": "Ringer Hut",
        "brand:ja": "リンガーハット",
        "brand:wikidata": "Q7334856",
        "brand:wikipedia": "en:Ringer Hut",
        "cuisine": "japanese",
        "name": "リンガーハット",
        "name:en": "Ringer Hut",
        "name:ja": "リンガーハット"
      }
    },
    {
      "displayName": "れんげ食堂",
      "id": "rengeshokudo-36ca8e",
      "locationSet": {"include": ["jp"]},
      "tags": {
        "amenity": "restaurant",
        "brand": "れんげ食堂",
        "brand:en": "Renge Shokudo",
        "brand:ja": "れんげ食堂",
        "brand:wikidata": "Q92662226",
        "cuisine": "japanese",
        "name": "れんげ食堂",
        "name:en": "Renge Shokudo",
        "name:ja": "れんげ食堂"
      }
    },
    {
      "displayName": "ロイヤルホスト",
      "id": "royalhost-36ca8e",
      "locationSet": {"include": ["jp"]},
      "tags": {
        "amenity": "restaurant",
        "brand": "ロイヤルホスト",
        "brand:en": "Royal Host",
        "brand:ja": "ロイヤルホスト",
        "brand:wikidata": "Q11120884",
        "brand:wikipedia": "ja:ロイヤルホスト",
        "cuisine": "japanese;italian;french",
        "name": "ロイヤルホスト",
        "name:en": "Royal Host",
        "name:ja": "ロイヤルホスト"
      }
    },
    {
      "displayName": "一風堂",
      "id": "ippudo-d30421",
      "locationSet": {"include": ["jp", "tw"]},
      "tags": {
        "amenity": "restaurant",
        "brand": "一風堂",
        "brand:en": "Ippudo",
        "brand:wikidata": "Q6065417",
        "brand:wikipedia": "ja:博多一風堂",
        "brand:zh": "一風堂",
        "cuisine": "noodle",
        "name": "一風堂",
        "name:en": "Ippudo",
        "name:ja": "一風堂",
        "name:zh": "一風堂"
      }
    },
    {
      "displayName": "三商巧福 (日本)",
      "id": "mercuriesfood-36ca8e",
      "locationSet": {"include": ["jp"]},
      "tags": {
        "amenity": "restaurant",
        "brand": "三商巧福",
        "brand:en": "Mercuries Food",
        "brand:ja": "三商巧福",
        "brand:wikidata": "Q10865579",
        "brand:wikipedia": "zh:三商巧福",
        "cuisine": "taiwanese",
        "name": "三商巧福",
        "name:en": "Mercuries Food",
        "name:ja": "三商巧福"
      }
    },
    {
      "displayName": "三商巧福 (臺灣)",
      "id": "mercuriesfood-aafd63",
      "locationSet": {"include": ["tw"]},
      "tags": {
        "amenity": "restaurant",
        "brand": "三商巧福",
        "brand:wikidata": "Q10865579",
        "brand:wikipedia": "zh:三商巧福",
        "cuisine": "taiwanese",
        "name": "三商巧福",
        "name:en": "Mercuries Food",
        "name:hak": "Sâm-sông Kháu-fuk",
        "name:nan": "Sam-siong Kháu-hok",
        "name:nan-HJ": "三商巧福",
        "name:nan-POJ": "Sam-siong Kháu-hok",
        "name:nan-TL": "Sam-siong Kháu-hok",
        "name:zh": "三商巧福"
      }
    },
    {
      "displayName": "三媽臭臭鍋",
      "id": "goldseight-aafd63",
      "locationSet": {"include": ["tw"]},
      "tags": {
        "amenity": "restaurant",
        "brand": "三媽臭臭鍋",
        "cuisine": "taiwanese",
        "name": "三媽臭臭鍋",
        "name:en": "Gold Seight",
        "name:zh": "三媽臭臭鍋"
      }
    },
    {
      "displayName": "东来顺",
      "id": "donglaishun-0a8e9b",
      "locationSet": {"include": ["cn"]},
      "tags": {
        "amenity": "restaurant",
        "brand": "东来顺",
        "brand:en": "Dong Lai Shun",
        "brand:wikidata": "Q10870490",
        "brand:wikipedia": "zh:东来顺",
        "brand:zh": "东来顺",
        "cuisine": "chinese",
        "name": "东来顺",
        "name:en": "Dong Lai Shun",
        "name:zh": "东来顺"
      }
    },
    {
      "displayName": "比格披萨",
      "locationSet": {"include": ["cn"]},
      "matchNames":["比格自助披萨"],
      "tags": {
        "amenity": "restaurant",
        "brand": "比格披萨",
        "brand:en": "Bigpizza",
        "brand:zh": "比格披萨",
        "cuisine": "pizza",
        "name": "比格披萨",
        "name:en": "Bigpizza",
        "name:zh": "比格披萨"
      }
    },
    {
      "displayName": "丸亀製麺",
      "id": "marugameseimen-d30421",
      "locationSet": {"include": ["jp", "tw"]},
      "tags": {
        "amenity": "restaurant",
        "brand": "丸亀製麺",
        "brand:en": "Marugame Seimen",
        "brand:ja": "丸亀製麺",
        "brand:wikidata": "Q10877253",
        "brand:wikipedia": "ja:丸亀製麺",
        "brand:zh": "丸亀製麵",
        "cuisine": "noodle",
        "name": "丸亀製麺",
        "name:en": "Marugame Seimen",
        "name:ja": "丸亀製麺",
        "name:zh": "丸亀製麵"
      }
    },
    {
      "displayName": "便宜坊",
      "id": "bianyifang-0a8e9b",
      "locationSet": {"include": ["cn"]},
      "tags": {
        "amenity": "restaurant",
        "brand": "便宜坊",
        "brand:en": "Bianyifang",
        "brand:wikidata": "Q1049599",
        "brand:wikipedia": "zh:便宜坊",
        "brand:zh": "便宜坊",
        "cuisine": "chinese",
        "name": "便宜坊",
        "name:en": "Bianyifang",
        "name:zh": "便宜坊"
      }
    },
    {
      "displayName": "元気寿司",
      "id": "genkisushi-36ca8e",
      "locationSet": {"include": ["jp"]},
      "tags": {
        "amenity": "restaurant",
        "brand": "元気寿司",
        "brand:en": "Genki Sushi",
        "brand:ja": "元気寿司",
        "brand:wikidata": "Q5533323",
        "brand:wikipedia": "ja:元気寿司",
        "cuisine": "sushi",
        "name": "元気寿司",
        "name:en": "Genki Sushi",
        "name:ja": "元気寿司"
      }
    },
    {
      "displayName": "全聚德",
      "id": "quanjude-0a8e9b",
      "locationSet": {"include": ["cn"]},
      "tags": {
        "amenity": "restaurant",
        "brand": "全聚德",
        "brand:en": "Quanjude",
        "brand:wikidata": "Q3269017",
        "brand:wikipedia": "zh:全聚德",
        "brand:zh": "全聚德",
        "cuisine": "chinese",
        "name": "全聚德",
        "name:en": "Quanjude",
        "name:zh": "全聚德"
      }
    },
    {
      "displayName": "八方雲集",
      "id": "eightway-4ed470",
      "locationSet": {"include": ["cn", "tw"]},
      "tags": {
        "amenity": "restaurant",
        "brand": "八方雲集",
        "brand:en": "Eight Way",
        "brand:wikidata": "Q28417381",
        "brand:wikipedia": "zh:八方雲集",
        "brand:zh": "八方雲集",
        "cuisine": "chinese",
        "name": "八方雲集",
        "name:en": "Eight Way",
        "name:zh": "八方雲集"
      }
    },
    {
      "displayName": "南京大牌档",
      "id": "njdapaidang-0a8e9b",
      "locationSet": {"include": ["cn"]},
      "tags": {
        "amenity": "restaurant",
        "brand": "南京大牌档",
        "brand:en": "njdapaidang",
        "brand:wikidata": "Q48898937",
        "brand:wikipedia": "zh:南京大牌档",
        "brand:zh": "南京大牌档",
        "cuisine": "chinese",
        "name": "南京大牌档",
        "name:en": "njdapaidang",
        "name:zh": "南京大牌档"
      }
    },
    {
      "displayName": "味千拉面",
      "id": "ajisenramen-0a8e9b",
      "locationSet": {"include": ["cn"]},
      "tags": {
        "amenity": "restaurant",
        "brand": "味千拉面",
        "brand:en": "Ajisen Ramen",
        "brand:ja": "味千ラーメン",
        "brand:wikidata": "Q4699761",
        "brand:wikipedia": "zh:味千拉麵",
        "brand:zn": "味千拉面",
        "cuisine": "ramen",
        "name": "味千拉面",
        "name:en": "Ajisen Ramen",
        "name:ja": "味千ラーメン",
        "name:zh": "味千拉面"
      }
    },
    {
      "displayName": "味爱普思",
      "id": "vips-0a8e9b",
      "locationSet": {"include": ["cn"]},
      "tags": {
        "amenity": "restaurant",
        "brand": "味爱普思",
        "brand:en": "Vips",
        "brand:wikidata": "Q12599540",
        "brand:wikipedia": "ko:빕스",
        "brand:zh": "味爱普思",
        "cuisine": "salad;steak_house",
        "name": "味爱普思",
        "name:en": "Vips",
        "name:zh": "味爱普思"
      }
    },
    {
      "displayName": "呷哺呷哺",
      "id": "xiabuxiabu-0a8e9b",
      "locationSet": {"include": ["cn"]},
      "tags": {
        "amenity": "restaurant",
        "brand": "呷哺呷哺",
        "brand:en": "Xiabuxiabu",
        "brand:wikidata": "Q10866036",
        "brand:wikipedia": "zh:呷哺呷哺",
        "brand:zh": "呷哺呷哺",
        "cuisine": "chinese",
        "name": "呷哺呷哺",
        "name:en": "Xiabuxiabu",
        "name:zh": "呷哺呷哺"
      }
    },
    {
      "displayName": "和幸",
      "id": "wako-36ca8e",
      "locationSet": {"include": ["jp"]},
      "tags": {
        "amenity": "restaurant",
        "brand": "和幸",
        "brand:en": "Wako",
        "brand:ja": "和幸",
        "brand:wikidata": "Q11417251",
        "brand:wikipedia": "ja:和幸商事",
        "cuisine": "japanese",
        "name": "和幸",
        "name:en": "Wako",
        "name:ja": "和幸"
      }
    },
    {
      "displayName": "和食さと",
      "id": "washokusato-36ca8e",
      "locationSet": {"include": ["jp"]},
      "matchNames": ["さと"],
      "tags": {
        "amenity": "restaurant",
        "brand": "和食さと",
        "brand:en": "Washoku Sato",
        "brand:ja": "和食さと",
        "brand:wikidata": "Q11304897",
        "brand:wikipedia": "ja:SRSホールディングス",
        "cuisine": "japanese",
        "name": "和食さと",
        "name:en": "Washoku Sato",
        "name:ja": "和食さと"
      }
    },
    {
      "displayName": "夢庵",
      "id": "yumean-36ca8e",
      "locationSet": {"include": ["jp"]},
      "tags": {
        "amenity": "restaurant",
        "brand": "夢庵",
        "brand:en": "Yumean",
        "brand:ja": "夢庵",
        "brand:wikidata": "Q11253593",
        "brand:wikipedia": "ja:すかいらーく",
        "cuisine": "japanese",
        "name": "夢庵",
        "name:en": "Yumean",
        "name:ja": "夢庵"
      }
    },
    {
      "displayName": "大戸屋",
      "id": "ootoya-d30421",
      "locationSet": {"include": ["jp", "tw"]},
      "tags": {
        "amenity": "restaurant",
        "brand": "大戸屋",
        "brand:en": "Ootoya",
        "brand:ja": "大戸屋",
        "brand:wikidata": "Q11435522",
        "brand:wikipedia": "ja:大戸屋ホールディングス",
        "brand:zh": "大戶屋",
        "cuisine": "japanese",
        "name": "大戸屋",
        "name:en": "Ootoya",
        "name:ja": "大戸屋",
        "name:zh": "大戶屋"
      }
    },
    {
      "displayName": "大阪王将",
      "id": "osakaohsho-d30421",
      "locationSet": {"include": ["jp", "tw"]},
      "tags": {
        "amenity": "restaurant",
        "brand": "大阪王将",
        "brand:en": "Osaka Ohsho",
        "brand:ja": "大阪王将",
        "brand:wikidata": "Q48743717",
        "brand:wikipedia": "ja:大阪王将",
        "brand:zh": "大叛王將",
        "cuisine": "japanese;chinese",
        "name": "大阪王将",
        "name:en": "Osaka Ohsho",
        "name:ja": "大阪王将",
        "name:zh": "大叛王將"
      }
    },
    {
      "displayName": "天下一品",
      "id": "tenkaippin-36ca8e",
      "locationSet": {"include": ["jp"]},
      "tags": {
        "amenity": "restaurant",
        "brand": "天下一品",
        "brand:en": "Tenkaippin",
        "brand:ja": "天下一品",
        "brand:wikidata": "Q11442172",
        "brand:wikipedia": "en:Tenkaippin",
        "cuisine": "ramen",
        "name": "天下一品",
        "name:en": "Tenkaippin",
        "name:ja": "天下一品"
      }
    },
    {
      "displayName": "安楽亭",
      "id": "anrakutei-36ca8e",
      "locationSet": {"include": ["jp"]},
      "tags": {
        "amenity": "restaurant",
        "brand": "安楽亭",
        "brand:en": "Anrakutei",
        "brand:ja": "安楽亭",
        "brand:wikidata": "Q11450866",
        "brand:wikipedia": "ja:安楽亭",
        "cuisine": "barbecue",
        "name": "安楽亭",
        "name:en": "Anrakutei",
        "name:ja": "安楽亭"
      }
    },
    {
      "displayName": "必勝客 (臺灣)",
      "id": "pizzahut-aafd63",
      "locationSet": {"include": ["tw"]},
      "tags": {
        "amenity": "restaurant",
        "brand": "必勝客",
        "brand:en": "Pizza Hut",
        "brand:wikidata": "Q191615",
        "brand:wikipedia": "zh:必胜客",
        "brand:zh": "必勝客",
        "cuisine": "pizza",
        "name": "必勝客",
        "name:en": "Pizza Hut",
        "name:zh": "必勝客",
        "operator": "富利餐飲股份有限公司",
        "operator:en": "JARDINE FOOD SERVICES (TAIWAN) CO., LTD."
      }
    },
    {
      "displayName": "必胜客 (中国)",
      "id": "pizzahut-0a8e9b",
      "locationSet": {"include": ["cn"]},
      "tags": {
        "amenity": "restaurant",
        "brand": "必胜客",
        "brand:en": "Pizza Hut",
        "brand:wikidata": "Q191615",
        "brand:wikipedia": "en:Pizza Hut",
        "brand:zh": "必胜客",
        "cuisine": "pizza",
        "name": "必胜客",
        "name:en": "Pizza Hut",
        "name:zh": "必胜客"
      }
    },
    {
      "displayName": "木曽路",
      "id": "kisoji-36ca8e",
      "locationSet": {"include": ["jp"]},
      "tags": {
        "amenity": "restaurant",
        "brand": "木曽路",
        "brand:en": "Kisoji",
        "brand:ja": "木曽路",
        "brand:wikidata": "Q11518589",
        "brand:wikipedia": "ja:木曽路 (企業)",
        "cuisine": "japanese",
        "name": "木曽路",
        "name:en": "Kisoji",
        "name:ja": "木曽路"
      }
    },
    {
      "displayName": "来来亭",
      "id": "944156-2fabb0",
      "locationSet": {"include": ["001"]},
      "tags": {
        "amenity": "restaurant",
        "brand": "来来亭",
        "name": "来来亭"
      }
    },
    {
      "displayName": "永和豆浆 (中国)",
      "id": "yonghesoymilk-0a8e9b",
      "locationSet": {"include": ["cn"]},
      "tags": {
        "amenity": "restaurant",
        "brand": "永和豆浆",
        "brand:en": "Yonghe Soy Milk",
        "cuisine": "chinese;breakfast",
        "name": "永和豆浆",
        "name:en": "Yonghe Soy Milk",
        "name:zh": "永和豆漿",
        "name:zh-Hans": "永和豆浆",
        "name:zh-Hant": "永和豆漿"
      }
    },
    {
      "displayName": "永和豆漿 (臺灣)",
      "id": "yonghesoymilk-aafd63",
      "locationSet": {"include": ["tw"]},
      "tags": {
        "amenity": "restaurant",
        "brand": "永和豆漿",
        "brand:en": "Yonghe Soy Milk",
        "cuisine": "chinese;breakfast",
        "name": "永和豆漿",
        "name:en": "Yonghe Soy Milk",
        "name:zh": "永和豆漿",
        "name:zh-Hans": "永和豆浆",
        "name:zh-Hant": "永和豆漿"
      }
    },
    {
      "displayName": "海底捞火锅",
      "id": "haidilaohotpot-4ed470",
      "locationSet": {"include": ["cn", "tw"]},
      "tags": {
        "amenity": "restaurant",
        "brand": "海底捞火锅",
        "brand:en": "Hai Di Lao Hot Pot",
        "brand:wikidata": "Q5638920",
        "brand:wikipedia": "zh:海底捞",
        "cuisine": "chinese",
        "name": "海底捞火锅",
        "name:en": "Hai Di Lao Hot Pot",
        "name:zh-Hans": "海底捞火锅",
        "name:zh-Hant": "海底撈火鍋"
      }
    },
    {
      "displayName": "焼肉きんぐ",
      "id": "yakinikuking-36ca8e",
      "locationSet": {"include": ["jp"]},
      "tags": {
        "amenity": "restaurant",
        "brand": "焼肉きんぐ",
        "brand:en": "Yakiniku King",
        "brand:ja": "焼肉きんぐ",
        "brand:wikidata": "Q99735922",
        "cuisine": "japanese",
        "name": "焼肉きんぐ",
        "name:en": "Yakiniku King",
        "name:ja": "焼肉きんぐ"
      }
    },
    {
      "displayName": "牛角",
      "id": "gyukaku-36ca8e",
      "locationSet": {"include": ["jp"]},
      "tags": {
        "amenity": "restaurant",
        "brand": "牛角",
        "brand:en": "Gyū-Kaku",
        "brand:ja": "牛角",
        "brand:wikidata": "Q11349387",
        "brand:wikipedia": "en:Gyu-Kaku",
        "cuisine": "barbecue",
        "name": "牛角",
        "name:en": "Gyū-Kaku",
        "name:ja": "牛角"
      }
    },
    {
      "displayName": "町田商店",
      "id": "machidashouten-36ca8e",
      "locationSet": {"include": ["jp"]},
      "tags": {
        "amenity": "restaurant",
        "brand": "町田商店",
        "brand:en": "Machida Shouten",
        "brand:ja": "町田商店",
        "brand:wikidata": "Q88318612",
        "cuisine": "noodle",
        "name": "町田商店",
        "name:en": "Machida Shouten",
        "name:ja": "町田商店"
      }
    },
    {
      "displayName": "華屋与兵衛",
      "id": "hanayayohei-36ca8e",
      "locationSet": {"include": ["jp"]},
      "tags": {
        "amenity": "restaurant",
        "brand": "華屋与兵衛",
        "brand:en": "Hanaya Yohei",
        "brand:ja": "華屋与兵衛",
        "brand:wikidata": "Q11620063",
        "brand:wikipedia": "ja:華屋与兵衛 (レストラン)",
        "cuisine": "japanese",
        "name": "華屋与兵衛",
        "name:en": "Hanaya Yohei",
        "name:ja": "華屋与兵衛"
      }
    },
    {
      "displayName": "萨莉亚",
      "id": "saizeriya-edb0b5",
      "locationSet": {
        "include": ["cn", "hk", "tw"]
      },
      "tags": {
        "amenity": "restaurant",
        "brand": "萨莉亚",
        "brand:en": "Saizeriya",
        "brand:wikidata": "Q886564",
        "brand:wikipedia": "en:Saizeriya",
        "brand:zh": "萨莉亚",
        "cuisine": "italian",
        "name": "萨莉亚",
        "name:en": "Saizeriya",
        "name:zh": "萨莉亚"
      }
    },
    {
      "displayName": "餃子の王将",
      "id": "gyozanoohsho-36ca8e",
      "locationSet": {"include": ["jp"]},
      "tags": {
        "amenity": "restaurant",
        "brand": "餃子の王将",
        "brand:en": "Gyoza no Ohsho",
        "brand:ja": "餃子の王将",
        "brand:wikidata": "Q11666805",
        "brand:wikipedia": "en:Gyoza no Ohsho",
        "cuisine": "chinese;gyoza",
        "name": "餃子の王将",
        "name:en": "Gyoza no Ohsho",
        "name:ja": "餃子の王将"
      }
    },
    {
      "displayName": "鬍鬚張",
      "id": "formosachang-aafd63",
      "locationSet": {"include": ["tw"]},
      "tags": {
        "amenity": "restaurant",
        "brand": "鬍鬚張",
        "brand:en": "Formosa Chang",
        "brand:wikidata": "Q15900479",
        "brand:wikipedia": "zh:鬍鬚張",
        "brand:zh": "鬍鬚張",
        "cuisine": "taiwanese",
        "name": "鬍鬚張",
        "name:en": "Formosa Chang",
        "name:hak": "Fù-sî Chông",
        "name:nan": "Hó͘-chhiu Tiong",
        "name:nan-HJ": "鬍鬚張",
        "name:nan-POJ": "Hó͘-chhiu Tiong",
        "name:nan-TL": "Hóo-tshiu Tiong",
        "name:zh": "鬍鬚張",
        "name:zh-Hant": "鬍鬚張"
      }
    },
    {
      "displayName": "麥味登",
      "id": "mywarndaycareandbrunch-aafd63",
      "locationSet": {"include": ["tw"]},
      "tags": {
        "amenity": "restaurant",
        "brand": "麥味登",
        "cuisine": "american;breakfast",
        "name": "麥味登",
        "name:en": "My Warn Day Care & Brunch",
        "name:zh": "麥味登"
      }
    },
    {
      "displayName": "鼎泰豐",
      "id": "dintaifung-aafd63",
      "locationSet": {"include": ["tw"]},
      "tags": {
        "amenity": "restaurant",
        "brand": "鼎泰豐",
        "brand:en": "Din Tai Fung",
        "brand:wikidata": "Q699142",
        "brand:wikipedia": "zh:鼎泰豐",
        "brand:zh": "鼎泰豐",
        "cuisine": "taiwanese",
        "name": "鼎泰豐",
        "name:en": "Din Tai Fung",
        "name:hak": "Tín-thai-fûng",
        "name:nan": "Téng-thài-hong",
        "name:nan-HJ": "鼎泰豐",
        "name:nan-POJ": "Téng-thài-hong",
        "name:nan-TL": "Tíng-thài-hong",
        "name:zh": "鼎泰豐",
        "name:zh-Hans": "鼎泰丰",
        "name:zh-Hant": "鼎泰豐"
      }
    }
  ]
}
