{
  "properties": {
    "path": "brands/amenity/school",
    "skipCollection": true,
    "preserveTags": ["^name"],
    "exclude": {
      "generic": [
        "^school( building)?$",
        "^школа$"
      ]
    }
  },
  "items": [
    {
      "displayName": "Bahçeşehir Koleji",
      "id": "bahcesehirkoleji-8696da",
      "locationSet": {"include": ["tr"]},
      "matchNames": ["bahçeşehir okulları"],
      "tags": {
        "amenity": "school",
        "brand": "Bahçeşehir Koleji",
        "brand:wikidata": "Q4843100"
      }
    },
    {
      "displayName": "Bilfen Okulları",
      "id": "bilfenokullari-8696da",
      "locationSet": {"include": ["tr"]},
      "matchNames": ["bilfen koleji"],
      "tags": {
        "amenity": "school",
        "brand": "Bilfen Okulları",
        "brand:wikidata": "Q28940776"
      }
    },
    {
      "displayName": "Doğa Koleji",
      "id": "dogakoleji-8696da",
      "locationSet": {"include": ["tr"]},
      "matchNames": ["doğa okulları"],
      "tags": {
        "amenity": "school",
        "brand": "Doğa Koleji",
        "brand:wikidata": "Q106802282",
        "official_name": "İTÜ ETA Vakfı Doğa Koleji"
      }
    },
    {
      "displayName": "Imagine Schools",
      "id": "imagineschools-f520e3",
      "locationSet": {"include": ["us"]},
      "matchNames": ["imagine", "imagine school"],
      "tags": {
        "amenity": "school",
        "brand": "Imagine Schools",
        "brand:wikidata": "Q6002737",
        "name": "Imagine Schools",
        "operator:type": "private_non_profit"
      }
    },
    {
      "displayName": "Jawahar Navodaya Vidyalaya",
      "id": "jawaharnavodayavidyalaya-198395",
      "locationSet": {"include": ["in"]},
      "tags": {
        "amenity": "school",
        "brand": "Jawahar Navodaya Vidyalaya",
        "brand:wikidata": "Q2723540",
        "name": "Jawahar Navodaya Vidyalaya",
        "operator:type": "government_non_profit"
      }
    },
    {
      "displayName": "Kendriya Vidyalaya",
      "id": "kendriyavidyalaya-198395",
      "locationSet": {"include": ["in"]},
      "tags": {
        "amenity": "school",
        "brand": "Kendriya Vidyalaya",
        "brand:wikidata": "Q1156653",
        "name": "Kendriya Vidyalaya",
        "operator:type": "government_non_profit"
      }
    },
    {
      "displayName": "KIPP",
      "id": "kipp-f520e3",
      "locationSet": {"include": ["us"]},
      "tags": {
        "amenity": "school",
        "brand": "KIPP",
        "brand:wikidata": "Q6423304",
        "name": "KIPP",
        "official_name": "Knowledge Is Power Program",
        "operator:type": "private_non_profit"
      }
    },
    {
      "displayName": "Maharishi Vidya Mandir",
      "id": "maharishividyamandir-198395",
      "locationSet": {"include": ["in"]},
      "tags": {
        "amenity": "school",
        "brand": "Maharishi Vidya Mandir",
        "operator:type": "private_non_profit"
      }
    },
    {
      "displayName": "Maple Bear",
      "id": "maplebear-101006",
      "locationSet": {
        "include": [
          "ae",
          "al",
          "ar",
          "au",
          "bd",
          "bg",
          "br",
          "ca",
          "gt",
          "hk",
          "hr",
          "in",
          "ke",
          "kr",
          "lk",
          "ma",
          "mx",
          "my",
          "np",
          "om",
          "pe",
          "ph",
          "py",
          "ro",
          "rs",
          "sg",
          "th",
          "tk",
          "ua",
          "us",
          "vn"
        ]
      },
      "tags": {
        "amenity": "school",
        "brand": "Maple Bear",
        "brand:wikidata": "Q10324823",
        "name": "Maple Bear",
        "operator:type": "private"
      }
    },
    {
      "displayName": "Merryhill School",
      "id": "merryhillschool-f520e3",
      "locationSet": {"include": ["us"]},
      "tags": {
        "amenity": "school",
        "brand": "Merryhill School",
        "brand:wikidata": "Q6820493",
        "name": "Merryhill School",
        "operator:type": "private_non_profit"
      }
    },
    {
      "displayName": "Okyanus Koleji",
      "id": "okyanuskoleji-8696da",
      "locationSet": {"include": ["tr"]},
      "tags": {
        "amenity": "school",
        "brand": "Okyanus Koleji",
        "brand:wikidata": "Q106802301"
      }
    },
    {
      "displayName": "Success Academy",
      "id": "successacademy-f520e3",
      "locationSet": {"include": ["us"]},
      "tags": {
        "amenity": "school",
        "brand": "Success Academy",
        "brand:wikidata": "Q14707388",
        "name": "Success Academy",
        "operator:type": "private_non_profit"
      }
    },
    {
      "displayName": "新东方优能中学",
      "id": "neworientalyounengschool-00bc78",
      "locationSet": {"include": ["cn"]},
      "tags": {
        "amenity": "school",
        "brand": "新东方",
        "brand:en": "New Oriental Education",
        "brand:wikidata": "Q13631921",
        "brand:zh": "新东方",
        "name": "新东方优能中学",
        "name:en": "New Oriental Youneng School",
        "name:zh": "新东方优能中学"
      }
    }
  ]
}
