{
  "properties": {
    "path": "brands/amenity/social_facility",
    "exclude": {
      "generic": [
        "^(有料老人|老人|日)?ホーム$",
        "^betreutes wohnen$",
        "^social facility$",
        "^детский дом$",
        "^социальный участковый$"
      ],
      "named": [
        "^dom pomocy społecznej$",
        "^maison de retraite$",
        "^safe haven$"
      ]
    }
  },
  "items": [
    {
      "displayName": "Arbeiter-Samariter-Bund",
      "locationSet": {"include": ["de"]},
      "matchNames": ["asb"],
      "tags": {
        "amenity": "social_facility",
        "brand": "Arbeiter-Samariter-Bund",
        "brand:wikidata": "Q627071",
        "brand:wikipedia": "de:Arbeiter-Samariter-Bund Deutschland"
      }
    },
    {
      "displayName": "Johanniter-Unfall-Hilfe",
      "locationSet": {"include": ["de"]},
      "matchNames": ["johanniter", "juh"],
      "tags": {
        "amenity": "social_facility",
        "brand": "Johanniter-Unfall-Hilfe",
        "brand:wikidata": "Q14751117",
        "brand:wikipedia": "de:Johanniter-Unfall-Hilfe"
      }
    },
    {
      "displayName": "Malteser Hilfsdienst",
      "locationSet": {"include": ["de"]},
      "matchNames": ["malteser", "mhd"],
      "tags": {
        "amenity": "social_facility",
        "brand": "Malteser Hilfsdienst",
        "brand:wikidata": "Q1318397",
        "brand:wikipedia": "de:Malteser Hilfsdienst"
      }
    },
    {
      "displayName": "Diakonie",
      "locationSet": {"include": ["de"]},
      "matchNames": ["diakonie deutschland", "diakonisches werk", "diakoniewerk"],
      "tags": {
        "amenity": "social_facility",
        "brand": "Diakonie",
        "brand:wikidata": "Q126501",
        "brand:wikipedia": "de:Diakonie Deutschland"
      }
    },
    {
      "displayName": "Bahnhofsmission",
      "id": "bahnhofsmission-da0ff2",
      "locationSet": {"include": ["de"]},
      "tags": {
        "amenity": "social_facility",
        "brand": "Bahnhofsmission",
        "brand:wikidata": "Q801713",
        "brand:wikipedia": "de:Bahnhofsmission",
        "name": "Bahnhofsmission",
        "social_facility": "outreach",
        "social_facility:for": "homeless;underprivileged"
      }
    },
    {
      "displayName": "Bahnhofsozialdienst",
      "id": "bahnhofsozialdienst-257965",
      "locationSet": {"include": ["at"]},
      "tags": {
        "amenity": "social_facility",
        "brand": "Bahnhofsozialdienst",
        "brand:wikidata": "Q801713",
        "brand:wikipedia": "de:Bahnhofsmission",
        "name": "Bahnhofsozialdienst",
        "social_facility": "outreach",
        "social_facility:for": "homeless;underprivileged"
      }
    },
    {
      "displayName": "Boys & Girls Club",
      "id": "boysandgirlsclub-233ba4",
      "locationSet": {"include": ["us"]},
      "tags": {
        "amenity": "social_facility",
        "brand": "Boys & Girls Club",
        "brand:wikidata": "Q2923055",
        "brand:wikipedia": "en:Boys & Girls Clubs of America",
        "name": "Boys & Girls Club",
        "social_facility": "outreach",
        "social_facility:for": "children"
      }
    },
    {
      "displayName": "Caritas",
      "id": "caritas-0f574d",
      "locationSet": {
        "include": ["001"],
        "exclude": ["at", "ch", "de", "sk"]
      },
      "tags": {
        "amenity": "social_facility",
        "brand": "Caritas",
        "name": "Caritas"
      }
    },
    {
      "displayName": "Caritas (Deutschland)",
      "id": "caritas-da0ff2",
      "locationSet": {"include": ["de"]},
      "tags": {
        "amenity": "social_facility",
        "brand": "Caritas",
        "brand:wikidata": "Q29508174",
        "brand:wikipedia": "de:Deutscher Caritasverband"
      }
    },
    {
      "displayName": "Caritas (Österreich)",
      "id": "caritas-257965",
      "locationSet": {"include": ["at"]},
      "tags": {
        "amenity": "social_facility",
        "brand": "Caritas",
        "brand:wikidata": "Q1036350",
        "brand:wikipedia": "de:Caritas Österreich"
      }
    },
    {
      "displayName": "Caritas (Schweiz)",
      "id": "caritas-7e98f6",
      "locationSet": {"include": ["ch"]},
      "tags": {
        "amenity": "social_facility",
        "brand": "Caritas",
        "brand:wikidata": "Q1036336",
        "brand:wikipedia": "de:Caritas Schweiz"
      }
    },
    {
      "displayName": "Caritas (Slovensko)",
      "id": "caritas-07e566",
      "locationSet": {"include": ["sk"]},
      "tags": {
        "amenity": "social_facility",
        "brand": "Caritas",
        "brand:wikidata": "Q1036340",
        "brand:wikipedia": "de:Caritas Slowakei"
      }
    },
    {
      "displayName": "Deutsches Rotes Kreuz",
      "id": "deutschesroteskreuz-da0ff2",
      "locationSet": {"include": ["de"]},
      "matchNames": ["rotes kreuz"],
      "tags": {
        "amenity": "social_facility",
        "brand": "Deutsches Rotes Kreuz",
        "brand:wikidata": "Q694104",
        "brand:wikipedia": "de:Deutsches Rotes Kreuz",
        "name": "Deutsches Rotes Kreuz",
        "short_name": "DRK"
      }
    },
    {
      "displayName": "Ehpad du CH",
      "id": "ehpadduch-8d024d",
      "locationSet": {"include": ["fr"]},
      "tags": {
        "amenity": "social_facility",
        "brand": "Ehpad du CH",
        "name": "Ehpad du CH"
      }
    },
    {
      "displayName": "Mini cité",
      "id": "minicite-7d1d77",
      "locationSet": {"include": ["cm"]},
      "tags": {
        "amenity": "social_facility",
        "brand": "Mini cité",
        "name": "Mini cité"
      }
    },
    {
      "displayName": "Office of the Senior Citizen Affairs",
      "id": "officeoftheseniorcitizenaffairs-0c22a1",
      "locationSet": {"include": ["ph"]},
      "tags": {
        "amenity": "social_facility",
        "brand": "Office of the Senior Citizen Affairs",
        "name": "Office of the Senior Citizen Affairs"
      }
    },
    {
      "displayName": "ONCE",
      "id": "once-bb7a05",
      "locationSet": {"include": ["es"]},
      "tags": {
        "amenity": "social_facility",
        "brand": "ONCE",
        "brand:wikidata": "Q1750397",
        "brand:wikipedia": "es:Organización Nacional de Ciegos Españoles",
        "name": "ONCE",
        "official_name": "Organización Nacional de Ciegos Españoles",
        "social_facility": "outreach",
        "social_facility:for": "blind"
      }
    },
    {
      "displayName": "SOMPOケア",
      "id": "sompocare-58dbc8",
      "locationSet": {"include": ["jp"]},
      "tags": {
        "amenity": "social_facility",
        "brand": "SOMPOケア",
        "brand:en": "Sompo Care",
        "brand:ja": "SOMPOケア",
        "brand:wikidata": "Q11343758",
        "brand:wikipedia": "ja:SOMPOケア",
        "name": "SOMPOケア",
        "name:en": "Sompo Care",
        "name:ja": "SOMPOケア",
        "social_facility": "nursing_home",
        "social_facility:for": "senior"
      }
    },
    {
      "displayName": "Stationswerk",
      "id": "stationswerk-4d2292",
      "locationSet": {"include": ["nl"]},
      "tags": {
        "amenity": "social_facility",
        "brand": "Stationswerk",
        "brand:wikidata": "Q801713",
        "brand:wikipedia": "nl:Stationswerk",
        "name": "Stationswerk",
        "social_facility": "outreach",
        "social_facility:for": "homeless;underprivileged"
      }
    },
    {
      "displayName": "Vet Center",
      "id": "vetcenter-233ba4",
      "locationSet": {"include": ["us"]},
      "tags": {
        "amenity": "social_facility",
        "brand": "VA",
        "brand:wikidata": "Q6580225",
        "brand:wikipedia": "en:Veterans Health Administration",
        "healthcare": "counselling",
        "healthcare:counselling": "psychiatry",
        "healthcare:for": "veterans",
        "name": "Vet Center",
        "social_facility": "healthcare;outreach",
        "social_facility:for": "veterans"
      }
    },
    {
      "displayName": "Violence Against Women and Children Desk",
      "id": "violenceagainstwomenandchildrendesk-d8925e",
      "locationSet": {"include": ["001"]},
      "tags": {
        "amenity": "social_facility",
        "brand": "Violence Against Women and Children Desk",
        "name": "Violence Against Women and Children Desk"
      }
    },
    {
      "displayName": "Violence Against Women and Children Office",
      "id": "violenceagainstwomenandchildrenoffice-d8925e",
      "locationSet": {"include": ["001"]},
      "tags": {
        "amenity": "social_facility",
        "brand": "Violence Against Women and Children Office",
        "name": "Violence Against Women and Children Office"
      }
    },
    {
      "displayName": "Дом престарелых",
      "id": "e8b7ee-d8925e",
      "locationSet": {"include": ["001"]},
      "tags": {
        "amenity": "social_facility",
        "brand": "Дом престарелых",
        "name": "Дом престарелых"
      }
    },
    {
      "displayName": "ツクイ",
      "id": "tsukui-58dbc8",
      "locationSet": {"include": ["jp"]},
      "tags": {
        "amenity": "social_facility",
        "brand": "ツクイ",
        "brand:en": "Tsukui",
        "brand:ja": "ツクイ",
        "brand:wikidata": "Q11318724",
        "brand:wikipedia": "ja:ツクイ",
        "name": "ツクイ",
        "name:en": "Tsukui",
        "name:ja": "ツクイ",
        "social_facility": "day_care",
        "social_facility:for": "senior"
      }
    },
    {
      "displayName": "リハプライド",
      "id": "rehapride-58dbc8",
      "locationSet": {"include": ["jp"]},
      "tags": {
        "amenity": "social_facility",
        "brand": "リハプライド",
        "brand:en": "RehaPride",
        "brand:ja": "リハプライド",
        "brand:wikidata": "Q96186859",
        "name": "リハプライド",
        "name:en": "RehaPride",
        "name:ja": "リハプライド",
        "social_facility": "healthcare",
        "social_facility:for": "senior"
      }
    },
    {
      "displayName": "レコードブック",
      "id": "recordbook-58dbc8",
      "locationSet": {"include": ["jp"]},
      "tags": {
        "amenity": "social_facility",
        "brand": "レコードブック",
        "brand:en": "Record Book",
        "brand:ja": "レコードブック",
        "brand:wikidata": "Q91915310",
        "name": "レコードブック",
        "name:en": "Record Book",
        "name:ja": "レコードブック",
        "social_facility": "day_care",
        "social_facility:for": "senior"
      }
    }
  ]
}
