{
  "properties": {
    "path": "brands/amenity/toilets",
    "preserveTags": [
      "^amenity$",
      "^name$",
      "^operator$"
    ],
    "exclude": {"generic": ["^toilets$"]}
  },
  "items": [
    {
      "displayName": "Baños",
      "id": "banos-f3e6b6",
      "locationSet": {"include": ["001"]},
      "tags": {
        "amenity": "toilets",
        "brand": "Baños",
        "name": "Baños"
      }
    },
    {
      "displayName": "Baños Públicos",
      "id": "banospublicos-f3e6b6",
      "locationSet": {"include": ["001"]},
      "tags": {
        "amenity": "toilets",
        "brand": "Baños Públicos",
        "name": "Baños Públicos"
      }
    },
    {
      "displayName": "Berliner Toilette",
      "id": "berlinertoilette-f3e6b6",
      "locationSet": {"include": ["001"]},
      "tags": {
        "amenity": "toilets",
        "brand": "Berliner Toilette",
        "name": "Berliner Toilette"
      }
    },
    {
      "displayName": "Latrine",
      "id": "latrine-f3e6b6",
      "locationSet": {"include": ["001"]},
      "tags": {
        "amenity": "toilets",
        "brand": "Latrine",
        "name": "Latrine"
      }
    },
    {
      "displayName": "Men's Restroom",
      "id": "mensrestroom-f3e6b6",
      "locationSet": {"include": ["001"]},
      "tags": {
        "amenity": "toilets",
        "brand": "Men's Restroom",
        "name": "Men's Restroom"
      }
    },
    {
      "displayName": "öklo",
      "id": "oklo-2b0862",
      "locationSet": {"include": ["at"]},
      "matchNames": [
        "oeklo",
        "oeklo komposttoilette",
        "öklo komposttoilette"
      ],
      "tags": {
        "access": "yes",
        "amenity": "toilets",
        "brand": "öklo",
        "brand:wikidata": "Q138034487",
        "building": "yes",
        "building:material": "wood",
        "fee": "no",
        "name": "öklo",
        "operator": "öklo GmbH",
        "operator:type": "private",
        "toilets:disposal": "composting",
        "toilets:wheelchair": "yes"
      }
    },
    {
      "displayName": "Pit Latrine",
      "id": "pitlatrine-f3e6b6",
      "locationSet": {"include": ["001"]},
      "tags": {
        "amenity": "toilets",
        "brand": "Pit Latrine",
        "name": "Pit Latrine"
      }
    },
    {
      "displayName": "plot toilet",
      "id": "plottoilet-f3e6b6",
      "locationSet": {"include": ["001"]},
      "tags": {
        "amenity": "toilets",
        "brand": "plot toilet",
        "name": "plot toilet"
      }
    },
    {
      "displayName": "Restroom",
      "id": "restroom-f3e6b6",
      "locationSet": {"include": ["001"]},
      "tags": {
        "amenity": "toilets",
        "brand": "Restroom",
        "name": "Restroom"
      }
    },
    {
      "displayName": "Restrooms",
      "id": "restrooms-f3e6b6",
      "locationSet": {"include": ["001"]},
      "tags": {
        "amenity": "toilets",
        "brand": "Restrooms",
        "name": "Restrooms"
      }
    },
    {
      "displayName": "RRI",
      "id": "rri-f3e6b6",
      "locationSet": {"include": ["001"]},
      "tags": {
        "amenity": "toilets",
        "brand": "RRI",
        "name": "RRI"
      }
    },
    {
      "displayName": "Sanitaires",
      "id": "sanitaires-f3e6b6",
      "locationSet": {"include": ["001"]},
      "tags": {
        "amenity": "toilets",
        "brand": "Sanitaires",
        "name": "Sanitaires"
      }
    },
    {
      "displayName": "SBM Toilet",
      "id": "sbmtoilet-f3e6b6",
      "locationSet": {"include": ["001"]},
      "tags": {
        "amenity": "toilets",
        "brand": "SBM Toilet",
        "name": "SBM Toilet"
      }
    },
    {
      "displayName": "Tahoratxona",
      "id": "tahoratxona-f3e6b6",
      "locationSet": {"include": ["001"]},
      "tags": {
        "amenity": "toilets",
        "brand": "Tahoratxona",
        "name": "Tahoratxona"
      }
    },
    {
      "displayName": "Toilette",
      "id": "toilette-f3e6b6",
      "locationSet": {"include": ["001"]},
      "tags": {
        "amenity": "toilets",
        "brand": "Toilette",
        "name": "Toilette"
      }
    },
    {
      "displayName": "Toilettes",
      "id": "toilettes-f3e6b6",
      "locationSet": {"include": ["001"]},
      "tags": {
        "amenity": "toilets",
        "brand": "Toilettes",
        "name": "Toilettes"
      }
    },
    {
      "displayName": "vlídné WC",
      "id": "vlidnewc-f3e6b6",
      "locationSet": {"include": ["001"]},
      "tags": {
        "amenity": "toilets",
        "brand": "vlídné WC",
        "name": "vlídné WC"
      }
    },
    {
      "displayName": "WC Público",
      "id": "wcpublico-f3e6b6",
      "locationSet": {"include": ["001"]},
      "tags": {
        "amenity": "toilets",
        "brand": "WC Público",
        "name": "WC Público"
      }
    },
    {
      "displayName": "Women's Restroom",
      "id": "womensrestroom-f3e6b6",
      "locationSet": {"include": ["001"]},
      "tags": {
        "amenity": "toilets",
        "brand": "Women's Restroom",
        "name": "Women's Restroom"
      }
    },
    {
      "displayName": "Городской туалет",
      "id": "9573bb-f3e6b6",
      "locationSet": {"include": ["001"]},
      "tags": {
        "amenity": "toilets",
        "brand": "Городской туалет",
        "name": "Городской туалет"
      }
    },
    {
      "displayName": "توالت",
      "id": "e16395-f3e6b6",
      "locationSet": {"include": ["001"]},
      "tags": {
        "amenity": "toilets",
        "brand": "توالت",
        "name": "توالت"
      }
    },
    {
      "displayName": "توالت عمومی",
      "id": "75870e-f3e6b6",
      "locationSet": {"include": ["001"]},
      "tags": {
        "amenity": "toilets",
        "brand": "توالت عمومی",
        "name": "توالت عمومی"
      }
    },
    {
      "displayName": "دستشویی",
      "id": "bc96ee-f3e6b6",
      "locationSet": {"include": ["001"]},
      "tags": {
        "amenity": "toilets",
        "brand": "دستشویی",
        "name": "دستشویی"
      }
    },
    {
      "displayName": "سرویس بهداشتی عمومی",
      "id": "e53c28-f3e6b6",
      "locationSet": {"include": ["001"]},
      "tags": {
        "amenity": "toilets",
        "brand": "سرویس بهداشتی عمومی",
        "name": "سرویس بهداشتی عمومی"
      }
    },
    {
      "displayName": "화장실",
      "id": "745fe5-f3e6b6",
      "locationSet": {"include": ["001"]},
      "tags": {
        "amenity": "toilets",
        "brand": "화장실",
        "brand:ko": "화장실",
        "name": "화장실",
        "name:ko": "화장실"
      }
    },
    {
      "displayName": "トイレ",
      "id": "e12c23-f3e6b6",
      "locationSet": {"include": ["001"]},
      "tags": {
        "amenity": "toilets",
        "brand": "トイレ",
        "brand:ja": "トイレ",
        "name": "トイレ",
        "name:ja": "トイレ"
      }
    },
    {
      "displayName": "公共卫生间",
      "id": "fde7a8-f3e6b6",
      "locationSet": {"include": ["001"]},
      "tags": {
        "amenity": "toilets",
        "brand": "公共卫生间",
        "name": "公共卫生间"
      }
    },
    {
      "displayName": "公共厕所",
      "id": "91c6bd-f3e6b6",
      "locationSet": {"include": ["001"]},
      "tags": {
        "amenity": "toilets",
        "brand": "公共厕所",
        "name": "公共厕所"
      }
    },
    {
      "displayName": "公衆トイレ",
      "id": "fd08b4-f3e6b6",
      "locationSet": {"include": ["001"]},
      "tags": {
        "amenity": "toilets",
        "brand": "公衆トイレ",
        "brand:ja": "公衆トイレ",
        "name": "公衆トイレ",
        "name:ja": "公衆トイレ"
      }
    },
    {
      "displayName": "卫生间",
      "id": "23aa53-f3e6b6",
      "locationSet": {"include": ["001"]},
      "tags": {
        "amenity": "toilets",
        "brand": "卫生间",
        "name": "卫生间"
      }
    },
    {
      "displayName": "廁所",
      "id": "27628c-f3e6b6",
      "locationSet": {"include": ["001"]},
      "tags": {
        "amenity": "toilets",
        "brand": "廁所",
        "name": "廁所"
      }
    }
  ]
}
