{
  "brands/amenity/university": [
    {
      "displayName": "DeVry University",
      "id": "devryuniversity-d62529",
      "locationSet": {"include": ["us"]},
      "tags": {
        "amenity": "university",
        "brand": "DeVry University",
        "brand:wikidata": "Q3298441",
        "brand:wikipedia": "en:DeVry University",
        "name": "DeVry University",
        "short_name": "DeVry"
      }
    },
    {
      "displayName": "Lovely Professional University",
      "locationSet": {"include": ["in"]},
      "tags": {
        "amenity": "university",
        "brand": "Lovely Professional University",
        "brand:wikidata": "Q5756621",
        "brand:wikipedia": "en:Lovely Professional University",
        "name": "Lovely Professional University",
        "short_name": "LPU"
      }
    },
    {
      "displayName": "Jawaharlal Nehru University",
      "locationSet": {"include": ["in"]},
      "tags": {
        "amenity": "university",
        "brand": "Jawaharlal Nehru University",
        "brand:wikidata": "Q1147063",
        "brand:wikipedia": "en:Jawaharlal Nehru University",
        "name": "Jawaharlal Nehru University",
        "short_name": "JNU"
      }
    },
    {
      "displayName": "Dibrugarh University",
      "locationSet": {"include": ["in"]},
      "tags": {
        "amenity": "university",
        "brand": "Dibrugarh University",
        "brand:wikidata": "Q5272296",
        "brand:wikipedia": "en:Dibrugarh University",
        "name": "Dibrugarh University",
      }
    },
    {
      "displayName": "Indira Gandhi National Open University",
      "locationSet": {"include": ["in"]},
      "tags": {
        "amenity": "university",
        "brand": "Indira Gandhi National Open University",
        "brand:wikidata": "Q2028659",
        "brand:wikipedia": "en:Indira Gandhi National Open University",
        "name": "Indira Gandhi National Open University",
        "short_name": "IGNOU"
      }
    },
    {
      "displayName": "University of Delhi",
      "locationSet": {"include": ["in"]},
      "tags": {
        "amenity": "university",
        "brand": "University of Delhi",
        "brand:wikidata": "Q665105",
        "brand:wikipedia": "en:University of Delhi",
        "name": "University of Delhi",
        "short_name": "DU"
      }
    },
    {
      "displayName": "Strayer University",
      "id": "strayeruniversity-d62529",
      "locationSet": {"include": ["us"]},
      "tags": {
        "amenity": "university",
        "brand": "Strayer University",
        "brand:wikidata": "Q7622587",
        "brand:wikipedia": "en:Strayer University",
        "name": "Strayer University",
        "short_name": "Strayer"
      }
    },
    {
      "displayName": "University of Phoenix",
      "id": "universityofphoenix-d62529",
      "locationSet": {"include": ["us"]},
      "tags": {
        "amenity": "university",
        "brand": "University of Phoenix",
        "brand:wikidata": "Q1889100",
        "brand:wikipedia": "en:University of Phoenix",
        "name": "University of Phoenix",
        "short_name": "UOPX"
      }
    }
  ]
}