{
  "properties": {
    "path": "brands/amenity/vehicle_inspection",
    "exclude": {
      "generic": [
        "^stacja kontroli pojazdów$",
        "^vehicle inspection( station)?$",
        "^техосмотр$"
      ],
      "named": [
        "^itv$",
        "^okręgowa stacja kontroli pojazdów$"
      ]
    }
  },
  "items": [
    {
      "displayName": "Applus Bilsyn",
      "id": "applusbilsyn-d8b9f3",
      "locationSet": {"include": ["dk"]},
      "tags": {
        "amenity": "vehicle_inspection",
        "brand": "Applus Bilsyn",
        "brand:wikidata": "Q5412861",
        "name": "Applus Bilsyn"
      }
    },
    {
      "displayName": "Auto Sécurité",
      "id": "autosecurite-53baa7",
      "locationSet": {"include": ["fr"]},
      "tags": {
        "amenity": "vehicle_inspection",
        "brand": "Auto Sécurité",
        "name": "Auto Sécurité"
      }
    },
    {
      "displayName": "Autosur",
      "id": "autosur-53baa7",
      "locationSet": {"include": ["fr"]},
      "tags": {
        "amenity": "vehicle_inspection",
        "brand": "Autosur",
        "brand:wikidata": "Q64224807",
        "name": "Autosur"
      }
    },
    {
      "displayName": "Autovision",
      "id": "autovision-53baa7",
      "locationSet": {"include": ["fr"]},
      "tags": {
        "amenity": "vehicle_inspection",
        "brand": "Autovision",
        "brand:wikidata": "Q64224842",
        "name": "Autovision"
      }
    },
    {
      "displayName": "Besikta Bilprovning",
      "id": "besiktabilprovning-ca3d1c",
      "locationSet": {"include": ["se"]},
      "matchNames": ["besikta"],
      "tags": {
        "amenity": "vehicle_inspection",
        "brand": "Besikta Bilprovning",
        "brand:wikidata": "Q31887522",
        "name": "Besikta Bilprovning"
      }
    },
    {
      "displayName": "Dekra",
      "id": "dekra-5e3362",
      "locationSet": {
        "include": ["de", "dk", "fr"]
      },
      "matchTags": ["shop/car_repair"],
      "preserveTags": ["^name"],
      "tags": {
        "amenity": "vehicle_inspection",
        "brand": "DEKRA",
        "brand:wikidata": "Q383711",
        "name": "DEKRA"
      }
    },
    {
      "displayName": "FDM Bilsyn",
      "id": "fdmbilsyn-d8b9f3",
      "locationSet": {"include": ["dk"]},
      "tags": {
        "amenity": "vehicle_inspection",
        "brand": "FDM Bilsyn",
        "brand:wikidata": "Q5440784",
        "name": "FDM Bilsyn"
      }
    },
    {
      "displayName": "GTÜ",
      "id": "gtu-da4a1b",
      "locationSet": {"include": ["de"]},
      "matchNames": [
        "gesellschaft für technische überwachung"
      ],
      "matchTags": ["shop/car_repair"],
      "preserveTags": ["^name"],
      "tags": {
        "amenity": "vehicle_inspection",
        "brand": "GTÜ",
        "brand:wikidata": "Q119993988",
        "name": "GTÜ"
      }
    },
    {
      "displayName": "Norisko",
      "id": "norisko-4cf8cf",
      "locationSet": {"include": ["fx"]},
      "tags": {
        "amenity": "vehicle_inspection",
        "brand": "Norisko",
        "name": "Norisko"
      }
    },
    {
      "displayName": "Puspakom",
      "id": "puspakom-0c47dd",
      "locationSet": {"include": ["my"]},
      "tags": {
        "amenity": "vehicle_inspection",
        "brand": "Puspakom",
        "brand:wikidata": "Q7261909",
        "name": "Puspakom"
      }
    },
    {
      "displayName": "Sécuritest",
      "id": "securitest-53baa7",
      "locationSet": {"include": ["fr"]},
      "tags": {
        "amenity": "vehicle_inspection",
        "brand": "Sécuritest",
        "brand:wikidata": "Q64224992",
        "name": "Sécuritest"
      }
    },
    {
      "displayName": "TÜV Hanse",
      "id": "tuvhanse-da4a1b",
      "locationSet": {"include": ["de"]},
      "preserveTags": ["^name"],
      "tags": {
        "amenity": "vehicle_inspection",
        "brand": "TÜV Hanse",
        "brand:wikidata": "Q2463537",
        "name": "TÜV Hanse"
      }
    },
    {
      "displayName": "TÜV Hessen",
      "id": "tuvhessen-da4a1b",
      "locationSet": {"include": ["de"]},
      "preserveTags": ["^name"],
      "tags": {
        "amenity": "vehicle_inspection",
        "brand": "TÜV Hessen",
        "brand:wikidata": "Q2463542",
        "name": "TÜV Hessen"
      }
    },
    {
      "displayName": "TÜV Nord",
      "id": "tuvnord-da4a1b",
      "locationSet": {"include": ["de"]},
      "preserveTags": ["^name"],
      "tags": {
        "amenity": "vehicle_inspection",
        "brand": "TÜV Nord",
        "brand:wikidata": "Q2463547",
        "name": "TÜV Nord"
      }
    },
    {
      "displayName": "TÜV Rheinland",
      "id": "tuvrheinland-da4a1b",
      "locationSet": {"include": ["de"]},
      "preserveTags": ["^name"],
      "tags": {
        "amenity": "vehicle_inspection",
        "brand": "TÜV Rheinland",
        "brand:wikidata": "Q632391",
        "name": "TÜV Rheinland"
      }
    },
    {
      "displayName": "TÜV Saarland",
      "id": "tuvsaarland-da4a1b",
      "locationSet": {"include": ["de"]},
      "preserveTags": ["^name"],
      "tags": {
        "amenity": "vehicle_inspection",
        "brand": "TÜV Saarland",
        "brand:wikidata": "Q996314",
        "name": "TÜV Saarland"
      }
    },
    {
      "displayName": "TÜV Süd",
      "id": "tuvsud-da4a1b",
      "locationSet": {"include": ["de"]},
      "preserveTags": ["^name"],
      "tags": {
        "amenity": "vehicle_inspection",
        "brand": "TÜV Süd",
        "brand:wikidata": "Q880718",
        "name": "TÜV Süd"
      }
    },
    {
      "displayName": "TÜV Thüringen",
      "id": "tuvthuringen-da4a1b",
      "locationSet": {"include": ["de"]},
      "preserveTags": ["^name"],
      "tags": {
        "amenity": "vehicle_inspection",
        "brand": "TÜV Thüringen",
        "brand:wikidata": "Q2463551",
        "name": "TÜV Thüringen"
      }
    },
    {
      "displayName": "TÜVTÜRK",
      "id": "tuvturk-9c5bc9",
      "locationSet": {"include": ["tr"]},
      "tags": {
        "amenity": "vehicle_inspection",
        "brand": "TÜVTÜRK",
        "brand:wikidata": "Q2463555",
        "name": "TÜVTÜRK"
      }
    },
    {
      "displayName": "VTNZ",
      "id": "vtnz-31002f",
      "locationSet": {"include": ["nz"]},
      "tags": {
        "amenity": "vehicle_inspection",
        "brand": "VTNZ",
        "brand:wikidata": "Q7907620",
        "name": "VTNZ"
      }
    },
    {
      "displayName": "ホリデー車検",
      "id": "holiday-f4e150",
      "locationSet": {"include": ["jp"]},
      "matchNames": ["ホリデー"],
      "tags": {
        "amenity": "vehicle_inspection",
        "brand": "ホリデー車検",
        "brand:en": "Holiday",
        "brand:ja": "ホリデー車検",
        "brand:wikidata": "Q11338030",
        "name": "ホリデー車検",
        "name:en": "Holiday",
        "name:ja": "ホリデー車検"
      }
    }
  ]
}
