{
  "properties": {
    "path": "brands/amenity/veterinary",
    "exclude": {
      "generic": [
        "^(cabinet |clinique )?vétérinaire$",
        "^(cl[ií]nica )?veterinari[ao]$",
        "^ambulatorio veterinario$",
        "^tierarztpraxis$",
        "^veterinary( hospital)?$",
        "^ветеринарная аптека$",
        "^ветеринарная клиника$",
        "^ветлечебница$"
      ],
      "named": ["^ветаптека$"]
    }
  },
  "items": [
    {
      "displayName": "Animates Vetcare",
      "id": "animatesvetcare-023837",
      "locationSet": {"include": ["nz"]},
      "preserveTags": ["^name"],
      "tags": {
        "amenity": "veterinary",
        "brand": "Animates",
        "brand:wikidata": "Q110299350",
        "name": "Animates Vetcare"
      }
    },
    {
      "displayName": "Banfield Pet Hospital",
      "id": "banfieldpethospital-146b24",
      "locationSet": {"include": ["us"]},
      "tags": {
        "amenity": "veterinary",
        "brand": "Banfield Pet Hospital",
        "brand:wikidata": "Q2882416",
        "name": "Banfield Pet Hospital"
      }
    },
    {
      "displayName": "Blue Cross Pet Clinic",
      "id": "bluecrosspetclinic-45f750",
      "locationSet": {"include": ["gb"]},
      "tags": {
        "amenity": "veterinary",
        "brand": "Blue Cross",
        "brand:wikidata": "Q3520039",
        "name": "Blue Cross Pet Clinic"
      }
    },
    {
      "displayName": "BluePearl",
      "id": "bluepearl-146b24",
      "locationSet": {"include": ["us"]},
      "tags": {
        "amenity": "veterinary",
        "brand": "BluePearl",
        "brand:wikidata": "Q4928764",
        "name": "BluePearl"
      }
    },
    {
      "displayName": "Greencross Vets",
      "id": "greencrossvets-42dd12",
      "locationSet": {"include": ["au"]},
      "tags": {
        "amenity": "veterinary",
        "brand": "Greencross Vets",
        "brand:wikidata": "Q41179992",
        "name": "Greencross Vets"
      }
    },
    {
      "displayName": "Kleintierpraxis",
      "id": "kleintierpraxis-ae5565",
      "locationSet": {"include": ["001"]},
      "tags": {
        "amenity": "veterinary",
        "brand": "Kleintierpraxis",
        "name": "Kleintierpraxis"
      }
    },
    {
      "displayName": "Medivet",
      "locationSet": {"include": ["gb"]},
      "tags": {
        "amenity": "veterinary",
        "brand": "Medivet",
        "brand:wikidata": "Q120372623",
        "name": "Medivet"
      }
    },
    {
      "displayName": "VCA Animal Hospital",
      "id": "vcaanimalhospital-e02471",
      "locationSet": {"include": ["ca", "us"]},
      "tags": {
        "amenity": "veterinary",
        "brand": "VCA Animal Hospital",
        "brand:wikidata": "Q7906620",
        "name": "VCA Animal Hospital"
      }
    },
    {
      "displayName": "VetIQ Petcare",
      "id": "vetiq-146b24",
      "locationSet": {"include": ["us"]},
      "tags": {
        "alt_name": "VetIQ Smarter Pet Health",
        "amenity": "veterinary",
        "brand": "VetIQ Petcare",
        "brand:wikidata": "Q109887581",
        "name": "VetIQ"
      }
    },
    {
      "displayName": "Vets4Pets",
      "id": "vets4pets-45f750",
      "locationSet": {"include": ["gb"]},
      "tags": {
        "amenity": "veterinary",
        "brand": "Vets4Pets",
        "brand:wikidata": "Q16960196",
        "name": "Vets4Pets"
      }
    },
    {
      "displayName": "WellHaven Pet Health",
      "id": "wellhavenpethealth-146b24",
      "locationSet": {"include": ["us"]},
      "tags": {
        "amenity": "veterinary",
        "brand": "WellHaven",
        "brand:wikidata": "Q107784406",
        "name": "WellHaven Pet Health"
      }
    }
  ]
}
