{
  "properties": {
    "path": "operators/highway/street_lamp",
    "exclude": {"generic": ["^street_lamp$"]}
  },
  "items": [
    {
      "displayName": "Baltimore Gas & Electric",
      "locationSet": {
        "include": ["us-md.geojson"]
      },
      "matchNames": ["bg&e", "bge"],
      "tags": {
        "highway": "street_lamp",
        "operator": "Baltimore Gas & Electric",
        "operator:wikidata": "Q4852862"
      }
    },
    {
      "displayName": "BC Hydro",
      "locationSet": {
        "include": ["ca-bc.geojson"]
      },
      "tags": {
        "highway": "street_lamp",
        "operator": "BC Hydro",
        "operator:wikidata": "Q795720"
      }
    },
    {
      "displayName": "BPU",
      "locationSet": {
        "include": ["us-ks.geojson"]
      },
      "tags": {
        "highway": "street_lamp",
        "operator": "Kansas City Board of Public Utilities",
        "operator:short": "BPU",
        "operator:wikidata": "Q29641882"
      }
    },
    {
      "displayName": "CenterPoint Energy",
      "id": "centerpointenergy-794e30",
      "locationSet": {"include": ["us"]},
      "tags": {
        "highway": "street_lamp",
        "operator": "CenterPoint Energy",
        "operator:wikidata": "Q1053560"
      }
    },
    {
      "displayName": "City of Rochester (New York)",
      "id": "cityofrochester-36d8ba",
      "locationSet": {
        "include": ["us-ny.geojson"]
      },
      "tags": {
        "highway": "street_lamp",
        "operator": "City of Rochester",
        "operator:wikidata": "Q49218"
      }
    },
    {
      "displayName": "ENMAX",
      "locationSet": {
        "include": ["ca-ab.geojson"]
      },
      "tags": {
        "highway": "street_lamp",
        "operator": "ENMAX",
        "operator:wikidata": "Q5323708"
      }
    },
    {
      "displayName": "ESB Networks",
      "locationSet": {"include": ["ie"]},
      "matchNames": ["esb"],
      "tags": {
        "highway": "street_lamp",
        "operator": "ESB Networks",
        "operator:wikidata": "Q115224013"
      }
    },
    {
      "displayName": "FortisAlberta",
      "locationSet": {
        "include": ["ca-ab.geojson"]
      },
      "matchNames": ["aqualta", "eltec"],
      "tags": {
        "highway": "street_lamp",
        "operator": "FortisAlberta",
        "operator:wikidata": "Q1438987"
      }
    },
    {
      "displayName": "Hydro-Québec",
      "locationSet": {
        "include": ["ca-qc.geojson"]
      },
      "tags": {
        "highway": "street_lamp",
        "operator": "Hydro-Québec",
        "operator:wikidata": "Q167840"
      }
    },
    {
      "displayName": "LCEC",
      "locationSet": {
        "include": ["us-fl.geojson"]
      },
      "tags": {
        "highway": "street_lamp",
        "operator": "Lee County Electric Cooperative",
        "operator:short": "LCEC",
        "operator:wikidata": "Q115691632"
      }
    },
    {
      "displayName": "Monroe County DOT (New York)",
      "id": "monroecountydepartmentoftransportation-36d8ba",
      "locationSet": {
        "include": ["us-ny.geojson"]
      },
      "tags": {
        "highway": "street_lamp",
        "operator": "Monroe County Department of Transportation",
        "operator:short": "MCDOT",
        "operator:wikidata": "Q130222658"
      }
    },
    {
      "displayName": "Puget Sound Energy",
      "id": "pugetsoundenergy-2e474f",
      "locationSet": {
        "include": ["us-wa.geojson"]
      },
      "tags": {
        "highway": "street_lamp",
        "operator": "Puget Sound Energy",
        "operator:short": "PSE",
        "operator:wikidata": "Q7258927"
      }
    },
    {
      "displayName": "Rochester Gas & Electric",
      "id": "rochestergasandelectric-36d8ba",
      "locationSet": {
        "include": ["us-ny.geojson"]
      },
      "matchNames": ["rg&e"],
      "tags": {
        "highway": "street_lamp",
        "operator": "Rochester Gas & Electric",
        "operator:wikidata": "Q125472940"
      }
    },
    {
      "displayName": "Salford City Council",
      "locationSet": {
        "include": [
          "gb-greater-manchester.geojson"
        ]
      },
      "matchNames": ["salford council"],
      "tags": {
        "highway": "street_lamp",
        "operator": "Salford City Council",
        "operator:wikidata": "Q17020402"
      }
    },
    {
      "displayName": "Seattle City Light",
      "id": "seattlecitylight-2e474f",
      "locationSet": {
        "include": ["us-wa.geojson"]
      },
      "tags": {
        "highway": "street_lamp",
        "operator": "Seattle City Light",
        "operator:short": "SCL",
        "operator:wikidata": "Q7442080"
      }
    },
    {
      "displayName": "Xcel Energy",
      "locationSet": {"include": ["us"]},
      "tags": {
        "highway": "street_lamp",
        "operator": "Xcel Energy",
        "operator:wikidata": "Q1486956"
      }
    }
  ]
}
