{
  "properties": {
    "path": "operators/amenity/atm",
    "skipCollection": true,
    "exclude": {"generic": ["^atm$"]}
  },
  "items": [
    {
      "displayName": "Bezirkssparkasse Reichenau",
      "id": "bezspkreichenau",
      "locationSet": {"include": ["bezspk-reichenau"]},
      "tags": {
        "amenity": "atm",
        "network": "Sparkassen-Finanzgruppe",
        "network:wikidata": "Q2307760",
        "operator": "Bezirkssparkasse Reichenau",
        "operator:wikidata": "Q18616717"
      }
    },
	{
      "displayName": "Hohenzollerische Landesbank Kreissparkasse Sigmaringen",
      "id": "krspksigmaringen",
      "locationSet": {"include": ["krspk-sigmaringen"]},
      "tags": {
        "amenity": "atm",
		"network": "Sparkassen-Finanzgruppe",
        "network:wikidata": "Q2307760",
        "operator": "Hohenzollerische Landesbank Kreissparkasse Sigmaringen",
        "operator:wikidata": "Q1623858"
      }
    },
	{
      "displayName": "Kreissparkasse Biberach",
      "id": "krspkbiberach",
      "locationSet": {"include": ["krspk-biberach"]},
      "tags": {
        "amenity": "atm",
		"network": "Sparkassen-Finanzgruppe",
        "network:wikidata": "Q2307760",
        "operator": "Kreissparkasse Biberach",
        "operator:wikidata": "Q1787769"
      }
    },
	{
      "displayName": "Kreissparkasse Böblingen",
      "id": "krspkboeblingen",
      "locationSet": {"include": ["krspk-boeblingen"]},
      "tags": {
        "amenity": "atm",
		"network": "Sparkassen-Finanzgruppe",
        "network:wikidata": "Q2307760",
        "operator": "Kreissparkasse Böblingen",
        "operator:wikidata": "Q1290595"
      }
    },
	{
      "displayName": "Kreissparkasse Esslingen-Nürtingen",
      "id": "krspkesslingennuertingen",
      "locationSet": {"include": ["krspk-esslingen-nuertingen"]},
      "tags": {
        "amenity": "atm",
		"network": "Sparkassen-Finanzgruppe",
        "network:wikidata": "Q2307760",
        "operator": "Kreissparkasse Esslingen-Nürtingen",
        "operator:wikidata": "Q1492852"
      }
    },
	{
      "displayName": "Kreissparkasse Freudenstadt",
      "id": "krspkfreudenstadt",
      "locationSet": {"include": ["krspk-freudenstadt"]},
      "tags": {
        "amenity": "atm",
		"network": "Sparkassen-Finanzgruppe",
        "network:wikidata": "Q2307760",
        "operator": "Kreissparkasse Freudenstadt",
        "operator:wikidata": "Q1787778"
      }
    },
	{
      "displayName": "Kreissparkasse Heidenheim",
      "id": "krspkheidenheim",
      "locationSet": {"include": ["krspk-heidenheim"]},
      "tags": {
        "amenity": "atm",
		"network": "Sparkassen-Finanzgruppe",
        "network:wikidata": "Q2307760",
        "operator": "Kreissparkasse Heidenheim",
        "operator:wikidata": "Q37068918"
      }
    },
	{
      "displayName": "Kreissparkasse Heilbronn",
      "id": "krspkheilbronn",
      "locationSet": {"include": ["krspk-heilbronn"]},
      "tags": {
        "amenity": "atm",
		"network": "Sparkassen-Finanzgruppe",
        "network:wikidata": "Q2307760",
        "operator": "Kreissparkasse Heilbronn",
        "operator:wikidata": "Q1787781"
      }
    },
	{
      "displayName": "Kreissparkasse Ludwigsburg",
      "id": "krspkludwigsburg",
      "locationSet": {"include": ["krspk-ludwigsburg"]},
      "tags": {
        "amenity": "atm",
		"network": "Sparkassen-Finanzgruppe",
        "network:wikidata": "Q2307760",
        "operator": "Kreissparkasse Ludwigsburg",
        "operator:wikidata": "Q1787791"
      }
    },
	{
      "displayName": "Kreissparkasse Ostalb",
      "id": "krspkostalb",
      "locationSet": {"include": ["krspk-ostalb"]},
      "tags": {
        "amenity": "atm",
		"network": "Sparkassen-Finanzgruppe",
        "network:wikidata": "Q2307760",
        "operator": "Kreissparkasse Ostalb",
        "operator:wikidata": "Q1787800"
      }
    },
	{
      "displayName": "Kreissparkasse Ravensburg",
      "id": "krspkravensburg",
      "locationSet": {"include": ["krspk-ravensburg"]},
      "tags": {
        "amenity": "atm",
		"network": "Sparkassen-Finanzgruppe",
        "network:wikidata": "Q2307760",
        "operator": "Kreissparkasse Ravensburg",
        "operator:wikidata": "Q1385106"
      }
    },
	{
      "displayName": "Kreissparkasse Reutlingen",
      "id": "krspkreutlingen",
      "locationSet": {"include": ["spk-reutlingen"]},
      "tags": {
        "amenity": "atm",
		"network": "Sparkassen-Finanzgruppe",
        "network:wikidata": "Q2307760",
        "operator": "Kreissparkasse Reutlingen",
        "operator:wikidata": "Q1787801"
      }
    },
	{
      "displayName": "Kreissparkasse Tübingen",
      "id": "krspktuebingen",
      "locationSet": {"include": ["krspk-tuebingen"]},
      "tags": {
        "amenity": "atm",
		"network": "Sparkassen-Finanzgruppe",
        "network:wikidata": "Q2307760",
        "operator": "Kreissparkasse Tübingen",
        "operator:wikidata": "Q1787813"
      }
    },
	{
      "displayName": "Kreissparkasse Tuttlingen",
      "id": "krspktuttlingen",
      "locationSet": {"include": ["krspk-tuttlingen"]},
      "tags": {
        "amenity": "atm",
		"network": "Sparkassen-Finanzgruppe",
        "network:wikidata": "Q2307760",
        "operator": "Kreissparkasse Tuttlingen",
        "operator:wikidata": "Q16832628"
      }
    },
	{
      "displayName": "Kreissparkasse Waiblingen",
      "id": "krspkwaiblingen",
      "locationSet": {"include": ["krspk-waiblingen"]},
      "tags": {
        "amenity": "atm",
		"network": "Sparkassen-Finanzgruppe",
        "network:wikidata": "Q2307760",
        "operator": "Kreissparkasse Waiblingen",
        "operator:wikidata": "Q1787814"
      }
    },
	{
      "displayName": "Sparkasse Baden-Baden Gaggenau",
      "id": "spkbadenbadengaggenau",
      "locationSet": {"include": ["spk-baden-baden-gaggenau"]},
      "tags": {
        "amenity": "atm",
		"network": "Sparkassen-Finanzgruppe",
        "network:wikidata": "Q2307760",
        "operator": "Sparkasse Baden-Baden Gaggenau",
        "operator:wikidata": "Q19059957"
      }
    },
	{
      "displayName": "Sparkasse Bodensee",
      "id": "spkbodensee",
      "locationSet": {"include": ["spk-bodensee"]},
      "tags": {
        "amenity": "atm",
		"network": "Sparkassen-Finanzgruppe",
        "network:wikidata": "Q2307760",
        "operator": "Sparkasse Bodensee",
        "operator:wikidata": "Q2307325"
      }
    },
	{
      "displayName": "Sparkasse Bonndorf-Stühlingen",
      "id": "spkbonndorfstuehlingen",
      "locationSet": {"include": ["spk-bonndorf-stuehlingen"]},
      "tags": {
        "amenity": "atm",
		"network": "Sparkassen-Finanzgruppe",
        "network:wikidata": "Q2307760",
        "operator": "Sparkasse Bonndorf-Stühlingen",
        "operator:wikidata": "Q2307330"
      }
    },
	{
      "displayName": "Sparkasse Bühl",
      "id": "spkbuehl",
      "locationSet": {"include": ["spk-buehl"]},
      "tags": {
        "amenity": "atm",
		"network": "Sparkassen-Finanzgruppe",
        "network:wikidata": "Q2307760",
        "operator": "Sparkasse Bühl",
        "operator:wikidata": "Q26794521"
      }
    },
	{
      "displayName": "Sparkasse Engen-Gottmadingen",
      "id": "spkengengottmadingen",
      "locationSet": {"include": ["spk-engen-gottmadingen"]},
      "tags": {
        "amenity": "atm",
		"network": "Sparkassen-Finanzgruppe",
        "network:wikidata": "Q2307760",
        "operator": "Sparkasse Engen-Gottmadingen",
        "operator:wikidata": "Q56070863"
      }
    },
	{
      "displayName": "Sparkasse Freiburg-Nördlicher Breisgau",
      "id": "spkfreiburgnoerdlicherbreisgau",
      "locationSet": {"include": ["spk-freiburg-noerdlicher-breisgau"]},
      "tags": {
        "amenity": "atm",
		"network": "Sparkassen-Finanzgruppe",
        "network:wikidata": "Q2307760",
        "operator": "Sparkasse Freiburg-Nördlicher Breisgau",
        "operator:wikidata": "Q15128927"
      }
    },
	{
      "displayName": "Sparkasse Hanauerland",
      "id": "spkhanauerland",
      "locationSet": {"include": ["spk-hanauerland"]},
      "tags": {
        "amenity": "atm",
		"network": "Sparkassen-Finanzgruppe",
        "network:wikidata": "Q2307760",
        "operator": "Sparkasse Hanauerland",
        "operator:wikidata": "Q2307444"
      }
    },
	{
      "displayName": "Sparkasse Hegau-Bodensee",
      "id": "spkhegaubodensee",
      "locationSet": {"include": ["spk-hegau-bodensee"]},
      "tags": {
        "amenity": "atm",
		"network": "Sparkassen-Finanzgruppe",
        "network:wikidata": "Q2307760",
        "operator": "Sparkasse Hegau-Bodensee",
        "operator:wikidata": "Q2307674"
      }
    },
	{
      "displayName": "Sparkasse Heidelberg",
      "id": "spkheidelberg",
      "locationSet": {"include": ["spk-heidelberg"]},
      "tags": {
        "amenity": "atm",
		"network": "Sparkassen-Finanzgruppe",
        "network:wikidata": "Q2307760",
        "operator": "Sparkasse Heidelberg",
        "operator:wikidata": "Q1443207"
      }
    },
	{
      "displayName": "Sparkasse Hochrhein",
      "id": "spkhochrhein",
      "locationSet": {"include": ["spk-hochrhein"]},
      "tags": {
        "amenity": "atm",
		"network": "Sparkassen-Finanzgruppe",
        "network:wikidata": "Q2307760",
        "operator": "Sparkasse Hochrhein",
        "operator:wikidata": "Q15848091"
      }
    },
	{
      "displayName": "Sparkasse Hochschwarzwald",
      "id": "spkhochschwarzwald",
      "locationSet": {"include": ["spk-hochschwarzwald"]},
      "tags": {
        "amenity": "atm",
		"network": "Sparkassen-Finanzgruppe",
        "network:wikidata": "Q2307760",
        "operator": "Sparkasse Hochschwarzwald",
        "operator:wikidata": "Q56070763"
      }
    },
	{
      "displayName": "Sparkasse Hohenlohekreis",
      "id": "spkhohenlohekreis",
      "locationSet": {"include": ["spk-hohenlohe"]},
      "tags": {
        "amenity": "atm",
		"network": "Sparkassen-Finanzgruppe",
        "network:wikidata": "Q2307760",
        "operator": "Sparkasse Hohenlohekreis",
        "operator:wikidata": "Q2307480"
      }
    },
	{
      "displayName": "Sparkasse Karlsruhe",
      "id": "spkkarlsruhe",
      "locationSet": {"include": ["spk-karlsruhe"]},
      "tags": {
        "amenity": "atm",
		"network": "Sparkassen-Finanzgruppe",
        "network:wikidata": "Q2307760",
        "operator": "Sparkasse Karlsruhe",
        "operator:wikidata": "Q2307494"
      }
    },
	{
      "displayName": "Sparkasse Kinzigtal",
      "id": "spkkinzigtal",
      "locationSet": {"include": ["spk-kinzigtal"]},
      "tags": {
        "amenity": "atm",
		"network": "Sparkassen-Finanzgruppe",
        "network:wikidata": "Q2307760",
        "operator": "Sparkasse Kinzigtal",
        "operator:wikidata": "Q26794526"
      }
    },
	{
      "displayName": "Sparkasse Kraichgau",
      "id": "spkkraichgau",
      "locationSet": {"include": ["spk-kraichgau"]},
      "tags": {
        "amenity": "atm",
		"network": "Sparkassen-Finanzgruppe",
        "network:wikidata": "Q2307760",
        "operator": "Sparkasse Kraichgau",
        "operator:wikidata": "Q1527770"
      }
    },
	{
      "displayName": "Sparkasse Lörrach-Rheinfelden",
      "id": "spkloerrachrheinfelden",
      "locationSet": {"include": ["spk-loerrach-rheinfelden"]},
      "tags": {
        "amenity": "atm",
		"network": "Sparkassen-Finanzgruppe",
        "network:wikidata": "Q2307760",
        "operator": "Sparkasse Lörrach-Rheinfelden",
        "operator:wikidata": "Q2307539"
      }
    },
	{
      "displayName": "Sparkasse Markgräflerland",
      "id": "spkmarkgraeflerland",
      "locationSet": {"include": ["spk-markgraeflerland"]},
      "tags": {
        "amenity": "atm",
		"network": "Sparkassen-Finanzgruppe",
        "network:wikidata": "Q2307760",
        "operator": "Sparkasse Markgräflerland",
        "operator:wikidata": "Q1430840"
      }
    },
	{
      "displayName": "Sparkasse Neckartal-Odenwald",
      "id": "spkneckartalodenwald",
      "locationSet": {"include": ["spk-neckartal-odenwald"]},
      "tags": {
        "amenity": "atm",
		"network": "Sparkassen-Finanzgruppe",
        "network:wikidata": "Q2307760",
        "operator": "Sparkasse Neckartal-Odenwald",
        "operator:wikidata": "Q14912505"
      }
    },
	{
      "displayName": "Sparkasse Offenburg/Ortenau",
      "id": "spkoffenburgortenau",
      "locationSet": {"include": ["spk-offenburg-ortenau"]},
      "tags": {
        "amenity": "atm",
		"network": "Sparkassen-Finanzgruppe",
        "network:wikidata": "Q2307760",
        "operator": "Sparkasse Offenburg/Ortenau",
        "operator:wikidata": "Q2307590"
      }
    },
	{
      "displayName": "Sparkasse Pforzheim Calw",
      "id": "spkpforzheimcalw",
      "locationSet": {"include": ["spk-pforzheim-calw"]},
      "tags": {
        "amenity": "atm",
		"network": "Sparkassen-Finanzgruppe",
        "network:wikidata": "Q2307760",
        "operator": "Sparkasse Pforzheim Calw",
        "operator:wikidata": "Q2307618"
      }
    },
	{
      "displayName": "Sparkasse Pfullendorf-Meßkirch",
      "id": "spkpfullendorfmesskirch",
      "locationSet": {"include": ["spk-pfullendorf-messkirch"]},
      "tags": {
        "amenity": "atm",
		"network": "Sparkassen-Finanzgruppe",
        "network:wikidata": "Q2307760",
        "operator": "Sparkasse Pfullendorf-Meßkirch",
        "operator:wikidata": "Q2307621"
      }
    },
	{
      "displayName": "Sparkasse Rastatt-Gernsbach",
      "id": "spkrastattgernsbach",
      "locationSet": {"include": ["spk-rastatt-gernsbach"]},
      "tags": {
        "amenity": "atm",
		"network": "Sparkassen-Finanzgruppe",
        "network:wikidata": "Q2307760",
        "operator": "Sparkasse Rastatt-Gernsbach",
        "operator:wikidata": "Q26794524"
      }
    },
	{
      "displayName": "Sparkasse Rhein Neckar Nord",
      "id": "spkrheinneckarnord",
      "locationSet": {"include": ["spk-rhein-neckar-nord"]},
      "tags": {
        "amenity": "atm",
		"network": "Sparkassen-Finanzgruppe",
        "network:wikidata": "Q2307760",
        "operator": "Sparkasse Rhein Neckar Nord",
        "operator:wikidata": "Q2307642"
      }
    },
	{
      "displayName": "Sparkasse Salem-Heiligenberg",
      "id": "spksalemheiligenberg",
      "locationSet": {"include": ["spk-salem-heiligenberg"]},
      "tags": {
        "amenity": "atm",
		"network": "Sparkassen-Finanzgruppe",
        "network:wikidata": "Q2307760",
        "operator": "Sparkasse Salem-Heiligenberg",
        "operator:wikidata": "Q2307658"
      }
    },
	{
      "displayName": "Sparkasse Schwäbisch Hall-Crailsheim",
      "id": "spkschwaebischhallcrailsheim",
      "locationSet": {"include": ["spk-schwaebisch_hall-crailsheim"]},
      "tags": {
        "amenity": "atm",
		"network": "Sparkassen-Finanzgruppe",
        "network:wikidata": "Q2307760",
        "operator": "Sparkasse Schwäbisch Hall-Crailsheim",
        "operator:wikidata": "Q1723179"
      }
    },
	{
      "displayName": "Sparkasse Schwarzwald-Baar",
      "id": "spkschwarzwaldbaar",
      "locationSet": {"include": ["spk-schwarzwald-baar"]},
      "tags": {
        "amenity": "atm",
		"network": "Sparkassen-Finanzgruppe",
        "network:wikidata": "Q2307760",
        "operator": "Sparkasse Schwarzwald-Baar",
        "operator:wikidata": "Q33133663"
      }
    },
	{
      "displayName": "Sparkasse Staufen-Breisach",
      "id": "spkstaufenbreisach",
      "locationSet": {"include": ["spk-staufen-breisach"]},
      "tags": {
        "amenity": "atm",
		"network": "Sparkassen-Finanzgruppe",
        "network:wikidata": "Q2307760",
        "operator": "Sparkasse Staufen-Breisach",
        "operator:wikidata": "Q53968330"
      }
    },
	{
      "displayName": "Sparkasse St. Blasien",
      "id": "spkstblasien",
      "locationSet": {"include": ["spk-st-blasien"]},
      "tags": {
        "amenity": "atm",
		"network": "Sparkassen-Finanzgruppe",
        "network:wikidata": "Q2307760",
        "operator": "Sparkasse St. Blasien",
        "operator:wikidata": "Q15128968"
      }
    },
	{
      "displayName": "Sparkasse Tauberfranken",
      "id": "spktauberfranken",
      "locationSet": {"include": ["spk-tauberfranken"]},
      "tags": {
        "amenity": "atm",
		"network": "Sparkassen-Finanzgruppe",
        "network:wikidata": "Q2307760",
        "operator": "Sparkasse Tauberfranken",
        "operator:wikidata": "Q1566741"
      }
    },
	{
      "displayName": "Sparkasse Ulm",
      "id": "spkulm",
      "locationSet": {"include": ["spk-ulm"]},
      "tags": {
        "amenity": "atm",
		"network": "Sparkassen-Finanzgruppe",
        "network:wikidata": "Q2307760",
        "operator": "Sparkasse Ulm",
        "operator:wikidata": "Q18630954"
      }
    },
	{
      "displayName": "Sparkasse Wiesental",
      "id": "spkwiesental",
      "locationSet": {"include": ["spk-wiesental"]},
      "tags": {
        "amenity": "atm",
		"network": "Sparkassen-Finanzgruppe",
        "network:wikidata": "Q2307760",
        "operator": "Sparkasse Wiesental",
        "operator:wikidata": "Q56070837"
      }
    },
	{
      "displayName": "Sparkasse Wolfach",
      "id": "spkwolfach",
      "locationSet": {"include": ["spk-wolfach"]},
      "tags": {
        "amenity": "atm",
		"network": "Sparkassen-Finanzgruppe",
        "network:wikidata": "Q2307760",
        "operator": "Sparkasse Wolfach",
        "operator:wikidata": "Q26794525"
      }
    },
	{
      "displayName": "Sparkasse Zollernalb",
      "id": "spkzollernalb",
      "locationSet": {"include": ["spk-zollernalb"]},
      "tags": {
        "amenity": "atm",
		"network": "Sparkassen-Finanzgruppe",
        "network:wikidata": "Q2307760",
        "operator": "Sparkasse Zollernalb",
        "operator:wikidata": "Q2307734"
      }
    },
  ]
}