{
  "properties": {
    "path": "operators/amenity/car_sharing",
    "exclude": {"generic": ["^car sharing$"]}
  },
  "items": [
    {
      "displayName": "Autolib'",
      "id": "autolib-672a50",
      "locationSet": {"include": ["fx"]},
      "tags": {
        "amenity": "car_sharing",
        "operator": "Autolib'",
        "operator:wikidata": "Q787037",
        "operator:wikipedia": "fr:Autolib' (Paris)"
      }
    },
    {
      "displayName": "Avant2GO",
      "id": "avant2go-afeec2",
      "locationSet": {"include": ["si"]},
      "tags": {
        "amenity": "car_sharing",
        "operator": "Avant2GO"
      }
    },
    {
      "displayName": "BeiAnrufAuto",
      "id": "beianrufautoev-088af7",
      "locationSet": {"include": ["de"]},
      "tags": {
        "amenity": "car_sharing",
        "operator": "BeiAnrufAuto e.V."
      }
    },
    {
      "displayName": "Bildeleringen SA",
      "id": "bildeleringensa-4fd14a",
      "locationSet": {"include": ["no"]},
      "tags": {
        "amenity": "car_sharing",
        "operator": "Bildeleringen SA"
      }
    },
    {
      "displayName": "Bolloré",
      "id": "bollore-672a50",
      "locationSet": {"include": ["fx"]},
      "tags": {
        "amenity": "car_sharing",
        "operator": "Bolloré",
        "operator:wikidata": "Q444172",
        "operator:wikipedia": "fr:Bolloré"
      }
    },
    {
      "displayName": "book-n-drive",
      "id": "bookndrive-088af7",
      "locationSet": {"include": ["de"]},
      "tags": {
        "amenity": "car_sharing",
        "operator": "book-n-drive"
      }
    },
    {
      "displayName": "cambio CarSharing",
      "id": "cambiocarsharing-c92445",
      "locationSet": {"include": ["be", "de"]},
      "matchNames": ["cambio autodelen"],
      "tags": {
        "amenity": "car_sharing",
        "operator": "cambio CarSharing",
        "operator:wikidata": "Q1028155",
        "operator:wikipedia": "de:Cambio CarSharing",
        "short_name": "Cambio"
      }
    },
    {
      "displayName": "Car Sharing Trentino",
      "id": "carsharingtrentino-4d7a0e",
      "locationSet": {"include": ["it"]},
      "tags": {
        "amenity": "car_sharing",
        "operator": "Car Sharing Trentino"
      }
    },
    {
      "displayName": "car2go black",
      "id": "car2goblack-088af7",
      "locationSet": {"include": ["de"]},
      "tags": {
        "amenity": "car_sharing",
        "operator": "car2go black"
      }
    },
    {
      "displayName": "Caruso Carsharing",
      "id": "carusocarsharing-a7a6ff",
      "locationSet": {"include": ["at"]},
      "tags": {
        "amenity": "car_sharing",
        "operator": "Caruso Carsharing"
      }
    },
    {
      "displayName": "Citédia",
      "id": "citedia-01d93e",
      "locationSet": {
        "include": ["001"],
        "exclude": ["cn"]
      },
      "tags": {
        "amenity": "car_sharing",
        "operator": "Citédia"
      }
    },
    {
      "displayName": "Citélib",
      "id": "citelib-672a50",
      "locationSet": {"include": ["fx"]},
      "tags": {
        "amenity": "car_sharing",
        "operator": "Citélib"
      }
    },
    {
      "displayName": "Citiz",
      "id": "citiz-672a50",
      "locationSet": {"include": ["fx"]},
      "matchNames": ["autocool"],
      "tags": {
        "amenity": "car_sharing",
        "operator": "Citiz",
        "operator:wikidata": "Q3080530",
        "operator:wikipedia": "fr:Citiz"
      }
    },
    {
      "displayName": "Citiz Alpes-Loire",
      "id": "citizalpesloire-672a50",
      "locationSet": {"include": ["fx"]},
      "tags": {
        "amenity": "car_sharing",
        "operator": "Citiz Alpes-Loire"
      }
    },
    {
      "displayName": "Citiz Grand Est",
      "id": "citizgrandest-672a50",
      "locationSet": {"include": ["fx"]},
      "tags": {
        "amenity": "car_sharing",
        "operator": "Citiz Grand Est"
      }
    },
    {
      "displayName": "City CarShare",
      "id": "citycarshare-ed8a5d",
      "locationSet": {"include": ["us"]},
      "tags": {
        "amenity": "car_sharing",
        "operator": "City CarShare",
        "operator:wikidata": "Q5770528",
        "operator:wikipedia": "en:City CarShare"
      }
    },
    {
      "displayName": "Co-wheels",
      "id": "cowheels-398ebe",
      "locationSet": {"include": ["gb"]},
      "tags": {
        "amenity": "car_sharing",
        "operator": "Co-wheels",
        "operator:wikidata": "Q104145154"
      }
    },
    {
      "displayName": "Communauto",
      "id": "communauto-ed01ab",
      "locationSet": {"include": ["ca", "fx"]},
      "tags": {
        "amenity": "car_sharing",
        "operator": "Communauto",
        "operator:wikidata": "Q2986851",
        "operator:wikipedia": "en:Communauto"
      }
    },
    {
      "displayName": "Conficars",
      "id": "conficars-088af7",
      "locationSet": {"include": ["de"]},
      "tags": {
        "amenity": "car_sharing",
        "operator": "Conficars"
      }
    },
    {
      "displayName": "DENZEL Mobility CarSharing",
      "id": "denzelmobilitycarsharing-a7a6ff",
      "locationSet": {"include": ["at"]},
      "tags": {
        "amenity": "car_sharing",
        "operator": "DENZEL Mobility CarSharing"
      }
    },
    {
      "displayName": "Deutsche Bahn Connect GmbH (Flinkster)",
      "id": "deutschebahnconnectgmbh-088af7",
      "locationSet": {"include": ["de"]},
      "tags": {
        "amenity": "car_sharing",
        "brand": "Flinkster",
        "network": "Flinkster",
        "operator": "Deutsche Bahn Connect GmbH",
        "operator:wikidata": "Q1152100",
        "operator:wikipedia": "de:Deutsche Bahn Connect"
      }
    },
    {
      "displayName": "Drive Carsharing",
      "id": "drivecarsharing-088af7",
      "locationSet": {"include": ["de"]},
      "tags": {
        "amenity": "car_sharing",
        "operator": "Drive Carsharing",
        "operator:wikidata": "Q77077791"
      }
    },
    {
      "displayName": "e-vai",
      "id": "evai-4d7a0e",
      "locationSet": {"include": ["it"]},
      "tags": {
        "amenity": "car_sharing",
        "operator": "e-vai"
      }
    },
    {
      "displayName": "einfach mobil",
      "id": "einfachmobil-088af7",
      "locationSet": {"include": ["de"]},
      "tags": {
        "amenity": "car_sharing",
        "operator": "einfach mobil"
      }
    },
    {
      "displayName": "Enterprise Car Club",
      "id": "enterprisecarclub-398ebe",
      "locationSet": {"include": ["gb"]},
      "matchNames": ["city car club"],
      "tags": {
        "amenity": "car_sharing",
        "operator": "Enterprise Car Club",
        "operator:wikidata": "Q5123055",
        "operator:wikipedia": "en:Enterprise Car Club"
      }
    },
    {
      "displayName": "Enterprise CarShare",
      "id": "enterprisecarshare-01d93e",
      "locationSet": {
        "include": ["001"],
        "exclude": ["cn"]
      },
      "matchNames": ["autoshare"],
      "tags": {
        "amenity": "car_sharing",
        "operator": "Enterprise CarShare"
      }
    },
    {
      "displayName": "Evo",
      "id": "evo-2b1603",
      "locationSet": {"include": ["ca"]},
      "tags": {
        "amenity": "car_sharing",
        "operator": "Evo",
        "operator:wikidata": "Q26553214",
        "operator:wikipedia": "en:Evo Car Share"
      }
    },
    {
      "displayName": "Ford Carsharing",
      "id": "fordcarsharing-088af7",
      "locationSet": {"include": ["de"]},
      "tags": {
        "amenity": "car_sharing",
        "operator": "Ford Carsharing"
      }
    },
    {
      "displayName": "Genova Car Sharing",
      "id": "genovacarsharing-4d7a0e",
      "locationSet": {"include": ["it"]},
      "tags": {
        "amenity": "car_sharing",
        "operator": "Genova Car Sharing"
      }
    },
    {
      "displayName": "GoCar",
      "id": "gocar-084dbd",
      "locationSet": {"include": ["ie"]},
      "tags": {
        "amenity": "car_sharing",
        "operator": "GoCar",
        "operator:wikidata": "Q5574615",
        "operator:wikipedia": "en:GoCar (carsharing)"
      }
    },
    {
      "displayName": "GoGet",
      "id": "goget-d577f8",
      "locationSet": {"include": ["au"]},
      "tags": {
        "amenity": "car_sharing",
        "operator": "GoGet",
        "operator:wikidata": "Q5574624",
        "operator:wikipedia": "en:GoGet"
      }
    },
    {
      "displayName": "Greenwheels",
      "id": "greenwheels-96ec63",
      "locationSet": {"include": ["de", "nl"]},
      "tags": {
        "amenity": "car_sharing",
        "operator": "Greenwheels",
        "operator:wikidata": "Q316782",
        "operator:wikipedia": "en:Greenwheels"
      }
    },
    {
      "displayName": "Grüne Flotte",
      "id": "gruneflotte-088af7",
      "locationSet": {"include": ["de"]},
      "tags": {
        "amenity": "car_sharing",
        "operator": "Grüne Flotte"
      }
    },
    {
      "displayName": "Ithaca Carshare",
      "id": "ithacacarshare-ed8a5d",
      "locationSet": {"include": ["us"]},
      "tags": {
        "amenity": "car_sharing",
        "operator": "Ithaca Carshare"
      }
    },
    {
      "displayName": "IWV",
      "id": "iwv-088af7",
      "locationSet": {"include": ["de"]},
      "tags": {
        "amenity": "car_sharing",
        "operator": "IWV"
      }
    },
    {
      "displayName": "Lilas",
      "id": "lilas-672a50",
      "locationSet": {"include": ["fx"]},
      "tags": {
        "amenity": "car_sharing",
        "operator": "Lilas"
      }
    },
    {
      "displayName": "Marguerite",
      "id": "marguerite-672a50",
      "locationSet": {"include": ["fx"]},
      "tags": {
        "amenity": "car_sharing",
        "operator": "Marguerite",
        "operator:wikidata": "Q3290655",
        "operator:wikipedia": "fr:Marguerite (autopartage)"
      }
    },
    {
      "displayName": "Mobilib'",
      "id": "mobilib-672a50",
      "locationSet": {"include": ["fx"]},
      "tags": {
        "amenity": "car_sharing",
        "operator": "Mobilib'"
      }
    },
    {
      "displayName": "Mobility",
      "id": "mobility-488f3c",
      "locationSet": {"include": ["ch"]},
      "matchNames": ["mobility genossenschaft"],
      "tags": {
        "amenity": "car_sharing",
        "operator": "Mobility",
        "operator:wikidata": "Q692400",
        "operator:wikipedia": "de:Mobility Carsharing"
      }
    },
    {
      "displayName": "Mobility Center GmbH",
      "id": "mobilitycentergmbh-088af7",
      "locationSet": {"include": ["de"]},
      "tags": {
        "amenity": "car_sharing",
        "operator": "Mobility Center GmbH"
      }
    },
    {
      "displayName": "Modo",
      "id": "modo-2b1603",
      "locationSet": {"include": ["ca"]},
      "tags": {
        "amenity": "car_sharing",
        "operator": "Modo",
        "operator:wikidata": "Q6889533",
        "operator:wikipedia": "en:Modo (car co-op)"
      }
    },
    {
      "displayName": "Modulauto",
      "id": "modulauto-672a50",
      "locationSet": {"include": ["fx"]},
      "tags": {
        "amenity": "car_sharing",
        "operator": "Modulauto",
        "operator:wikidata": "Q3317964",
        "operator:wikipedia": "fr:Modulauto"
      }
    },
    {
      "displayName": "Ökostadt Renningen e.V.",
      "id": "okostadtrenningenev-088af7",
      "locationSet": {"include": ["de"]},
      "tags": {
        "amenity": "car_sharing",
        "operator": "Ökostadt Renningen e.V."
      }
    },
    {
      "displayName": "Partago cv",
      "id": "partagocv-0e1988",
      "locationSet": {"include": ["be"]},
      "tags": {
        "amenity": "car_sharing",
        "operator": "Partago cv",
        "operator:wikidata": "Q107390114"
      }
    },
    {
      "displayName": "PhillyCarShare",
      "id": "phillycarshare-d68aa9",
      "locationSet": {
        "include": [[-75.3, 40.1, 50]]
      },
      "tags": {
        "amenity": "car_sharing",
        "operator": "PhillyCarShare",
        "operator:wikidata": "Q7185981",
        "operator:wikipedia": "en:PhillyCarShare"
      }
    },
    {
      "displayName": "Régie des Transports du Territoire de Belfort",
      "id": "regiedestransportsduterritoiredebelfort-672a50",
      "locationSet": {"include": ["fx"]},
      "tags": {
        "amenity": "car_sharing",
        "operator": "Régie des Transports du Territoire de Belfort"
      }
    },
    {
      "displayName": "Roma Servizi per la Mobilità",
      "id": "romaserviziperlamobilita-4d7a0e",
      "locationSet": {"include": ["it"]},
      "tags": {
        "amenity": "car_sharing",
        "operator": "Roma Servizi per la Mobilità",
        "operator:wikidata": "Q30284569",
        "operator:wikipedia": "it:Roma Servizi per la Mobilità"
      }
    },
    {
      "displayName": "RTTB",
      "id": "rttb-672a50",
      "locationSet": {"include": ["fx"]},
      "tags": {
        "amenity": "car_sharing",
        "operator": "RTTB"
      }
    },
    {
      "displayName": "Scouter",
      "id": "scouter-088af7",
      "locationSet": {"include": ["de"]},
      "tags": {
        "amenity": "car_sharing",
        "operator": "Scouter"
      }
    },
    {
      "displayName": "Spectrum Mobil GmbH",
      "id": "spectrummobilgmbh-088af7",
      "locationSet": {"include": ["de"]},
      "tags": {
        "amenity": "car_sharing",
        "brand": "Stattauto München",
        "operator": "Spectrum Mobil GmbH"
      }
    },
    {
      "displayName": "StadtAuto Bremen CarSharing GmbH",
      "id": "stadtautobremencarsharinggmbh-088af7",
      "locationSet": {"include": ["de"]},
      "tags": {
        "amenity": "car_sharing",
        "operator": "StadtAuto Bremen CarSharing GmbH"
      }
    },
    {
      "displayName": "Stadtauto carsharing",
      "id": "stadtautocarsharing-a7a6ff",
      "locationSet": {"include": ["at"]},
      "tags": {
        "amenity": "car_sharing",
        "operator": "Stadtauto carsharing"
      }
    },
    {
      "displayName": "stadtmobil Rhein-Neckar",
      "id": "stadtmobilrheinneckar-8163ad",
      "locationSet": {"include": ["001"]},
      "tags": {
        "amenity": "car_sharing",
        "operator": "stadtmobil Rhein-Neckar"
      }
    },
    {
      "displayName": "Stadtmobil Stuttgart",
      "id": "stadtmobilstuttgart-8163ad",
      "locationSet": {"include": ["001"]},
      "tags": {
        "amenity": "car_sharing",
        "operator": "Stadtmobil Stuttgart"
      }
    },
    {
      "displayName": "StadtTeilAuto",
      "id": "stadtteilauto-088af7",
      "locationSet": {"include": ["de"]},
      "tags": {
        "amenity": "car_sharing",
        "operator": "StadtTeilAuto"
      }
    },
    {
      "displayName": "Stadtteilauto Carsharing Münster GmbH",
      "id": "stadtteilautocarsharingmunstergmbh-088af7",
      "locationSet": {"include": ["de"]},
      "tags": {
        "amenity": "car_sharing",
        "operator": "Stadtteilauto Carsharing Münster GmbH"
      }
    },
    {
      "displayName": "Stadtwerke Augsburg",
      "id": "stadtwerkeaugsburg-088af7",
      "locationSet": {"include": ["de"]},
      "matchNames": [
        "stadtwerke augsburg carsharing gmbh",
        "stadtwerke augsburg holding gmbh"
      ],
      "tags": {
        "amenity": "car_sharing",
        "operator": "Stadtwerke Augsburg",
        "operator:wikidata": "Q2328426",
        "operator:wikipedia": "de:Stadtwerke Augsburg"
      }
    },
    {
      "displayName": "StattAuto eG",
      "id": "stattautoeg-088af7",
      "locationSet": {"include": ["de"]},
      "tags": {
        "amenity": "car_sharing",
        "operator": "StattAuto eG"
      }
    },
    {
      "displayName": "Streetcar",
      "id": "streetcar-8ed6b7",
      "locationSet": {"include": ["gb-eng"]},
      "tags": {
        "amenity": "car_sharing",
        "operator": "Streetcar",
        "operator:wikidata": "Q7623070",
        "operator:wikipedia": "en:Streetcar (carsharing)"
      }
    },
    {
      "displayName": "Sunfleet",
      "id": "sunfleet-cd4862",
      "locationSet": {"include": ["se"]},
      "tags": {
        "amenity": "car_sharing",
        "operator": "Sunfleet",
        "operator:wikidata": "Q19978726",
        "operator:wikipedia": "sv:Sunfleet"
      }
    },
    {
      "displayName": "teilAuto",
      "id": "teilauto-088af7",
      "locationSet": {"include": ["de"]},
      "tags": {
        "amenity": "car_sharing",
        "operator": "teilAuto",
        "operator:wikidata": "Q2400658",
        "operator:wikipedia": "de:TeilAuto"
      }
    },
    {
      "displayName": "teilAuto Neckar-Alb",
      "id": "teilautoneckaralbeg-088af7",
      "locationSet": {"include": ["de"]},
      "matchNames": ["ökostadt tübingen e.v."],
      "tags": {
        "amenity": "car_sharing",
        "operator": "teilAuto Neckar-Alb eG"
      }
    },
    {
      "displayName": "Vaterstettener Auto-Teiler e.V.",
      "id": "vaterstettenerautoteilerev-088af7",
      "locationSet": {"include": ["de"]},
      "tags": {
        "amenity": "car_sharing",
        "operator": "Vaterstettener Auto-Teiler e.V."
      }
    },
    {
      "displayName": "Vrtucar",
      "id": "vrtucar-2b1603",
      "locationSet": {"include": ["ca"]},
      "tags": {
        "amenity": "car_sharing",
        "operator": "Vrtucar"
      }
    },
    {
      "displayName": "Zipcar",
      "id": "zipcar-aa2ec2",
      "locationSet": {
        "include": [
          "ca",
          "cr",
          "gb",
          "is",
          "tr",
          "tw",
          "us"
        ]
      },
      "matchTags": ["amenity/car_rental"],
      "tags": {
        "amenity": "car_sharing",
        "operator": "Zipcar",
        "operator:wikidata": "Q1069924",
        "operator:wikipedia": "en:Zipcar"
      }
    },
    {
      "displayName": "タイムズ24",
      "id": "d1ffdb-4854ed",
      "locationSet": {"include": ["jp"]},
      "tags": {
        "amenity": "car_sharing",
        "operator": "タイムズ24",
        "operator:ja": "タイムズ24"
      }
    },
    {
      "displayName": "タイムズカーシェア",
      "id": "timescarshare-4854ed",
      "locationSet": {"include": ["jp"]},
      "tags": {
        "amenity": "car_sharing",
        "operator": "タイムズカーシェア",
        "operator:en": "Times Car Share",
        "operator:ja": "タイムズカーシェア",
        "operator:wikidata": "Q17987881",
        "operator:wikipedia": "ja:タイムズカー"
      }
    }
  ]
}
