{
  "operators/amenity/charging_station": [
    {
      "displayName": "a2a",
      "id": "a2a-2c5517",
      "locationSet": {"include": ["it"]},
      "tags": {
        "amenity": "charging_station",
        "operator": "a2a"
      }
    },
    {
      "displayName": "ABB",
      "id": "abb-c22d3a",
      "locationSet": {"include": ["001"]},
      "tags": {
        "amenity": "charging_station",
        "operator": "ABB",
        "operator:wikidata": "Q52825",
        "operator:wikipedia": "en:ABB Group"
      }
    },
    {
      "displayName": "ADAC",
      "id": "adac-1299a8",
      "locationSet": {"include": ["de"]},
      "tags": {
        "amenity": "charging_station",
        "operator": "ADAC",
        "operator:wikidata": "Q289953",
        "operator:wikipedia": "de:ADAC"
      }
    },
    {
      "displayName": "Agsm Verona Spa",
      "id": "agsmveronaspa-2c5517",
      "locationSet": {"include": ["it"]},
      "tags": {
        "amenity": "charging_station",
        "operator": "Agsm Verona Spa",
        "operator:wikidata": "Q17620223",
        "operator:wikipedia": "it:AGSM Verona"
      }
    },
    {
      "displayName": "Aldi",
      "id": "aldi-c22d3a",
      "locationSet": {"include": ["001"]},
      "tags": {
        "amenity": "charging_station",
        "operator": "Aldi",
        "operator:wikidata": "Q125054",
        "operator:wikipedia": "en:Aldi"
      }
    },
    {
      "displayName": "Aldi Süd",
      "id": "aldisud-1299a8",
      "locationSet": {"include": ["de"]},
      "tags": {
        "amenity": "charging_station",
        "operator": "Aldi Süd",
        "operator:wikidata": "Q41171672",
        "operator:wikipedia": "hu:Aldi Süd"
      }
    },
    {
      "displayName": "Allego",
      "id": "allego-17c03e",
      "locationSet": {
        "include": ["be", "de", "gb", "nl"]
      },
      "matchNames": ["allego gmbh", "allegro"],
      "tags": {
        "amenity": "charging_station",
        "operator": "Allego",
        "operator:wikidata": "Q75560554"
      }
    },
    {
      "displayName": "Alperia",
      "id": "alperia-2c5517",
      "locationSet": {"include": ["it"]},
      "matchNames": ["alperia smart mobility"],
      "tags": {
        "amenity": "charging_station",
        "operator": "Alperia",
        "operator:wikidata": "Q25387077",
        "operator:wikipedia": "it:Alperia"
      }
    },
    {
      "displayName": "Auchan",
      "id": "auchan-f6553b",
      "locationSet": {"include": ["fr"]},
      "tags": {
        "amenity": "charging_station",
        "operator": "Auchan",
        "operator:wikidata": "Q758603",
        "operator:wikipedia": "fr:Auchan"
      }
    },
    {
      "displayName": "Audi AG",
      "id": "audiag-1299a8",
      "locationSet": {"include": ["de"]},
      "tags": {
        "amenity": "charging_station",
        "operator": "Audi AG",
        "operator:wikidata": "Q23317",
        "operator:wikipedia": "de:Audi"
      }
    },
    {
      "displayName": "Austin Energy",
      "id": "austinenergy-994ed4",
      "locationSet": {"include": ["us"]},
      "tags": {
        "amenity": "charging_station",
        "operator": "Austin Energy",
        "operator:wikidata": "Q4823071",
        "operator:wikipedia": "en:Austin Energy"
      }
    },
    {
      "displayName": "Autolib'",
      "id": "autolib-f6553b",
      "locationSet": {"include": ["fr"]},
      "tags": {
        "amenity": "charging_station",
        "operator": "Autolib'",
        "operator:wikidata": "Q787037",
        "operator:wikipedia": "fr:Autolib' (Paris)"
      }
    },
    {
      "displayName": "Bauhaus",
      "id": "bauhaus-a5756d",
      "locationSet": {"include": ["at", "de"]},
      "tags": {
        "amenity": "charging_station",
        "operator": "Bauhaus",
        "operator:wikidata": "Q672043",
        "operator:wikipedia": "de:Bauhaus (Baumarkt)"
      }
    },
    {
      "displayName": "Bayernwerk",
      "id": "bayernwerk-1299a8",
      "locationSet": {"include": ["de"]},
      "matchNames": ["bayernwerk ag"],
      "tags": {
        "amenity": "charging_station",
        "operator": "Bayernwerk",
        "operator:wikidata": "Q1273383",
        "operator:wikipedia": "de:Bayernwerk"
      }
    },
    {
      "displayName": "be emobil",
      "id": "beemobil-1299a8",
      "locationSet": {"include": ["de"]},
      "tags": {
        "amenity": "charging_station",
        "operator": "be emobil"
      }
    },
    {
      "displayName": "Bee",
      "id": "bee-c9e89f",
      "locationSet": {"include": ["se"]},
      "tags": {
        "amenity": "charging_station",
        "operator": "Bee"
      }
    },
    {
      "displayName": "BEW",
      "id": "bew-1299a8",
      "locationSet": {"include": ["de"]},
      "tags": {
        "amenity": "charging_station",
        "operator": "BEW"
      }
    },
    {
      "displayName": "bike-energy",
      "id": "bikeenergy-9f519a",
      "locationSet": {
        "include": [
          "at",
          "ch",
          "de",
          "fr",
          "it",
          "lu"
        ]
      },
      "matchNames": ["bike-energy ladestation"],
      "tags": {
        "amenity": "charging_station",
        "brand": "bike-energy",
        "brand:wikidata": "Q67770877",
        "name": "bike-energy",
        "operator": "bike-energy",
        "operator:wikidata": "Q67770877"
      }
    },
    {
      "displayName": "Birmingham City Council",
      "id": "birminghamcitycouncil-3c1cb1",
      "locationSet": {"include": ["gb-eng"]},
      "tags": {
        "amenity": "charging_station",
        "operator": "Birmingham City Council"
      }
    },
    {
      "displayName": "BKK",
      "id": "bkk-476d58",
      "locationSet": {"include": ["no"]},
      "tags": {
        "amenity": "charging_station",
        "brand": "BKK",
        "name": "BKK",
        "operator": "BKK"
      }
    },
    {
      "displayName": "BKK Nett AS for Hordaland fylkeskommune",
      "id": "bkknettasforhordalandfylkeskommune-476d58",
      "locationSet": {"include": ["no"]},
      "tags": {
        "amenity": "charging_station",
        "operator": "BKK Nett AS for Hordaland fylkeskommune"
      }
    },
    {
      "displayName": "Blink",
      "id": "blink-994ed4",
      "locationSet": {"include": ["us"]},
      "tags": {
        "amenity": "charging_station",
        "brand": "Blink",
        "brand:wikidata": "Q62065645",
        "name": "Blink",
        "operator": "Blink",
        "operator:wikidata": "Q62065645"
      }
    },
    {
      "displayName": "Blue Corner",
      "id": "bluecorner-87ebf4",
      "locationSet": {"include": ["be"]},
      "tags": {
        "amenity": "charging_station",
        "operator": "Blue Corner"
      }
    },
    {
      "displayName": "BMW",
      "id": "bmw-c22d3a",
      "locationSet": {"include": ["001"]},
      "tags": {
        "amenity": "charging_station",
        "operator": "BMW",
        "operator:wikidata": "Q26678",
        "operator:wikipedia": "en:BMW"
      }
    },
    {
      "displayName": "Booths",
      "id": "booths-0793ce",
      "locationSet": {"include": ["gb"]},
      "tags": {
        "amenity": "charging_station",
        "operator": "Booths",
        "operator:wikidata": "Q4943949",
        "operator:wikipedia": "en:Booths"
      }
    },
    {
      "displayName": "Bosch eBike Systems",
      "id": "boschebikesystems-c22d3a",
      "locationSet": {"include": ["001"]},
      "tags": {
        "amenity": "charging_station",
        "brand": "Bosch eBike Systems",
        "name": "Bosch eBike Systems",
        "operator": "Bosch eBike Systems",
        "operator:wikidata": "Q234021",
        "operator:wikipedia": "en:Robert Bosch GmbH"
      }
    },
    {
      "displayName": "Bouygues Énergies et Services",
      "id": "bouyguesenergiesetservices-f6553b",
      "locationSet": {"include": ["fr"]},
      "tags": {
        "amenity": "charging_station",
        "operator": "Bouygues Énergies et Services"
      }
    },
    {
      "displayName": "Brighton and Hove City Council",
      "id": "brightonandhovecitycouncil-3c1cb1",
      "locationSet": {"include": ["gb-eng"]},
      "tags": {
        "amenity": "charging_station",
        "operator": "Brighton and Hove City Council"
      }
    },
    {
      "displayName": "ČEZ",
      "id": "cez-f67a50",
      "locationSet": {"include": ["cz"]},
      "matchNames": [
        "čez (ccs/chademo/mennekes type2)"
      ],
      "tags": {
        "amenity": "charging_station",
        "operator": "ČEZ",
        "operator:wikidata": "Q336735",
        "operator:wikipedia": "cs:ČEZ"
      }
    },
    {
      "displayName": "Charge Your Car",
      "id": "chargeyourcar-0793ce",
      "locationSet": {"include": ["gb"]},
      "tags": {
        "amenity": "charging_station",
        "operator": "Charge Your Car"
      }
    },
    {
      "displayName": "Charge365",
      "id": "charge365-476d58",
      "locationSet": {"include": ["no"]},
      "tags": {
        "amenity": "charging_station",
        "operator": "Charge365"
      }
    },
    {
      "displayName": "Chargefox",
      "id": "chargefox-943805",
      "locationSet": {"include": ["au"]},
      "tags": {
        "amenity": "charging_station",
        "operator": "Chargefox"
      }
    },
    {
      "displayName": "Chargemaster",
      "id": "chargemaster-0793ce",
      "locationSet": {"include": ["gb"]},
      "tags": {
        "amenity": "charging_station",
        "operator": "Chargemaster",
        "operator:wikidata": "Q39057719",
        "operator:wikipedia": "en:Chargemaster (company)"
      }
    },
    {
      "displayName": "ChargeNet NZ",
      "id": "chargenetnz-9850e1",
      "locationSet": {"include": ["nz"]},
      "tags": {
        "amenity": "charging_station",
        "operator": "ChargeNet NZ"
      }
    },
    {
      "displayName": "ChargePlace Scotland",
      "id": "chargeplacescotland-416a92",
      "locationSet": {"include": ["gb-sct"]},
      "tags": {
        "amenity": "charging_station",
        "operator": "ChargePlace Scotland"
      }
    },
    {
      "displayName": "ChargePoint",
      "id": "chargepoint-c22d3a",
      "locationSet": {"include": ["001"]},
      "tags": {
        "amenity": "charging_station",
        "brand": "ChargePoint",
        "brand:wikidata": "Q5176149",
        "brand:wikipedia": "en:ChargePoint",
        "name": "ChargePoint",
        "operator": "ChargePoint",
        "operator:wikidata": "Q5176149",
        "operator:wikipedia": "en:ChargePoint"
      }
    },
    {
      "displayName": "Chargy",
      "id": "chargy-026cfa",
      "locationSet": {"include": ["lu"]},
      "tags": {
        "amenity": "charging_station",
        "brand": "Chargy",
        "brand:wikidata": "Q62702950",
        "brand:wikipedia": "lb:Chargy",
        "name": "Chargy",
        "operator": "Chargy",
        "operator:wikidata": "Q62702950",
        "operator:wikipedia": "lb:Chargy"
      }
    },
    {
      "displayName": "Circuit électrique",
      "id": "circuitelectrique-67089a",
      "locationSet": {"include": ["ca"]},
      "tags": {
        "amenity": "charging_station",
        "brand": "Circuit électrique",
        "brand:en": "Electric Circuit",
        "brand:fr": "Circuit électrique",
        "brand:wikidata": "Q24934590",
        "brand:wikipedia": "fr:Le Circuit électrique",
        "name": "Circuit électrique",
        "name:en": "Electric Circuit",
        "name:fr": "Circuit électrique",
        "operator": "Circuit électrique",
        "operator:en": "Electric Circuit",
        "operator:fr": "Circuit électrique",
        "operator:wikidata": "Q24934590",
        "operator:wikipedia": "fr:Le Circuit électrique"
      }
    },
    {
      "displayName": "Clem",
      "id": "clem-f6553b",
      "locationSet": {"include": ["fr"]},
      "tags": {
        "amenity": "charging_station",
        "operator": "Clem"
      }
    },
    {
      "displayName": "Clever",
      "id": "clever-28cec3",
      "locationSet": {
        "include": ["de", "dk", "se"]
      },
      "tags": {
        "amenity": "charging_station",
        "operator": "Clever"
      }
    },
    {
      "displayName": "Copec",
      "id": "copec-df2b32",
      "locationSet": {"include": ["cl"]},
      "tags": {
        "amenity": "charging_station",
        "operator": "Copec",
        "operator:wikidata": "Q1130956",
        "operator:wikipedia": "de:Copec"
      }
    },
    {
      "displayName": "CYC",
      "id": "cyc-416a92",
      "locationSet": {"include": ["gb-sct"]},
      "tags": {
        "amenity": "charging_station",
        "operator": "CYC"
      }
    },
    {
      "displayName": "DBT",
      "id": "dbt-c22d3a",
      "locationSet": {"include": ["001"]},
      "tags": {
        "amenity": "charging_station",
        "operator": "DBT"
      }
    },
    {
      "displayName": "DREWAG",
      "id": "drewag-1299a8",
      "locationSet": {"include": ["de"]},
      "matchNames": [
        "drewag - stadtwerke dresden",
        "drewag - stadtwerke dresden gmbh"
      ],
      "tags": {
        "amenity": "charging_station",
        "operator": "DREWAG",
        "operator:wikidata": "Q1258776",
        "operator:wikipedia": "de:Drewag"
      }
    },
    {
      "displayName": "e-Mobi",
      "id": "emobi-27e906",
      "locationSet": {"include": ["hu"]},
      "tags": {
        "amenity": "charging_station",
        "operator": "e-Mobi"
      }
    },
    {
      "displayName": "e-Mobi Elektromobilitás Nonprofit Kft.",
      "id": "emobielektromobilitasnonprofitkft-c22d3a",
      "locationSet": {"include": ["001"]},
      "tags": {
        "amenity": "charging_station",
        "operator": "e-Mobi Elektromobilitás Nonprofit Kft."
      }
    },
    {
      "displayName": "E-On",
      "id": "eon-c22d3a",
      "locationSet": {"include": ["001"]},
      "matchNames": ["e-on drive"],
      "tags": {
        "amenity": "charging_station",
        "operator": "E-On"
      }
    },
    {
      "displayName": "e-regio GmbH & Co. KG",
      "id": "eregiogmbhandcokg-1299a8",
      "locationSet": {"include": ["de"]},
      "tags": {
        "amenity": "charging_station",
        "operator": "e-regio GmbH & Co. KG"
      }
    },
    {
      "displayName": "E-WALD",
      "id": "ewald-1299a8",
      "locationSet": {"include": ["de"]},
      "matchNames": [
        "e-wald gmbh",
        "e-wald ladestation"
      ],
      "tags": {
        "amenity": "charging_station",
        "brand": "E-WALD",
        "brand:wikidata": "Q61804335",
        "name": "E-WALD",
        "operator": "E-WALD",
        "operator:wikidata": "Q61804335"
      }
    },
    {
      "displayName": "E-Werk Mittelbaden",
      "id": "ewerkmittelbaden-1299a8",
      "locationSet": {"include": ["de"]},
      "tags": {
        "amenity": "charging_station",
        "operator": "E-Werk Mittelbaden",
        "operator:wikidata": "Q15110012",
        "operator:wikipedia": "de:E-Werk Mittelbaden"
      }
    },
    {
      "displayName": "EB Elbil AS",
      "id": "ebelbilas-476d58",
      "locationSet": {"include": ["no"]},
      "tags": {
        "amenity": "charging_station",
        "operator": "EB Elbil AS"
      }
    },
    {
      "displayName": "Ecotap",
      "id": "ecotap-c98650",
      "locationSet": {"include": ["nl", "pl"]},
      "tags": {
        "amenity": "charging_station",
        "operator": "Ecotap"
      }
    },
    {
      "displayName": "Ecotricity",
      "id": "ecotricity-0793ce",
      "locationSet": {"include": ["gb"]},
      "tags": {
        "amenity": "charging_station",
        "operator": "Ecotricity",
        "operator:wikidata": "Q5333901",
        "operator:wikipedia": "en:Ecotricity"
      }
    },
    {
      "displayName": "Edeka",
      "id": "edeka-1299a8",
      "locationSet": {"include": ["de"]},
      "tags": {
        "amenity": "charging_station",
        "operator": "Edeka",
        "operator:wikidata": "Q701755",
        "operator:wikipedia": "de:Edeka"
      }
    },
    {
      "displayName": "EDP",
      "id": "edp-c22d3a",
      "locationSet": {"include": ["001"]},
      "matchNames": ["edp comercial"],
      "tags": {
        "amenity": "charging_station",
        "operator": "EDP"
      }
    },
    {
      "displayName": "eE4mobile eG",
      "id": "ee4mobileeg-0c60c5",
      "locationSet": {"include": ["de", "dk"]},
      "tags": {
        "amenity": "charging_station",
        "operator": "eE4mobile eG",
        "operator:wikidata": "Q74642561"
      }
    },
    {
      "displayName": "Effia",
      "id": "effia-f6553b",
      "locationSet": {"include": ["fr"]},
      "tags": {
        "amenity": "charging_station",
        "operator": "Effia",
        "operator:wikidata": "Q3045894",
        "operator:wikipedia": "fr:EFFIA"
      }
    },
    {
      "displayName": "eins energie in sachsen",
      "id": "einsenergieinsachsen-1299a8",
      "locationSet": {"include": ["de"]},
      "tags": {
        "amenity": "charging_station",
        "operator": "eins energie in sachsen",
        "operator:wikidata": "Q1308607",
        "operator:wikipedia": "de:Eins Energie in Sachsen"
      }
    },
    {
      "displayName": "ejoin",
      "id": "ejoin-b23832",
      "locationSet": {"include": ["sk"]},
      "tags": {
        "amenity": "charging_station",
        "operator": "ejoin"
      }
    },
    {
      "displayName": "Electric 55 Charging",
      "id": "electric55charging-f6553b",
      "locationSet": {"include": ["fr"]},
      "tags": {
        "amenity": "charging_station",
        "operator": "Electric 55 Charging"
      }
    },
    {
      "displayName": "Electrify America",
      "id": "electrifyamerica-994ed4",
      "locationSet": {"include": ["us"]},
      "tags": {
        "amenity": "charging_station",
        "operator": "Electrify America",
        "operator:wikidata": "Q59773555",
        "operator:wikipedia": "en:Electrify America"
      }
    },
    {
      "displayName": "ELEN",
      "id": "elen-5bea2c",
      "locationSet": {"include": ["hr"]},
      "tags": {
        "amenity": "charging_station",
        "operator": "ELEN"
      }
    },
    {
      "displayName": "ELMŰ",
      "id": "elmu-27e906",
      "locationSet": {"include": ["hu"]},
      "tags": {
        "amenity": "charging_station",
        "operator": "ELMŰ",
        "operator:wikidata": "Q851145",
        "operator:wikipedia": "hu:Budapesti Elektromos Művek"
      }
    },
    {
      "displayName": "Emacom",
      "id": "emacom-c22d3a",
      "locationSet": {"include": ["001"]},
      "tags": {
        "amenity": "charging_station",
        "operator": "Emacom"
      }
    },
    {
      "displayName": "EnBW",
      "id": "enbw-1299a8",
      "locationSet": {"include": ["de"]},
      "matchNames": [
        "enbw energie baden-württemberg ag",
        "energie baden-württemberg ag"
      ],
      "tags": {
        "amenity": "charging_station",
        "operator": "EnBW",
        "operator:wikidata": "Q644304",
        "operator:wikipedia": "de:EnBW Energie Baden-Württemberg"
      }
    },
    {
      "displayName": "Enel",
      "id": "enel-2c5517",
      "locationSet": {"include": ["it"]},
      "matchNames": [
        "enel - stazione di ricarica"
      ],
      "tags": {
        "amenity": "charging_station",
        "brand": "Enel",
        "brand:wikidata": "Q651222",
        "brand:wikipedia": "en:Enel",
        "name": "Enel",
        "operator": "Enel",
        "operator:wikidata": "Q651222",
        "operator:wikipedia": "en:Enel"
      }
    },
    {
      "displayName": "Enel X",
      "id": "enelx-7667bf",
      "locationSet": {"include": ["cl", "it"]},
      "matchNames": ["enel x metbus"],
      "tags": {
        "amenity": "charging_station",
        "brand": "Enel X",
        "brand:wikidata": "Q5376815",
        "brand:wikipedia": "en:Enel X",
        "name": "Enel X",
        "operator": "Enel X",
        "operator:wikidata": "Q5376815",
        "operator:wikipedia": "en:Enel X"
      }
    },
    {
      "displayName": "enercity",
      "id": "enercity-c22d3a",
      "locationSet": {"include": ["001"]},
      "tags": {
        "amenity": "charging_station",
        "operator": "enercity"
      }
    },
    {
      "displayName": "Energie AG",
      "id": "energieag-3f60da",
      "locationSet": {"include": ["at"]},
      "tags": {
        "amenity": "charging_station",
        "operator": "Energie AG",
        "operator:wikidata": "Q1231542",
        "operator:wikipedia": "de:Energie AG Oberösterreich"
      }
    },
    {
      "displayName": "Energie Steiermark",
      "id": "energiesteiermark-3f60da",
      "locationSet": {"include": ["at"]},
      "tags": {
        "amenity": "charging_station",
        "operator": "Energie Steiermark",
        "operator:wikidata": "Q1341214",
        "operator:wikipedia": "de:Energie Steiermark"
      }
    },
    {
      "displayName": "Energie und Wasser Potsdam GmbH",
      "id": "energieundwasserpotsdamgmbh-1299a8",
      "locationSet": {"include": ["de"]},
      "tags": {
        "amenity": "charging_station",
        "operator": "Energie und Wasser Potsdam GmbH"
      }
    },
    {
      "displayName": "Energie- und Wasserversorgung Bonn/Rhein-Sieg GmbH",
      "id": "energieundwasserversorgungbonnrheinsieggmbh-1299a8",
      "locationSet": {"include": ["de"]},
      "tags": {
        "amenity": "charging_station",
        "operator": "Energie- und Wasserversorgung Bonn/Rhein-Sieg GmbH"
      }
    },
    {
      "displayName": "Energie- und Wasserversorgung Bruchsal GmbH",
      "id": "energieundwasserversorgungbruchsalgmbh-1299a8",
      "locationSet": {"include": ["de"]},
      "tags": {
        "amenity": "charging_station",
        "operator": "Energie- und Wasserversorgung Bruchsal GmbH"
      }
    },
    {
      "displayName": "Energieversorgung Rodau GmbH",
      "id": "energieversorgungrodaugmbh-1299a8",
      "locationSet": {"include": ["de"]},
      "tags": {
        "amenity": "charging_station",
        "operator": "Energieversorgung Rodau GmbH"
      }
    },
    {
      "displayName": "EneRSIEIL",
      "id": "enersieil-f6553b",
      "locationSet": {"include": ["fr"]},
      "tags": {
        "amenity": "charging_station",
        "operator": "EneRSIEIL"
      }
    },
    {
      "displayName": "ENSO Energie Sachsen Ost AG",
      "id": "ensoenergiesachsenostag-1299a8",
      "locationSet": {"include": ["de"]},
      "tags": {
        "amenity": "charging_station",
        "operator": "ENSO Energie Sachsen Ost AG",
        "operator:wikidata": "Q1275368",
        "operator:wikipedia": "de:ENSO Energie Sachsen Ost"
      }
    },
    {
      "displayName": "Entega",
      "id": "entega-1299a8",
      "locationSet": {"include": ["de"]},
      "matchNames": ["entega energie gmbh"],
      "tags": {
        "amenity": "charging_station",
        "operator": "Entega",
        "operator:wikidata": "Q1563486",
        "operator:wikipedia": "de:Entega"
      }
    },
    {
      "displayName": "enviaM",
      "id": "enviam-1299a8",
      "locationSet": {"include": ["de"]},
      "tags": {
        "amenity": "charging_station",
        "operator": "enviaM",
        "operator:wikidata": "Q1345871",
        "operator:wikipedia": "de:Envia Mitteldeutsche Energie"
      }
    },
    {
      "displayName": "ESB ecars",
      "id": "esbecars-179e3e",
      "locationSet": {"include": ["ie"]},
      "tags": {
        "amenity": "charging_station",
        "operator": "ESB ecars",
        "operator:wikidata": "Q3050566",
        "operator:wikipedia": "en:ESB Group"
      }
    },
    {
      "displayName": "EuroPark AS",
      "id": "europarkas-476d58",
      "locationSet": {"include": ["no"]},
      "tags": {
        "amenity": "charging_station",
        "operator": "EuroPark AS",
        "operator:wikidata": "Q5411568",
        "operator:wikipedia": "no:EuroPark"
      }
    },
    {
      "displayName": "EV Power",
      "id": "evpower-a1285d",
      "locationSet": {"include": ["pt"]},
      "tags": {
        "amenity": "charging_station",
        "operator": "EV Power"
      }
    },
    {
      "displayName": "EVBOX",
      "id": "evbox-c22d3a",
      "locationSet": {"include": ["001"]},
      "tags": {
        "amenity": "charging_station",
        "operator": "EVBOX"
      }
    },
    {
      "displayName": "EVCE Power",
      "id": "evcepower-c22d3a",
      "locationSet": {"include": ["001"]},
      "tags": {
        "amenity": "charging_station",
        "operator": "EVCE Power"
      }
    },
    {
      "displayName": "eVgo",
      "id": "evgo-994ed4",
      "locationSet": {"include": ["us"]},
      "tags": {
        "amenity": "charging_station",
        "brand": "eVgo",
        "brand:wikidata": "Q61803820",
        "name": "eVgo",
        "operator": "eVgo",
        "operator:wikidata": "Q61803820"
      }
    },
    {
      "displayName": "EVMAPA",
      "id": "evmapa-f67a50",
      "locationSet": {"include": ["cz"]},
      "tags": {
        "amenity": "charging_station",
        "operator": "EVMAPA"
      }
    },
    {
      "displayName": "EVN",
      "id": "evn-c22d3a",
      "locationSet": {"include": ["001"]},
      "tags": {
        "amenity": "charging_station",
        "operator": "EVN"
      }
    },
    {
      "displayName": "EVnetNL",
      "id": "evnetnl-fa6152",
      "locationSet": {"include": ["nl"]},
      "tags": {
        "amenity": "charging_station",
        "operator": "EVnetNL"
      }
    },
    {
      "displayName": "evolt",
      "id": "evolt-0793ce",
      "locationSet": {"include": ["gb"]},
      "tags": {
        "amenity": "charging_station",
        "operator": "evolt"
      }
    },
    {
      "displayName": "Evway",
      "id": "evway-2c5517",
      "locationSet": {"include": ["it"]},
      "tags": {
        "amenity": "charging_station",
        "operator": "Evway"
      }
    },
    {
      "displayName": "EWE",
      "id": "ewe-1299a8",
      "locationSet": {"include": ["de"]},
      "matchNames": ["ewe vertrieb gmbh"],
      "tags": {
        "amenity": "charging_station",
        "operator": "EWE",
        "operator:wikidata": "Q1276459",
        "operator:wikipedia": "de:EWE (Versorgungsunternehmen)"
      }
    },
    {
      "displayName": "EWR",
      "id": "ewr-1299a8",
      "locationSet": {"include": ["de"]},
      "tags": {
        "amenity": "charging_station",
        "operator": "EWR",
        "operator:wikidata": "Q1276508",
        "operator:wikipedia": "de:EWR AG"
      }
    },
    {
      "displayName": "EWV",
      "id": "ewv-1299a8",
      "locationSet": {"include": ["de"]},
      "tags": {
        "amenity": "charging_station",
        "operator": "EWV",
        "operator:wikidata": "Q1276525",
        "operator:wikipedia": "de:EWV Energie- und Wasserversorgung"
      }
    },
    {
      "displayName": "Factor Energia",
      "id": "factorenergia-c22d3a",
      "locationSet": {"include": ["001"]},
      "tags": {
        "amenity": "charging_station",
        "operator": "Factor Energia"
      }
    },
    {
      "displayName": "FairEnergie GmbH",
      "id": "fairenergiegmbh-1299a8",
      "locationSet": {"include": ["de"]},
      "tags": {
        "amenity": "charging_station",
        "operator": "FairEnergie GmbH",
        "operator:wikidata": "Q1392985",
        "operator:wikipedia": "de:FairEnergie"
      }
    },
    {
      "displayName": "Fastned",
      "id": "fastned-17c03e",
      "locationSet": {
        "include": ["be", "de", "gb", "nl"]
      },
      "tags": {
        "amenity": "charging_station",
        "operator": "Fastned",
        "operator:wikidata": "Q19935749",
        "operator:wikipedia": "en:Fastned"
      }
    },
    {
      "displayName": "FLO",
      "id": "flo-78626b",
      "locationSet": {"include": ["ca", "us"]},
      "tags": {
        "amenity": "charging_station",
        "brand": "FLO",
        "brand:wikidata": "Q64971203",
        "name": "FLO",
        "operator": "FLO",
        "operator:wikidata": "Q64971203"
      }
    },
    {
      "displayName": "Fortum",
      "id": "fortum-c6312f",
      "locationSet": {
        "include": ["fi", "no", "se"]
      },
      "matchNames": ["fortum charge & drive"],
      "tags": {
        "amenity": "charging_station",
        "brand": "Fortum",
        "brand:wikidata": "Q1439075",
        "brand:wikipedia": "en:Fortum",
        "name": "Fortum",
        "operator": "Fortum",
        "operator:wikidata": "Q1439075",
        "operator:wikipedia": "en:Fortum"
      }
    },
    {
      "displayName": "Freshmile",
      "id": "freshmile-f6553b",
      "locationSet": {"include": ["fr"]},
      "tags": {
        "amenity": "charging_station",
        "operator": "Freshmile"
      }
    },
    {
      "displayName": "Galp Geste",
      "id": "galpgeste-a1285d",
      "locationSet": {"include": ["pt"]},
      "tags": {
        "amenity": "charging_station",
        "operator": "Galp Geste"
      }
    },
    {
      "displayName": "Galp Power",
      "id": "galppower-a1285d",
      "locationSet": {"include": ["pt"]},
      "tags": {
        "amenity": "charging_station",
        "operator": "Galp Power"
      }
    },
    {
      "displayName": "Gemeente Rotterdam",
      "id": "gemeenterotterdam-fa6152",
      "locationSet": {"include": ["nl"]},
      "tags": {
        "amenity": "charging_station",
        "operator": "Gemeente Rotterdam"
      }
    },
    {
      "displayName": "GeniePoint",
      "id": "geniepoint-0793ce",
      "locationSet": {"include": ["gb"]},
      "tags": {
        "amenity": "charging_station",
        "operator": "GeniePoint"
      }
    },
    {
      "displayName": "GIC",
      "id": "gic-97d7cf",
      "locationSet": {"include": ["es"]},
      "tags": {
        "amenity": "charging_station",
        "operator": "GIC"
      }
    },
    {
      "displayName": "Gogoro 電池交換站",
      "id": "62c656-c22d3a",
      "locationSet": {"include": ["001"]},
      "tags": {
        "amenity": "charging_station",
        "brand": "Gogoro 電池交換站",
        "brand:wikidata": "Q19880591",
        "brand:wikipedia": "zh:Gogoro",
        "name": "Gogoro 電池交換站",
        "operator": "Gogoro 電池交換站",
        "operator:wikidata": "Q19880591",
        "operator:wikipedia": "zh:Gogoro"
      }
    },
    {
      "displayName": "Greenlots",
      "id": "greenlots-c22d3a",
      "locationSet": {"include": ["001"]},
      "tags": {
        "amenity": "charging_station",
        "operator": "Greenlots"
      }
    },
    {
      "displayName": "GreenWay",
      "id": "greenway-db76f0",
      "locationSet": {"include": ["pl", "sk"]},
      "tags": {
        "amenity": "charging_station",
        "operator": "GreenWay"
      }
    },
    {
      "displayName": "Grønn kontakt",
      "id": "gronnkontakt-c454f0",
      "locationSet": {"include": ["no", "se"]},
      "tags": {
        "amenity": "charging_station",
        "brand": "Grønn kontakt",
        "brand:wikidata": "Q100821564",
        "name": "Grønn kontakt",
        "operator": "Grønn kontakt",
        "operator:wikidata": "Q100821564"
      }
    },
    {
      "displayName": "Iberdrola",
      "id": "iberdrola-97d7cf",
      "locationSet": {"include": ["es"]},
      "tags": {
        "amenity": "charging_station",
        "operator": "Iberdrola",
        "operator:wikidata": "Q1437502",
        "operator:wikipedia": "es:Iberdrola"
      }
    },
    {
      "displayName": "IBIL",
      "id": "ibil-97d7cf",
      "locationSet": {"include": ["es"]},
      "tags": {
        "amenity": "charging_station",
        "operator": "IBIL"
      }
    },
    {
      "displayName": "IKEA",
      "id": "ikea-c22d3a",
      "locationSet": {"include": ["001"]},
      "tags": {
        "amenity": "charging_station",
        "operator": "IKEA",
        "operator:wikidata": "Q54078",
        "operator:wikipedia": "en:IKEA"
      }
    },
    {
      "displayName": "InCharge",
      "id": "incharge-5abca8",
      "locationSet": {"include": ["gb", "se"]},
      "matchNames": ["vattenfall"],
      "tags": {
        "amenity": "charging_station",
        "brand": "InCharge",
        "brand:wikidata": "Q71041027",
        "name": "InCharge",
        "operator": "InCharge",
        "operator:wikidata": "Q71041027"
      }
    },
    {
      "displayName": "InEnergies",
      "id": "inenergies-f6553b",
      "locationSet": {"include": ["fr"]},
      "tags": {
        "amenity": "charging_station",
        "operator": "InEnergies"
      }
    },
    {
      "displayName": "Innogy",
      "id": "innogy-1299a8",
      "locationSet": {"include": ["de"]},
      "matchNames": [
        "innogy emobility solutions gmbh",
        "innogy se",
        "rwe"
      ],
      "tags": {
        "amenity": "charging_station",
        "brand": "Innogy",
        "brand:wikidata": "Q2124721",
        "brand:wikipedia": "de:Innogy",
        "name": "Innogy",
        "operator": "Innogy",
        "operator:wikidata": "Q2124721",
        "operator:wikipedia": "de:Innogy"
      }
    },
    {
      "displayName": "InstaVolt",
      "id": "instavolt-0793ce",
      "locationSet": {"include": ["gb"]},
      "tags": {
        "amenity": "charging_station",
        "operator": "InstaVolt"
      }
    },
    {
      "displayName": "Intel Corporation",
      "id": "intelcorporation-994ed4",
      "locationSet": {"include": ["us"]},
      "tags": {
        "amenity": "charging_station",
        "operator": "Intel Corporation",
        "operator:wikidata": "Q248",
        "operator:wikipedia": "en:Intel"
      }
    },
    {
      "displayName": "Ionity",
      "id": "ionity-c22d3a",
      "locationSet": {"include": ["001"]},
      "matchNames": ["ionity gmbh"],
      "tags": {
        "amenity": "charging_station",
        "operator": "Ionity",
        "operator:wikidata": "Q42717773",
        "operator:wikipedia": "en:IONITY"
      }
    },
    {
      "displayName": "IWB",
      "id": "iwb-086737",
      "locationSet": {"include": ["ch"]},
      "tags": {
        "amenity": "charging_station",
        "operator": "IWB",
        "operator:wikidata": "Q72936279"
      }
    },
    {
      "displayName": "Izivia",
      "id": "izivia-f6553b",
      "locationSet": {"include": ["fr"]},
      "tags": {
        "amenity": "charging_station",
        "operator": "Izivia",
        "operator:wikidata": "Q86671322",
        "operator:wikipedia": "fr:Izivia"
      }
    },
    {
      "displayName": "Jernbaneverket",
      "id": "jernbaneverket-476d58",
      "locationSet": {"include": ["no"]},
      "tags": {
        "amenity": "charging_station",
        "operator": "Jernbaneverket",
        "operator:wikidata": "Q1687698",
        "operator:wikipedia": "no:Jernbaneverket"
      }
    },
    {
      "displayName": "Kaufland",
      "id": "kaufland-1299a8",
      "locationSet": {"include": ["de"]},
      "tags": {
        "amenity": "charging_station",
        "operator": "Kaufland",
        "operator:wikidata": "Q685967",
        "operator:wikipedia": "de:Kaufland"
      }
    },
    {
      "displayName": "Kelag",
      "id": "kelag-3f60da",
      "locationSet": {"include": ["at"]},
      "tags": {
        "amenity": "charging_station",
        "operator": "Kelag",
        "operator:wikidata": "Q1453452",
        "operator:wikipedia": "de:Kelag"
      }
    },
    {
      "displayName": "KLC",
      "id": "klc-a1285d",
      "locationSet": {"include": ["pt"]},
      "tags": {
        "amenity": "charging_station",
        "operator": "KLC"
      }
    },
    {
      "displayName": "Kreis Paderborn",
      "id": "kreispaderborn-1299a8",
      "locationSet": {"include": ["de"]},
      "tags": {
        "amenity": "charging_station",
        "operator": "Kreis Paderborn"
      }
    },
    {
      "displayName": "Kreiswerke Main-Kinzig GmbH",
      "id": "kreiswerkemainkinziggmbh-1299a8",
      "locationSet": {"include": ["de"]},
      "tags": {
        "amenity": "charging_station",
        "operator": "Kreiswerke Main-Kinzig GmbH",
        "operator:wikidata": "Q1787841",
        "operator:wikipedia": "de:Kreiswerke Main-Kinzig"
      }
    },
    {
      "displayName": "ladenetz.de",
      "id": "ladenetzde-1299a8",
      "locationSet": {"include": ["de"]},
      "tags": {
        "amenity": "charging_station",
        "operator": "ladenetz.de"
      }
    },
    {
      "displayName": "Ladeverbund+",
      "id": "ladeverbund-c22d3a",
      "locationSet": {"include": ["001"]},
      "tags": {
        "amenity": "charging_station",
        "operator": "Ladeverbund+"
      }
    },
    {
      "displayName": "Lancaster City Council",
      "id": "lancastercitycouncil-0793ce",
      "locationSet": {"include": ["gb"]},
      "tags": {
        "amenity": "charging_station",
        "operator": "Lancaster City Council"
      }
    },
    {
      "displayName": "Lancaster University",
      "id": "lancasteruniversity-0793ce",
      "locationSet": {"include": ["gb"]},
      "tags": {
        "amenity": "charging_station",
        "operator": "Lancaster University"
      }
    },
    {
      "displayName": "Le Circuit Électrique",
      "id": "lecircuitelectrique-67089a",
      "locationSet": {"include": ["ca"]},
      "tags": {
        "amenity": "charging_station",
        "operator": "Le Circuit Électrique",
        "operator:wikidata": "Q24934590",
        "operator:wikipedia": "fr:Le Circuit électrique"
      }
    },
    {
      "displayName": "Lech Elektrizitätswerke Augsburg",
      "id": "lechelektrizitatswerkeaugsburg-1299a8",
      "locationSet": {"include": ["de"]},
      "tags": {
        "amenity": "charging_station",
        "operator": "Lech Elektrizitätswerke Augsburg"
      }
    },
    {
      "displayName": "Lechwerke AG",
      "id": "lechwerkeag-1299a8",
      "locationSet": {"include": ["de"]},
      "tags": {
        "amenity": "charging_station",
        "operator": "Lechwerke AG"
      }
    },
    {
      "displayName": "LEW",
      "id": "lew-1299a8",
      "locationSet": {"include": ["de"]},
      "tags": {
        "amenity": "charging_station",
        "operator": "LEW"
      }
    },
    {
      "displayName": "Lidl",
      "id": "lidl-c22d3a",
      "locationSet": {"include": ["001"]},
      "tags": {
        "amenity": "charging_station",
        "operator": "Lidl",
        "operator:wikidata": "Q151954",
        "operator:wikipedia": "en:Lidl"
      }
    },
    {
      "displayName": "Linz AG",
      "id": "linzag-3f60da",
      "locationSet": {"include": ["at"]},
      "tags": {
        "amenity": "charging_station",
        "operator": "Linz AG",
        "operator:wikidata": "Q1827148",
        "operator:wikipedia": "de:Linz AG"
      }
    },
    {
      "displayName": "Mainova",
      "id": "mainova-1299a8",
      "locationSet": {"include": ["de"]},
      "tags": {
        "amenity": "charging_station",
        "operator": "Mainova",
        "operator:wikidata": "Q1885661",
        "operator:wikipedia": "de:Mainova"
      }
    },
    {
      "displayName": "Mainzer Stadtwerke",
      "id": "mainzerstadtwerke-1299a8",
      "locationSet": {"include": ["de"]},
      "tags": {
        "amenity": "charging_station",
        "operator": "Mainzer Stadtwerke",
        "operator:wikidata": "Q15848847",
        "operator:wikipedia": "de:Mainzer Stadtwerke"
      }
    },
    {
      "displayName": "Mennekes",
      "id": "mennekes-c22d3a",
      "locationSet": {"include": ["001"]},
      "tags": {
        "amenity": "charging_station",
        "operator": "Mennekes"
      }
    },
    {
      "displayName": "Michigan State University",
      "id": "michiganstateuniversity-994ed4",
      "locationSet": {"include": ["us"]},
      "tags": {
        "amenity": "charging_station",
        "operator": "Michigan State University"
      }
    },
    {
      "displayName": "MOBI.E",
      "id": "mobie-a1285d",
      "locationSet": {"include": ["pt"]},
      "tags": {
        "amenity": "charging_station",
        "operator": "MOBI.E"
      }
    },
    {
      "displayName": "Mobilectric",
      "id": "mobilectric-c22d3a",
      "locationSet": {"include": ["001"]},
      "tags": {
        "amenity": "charging_station",
        "operator": "Mobilectric"
      }
    },
    {
      "displayName": "Mobiliti",
      "id": "mobiliti-27e906",
      "locationSet": {"include": ["hu"]},
      "tags": {
        "amenity": "charging_station",
        "brand": "Mobiliti",
        "name": "Mobiliti",
        "operator": "Mobiliti"
      }
    },
    {
      "displayName": "MobiSDEC",
      "id": "mobisdec-f6553b",
      "locationSet": {"include": ["fr"]},
      "tags": {
        "amenity": "charging_station",
        "operator": "MobiSDEC"
      }
    },
    {
      "displayName": "Mobive",
      "id": "mobive-f6553b",
      "locationSet": {"include": ["fr"]},
      "tags": {
        "amenity": "charging_station",
        "operator": "Mobive"
      }
    },
    {
      "displayName": "MOL Nyrt.",
      "id": "molnyrt-27e906",
      "locationSet": {"include": ["hu"]},
      "tags": {
        "amenity": "charging_station",
        "operator": "MOL Nyrt.",
        "operator:wikidata": "Q549181",
        "operator:wikipedia": "hu:MOL Magyar Olaj- és Gázipari Nyrt."
      }
    },
    {
      "displayName": "Morbihan énergies",
      "id": "morbihanenergies-f6553b",
      "locationSet": {"include": ["fr"]},
      "tags": {
        "amenity": "charging_station",
        "operator": "Morbihan énergies",
        "operator:wikidata": "Q65966055"
      }
    },
    {
      "displayName": "Mota",
      "id": "mota-f6553b",
      "locationSet": {"include": ["fr"]},
      "tags": {
        "amenity": "charging_station",
        "operator": "Mota"
      }
    },
    {
      "displayName": "Mouv Élec Var",
      "id": "mouvelecvar-f6553b",
      "locationSet": {"include": ["fr"]},
      "tags": {
        "amenity": "charging_station",
        "operator": "Mouv Élec Var"
      }
    },
    {
      "displayName": "N-Ergie",
      "id": "nergie-1299a8",
      "locationSet": {"include": ["de"]},
      "matchNames": [
        "n-ergie aktiengesellschaft"
      ],
      "tags": {
        "amenity": "charging_station",
        "operator": "N-Ergie",
        "operator:wikidata": "Q1705813",
        "operator:wikipedia": "de:N-ERGIE"
      }
    },
    {
      "displayName": "NEW",
      "id": "new-1299a8",
      "locationSet": {"include": ["de"]},
      "tags": {
        "amenity": "charging_station",
        "operator": "NEW",
        "operator:wikidata": "Q1960038",
        "operator:wikipedia": "de:NEW AG"
      }
    },
    {
      "displayName": "NewMotion",
      "id": "newmotion-61ee76",
      "locationSet": {
        "include": ["de", "gb", "nl"]
      },
      "tags": {
        "amenity": "charging_station",
        "operator": "NewMotion"
      }
    },
    {
      "displayName": "Nissan",
      "id": "nissan-c22d3a",
      "locationSet": {"include": ["001"]},
      "tags": {
        "amenity": "charging_station",
        "operator": "Nissan",
        "operator:wikidata": "Q20165",
        "operator:wikipedia": "en:Nissan"
      }
    },
    {
      "displayName": "NKM Mobilitás Kft.",
      "id": "nkmmobilitaskft-27e906",
      "locationSet": {"include": ["hu"]},
      "tags": {
        "amenity": "charging_station",
        "operator": "NKM Mobilitás Kft."
      }
    },
    {
      "displayName": "NRG Energy",
      "id": "nrgenergy-994ed4",
      "locationSet": {"include": ["us"]},
      "tags": {
        "amenity": "charging_station",
        "operator": "NRG Energy",
        "operator:wikidata": "Q6955139",
        "operator:wikipedia": "en:NRG Energy"
      }
    },
    {
      "displayName": "NRMA",
      "id": "nrma-943805",
      "locationSet": {"include": ["au"]},
      "tags": {
        "amenity": "charging_station",
        "operator": "NRMA",
        "operator:wikidata": "Q6955173",
        "operator:wikipedia": "en:National Roads and Motorists' Association"
      }
    },
    {
      "displayName": "NUON",
      "id": "nuon-fa6152",
      "locationSet": {"include": ["nl"]},
      "tags": {
        "amenity": "charging_station",
        "operator": "NUON",
        "operator:wikidata": "Q513830",
        "operator:wikipedia": "nl:Vattenfall Nederland"
      }
    },
    {
      "displayName": "Oppegård kommune",
      "id": "oppegardkommune-476d58",
      "locationSet": {"include": ["no"]},
      "tags": {
        "amenity": "charging_station",
        "operator": "Oppegård kommune"
      }
    },
    {
      "displayName": "Orka náttúrunnar",
      "id": "orkanatturunnar-8fcd5a",
      "locationSet": {"include": ["is"]},
      "tags": {
        "amenity": "charging_station",
        "operator": "Orka náttúrunnar",
        "operator:wikidata": "Q25051792",
        "operator:wikipedia": "en:Orka náttúrunnar"
      }
    },
    {
      "displayName": "Oslo kommune",
      "id": "oslokommune-476d58",
      "locationSet": {"include": ["no"]},
      "tags": {
        "amenity": "charging_station",
        "operator": "Oslo kommune"
      }
    },
    {
      "displayName": "OVAG",
      "id": "ovag-1299a8",
      "locationSet": {"include": ["de"]},
      "tags": {
        "amenity": "charging_station",
        "operator": "OVAG",
        "operator:wikidata": "Q1345284",
        "operator:wikipedia": "de:Oberhessische Versorgungsbetriebe"
      }
    },
    {
      "displayName": "Pfalzwerke",
      "id": "pfalzwerke-1299a8",
      "locationSet": {"include": ["de"]},
      "tags": {
        "amenity": "charging_station",
        "operator": "Pfalzwerke",
        "operator:wikidata": "Q2082280",
        "operator:wikipedia": "de:Pfalzwerke"
      }
    },
    {
      "displayName": "PitPoint",
      "id": "pitpoint-b2225d",
      "locationSet": {"include": ["be", "nl"]},
      "tags": {
        "amenity": "charging_station",
        "operator": "PitPoint"
      }
    },
    {
      "displayName": "Plus de Bornes",
      "id": "plusdebornes-f6553b",
      "locationSet": {"include": ["fr"]},
      "tags": {
        "amenity": "charging_station",
        "operator": "Plus de Bornes"
      }
    },
    {
      "displayName": "Pod Point",
      "id": "podpoint-0793ce",
      "locationSet": {"include": ["gb"]},
      "tags": {
        "amenity": "charging_station",
        "operator": "Pod Point",
        "operator:wikidata": "Q42888154",
        "operator:wikipedia": "en:Pod Point"
      }
    },
    {
      "displayName": "Polar",
      "id": "polar-0793ce",
      "locationSet": {"include": ["gb"]},
      "tags": {
        "amenity": "charging_station",
        "operator": "Polar"
      }
    },
    {
      "displayName": "Porsche",
      "id": "porsche-c22d3a",
      "locationSet": {"include": ["001"]},
      "tags": {
        "amenity": "charging_station",
        "operator": "Porsche",
        "operator:wikidata": "Q40993",
        "operator:wikipedia": "en:Porsche"
      }
    },
    {
      "displayName": "Powerdot",
      "id": "powerdot-c22d3a",
      "locationSet": {"include": ["001"]},
      "tags": {
        "amenity": "charging_station",
        "operator": "Powerdot"
      }
    },
    {
      "displayName": "PRE",
      "id": "pre-f67a50",
      "locationSet": {"include": ["cz"]},
      "tags": {
        "amenity": "charging_station",
        "operator": "PRE"
      }
    },
    {
      "displayName": "Prio.E",
      "id": "prioe-a1285d",
      "locationSet": {"include": ["pt"]},
      "tags": {
        "amenity": "charging_station",
        "operator": "Prio.E"
      }
    },
    {
      "displayName": "Q-Park",
      "id": "qpark-c22d3a",
      "locationSet": {"include": ["001"]},
      "tags": {
        "amenity": "charging_station",
        "operator": "Q-Park",
        "operator:wikidata": "Q1127798",
        "operator:wikipedia": "en:Q-Park"
      }
    },
    {
      "displayName": "Qbuzz",
      "id": "qbuzz-fa6152",
      "locationSet": {"include": ["nl"]},
      "tags": {
        "amenity": "charging_station",
        "operator": "Qbuzz",
        "operator:wikidata": "Q3146926",
        "operator:wikipedia": "nl:Qbuzz"
      }
    },
    {
      "displayName": "Rede Piloto",
      "id": "redepiloto-a1285d",
      "locationSet": {"include": ["pt"]},
      "tags": {
        "amenity": "charging_station",
        "operator": "Rede Piloto"
      }
    },
    {
      "displayName": "Regensburger Energie- und Wasserversorgung AG & Co KG",
      "id": "regensburgerenergieundwasserversorgungagandcokg-1299a8",
      "locationSet": {"include": ["de"]},
      "tags": {
        "amenity": "charging_station",
        "operator": "Regensburger Energie- und Wasserversorgung AG & Co KG",
        "operator:wikidata": "Q1592981",
        "operator:wikipedia": "de:REWAG"
      }
    },
    {
      "displayName": "Renault",
      "id": "renault-c22d3a",
      "locationSet": {"include": ["001"]},
      "tags": {
        "amenity": "charging_station",
        "operator": "Renault",
        "operator:wikidata": "Q6686",
        "operator:wikipedia": "en:Renault"
      }
    },
    {
      "displayName": "Repower AG",
      "id": "repowerag-086737",
      "locationSet": {"include": ["ch"]},
      "tags": {
        "amenity": "charging_station",
        "operator": "Repower AG",
        "operator:wikidata": "Q674712",
        "operator:wikipedia": "de:Repower AG"
      }
    },
    {
      "displayName": "RheinEnergie",
      "id": "rheinenergie-1299a8",
      "locationSet": {"include": ["de"]},
      "tags": {
        "amenity": "charging_station",
        "operator": "RheinEnergie",
        "operator:wikidata": "Q2147629",
        "operator:wikipedia": "de:Rheinenergie"
      }
    },
    {
      "displayName": "Ringeriks-kraft AS",
      "id": "ringerikskraftas-476d58",
      "locationSet": {"include": ["no"]},
      "tags": {
        "amenity": "charging_station",
        "operator": "Ringeriks-kraft AS",
        "operator:wikidata": "Q11997886",
        "operator:wikipedia": "no:Ringeriks-Kraft"
      }
    },
    {
      "displayName": "Rotterdam Elektrisch",
      "id": "rotterdamelektrisch-fa6152",
      "locationSet": {"include": ["nl"]},
      "tags": {
        "amenity": "charging_station",
        "operator": "Rotterdam Elektrisch"
      }
    },
    {
      "displayName": "RSE",
      "id": "rse-f6553b",
      "locationSet": {"include": ["fr"]},
      "tags": {
        "amenity": "charging_station",
        "operator": "RSE"
      }
    },
    {
      "displayName": "RWE-Effizienz",
      "id": "rweeffizienz-1299a8",
      "locationSet": {"include": ["de"]},
      "tags": {
        "amenity": "charging_station",
        "operator": "RWE-Effizienz"
      }
    },
    {
      "displayName": "Saint-Louis",
      "id": "saintlouis-f6553b",
      "locationSet": {"include": ["fr"]},
      "tags": {
        "amenity": "charging_station",
        "operator": "Saint-Louis"
      }
    },
    {
      "displayName": "Salzburg AG",
      "id": "salzburgag-3f60da",
      "locationSet": {"include": ["at"]},
      "tags": {
        "amenity": "charging_station",
        "operator": "Salzburg AG",
        "operator:wikidata": "Q2215905",
        "operator:wikipedia": "de:Salzburg AG"
      }
    },
    {
      "displayName": "SDE04",
      "id": "sde04-f6553b",
      "locationSet": {"include": ["fr"]},
      "tags": {
        "amenity": "charging_station",
        "operator": "SDE04"
      }
    },
    {
      "displayName": "SDE07",
      "id": "sde07-f6553b",
      "locationSet": {"include": ["fr"]},
      "tags": {
        "amenity": "charging_station",
        "operator": "SDE07"
      }
    },
    {
      "displayName": "SDE35",
      "id": "sde35-f6553b",
      "locationSet": {"include": ["fr"]},
      "tags": {
        "amenity": "charging_station",
        "operator": "SDE35"
      }
    },
    {
      "displayName": "SDED",
      "id": "sded-f6553b",
      "locationSet": {"include": ["fr"]},
      "tags": {
        "amenity": "charging_station",
        "operator": "SDED"
      }
    },
    {
      "displayName": "SDEY",
      "id": "sdey-f6553b",
      "locationSet": {"include": ["fr"]},
      "tags": {
        "amenity": "charging_station",
        "operator": "SDEY"
      }
    },
    {
      "displayName": "SEDI",
      "id": "sedi-f6553b",
      "locationSet": {"include": ["fr"]},
      "tags": {
        "amenity": "charging_station",
        "operator": "SEDI"
      }
    },
    {
      "displayName": "SemaConnect",
      "id": "semaconnect-994ed4",
      "locationSet": {"include": ["us"]},
      "tags": {
        "amenity": "charging_station",
        "operator": "SemaConnect",
        "operator:wikidata": "Q25245392",
        "operator:wikipedia": "en:SemaConnect"
      }
    },
    {
      "displayName": "Séolis",
      "id": "seolis-f6553b",
      "locationSet": {"include": ["fr"]},
      "tags": {
        "amenity": "charging_station",
        "operator": "Séolis"
      }
    },
    {
      "displayName": "SEY 78",
      "id": "sey78-f6553b",
      "locationSet": {"include": ["fr"]},
      "tags": {
        "amenity": "charging_station",
        "operator": "SEY 78"
      }
    },
    {
      "displayName": "SHARZ",
      "id": "sharz-f274f9",
      "locationSet": {"include": ["tr"]},
      "tags": {
        "amenity": "charging_station",
        "operator": "SHARZ"
      }
    },
    {
      "displayName": "Shell",
      "id": "shell-c22d3a",
      "locationSet": {"include": ["001"]},
      "tags": {
        "amenity": "charging_station",
        "operator": "Shell",
        "operator:wikidata": "Q154950",
        "operator:wikipedia": "en:Royal Dutch Shell"
      }
    },
    {
      "displayName": "SIEGE 27",
      "id": "siege27-f6553b",
      "locationSet": {"include": ["fr"]},
      "tags": {
        "amenity": "charging_station",
        "operator": "SIEGE 27"
      }
    },
    {
      "displayName": "SIEL42",
      "id": "siel42-f6553b",
      "locationSet": {"include": ["fr"]},
      "tags": {
        "amenity": "charging_station",
        "operator": "SIEL42"
      }
    },
    {
      "displayName": "SIPLEC",
      "id": "siplec-f6553b",
      "locationSet": {"include": ["fr"]},
      "tags": {
        "amenity": "charging_station",
        "operator": "SIPLEC"
      }
    },
    {
      "displayName": "SMATRICS",
      "id": "smatrics-3f60da",
      "locationSet": {"include": ["at"]},
      "tags": {
        "amenity": "charging_station",
        "operator": "SMATRICS",
        "operator:wikidata": "Q87212466",
        "operator:wikipedia": "de:SMATRICS"
      }
    },
    {
      "displayName": "Sodetrel",
      "id": "sodetrel-f6553b",
      "locationSet": {"include": ["fr"]},
      "matchNames": ["sodetrel mobilité"],
      "tags": {
        "amenity": "charging_station",
        "operator": "Sodetrel"
      }
    },
    {
      "displayName": "SODO",
      "id": "sodo-64fbf7",
      "locationSet": {"include": ["si"]},
      "tags": {
        "amenity": "charging_station",
        "operator": "SODO"
      }
    },
    {
      "displayName": "Sorégies",
      "id": "soregies-f6553b",
      "locationSet": {"include": ["fr"]},
      "tags": {
        "amenity": "charging_station",
        "operator": "Sorégies",
        "operator:wikidata": "Q3491321",
        "operator:wikipedia": "fr:Sorégies"
      }
    },
    {
      "displayName": "Source London",
      "id": "sourcelondon-0793ce",
      "locationSet": {"include": ["gb"]},
      "tags": {
        "amenity": "charging_station",
        "brand": "Source London",
        "brand:wikidata": "Q7565133",
        "brand:wikipedia": "en:Source London",
        "name": "Source London",
        "operator": "Source London",
        "operator:wikidata": "Q7565133",
        "operator:wikipedia": "en:Source London"
      }
    },
    {
      "displayName": "Stadtwerke Augsburg",
      "id": "stadtwerkeaugsburg-1299a8",
      "locationSet": {"include": ["de"]},
      "tags": {
        "amenity": "charging_station",
        "operator": "Stadtwerke Augsburg",
        "operator:wikidata": "Q2328426",
        "operator:wikipedia": "de:Stadtwerke Augsburg"
      }
    },
    {
      "displayName": "Stadtwerke Bielefeld",
      "id": "stadtwerkebielefeld-1299a8",
      "locationSet": {"include": ["de"]},
      "tags": {
        "amenity": "charging_station",
        "operator": "Stadtwerke Bielefeld",
        "operator:wikidata": "Q2328433",
        "operator:wikipedia": "de:Stadtwerke Bielefeld"
      }
    },
    {
      "displayName": "Stadtwerke Bochum",
      "id": "stadtwerkebochum-1299a8",
      "locationSet": {"include": ["de"]},
      "tags": {
        "amenity": "charging_station",
        "operator": "Stadtwerke Bochum",
        "operator:wikidata": "Q2328438",
        "operator:wikipedia": "de:Stadtwerke Bochum"
      }
    },
    {
      "displayName": "Stadtwerke Düsseldorf",
      "id": "stadtwerkedusseldorf-1299a8",
      "locationSet": {"include": ["de"]},
      "tags": {
        "amenity": "charging_station",
        "operator": "Stadtwerke Düsseldorf",
        "operator:wikidata": "Q2328468",
        "operator:wikipedia": "de:Stadtwerke Düsseldorf"
      }
    },
    {
      "displayName": "Stadtwerke Heide",
      "id": "stadtwerkeheide-1299a8",
      "locationSet": {"include": ["de"]},
      "tags": {
        "amenity": "charging_station",
        "operator": "Stadtwerke Heide"
      }
    },
    {
      "displayName": "Stadtwerke Iserlohn - Heimatversorger",
      "id": "stadtwerkeiserlohnheimatversorger-1299a8",
      "locationSet": {"include": ["de"]},
      "tags": {
        "amenity": "charging_station",
        "operator": "Stadtwerke Iserlohn - Heimatversorger",
        "operator:wikidata": "Q101110405",
        "operator:wikipedia": "de:Stadtwerke Iserlohn"
      }
    },
    {
      "displayName": "Stadtwerke Leipzig",
      "id": "stadtwerkeleipzig-1299a8",
      "locationSet": {"include": ["de"]},
      "tags": {
        "amenity": "charging_station",
        "operator": "Stadtwerke Leipzig",
        "operator:wikidata": "Q2328555",
        "operator:wikipedia": "de:Stadtwerke Leipzig"
      }
    },
    {
      "displayName": "Stadtwerke Marburg",
      "id": "stadtwerkemarburg-1299a8",
      "locationSet": {"include": ["de"]},
      "tags": {
        "amenity": "charging_station",
        "operator": "Stadtwerke Marburg",
        "operator:wikidata": "Q15848848",
        "operator:wikipedia": "de:Stadtwerke Marburg"
      }
    },
    {
      "displayName": "Stadtwerke Meerbusch GmbH",
      "id": "stadtwerkemeerbuschgmbh-1299a8",
      "locationSet": {"include": ["de"]},
      "tags": {
        "amenity": "charging_station",
        "operator": "Stadtwerke Meerbusch GmbH",
        "operator:wikidata": "Q2585822",
        "operator:wikipedia": "de:Stadtwerke Meerbusch"
      }
    },
    {
      "displayName": "Stadtwerke München",
      "id": "stadtwerkemunchen-1299a8",
      "locationSet": {"include": ["de"]},
      "tags": {
        "amenity": "charging_station",
        "operator": "Stadtwerke München",
        "operator:wikidata": "Q882871",
        "operator:wikipedia": "de:Stadtwerke München"
      }
    },
    {
      "displayName": "Stadtwerke Norderstedt",
      "id": "stadtwerkenorderstedt-1299a8",
      "locationSet": {"include": ["de"]},
      "tags": {
        "amenity": "charging_station",
        "operator": "Stadtwerke Norderstedt",
        "operator:wikidata": "Q2328577",
        "operator:wikipedia": "de:Stadtwerke Norderstedt"
      }
    },
    {
      "displayName": "Stadtwerke Osnabrück",
      "id": "stadtwerkeosnabruck-1299a8",
      "locationSet": {"include": ["de"]},
      "tags": {
        "amenity": "charging_station",
        "operator": "Stadtwerke Osnabrück",
        "operator:wikidata": "Q1114682",
        "operator:wikipedia": "de:Stadtwerke Osnabrück"
      }
    },
    {
      "displayName": "Stadtwerke Pforzheim",
      "id": "stadtwerkepforzheim-1299a8",
      "locationSet": {"include": ["de"]},
      "tags": {
        "amenity": "charging_station",
        "operator": "Stadtwerke Pforzheim",
        "operator:wikidata": "Q1562628",
        "operator:wikipedia": "de:Stadtwerke Pforzheim"
      }
    },
    {
      "displayName": "Stadtwerke Rhede GmbH",
      "id": "stadtwerkerhedegmbh-c22d3a",
      "locationSet": {"include": ["001"]},
      "tags": {
        "amenity": "charging_station",
        "operator": "Stadtwerke Rhede GmbH"
      }
    },
    {
      "displayName": "Stadtwerke Speyer GmbH",
      "id": "stadtwerkespeyergmbh-1299a8",
      "locationSet": {"include": ["de"]},
      "tags": {
        "amenity": "charging_station",
        "operator": "Stadtwerke Speyer GmbH"
      }
    },
    {
      "displayName": "Stadtwerke Tübingen",
      "id": "stadtwerketubingen-1299a8",
      "locationSet": {"include": ["de"]},
      "matchNames": ["stadtwerke tübingen gmbh"],
      "tags": {
        "amenity": "charging_station",
        "operator": "Stadtwerke Tübingen",
        "operator:wikidata": "Q1343869",
        "operator:wikipedia": "de:Stadtwerke Tübingen"
      }
    },
    {
      "displayName": "Stadtwerke Witten",
      "id": "stadtwerkewitten-1299a8",
      "locationSet": {"include": ["de"]},
      "tags": {
        "amenity": "charging_station",
        "operator": "Stadtwerke Witten",
        "operator:wikidata": "Q2328652",
        "operator:wikipedia": "de:Stadtwerke Witten"
      }
    },
    {
      "displayName": "Stavanger kommune",
      "id": "stavangerkommune-476d58",
      "locationSet": {"include": ["no"]},
      "tags": {
        "amenity": "charging_station",
        "operator": "Stavanger kommune"
      }
    },
    {
      "displayName": "STAWAG",
      "id": "stawag-1299a8",
      "locationSet": {"include": ["de"]},
      "tags": {
        "amenity": "charging_station",
        "operator": "STAWAG",
        "operator:wikidata": "Q2328404",
        "operator:wikipedia": "de:Stadtwerke Aachen"
      }
    },
    {
      "displayName": "STPT",
      "id": "stpt-806f62",
      "locationSet": {"include": ["ro"]},
      "tags": {
        "amenity": "charging_station",
        "operator": "STPT",
        "operator:wikidata": "Q929687",
        "operator:wikipedia": "ro:Transportul public din Timișoara"
      }
    },
    {
      "displayName": "Stromnetz Hamburg",
      "id": "stromnetzhamburg-1299a8",
      "locationSet": {"include": ["de"]},
      "tags": {
        "amenity": "charging_station",
        "operator": "Stromnetz Hamburg",
        "operator:wikidata": "Q18028215",
        "operator:wikipedia": "de:Stromnetz Hamburg"
      }
    },
    {
      "displayName": "Sunnfjord energi",
      "id": "sunnfjordenergi-476d58",
      "locationSet": {"include": ["no"]},
      "tags": {
        "amenity": "charging_station",
        "operator": "Sunnfjord energi",
        "operator:wikidata": "Q20553162",
        "operator:wikipedia": "nn:Sunnfjord Energi"
      }
    },
    {
      "displayName": "Süwag",
      "id": "suwag-1299a8",
      "locationSet": {"include": ["de"]},
      "matchNames": ["süwag energie ag"],
      "tags": {
        "amenity": "charging_station",
        "operator": "Süwag",
        "operator:wikidata": "Q2382300",
        "operator:wikipedia": "de:Süwag Energie"
      }
    },
    {
      "displayName": "SWB",
      "id": "swb-1299a8",
      "locationSet": {"include": ["de"]},
      "tags": {
        "amenity": "charging_station",
        "operator": "SWB"
      }
    },
    {
      "displayName": "SWM",
      "id": "swm-1299a8",
      "locationSet": {"include": ["de"]},
      "tags": {
        "amenity": "charging_station",
        "operator": "SWM"
      }
    },
    {
      "displayName": "SWU Stadtwerke Ulm/Neu-Ulm GmbH",
      "id": "swustadtwerkeulmneuulmgmbh-1299a8",
      "locationSet": {"include": ["de"]},
      "tags": {
        "amenity": "charging_station",
        "operator": "SWU Stadtwerke Ulm/Neu-Ulm GmbH",
        "operator:wikidata": "Q2328644",
        "operator:wikipedia": "de:Stadtwerke Ulm/Neu-Ulm"
      }
    },
    {
      "displayName": "SYANE",
      "id": "syane-f6553b",
      "locationSet": {"include": ["fr"]},
      "tags": {
        "amenity": "charging_station",
        "operator": "SYANE"
      }
    },
    {
      "displayName": "SYDELA",
      "id": "sydela-f6553b",
      "locationSet": {"include": ["fr"]},
      "matchNames": [
        "syndicat départemental d'énergie de loire-atlantique (sydela)"
      ],
      "tags": {
        "amenity": "charging_station",
        "operator": "SYDELA"
      }
    },
    {
      "displayName": "SYME05",
      "id": "syme05-f6553b",
      "locationSet": {"include": ["fr"]},
      "tags": {
        "amenity": "charging_station",
        "operator": "SYME05"
      }
    },
    {
      "displayName": "Tank & Rast",
      "id": "tankandrast-1299a8",
      "locationSet": {"include": ["de"]},
      "tags": {
        "amenity": "charging_station",
        "operator": "Tank & Rast",
        "operator:wikidata": "Q2392800",
        "operator:wikipedia": "de:Tank & Rast"
      }
    },
    {
      "displayName": "Tesla Supercharger",
      "id": "teslasupercharger-c22d3a",
      "locationSet": {"include": ["001"]},
      "matchNames": [
        "tesla inc",
        "tesla motors",
        "tesla motors inc"
      ],
      "tags": {
        "amenity": "charging_station",
        "brand": "Tesla Supercharger",
        "brand:wikidata": "Q17089620",
        "brand:wikipedia": "en:Tesla Supercharger",
        "name": "Tesla Supercharger",
        "operator": "Tesla Supercharger",
        "operator:wikidata": "Q17089620",
        "operator:wikipedia": "en:Tesla Supercharger",
        "short_name": "Tesla"
      }
    },
    {
      "displayName": "TheNewMotion",
      "id": "thenewmotion-1299a8",
      "locationSet": {"include": ["de"]},
      "tags": {
        "amenity": "charging_station",
        "operator": "TheNewMotion"
      }
    },
    {
      "displayName": "Toka",
      "id": "toka-c22d3a",
      "locationSet": {"include": ["001"]},
      "tags": {
        "amenity": "charging_station",
        "brand": "Toka",
        "name": "Toka",
        "operator": "Toka"
      }
    },
    {
      "displayName": "Trondheim kommune, Miljøenheten",
      "id": "trondheimkommunemiljoenheten-476d58",
      "locationSet": {"include": ["no"]},
      "tags": {
        "amenity": "charging_station",
        "operator": "Trondheim kommune, Miljøenheten"
      }
    },
    {
      "displayName": "Ubitricity",
      "id": "ubitricity-0793ce",
      "locationSet": {"include": ["gb"]},
      "tags": {
        "amenity": "charging_station",
        "operator": "Ubitricity"
      }
    },
    {
      "displayName": "UTE",
      "id": "ute-dde172",
      "locationSet": {"include": ["uy"]},
      "tags": {
        "amenity": "charging_station",
        "operator": "UTE"
      }
    },
    {
      "displayName": "Vector",
      "id": "vector-c22d3a",
      "locationSet": {"include": ["001"]},
      "tags": {
        "amenity": "charging_station",
        "operator": "Vector"
      }
    },
    {
      "displayName": "VGS mbH",
      "id": "vgsmbh-1299a8",
      "locationSet": {"include": ["de"]},
      "tags": {
        "amenity": "charging_station",
        "operator": "VGS mbH"
      }
    },
    {
      "displayName": "Viesgo",
      "id": "viesgo-97d7cf",
      "locationSet": {"include": ["es"]},
      "tags": {
        "amenity": "charging_station",
        "operator": "Viesgo",
        "operator:wikidata": "Q5829004",
        "operator:wikipedia": "es:Viesgo"
      }
    },
    {
      "displayName": "VIRTA",
      "id": "virta-e80d25",
      "locationSet": {"include": ["fi"]},
      "tags": {
        "amenity": "charging_station",
        "brand": "VIRTA",
        "name": "VIRTA",
        "operator": "VIRTA"
      }
    },
    {
      "displayName": "VLOTTE",
      "id": "vlotte-3f60da",
      "locationSet": {"include": ["at"]},
      "tags": {
        "amenity": "charging_station",
        "operator": "VLOTTE"
      }
    },
    {
      "displayName": "Volta",
      "id": "volta-994ed4",
      "locationSet": {"include": ["us"]},
      "tags": {
        "amenity": "charging_station",
        "operator": "Volta"
      }
    },
    {
      "displayName": "VOLTRUN",
      "id": "voltrun-f274f9",
      "locationSet": {"include": ["tr"]},
      "tags": {
        "amenity": "charging_station",
        "operator": "VOLTRUN"
      }
    },
    {
      "displayName": "Vorarlberger Kraftwerke",
      "id": "vorarlbergerkraftwerke-3f60da",
      "locationSet": {"include": ["at"]},
      "tags": {
        "amenity": "charging_station",
        "operator": "Vorarlberger Kraftwerke",
        "operator:wikidata": "Q1267084",
        "operator:wikipedia": "de:Vorarlberger Kraftwerke"
      }
    },
    {
      "displayName": "wallbe",
      "id": "wallbe-1299a8",
      "locationSet": {"include": ["de"]},
      "tags": {
        "amenity": "charging_station",
        "operator": "wallbe"
      }
    },
    {
      "displayName": "Wels Strom E-Mobil",
      "id": "welsstromemobil-3f60da",
      "locationSet": {"include": ["at"]},
      "tags": {
        "amenity": "charging_station",
        "operator": "Wels Strom E-Mobil"
      }
    },
    {
      "displayName": "Westfalen Weser Netz",
      "id": "westfalenwesernetz-1299a8",
      "locationSet": {"include": ["de"]},
      "tags": {
        "amenity": "charging_station",
        "operator": "Westfalen Weser Netz"
      }
    },
    {
      "displayName": "Whole Foods",
      "id": "wholefoods-994ed4",
      "locationSet": {"include": ["us"]},
      "tags": {
        "amenity": "charging_station",
        "operator": "Whole Foods"
      }
    },
    {
      "displayName": "Wien Energie GmbH",
      "id": "wienenergiegmbh-3f60da",
      "locationSet": {"include": ["at"]},
      "tags": {
        "amenity": "charging_station",
        "operator": "Wien Energie GmbH",
        "operator:wikidata": "Q2568787",
        "operator:wikipedia": "de:Wien Energie"
      }
    },
    {
      "displayName": "ZES",
      "id": "zes-f274f9",
      "locationSet": {"include": ["tr"]},
      "tags": {
        "amenity": "charging_station",
        "operator": "ZES"
      }
    },
    {
      "displayName": "ZSE",
      "id": "zse-b23832",
      "locationSet": {"include": ["sk"]},
      "tags": {
        "amenity": "charging_station",
        "operator": "ZSE"
      }
    },
    {
      "displayName": "АвтоЭнтерпрайз",
      "id": "b006d4-a6c3f2",
      "locationSet": {"include": ["ua"]},
      "tags": {
        "amenity": "charging_station",
        "operator": "АвтоЭнтерпрайз"
      }
    },
    {
      "displayName": "Белоруснефть",
      "id": "ed92ce-20a807",
      "locationSet": {"include": ["by"]},
      "tags": {
        "amenity": "charging_station",
        "brand": "Белоруснефть",
        "brand:wikidata": "Q4082693",
        "brand:wikipedia": "ru:Белоруснефть",
        "name": "Белоруснефть",
        "operator": "Белоруснефть",
        "operator:wikidata": "Q4082693",
        "operator:wikipedia": "ru:Белоруснефть"
      }
    },
    {
      "displayName": "Одеська міська рада",
      "id": "09a705-a6c3f2",
      "locationSet": {"include": ["ua"]},
      "tags": {
        "amenity": "charging_station",
        "operator": "Одеська міська рада"
      }
    },
    {
      "displayName": "ПАО \"Ленэнерго\"",
      "id": "7771ec-c22d3a",
      "locationSet": {"include": ["001"]},
      "tags": {
        "amenity": "charging_station",
        "operator": "ПАО \"Ленэнерго\""
      }
    },
    {
      "displayName": "Перша національна мережа електрозаправних комплексів \"Тока\"",
      "id": "1c61d4-c22d3a",
      "locationSet": {"include": ["001"]},
      "tags": {
        "amenity": "charging_station",
        "operator": "Перша національна мережа електрозаправних комплексів \"Тока\""
      }
    },
    {
      "displayName": "ПО «Белоруснефть»",
      "id": "ab4fd9-c22d3a",
      "locationSet": {"include": ["001"]},
      "tags": {
        "amenity": "charging_station",
        "operator": "ПО «Белоруснефть»"
      }
    },
    {
      "displayName": "РУП \"Белоруснефть-Минскавтозаправка\"",
      "id": "44a84d-c22d3a",
      "locationSet": {"include": ["001"]},
      "tags": {
        "amenity": "charging_station",
        "operator": "РУП \"Белоруснефть-Минскавтозаправка\""
      }
    },
    {
      "displayName": "東光高岳",
      "id": "takaokatoko-7be592",
      "locationSet": {"include": ["jp"]},
      "tags": {
        "amenity": "charging_station",
        "brand": "東光高岳",
        "brand:en": "Takaoka Toko",
        "brand:ja": "東光高岳",
        "brand:wikidata": "Q17220263",
        "brand:wikipedia": "ja:東光高岳",
        "name": "東光高岳",
        "name:en": "Takaoka Toko",
        "name:ja": "東光高岳",
        "operator": "東光高岳",
        "operator:en": "Takaoka Toko",
        "operator:ja": "東光高岳",
        "operator:wikidata": "Q17220263",
        "operator:wikipedia": "ja:東光高岳"
      }
    },
    {
      "displayName": "睿能創意股份有限公司",
      "id": "d4b35c-c22d3a",
      "locationSet": {"include": ["001"]},
      "tags": {
        "amenity": "charging_station",
        "operator": "睿能創意股份有限公司"
      }
    },
    {
      "displayName": "英屬開曼群島商睿能新動力股份有限公司台灣分公司",
      "id": "66d0d4-c22d3a",
      "locationSet": {"include": ["001"]},
      "tags": {
        "amenity": "charging_station",
        "operator": "英屬開曼群島商睿能新動力股份有限公司台灣分公司"
      }
    }
  ]
}