{
  "properties": {
    "path": "operators/amenity/childcare",
    "exclude": {
      "generic": [
        "^(child|day)care$",
        "^(council|grama ?panchayath)$",
        "^educational institute$"
      ]
    }
  },
  "items": [
    {
      "displayName": "Asha Worker",
      "id": "ashaworker-4226e4",
      "locationSet": {
        "include": ["in-kl.geojson"]
      },
      "tags": {
        "amenity": "childcare",
        "operator": "Asha Worker",
        "operator:type": "private"
      }
    },
    {
      "displayName": "Babilou",
      "id": "babilou-2fc6fb",
      "locationSet": {"include": ["fx"]},
      "tags": {
        "amenity": "childcare",
        "operator": "Babilou",
        "operator:type": "private"
      }
    },
    {
      "displayName": "Család- és Gyermekjóléti Központ",
      "id": "csaladesgyermekjoletikozpont-497a3b",
      "locationSet": {"include": ["hu"]},
      "tags": {
        "amenity": "childcare",
        "operator": "Család- és Gyermekjóléti Központ",
        "operator:type": "private"
      }
    },
    {
      "displayName": "Department of Social Justice (Kerala)",
      "id": "departmentofsocialjustice-4226e4",
      "locationSet": {
        "include": ["in-kl.geojson"]
      },
      "tags": {
        "amenity": "childcare",
        "operator": "Department of Social Justice",
        "operator:type": "government"
      }
    },
    {
      "displayName": "Department of Women and Child Development (Kerala)",
      "id": "departmentofwomenandchilddevelopment-4226e4",
      "locationSet": {
        "include": ["in-kl.geojson"]
      },
      "tags": {
        "amenity": "childcare",
        "operator": "Department of Women and Child Development",
        "operator:type": "government"
      }
    },
    {
      "displayName": "Fondation de l'Enfance et de la Jeunesse",
      "id": "fondationdelenfanceetdelajeunesse-b35c39",
      "locationSet": {
        "include": ["ch-vd.geojson"]
      },
      "tags": {
        "amenity": "childcare",
        "operator": "Fondation de l'Enfance et de la Jeunesse",
        "operator:type": "private"
      }
    },
    {
      "displayName": "Government of Kerala",
      "id": "governmentofkerala-4226e4",
      "locationSet": {
        "include": ["in-kl.geojson"]
      },
      "tags": {
        "amenity": "childcare",
        "operator": "Government of Kerala",
        "operator:type": "government",
        "operator:wikidata": "Q3522885"
      }
    },
    {
      "displayName": "Helsingin kaupunki",
      "id": "helsinginkaupunki-f498a3",
      "locationSet": {"include": ["fi"]},
      "tags": {
        "amenity": "childcare",
        "operator": "Helsingin kaupunki",
        "operator:type": "government",
        "operator:wikidata": "Q20251620"
      }
    },
    {
      "displayName": "Humankind",
      "id": "humankind-ba986a",
      "locationSet": {"include": ["nl"]},
      "tags": {
        "amenity": "childcare",
        "operator": "Humankind",
        "operator:wikidata": "Q126478163"
      }
    },
    {
      "displayName": "ICBF",
      "id": "icbf-6a04ca",
      "locationSet": {"include": ["co"]},
      "tags": {
        "amenity": "childcare",
        "operator": "ICBF",
        "operator:type": "government",
        "operator:wikidata": "Q5917268"
      }
    },
    {
      "displayName": "Integrated Child Development Services",
      "id": "integratedchilddevelopmentservices-4b0d98",
      "locationSet": {"include": ["in"]},
      "tags": {
        "amenity": "childcare",
        "operator": "Integrated Child Development Services",
        "operator:short": "ICDS",
        "operator:type": "public",
        "operator:wikidata": "Q1428431"
      }
    },
    {
      "displayName": "Københavns Kommune",
      "id": "kobenhavnskommune-7bdbd2",
      "locationSet": {
        "include": ["dk-84.geojson"]
      },
      "tags": {
        "amenity": "childcare",
        "operator": "Københavns Kommune",
        "operator:type": "government",
        "operator:wikidata": "Q504125"
      }
    },
    {
      "displayName": "Mairie de Paris",
      "id": "mairiedeparis-6dda0f",
      "locationSet": {
        "include": ["fr-idf.geojson"]
      },
      "tags": {
        "amenity": "childcare",
        "operator": "Mairie de Paris",
        "operator:type": "government",
        "operator:wikidata": "Q3278478"
      }
    },
    {
      "displayName": "Othukkungal grama panchayath",
      "id": "othukkungalgramapanchayath-4226e4",
      "locationSet": {
        "include": ["in-kl.geojson"]
      },
      "tags": {
        "amenity": "childcare",
        "operator": "Othukkungal grama panchayath",
        "operator:type": "government",
        "operator:wikidata": "Q7108716"
      }
    },
    {
      "displayName": "Partou",
      "id": "partou-ba986a",
      "locationSet": {"include": ["nl"]},
      "tags": {
        "amenity": "childcare",
        "operator": "Partou",
        "operator:type": "private"
      }
    },
    {
      "displayName": "San José Unified School District",
      "id": "sanjoseunifiedschooldistrict-943069",
      "locationSet": {
        "include": [[-121.88, 37.28, 15]]
      },
      "tags": {
        "amenity": "childcare",
        "operator": "San José Unified School District",
        "operator:short": "SJUSD",
        "operator:type": "public",
        "operator:wikidata": "Q7414497"
      }
    },
    {
      "displayName": "SKOzoK",
      "id": "skozok-ba986a",
      "locationSet": {"include": ["nl"]},
      "tags": {
        "amenity": "childcare",
        "operator": "SKOzoK",
        "operator:type": "private",
        "operator:wikidata": "Q121770112"
      }
    },
    {
      "displayName": "Ville de Marseille",
      "id": "villedemarseille-17bc4b",
      "locationSet": {
        "include": ["fr-pac.geojson"]
      },
      "tags": {
        "amenity": "childcare",
        "operator": "Ville de Marseille",
        "operator:type": "government",
        "operator:wikidata": "Q3278475"
      }
    },
    {
      "displayName": "横手市",
      "id": "bdecba-1116fc",
      "locationSet": {
        "include": ["jp-05.geojson"]
      },
      "tags": {
        "amenity": "childcare",
        "operator": "横手市",
        "operator:type": "government",
        "operator:wikidata": "Q496479"
      }
    }
  ]
}
