{
  "properties": {
    "path": "operators/amenity/clinic",
    "exclude": {
      "generic": [
        "^(clinic|urgent\\s?care)$",
        "^(consultorio )?(local|médico)$",
        "^(consultorio|municipal|private(_profit)?|priv[eé]{0,2}|public)$",
        "^(polyclinique|poliklinika)$",
        "^centro (de salud|de saúde|médico)$",
        "^health (sub )?center$",
        "^ngo$",
        "^unidade?( básica)? de (saúde|salud)$",
        "^амбулатор[иі]я$",
        "^фап$",
        "^фельдшерско-акушерский пункт$",
        "^درمانگاه$"
      ]
    }
  },
  "items": [
    {
      "displayName": "Aid Post",
      "id": "aidpost-912d5b",
      "locationSet": {"include": ["vu"]},
      "tags": {
        "amenity": "clinic",
        "healthcare": "clinic",
        "name": "Aid Post",
        "operator": "Aid Post"
      }
    },
    {
      "displayName": "Asepeyo",
      "id": "asepeyo-edc4ef",
      "locationSet": {"include": ["es"]},
      "tags": {
        "amenity": "clinic",
        "healthcare": "clinic",
        "name": "Asepeyo",
        "operator": "Asepeyo",
        "operator:wikidata": "Q11906879",
        "operator:wikipedia": "es:Asepeyo"
      }
    },
    {
      "displayName": "ASL 3 Genovese",
      "id": "asl3genovese-87fe57",
      "locationSet": {"include": ["it"]},
      "tags": {
        "amenity": "clinic",
        "healthcare": "clinic",
        "operator": "ASL 3 Genovese"
      }
    },
    {
      "displayName": "Aspirus",
      "id": "aspirus-0ca787",
      "locationSet": {"include": ["us"]},
      "tags": {
        "amenity": "clinic",
        "healthcare": "clinic",
        "operator": "Aspirus"
      }
    },
    {
      "displayName": "ASSE",
      "id": "asse-576018",
      "locationSet": {"include": ["uy"]},
      "tags": {
        "amenity": "clinic",
        "healthcare": "clinic",
        "operator": "ASSE",
        "operator:wikidata": "Q5657845",
        "operator:wikipedia": "en:State Health Services Administration"
      }
    },
    {
      "displayName": "Avon and Wiltshire Mental Health Partnership NHS Trust",
      "id": "avonandwiltshirementalhealthpartnershipnhstrust-c61c44",
      "locationSet": {
        "include": ["gb-south-west.geojson"]
      },
      "tags": {
        "amenity": "clinic",
        "healthcare": "clinic",
        "operator": "Avon and Wiltshire Mental Health Partnership NHS Trust",
        "operator:wikidata": "Q4829257",
        "operator:wikipedia": "en:Avon and Wiltshire Mental Health Partnership NHS Trust"
      }
    },
    {
      "displayName": "Banner Health",
      "id": "bannerhealth-0ca787",
      "locationSet": {"include": ["us"]},
      "tags": {
        "amenity": "clinic",
        "healthcare": "clinic",
        "operator": "Banner Health",
        "operator:wikidata": "Q4856918",
        "operator:wikipedia": "en:Banner Health"
      }
    },
    {
      "displayName": "CCSS",
      "id": "ccss-03ea79",
      "locationSet": {"include": ["cr"]},
      "tags": {
        "amenity": "clinic",
        "healthcare": "clinic",
        "operator": "CCSS",
        "operator:wikidata": "Q5174896",
        "operator:wikipedia": "en:Costa Rican Social Security Fund"
      }
    },
    {
      "displayName": "Central Australia Health Service",
      "id": "centralaustraliahealthservice-3bb4b4",
      "locationSet": {"include": ["au"]},
      "tags": {
        "amenity": "clinic",
        "healthcare": "clinic",
        "operator": "Central Australia Health Service"
      }
    },
    {
      "displayName": "ChristianaCare",
      "id": "christianacare-0ca787",
      "locationSet": {"include": ["us"]},
      "tags": {
        "amenity": "clinic",
        "healthcare": "clinic",
        "operator": "ChristianaCare",
        "operator:wikidata": "Q16987253",
        "operator:wikipedia": "en:ChristianaCare"
      }
    },
    {
      "displayName": "CityMD",
      "id": "citymd-0ca787",
      "locationSet": {"include": ["us"]},
      "tags": {
        "amenity": "clinic",
        "healthcare": "clinic",
        "name": "CityMD",
        "operator": "CityMD",
        "operator:wikidata": "Q22295471",
        "operator:wikipedia": "en:CityMD"
      }
    },
    {
      "displayName": "Collectivité Territoriale de Guyane",
      "id": "collectiviteterritorialedeguyane-a3d1f7",
      "locationSet": {"include": ["gf"]},
      "tags": {
        "amenity": "clinic",
        "healthcare": "clinic",
        "operator": "Collectivité Territoriale de Guyane"
      }
    },
    {
      "displayName": "combination",
      "id": "combination-194da3",
      "locationSet": {
        "include": ["001"],
        "exclude": ["cn"]
      },
      "tags": {
        "amenity": "clinic",
        "healthcare": "clinic",
        "operator": "combination"
      }
    },
    {
      "displayName": "Coopesana",
      "id": "coopesana-03ea79",
      "locationSet": {"include": ["cr"]},
      "tags": {
        "amenity": "clinic",
        "healthcare": "clinic",
        "operator": "Coopesana"
      }
    },
    {
      "displayName": "Cornwall Partnership NHS Foundation Trust",
      "id": "cornwallpartnershipnhsfoundationtrust-df4e98",
      "locationSet": {
        "include": ["gb-con.geojson"]
      },
      "tags": {
        "amenity": "clinic",
        "healthcare": "clinic",
        "operator": "Cornwall Partnership NHS Foundation Trust",
        "operator:wikidata": "Q16988175",
        "operator:wikipedia": "en:Cornwall Partnership NHS Foundation Trust"
      }
    },
    {
      "displayName": "DaVita Dialysis",
      "id": "davitadialysis-0ca787",
      "locationSet": {"include": ["us"]},
      "matchNames": [
        "davita",
        "davita dialysis center",
        "davita kidney care"
      ],
      "tags": {
        "amenity": "clinic",
        "healthcare": "dialysis",
        "healthcare:speciality": "dialysis",
        "name": "DaVita Dialysis",
        "operator": "DaVita Dialysis",
        "operator:wikidata": "Q5207184",
        "operator:wikipedia": "de:DaVita"
      }
    },
    {
      "displayName": "Department of Health and Family Welfare",
      "id": "departmentofhealthandfamilywelfare-2b695d",
      "locationSet": {"include": ["in"]},
      "tags": {
        "amenity": "clinic",
        "healthcare": "clinic",
        "operator": "Department of Health and Family Welfare"
      }
    },
    {
      "displayName": "Dept. of health services (India)",
      "id": "deptofhealthservices-2b695d",
      "locationSet": {"include": ["in"]},
      "tags": {
        "amenity": "clinic",
        "healthcare": "clinic",
        "operator": "dept. of health services"
      }
    },
    {
      "displayName": "Devon Partnership NHS Trust",
      "id": "devonpartnershipnhstrust-228a98",
      "locationSet": {
        "include": ["gb-dev.geojson"]
      },
      "tags": {
        "amenity": "clinic",
        "healthcare": "clinic",
        "operator": "Devon Partnership NHS Trust",
        "operator:wikidata": "Q16988718",
        "operator:wikipedia": "en:Devon Partnership NHS Trust"
      }
    },
    {
      "displayName": "Dialysis Clinic",
      "id": "dialysisclinic-0ca787",
      "locationSet": {"include": ["us"]},
      "matchNames": ["dialysis clinic inc"],
      "tags": {
        "amenity": "clinic",
        "healthcare": "dialysis",
        "healthcare:speciality": "dialysis",
        "name": "Dialysis Clinic",
        "operator": "Dialysis Clinic",
        "operator:wikidata": "Q5270633",
        "operator:wikipedia": "en:Dialysis Clinic, Inc.",
        "short_name": "DCI"
      }
    },
    {
      "displayName": "Dorset HealthCare University NHS Foundation Trust",
      "id": "dorsethealthcareuniversitynhsfoundationtrust-da597c",
      "locationSet": {
        "include": ["gb-dor.geojson"]
      },
      "tags": {
        "amenity": "clinic",
        "healthcare": "clinic",
        "operator": "Dorset HealthCare University NHS Foundation Trust",
        "operator:wikidata": "Q16988978",
        "operator:wikipedia": "en:Dorset HealthCare University NHS Foundation Trust"
      }
    },
    {
      "displayName": "Essalud",
      "id": "essalud-aa2e69",
      "locationSet": {"include": ["pe"]},
      "tags": {
        "amenity": "clinic",
        "healthcare": "clinic",
        "operator": "Essalud",
        "operator:wikidata": "Q6123930",
        "operator:wikipedia": "es:Seguro Social de Salud del Perú"
      }
    },
    {
      "displayName": "Fresenius Kidney Care",
      "id": "freseniuskidneycare-0ca787",
      "locationSet": {"include": ["us"]},
      "tags": {
        "amenity": "clinic",
        "healthcare": "dialysis",
        "healthcare:speciality": "dialysis",
        "name": "Fresenius Kidney Care",
        "operator": "Fresenius Kidney Care",
        "operator:wikidata": "Q650259",
        "operator:wikipedia": "en:Fresenius Medical Care"
      }
    },
    {
      "displayName": "Fresenius Medical Care",
      "id": "freseniusmedicalcare-0ca787",
      "locationSet": {"include": ["us"]},
      "tags": {
        "amenity": "clinic",
        "healthcare": "dialysis",
        "healthcare:speciality": "dialysis",
        "name": "Fresenius Medical Care",
        "operator": "Fresenius Medical Care",
        "operator:wikidata": "Q650259",
        "operator:wikipedia": "en:Fresenius Medical Care"
      }
    },
    {
      "displayName": "GAMC",
      "id": "gamc-194da3",
      "locationSet": {
        "include": ["001"],
        "exclude": ["cn"]
      },
      "tags": {
        "amenity": "clinic",
        "healthcare": "clinic",
        "operator": "GAMC"
      }
    },
    {
      "displayName": "Generalitat Valenciana",
      "id": "generalitatvalenciana-edc4ef",
      "locationSet": {"include": ["es"]},
      "tags": {
        "amenity": "clinic",
        "healthcare": "clinic",
        "operator": "Generalitat Valenciana",
        "operator:wikidata": "Q2477285",
        "operator:wikipedia": "es:Generalidad Valenciana"
      }
    },
    {
      "displayName": "Gobierno de la Ciudad de Buenos Aires",
      "id": "gobiernodelaciudaddebuenosaires-4df2ff",
      "locationSet": {"include": ["ar"]},
      "tags": {
        "amenity": "clinic",
        "healthcare": "clinic",
        "operator": "Gobierno de la Ciudad de Buenos Aires",
        "operator:wikidata": "Q16571953",
        "operator:wikipedia": "es:Gobierno de la Ciudad de Buenos Aires"
      }
    },
    {
      "displayName": "Gobierno Regional (Peru)",
      "id": "gobiernoregional-aa2e69",
      "locationSet": {"include": ["pe"]},
      "tags": {
        "amenity": "clinic",
        "healthcare": "clinic",
        "operator": "Gobierno Regional",
        "operator:wikidata": "Q3824815",
        "operator:wikipedia": "en:Regional Governments of Peru"
      }
    },
    {
      "displayName": "Gov",
      "id": "gov-55c168",
      "locationSet": {"include": ["001"]},
      "tags": {
        "amenity": "clinic",
        "healthcare": "clinic",
        "operator": "Gov"
      }
    },
    {
      "displayName": "Government of Liberia",
      "id": "governmentofliberia-9451ff",
      "locationSet": {"include": ["lr"]},
      "tags": {
        "amenity": "clinic",
        "healthcare": "clinic",
        "operator": "Government of Liberia"
      }
    },
    {
      "displayName": "Great Ormond Street Hospital for Children NHS Foundation Trust",
      "id": "greatormondstreethospitalforchildrennhsfoundationtrust-87581d",
      "locationSet": {"include": ["gb-eng"]},
      "matchNames": ["gosh"],
      "tags": {
        "amenity": "clinic",
        "healthcare": "clinic",
        "operator": "Great Ormond Street Hospital for Children NHS Foundation Trust",
        "operator:wikidata": "Q19873658",
        "operator:wikipedia": "en:Great Ormond Street Hospital for Children NHS Foundation Trust"
      }
    },
    {
      "displayName": "Greater Manchester Mental Health NHS Foundation Trust",
      "id": "greatermanchestermentalhealthnhsfoundationtrust-eea98d",
      "locationSet": {
        "include": [
          "gb-greater-manchester.geojson"
        ]
      },
      "matchNames": ["gmmh"],
      "tags": {
        "amenity": "clinic",
        "healthcare": "clinic",
        "operator": "Greater Manchester Mental Health NHS Foundation Trust",
        "operator:wikidata": "Q16993309",
        "operator:wikipedia": "en:Greater Manchester Mental Health NHS Foundation Trust"
      }
    },
    {
      "displayName": "Hartford HealthCare",
      "id": "hartfordhealthcare-0ca787",
      "locationSet": {"include": ["us"]},
      "tags": {
        "amenity": "clinic",
        "healthcare": "clinic",
        "operator": "Hartford HealthCare"
      }
    },
    {
      "displayName": "Hattiesburg Clinic",
      "id": "hattiesburgclinic-0ca787",
      "locationSet": {"include": ["us"]},
      "tags": {
        "amenity": "clinic",
        "healthcare": "clinic",
        "operator": "Hattiesburg Clinic"
      }
    },
    {
      "displayName": "HCA",
      "id": "hca-0ca787",
      "locationSet": {"include": ["us"]},
      "tags": {
        "amenity": "clinic",
        "healthcare": "clinic",
        "operator": "HCA",
        "operator:wikidata": "Q1630431",
        "operator:wikipedia": "en:HCA Healthcare"
      }
    },
    {
      "displayName": "Health Service Executive",
      "id": "healthserviceexecutive-049286",
      "locationSet": {"include": ["ie"]},
      "tags": {
        "amenity": "clinic",
        "healthcare": "clinic",
        "operator": "Health Service Executive",
        "operator:short": "HSE",
        "operator:wikidata": "Q5690681",
        "operator:wikipedia": "en:Health Service Executive"
      }
    },
    {
      "displayName": "Helios Kliniken",
      "id": "helioskliniken-ee9e20",
      "locationSet": {"include": ["de"]},
      "matchNames": [
        "helios",
        "helios kliniken gmbh"
      ],
      "tags": {
        "amenity": "clinic",
        "healthcare": "clinic",
        "operator": "Helios Kliniken",
        "operator:wikidata": "Q1254151",
        "operator:wikipedia": "de:Helios Kliniken"
      }
    },
    {
      "displayName": "Imperial College Healthcare NHS Trust",
      "id": "imperialcollegehealthcarenhstrust-3be3d3",
      "locationSet": {
        "include": ["gb-lon.geojson"]
      },
      "tags": {
        "amenity": "clinic",
        "healthcare": "clinic",
        "operator": "Imperial College Healthcare NHS Trust",
        "operator:wikidata": "Q14956770",
        "operator:wikipedia": "en:Imperial College Healthcare NHS Trust"
      }
    },
    {
      "displayName": "IMSS",
      "id": "imss-093f43",
      "locationSet": {"include": ["mx"]},
      "tags": {
        "amenity": "clinic",
        "healthcare": "clinic",
        "operator": "IMSS",
        "operator:wikidata": "Q904999",
        "operator:wikipedia": "es:Instituto Mexicano del Seguro Social"
      }
    },
    {
      "displayName": "Isle of Wight NHS Trust",
      "id": "isleofwightnhstrust-cfb929",
      "locationSet": {
        "include": ["gb-iow.geojson"]
      },
      "tags": {
        "amenity": "clinic",
        "healthcare": "clinic",
        "operator": "Isle of Wight NHS Trust",
        "operator:wikidata": "Q16995139",
        "operator:wikipedia": "en:Isle of Wight NHS Trust"
      }
    },
    {
      "displayName": "Junta de Andalucía",
      "id": "juntadeandalucia-edc4ef",
      "locationSet": {"include": ["es"]},
      "tags": {
        "amenity": "clinic",
        "healthcare": "clinic",
        "operator": "Junta de Andalucía",
        "operator:wikidata": "Q2743342",
        "operator:wikipedia": "es:Junta de Andalucía"
      }
    },
    {
      "displayName": "Kaiser Permanente",
      "id": "kaiserpermanente-0ca787",
      "locationSet": {"include": ["us"]},
      "tags": {
        "amenity": "clinic",
        "healthcare": "clinic",
        "operator": "Kaiser Permanente",
        "operator:short": "KP",
        "operator:wikidata": "Q1721601",
        "operator:wikipedia": "en:Kaiser Permanente"
      }
    },
    {
      "displayName": "Kementerian Kesihatan Malaysia",
      "id": "kementeriankesihatanmalaysia-7765cf",
      "locationSet": {"include": ["my"]},
      "tags": {
        "amenity": "clinic",
        "healthcare": "clinic",
        "operator": "Kementerian Kesihatan Malaysia",
        "operator:short": "KKM",
        "operator:wikidata": "Q4294352",
        "operator:wikipedia": "en:Ministry of Health (Malaysia)"
      }
    },
    {
      "displayName": "Klinik Mediviron",
      "id": "klinikmediviron-7765cf",
      "locationSet": {"include": ["my"]},
      "matchNames": ["mediveron"],
      "tags": {
        "amenity": "clinic",
        "healthcare": "clinic",
        "name": "Klinik Mediviron",
        "name:ms": "Klinik Mediviron",
        "name:zh": "马安药房",
        "operator": "Klinik Mediviron",
        "operator:wikidata": "Q97498892",
        "operator:wikipedia": "ms:Klinik Mediviron"
      }
    },
    {
      "displayName": "Legacy Medical Group",
      "id": "legacyhealth-0ca787",
      "locationSet": {"include": ["us"]},
      "tags": {
        "amenity": "clinic",
        "healthcare": "clinic",
        "operator": "Legacy Health",
        "operator:wikidata": "Q6517244",
        "operator:wikipedia": "en:Legacy Health"
      }
    },
    {
      "displayName": "Lehigh Valley Health Network",
      "id": "lehighvalleyhealthnetwork-0ca787",
      "locationSet": {"include": ["us"]},
      "tags": {
        "amenity": "clinic",
        "healthcare": "clinic",
        "operator": "Lehigh Valley Health Network",
        "operator:wikidata": "Q30280680",
        "operator:wikipedia": "en:Lehigh Valley Health Network"
      }
    },
    {
      "displayName": "Marshfield Clinic",
      "id": "marshfieldclinic-0ca787",
      "locationSet": {"include": ["us"]},
      "tags": {
        "amenity": "clinic",
        "healthcare": "clinic",
        "operator": "Marshfield Clinic",
        "operator:wikidata": "Q17020389",
        "operator:wikipedia": "en:Marshfield Clinic"
      }
    },
    {
      "displayName": "Médecins sans frontières",
      "id": "medecinssansfrontieres-55c168",
      "locationSet": {"include": ["001"]},
      "tags": {
        "amenity": "clinic",
        "healthcare": "clinic",
        "operator": "Médecins sans frontières",
        "operator:short": "MSF",
        "operator:wikidata": "Q49330",
        "operator:wikipedia": "en:Médecins Sans Frontières"
      }
    },
    {
      "displayName": "Mercy",
      "id": "mercy-0ca787",
      "locationSet": {"include": ["us"]},
      "tags": {
        "amenity": "clinic",
        "healthcare": "clinic",
        "operator": "Mercy",
        "operator:wikidata": "Q19896177",
        "operator:wikipedia": "en:Mercy (healthcare organization)"
      }
    },
    {
      "displayName": "Michigan Medicine",
      "id": "michiganmedicine-0ca787",
      "locationSet": {"include": ["us"]},
      "matchNames": [
        "umhs",
        "university of michigan"
      ],
      "tags": {
        "amenity": "clinic",
        "healthcare": "clinic",
        "operator": "Michigan Medicine",
        "operator:wikidata": "Q7895758",
        "operator:wikipedia": "en:Michigan Medicine"
      }
    },
    {
      "displayName": "Ministère de la Santé du Burkina Faso",
      "id": "ministeredelasanteduburkinafaso-9e1076",
      "locationSet": {"include": ["bf"]},
      "tags": {
        "amenity": "clinic",
        "healthcare": "clinic",
        "operator": "Ministère de la Santé du Burkina Faso",
        "operator:wikidata": "Q50037858",
        "operator:wikipedia": "fr:Ministère de la Santé (Burkina Faso)"
      }
    },
    {
      "displayName": "Ministério da Saúde (Angola)",
      "id": "ministeriodasaude-73364f",
      "locationSet": {"include": ["ao"]},
      "tags": {
        "amenity": "clinic",
        "healthcare": "clinic",
        "operator": "Ministério da Saúde"
      }
    },
    {
      "displayName": "Ministério da Saúde (Brasil)",
      "id": "ministeriodasaude-5f4b12",
      "locationSet": {"include": ["br"]},
      "tags": {
        "amenity": "clinic",
        "healthcare": "clinic",
        "operator": "Ministério da Saúde",
        "operator:wikidata": "Q6867090",
        "operator:wikipedia": "pt:Ministério da Saúde (Brasil)"
      }
    },
    {
      "displayName": "Ministério da Saúde (Portugal)",
      "id": "ministeriodasaude-3f54c3",
      "locationSet": {"include": ["pt"]},
      "tags": {
        "amenity": "clinic",
        "healthcare": "clinic",
        "operator": "Ministério da Saúde",
        "operator:wikidata": "Q4294357",
        "operator:wikipedia": "pt:Ministério da Saúde (Portugal)"
      }
    },
    {
      "displayName": "Ministerio de Salud",
      "id": "ministeriodesalud-55c168",
      "locationSet": {"include": ["001"]},
      "tags": {
        "amenity": "clinic",
        "healthcare": "clinic",
        "operator": "Ministerio de Salud"
      }
    },
    {
      "displayName": "Ministerio de Salud de Río Negro",
      "id": "ministeriodesaludderionegro-4df2ff",
      "locationSet": {"include": ["ar"]},
      "tags": {
        "amenity": "clinic",
        "healthcare": "clinic",
        "operator": "Ministerio de Salud de Río Negro"
      }
    },
    {
      "displayName": "Ministerio de Salud del Perú",
      "id": "ministeriodesaluddelperu-aa2e69",
      "locationSet": {"include": ["pe"]},
      "tags": {
        "amenity": "clinic",
        "healthcare": "clinic",
        "operator": "Ministerio de Salud del Perú",
        "operator:short": "MINSA",
        "operator:wikidata": "Q3065012",
        "operator:wikipedia": "en:Ministry of Health (Peru)"
      }
    },
    {
      "displayName": "Ministerio de Salud Pública",
      "id": "ministeriodesaludpublica-55c168",
      "locationSet": {"include": ["001"]},
      "tags": {
        "amenity": "clinic",
        "healthcare": "clinic",
        "operator": "Ministerio de Salud Pública"
      }
    },
    {
      "displayName": "Ministerio de Salud Pública (Cuba)",
      "id": "ministeriodesaludpublica-72f142",
      "locationSet": {"include": ["cu"]},
      "tags": {
        "amenity": "clinic",
        "healthcare": "clinic",
        "operator": "Ministerio de Salud Pública",
        "operator:short": "MINSAP",
        "operator:wikidata": "Q5970641",
        "operator:wikipedia": "en:Ministry of Public Health (Thailand)"
      }
    },
    {
      "displayName": "Ministry of Health",
      "id": "ministryofhealth-55c168",
      "locationSet": {"include": ["001"]},
      "tags": {
        "amenity": "clinic",
        "healthcare": "clinic",
        "operator": "Ministry of Health"
      }
    },
    {
      "displayName": "Ministry of Health (Indonesia)",
      "id": "ministryofhealth-1dcb84",
      "locationSet": {"include": ["id"]},
      "matchNames": [
        "pusat kesehatan masyarakat",
        "puskesmas",
        "puskesmas pembantu",
        "pustu"
      ],
      "tags": {
        "amenity": "clinic",
        "healthcare": "clinic",
        "operator": "Ministry of Health",
        "operator:en": "Ministry of Health",
        "operator:id": "Kementerian Kesehatan",
        "operator:wikidata": "Q12490745",
        "operator:wikipedia": "id:Kementerian Kesehatan Republik Indonesia"
      }
    },
    {
      "displayName": "Ministry of Health and Sanitation (Sierra Leone)",
      "id": "ministryofhealthandsanitation-13b62c",
      "locationSet": {"include": ["sl"]},
      "tags": {
        "amenity": "clinic",
        "healthcare": "clinic",
        "operator": "Ministry of Health and Sanitation",
        "operator:wikidata": "Q21044897",
        "operator:wikipedia": "en:Ministry of Health and Sanitation (Sierra Leone)"
      }
    },
    {
      "displayName": "Ministry of Public Health (Thailand)",
      "id": "ministryofpublichealth-144162",
      "locationSet": {"include": ["th"]},
      "tags": {
        "amenity": "clinic",
        "healthcare": "clinic",
        "operator": "Ministry of Public Health",
        "operator:wikidata": "Q5970641",
        "operator:wikipedia": "th:กระทรวงสาธารณสุข (ประเทศไทย)"
      }
    },
    {
      "displayName": "moh",
      "id": "moh-55c168",
      "locationSet": {"include": ["001"]},
      "tags": {
        "amenity": "clinic",
        "healthcare": "clinic",
        "operator": "moh"
      }
    },
    {
      "displayName": "MTI",
      "id": "mti-5624d8",
      "locationSet": {"include": ["ug"]},
      "tags": {
        "amenity": "clinic",
        "healthcare": "clinic",
        "operator": "MTI"
      }
    },
    {
      "displayName": "Municipalidad de Rosario",
      "id": "municipalidadderosario-4df2ff",
      "locationSet": {"include": ["ar"]},
      "tags": {
        "amenity": "clinic",
        "healthcare": "clinic",
        "operator": "Municipalidad de Rosario"
      }
    },
    {
      "displayName": "Municipio de Rosario",
      "id": "municipioderosario-4df2ff",
      "locationSet": {"include": ["ar"]},
      "tags": {
        "amenity": "clinic",
        "healthcare": "clinic",
        "operator": "Municipio de Rosario"
      }
    },
    {
      "displayName": "NHS",
      "id": "nhs-3d3458",
      "locationSet": {"include": ["gb"]},
      "tags": {
        "amenity": "clinic",
        "healthcare": "clinic",
        "operator": "NHS",
        "operator:wikidata": "Q918396",
        "operator:wikipedia": "en:National Health Service"
      }
    },
    {
      "displayName": "Northwell Health",
      "id": "northwellhealth-0ca787",
      "locationSet": {"include": ["us"]},
      "tags": {
        "amenity": "clinic",
        "healthcare": "clinic",
        "operator": "Northwell Health",
        "operator:wikidata": "Q7056650",
        "operator:wikipedia": "en:Northwell Health"
      }
    },
    {
      "displayName": "Novant Health",
      "id": "novanthealth-0ca787",
      "locationSet": {"include": ["us"]},
      "tags": {
        "amenity": "clinic",
        "healthcare": "clinic",
        "operator": "Novant Health",
        "operator:wikidata": "Q14956815",
        "operator:wikipedia": "en:Novant Health"
      }
    },
    {
      "displayName": "OHSU",
      "id": "oregonhealthandscienceuniversity-0ca787",
      "locationSet": {"include": ["us"]},
      "matchNames": ["tuality"],
      "tags": {
        "amenity": "clinic",
        "healthcare": "clinic",
        "operator": "Oregon Health & Science University",
        "operator:short": "OHSU",
        "operator:wikidata": "Q282097",
        "operator:wikipedia": "en:Oregon Health & Science University"
      }
    },
    {
      "displayName": "Osakidetza",
      "id": "osakidetza-edc4ef",
      "locationSet": {"include": ["es"]},
      "tags": {
        "amenity": "clinic",
        "healthcare": "clinic",
        "operator": "Osakidetza",
        "operator:wikidata": "Q3822645",
        "operator:wikipedia": "es:Osakidetza-Servicio Vasco de Salud"
      }
    },
    {
      "displayName": "Pays",
      "id": "pays-06178e",
      "locationSet": {"include": ["pf"]},
      "tags": {
        "amenity": "clinic",
        "healthcare": "clinic",
        "operator": "Pays"
      }
    },
    {
      "displayName": "Planned Parenthood",
      "id": "plannedparenthood-0ca787",
      "locationSet": {"include": ["us"]},
      "matchTags": [
        "amenity/social_facility",
        "healthcare/counselling"
      ],
      "tags": {
        "amenity": "clinic",
        "healthcare": "counselling",
        "healthcare:counselling": "antenatal;sexual",
        "name": "Planned Parenthood",
        "operator": "Planned Parenthood",
        "operator:wikidata": "Q2553262",
        "operator:wikipedia": "en:Planned Parenthood"
      }
    },
    {
      "displayName": "PMC - SMS",
      "id": "pmcsms-5f4b12",
      "locationSet": {"include": ["br"]},
      "tags": {
        "amenity": "clinic",
        "healthcare": "clinic",
        "operator": "PMC - SMS"
      }
    },
    {
      "displayName": "PMVV",
      "id": "pmvv-5f4b12",
      "locationSet": {"include": ["br"]},
      "tags": {
        "amenity": "clinic",
        "healthcare": "clinic",
        "operator": "PMVV"
      }
    },
    {
      "displayName": "Posyandu",
      "id": "posyandu-1dcb84",
      "locationSet": {"include": ["id"]},
      "tags": {
        "amenity": "clinic",
        "healthcare": "clinic",
        "name": "Posyandu",
        "operator": "Posyandu",
        "operator:wikidata": "Q12506263",
        "operator:wikipedia": "id:Pos Pelayanan Terpadu"
      }
    },
    {
      "displayName": "Prefeitura",
      "id": "prefeitura-5f4b12",
      "locationSet": {"include": ["br"]},
      "tags": {
        "amenity": "clinic",
        "healthcare": "clinic",
        "operator": "Prefeitura"
      }
    },
    {
      "displayName": "Prefeitura de Camocim",
      "id": "prefeituradecamocim-5f4b12",
      "locationSet": {"include": ["br"]},
      "tags": {
        "amenity": "clinic",
        "healthcare": "clinic",
        "operator": "Prefeitura de Camocim"
      }
    },
    {
      "displayName": "Prefeitura Municipal",
      "id": "prefeituramunicipal-5f4b12",
      "locationSet": {"include": ["br"]},
      "tags": {
        "amenity": "clinic",
        "healthcare": "clinic",
        "operator": "Prefeitura Municipal"
      }
    },
    {
      "displayName": "Prefeitura Municipal de Araguaína",
      "id": "prefeituramunicipaldearaguaina-5f4b12",
      "locationSet": {"include": ["br"]},
      "matchNames": [
        "prefeitura municipal de araguaína/to"
      ],
      "tags": {
        "amenity": "clinic",
        "healthcare": "clinic",
        "operator": "Prefeitura Municipal de Araguaína"
      }
    },
    {
      "displayName": "Prefeitura Municipal de Florianópolis",
      "id": "prefeituramunicipaldeflorianopolis-5f4b12",
      "locationSet": {"include": ["br"]},
      "tags": {
        "amenity": "clinic",
        "healthcare": "clinic",
        "operator": "Prefeitura Municipal de Florianópolis"
      }
    },
    {
      "displayName": "Prefeitura Municipal de Seropédica",
      "id": "prefeituramunicipaldeseropedica-5f4b12",
      "locationSet": {"include": ["br"]},
      "tags": {
        "amenity": "clinic",
        "healthcare": "clinic",
        "operator": "Prefeitura Municipal de Seropédica"
      }
    },
    {
      "displayName": "Providence Health & Services",
      "id": "providencehealthandservices-0ca787",
      "locationSet": {"include": ["us"]},
      "tags": {
        "amenity": "clinic",
        "healthcare": "clinic",
        "operator": "Providence Health & Services",
        "operator:wikidata": "Q7252430",
        "operator:wikipedia": "en:Providence Health & Services"
      }
    },
    {
      "displayName": "Provincia de Santa Fe",
      "id": "provinciadesantafe-4df2ff",
      "locationSet": {"include": ["ar"]},
      "tags": {
        "amenity": "clinic",
        "healthcare": "clinic",
        "operator": "Provincia de Santa Fe"
      }
    },
    {
      "displayName": "Provincia del Chaco",
      "id": "provinciadelchaco-4df2ff",
      "locationSet": {"include": ["ar"]},
      "tags": {
        "amenity": "clinic",
        "healthcare": "clinic",
        "operator": "Provincia del Chaco"
      }
    },
    {
      "displayName": "Provincial (Argentina)",
      "id": "provincial-4df2ff",
      "locationSet": {"include": ["ar"]},
      "tags": {
        "amenity": "clinic",
        "healthcare": "clinic",
        "operator": "Provincial"
      }
    },
    {
      "displayName": "Rhön-Klinikum",
      "id": "rhonklinikum-ee9e20",
      "locationSet": {"include": ["de"]},
      "tags": {
        "amenity": "clinic",
        "healthcare": "clinic",
        "operator": "Rhön-Klinikum",
        "operator:wikidata": "Q573604",
        "operator:wikipedia": "de:Rhön-Klinikum"
      }
    },
    {
      "displayName": "SACYL",
      "id": "sacyl-edc4ef",
      "locationSet": {"include": ["es"]},
      "tags": {
        "amenity": "clinic",
        "healthcare": "clinic",
        "operator": "SACYL",
        "operator:wikidata": "Q6116740",
        "operator:wikipedia": "es:Sacyl"
      }
    },
    {
      "displayName": "Samaritan Health Services",
      "id": "samaritanhealthservices-0ca787",
      "locationSet": {"include": ["us"]},
      "tags": {
        "amenity": "clinic",
        "healthcare": "clinic",
        "operator": "Samaritan Health Services",
        "operator:wikidata": "Q30288491",
        "operator:wikipedia": "en:Samaritan Health Services"
      }
    },
    {
      "displayName": "Sana Kliniken",
      "id": "sanakliniken-ee9e20",
      "locationSet": {"include": ["de"]},
      "tags": {
        "amenity": "clinic",
        "healthcare": "clinic",
        "operator": "Sana Kliniken",
        "operator:wikidata": "Q2220152",
        "operator:wikipedia": "de:Sana Kliniken"
      }
    },
    {
      "displayName": "Satellite Healthcare",
      "id": "satellitehealthcare-0ca787",
      "locationSet": {"include": ["us"]},
      "matchNames": [
        "satellite",
        "satellite dialysis"
      ],
      "tags": {
        "amenity": "clinic",
        "healthcare": "dialysis",
        "healthcare:speciality": "dialysis",
        "name": "Satellite Healthcare",
        "operator": "Satellite Healthcare",
        "operator:wikidata": "Q50039787"
      }
    },
    {
      "displayName": "Secretaria da Saúde",
      "id": "secretariadasaude-5f4b12",
      "locationSet": {"include": ["br"]},
      "tags": {
        "amenity": "clinic",
        "healthcare": "clinic",
        "operator": "Secretaria da Saúde"
      }
    },
    {
      "displayName": "Secretaria de Saúde de Caruaru",
      "id": "secretariadesaudedecaruaru-5f4b12",
      "locationSet": {"include": ["br"]},
      "tags": {
        "amenity": "clinic",
        "healthcare": "clinic",
        "operator": "Secretaria de Saúde de Caruaru"
      }
    },
    {
      "displayName": "Secretaria Especial de Saúde Indígena",
      "id": "secretariaespecialdesaudeindigena-5f4b12",
      "locationSet": {"include": ["br"]},
      "tags": {
        "amenity": "clinic",
        "healthcare": "clinic",
        "operator": "Secretaria Especial de Saúde Indígena",
        "operator:short": "SESAI"
      }
    },
    {
      "displayName": "Secretaria Municipal da Saúde de Fortaleza",
      "id": "secretariamunicipaldasaudedefortaleza-5f4b12",
      "locationSet": {"include": ["br"]},
      "tags": {
        "amenity": "clinic",
        "healthcare": "clinic",
        "operator": "Secretaria Municipal da Saúde de Fortaleza"
      }
    },
    {
      "displayName": "Secretaria Municipal de Saúde",
      "id": "secretariamunicipaldesaude-5f4b12",
      "locationSet": {"include": ["br"]},
      "tags": {
        "amenity": "clinic",
        "healthcare": "clinic",
        "operator": "Secretaria Municipal de Saúde"
      }
    },
    {
      "displayName": "SEMUSA",
      "id": "semusa-5f4b12",
      "locationSet": {"include": ["br"]},
      "tags": {
        "amenity": "clinic",
        "healthcare": "clinic",
        "operator": "SEMUSA"
      }
    },
    {
      "displayName": "Servicio Andaluz de Salud",
      "id": "servicioandaluzdesalud-edc4ef",
      "locationSet": {"include": ["es"]},
      "tags": {
        "amenity": "clinic",
        "healthcare": "clinic",
        "operator": "Servicio Andaluz de Salud",
        "operator:short": "SAS",
        "operator:wikidata": "Q4753529",
        "operator:wikipedia": "es:Servicio Andaluz de Salud"
      }
    },
    {
      "displayName": "Servicio de Salud de Castilla-La Mancha",
      "id": "serviciodesaluddecastillalamancha-edc4ef",
      "locationSet": {"include": ["es"]},
      "tags": {
        "amenity": "clinic",
        "healthcare": "clinic",
        "operator": "Servicio de Salud de Castilla-La Mancha",
        "operator:short": "SESCAM",
        "operator:wikidata": "Q5665691",
        "operator:wikipedia": "es:Servicio de Salud de Castilla-La Mancha"
      }
    },
    {
      "displayName": "Servicio Extremeño de Salud",
      "id": "servicioextremenodesalud-edc4ef",
      "locationSet": {"include": ["es"]},
      "tags": {
        "amenity": "clinic",
        "healthcare": "clinic",
        "operator": "Servicio Extremeño de Salud",
        "operator:short": "SES",
        "operator:wikidata": "Q6126026",
        "operator:wikipedia": "es:Servicio Extremeño de Salud"
      }
    },
    {
      "displayName": "Servicio Madrileño de Salud",
      "id": "serviciomadrilenodesalud-edc4ef",
      "locationSet": {"include": ["es"]},
      "tags": {
        "amenity": "clinic",
        "healthcare": "clinic",
        "operator": "Servicio Madrileño de Salud",
        "operator:short": "SERMAS",
        "operator:wikidata": "Q6126030",
        "operator:wikipedia": "es:Servicio Madrileño de Salud"
      }
    },
    {
      "displayName": "Serviço Nacional de Saúde (Portugal)",
      "id": "serviconacionaldesaude-3f54c3",
      "locationSet": {"include": ["pt"]},
      "tags": {
        "amenity": "clinic",
        "healthcare": "clinic",
        "operator": "Serviço Nacional de Saúde",
        "operator:short": "SNS",
        "operator:wikidata": "Q1299901",
        "operator:wikipedia": "pt:Serviço Nacional de Saúde"
      }
    },
    {
      "displayName": "Servizo Galego de Saúde",
      "id": "servizogalegodesaude-edc4ef",
      "locationSet": {"include": ["es"]},
      "matchNames": [
        "sergas - xunta de galicia",
        "servizo galego de saúde (sergas)"
      ],
      "tags": {
        "amenity": "clinic",
        "healthcare": "clinic",
        "operator": "Servizo Galego de Saúde",
        "operator:short": "SERGAS",
        "operator:type": "public",
        "operator:wikidata": "Q3393183",
        "operator:wikipedia": "es:Servicio Gallego de Salud"
      }
    },
    {
      "displayName": "Sistema Único de Saúde (Brasil)",
      "id": "sistemaunicodesaude-5f4b12",
      "locationSet": {"include": ["br"]},
      "tags": {
        "amenity": "clinic",
        "healthcare": "clinic",
        "operator": "Sistema Único de Saúde",
        "operator:short": "SUS",
        "operator:wikidata": "Q7531056",
        "operator:wikipedia": "pt:Sistema Único de Saúde"
      }
    },
    {
      "displayName": "Somerset NHS Foundation Trust",
      "id": "somersetnhsfoundationtrust-7489bf",
      "locationSet": {
        "include": ["gb-som.geojson"]
      },
      "tags": {
        "amenity": "clinic",
        "healthcare": "clinic",
        "operator": "Somerset NHS Foundation Trust",
        "operator:wikidata": "Q96405998",
        "operator:wikipedia": "en:Somerset NHS Foundation Trust"
      }
    },
    {
      "displayName": "State of Franklin Healthcare Associates",
      "id": "stateoffranklinhealthcareassociates-0ca787",
      "locationSet": {"include": ["us"]},
      "tags": {
        "amenity": "clinic",
        "healthcare": "clinic",
        "operator": "State of Franklin Healthcare Associates",
        "operator:short": "SOFHA"
      }
    },
    {
      "displayName": "Subsecretaría de Atención Primaria, Ambulatoria y Comunitaria",
      "id": "subsecretariadeatencionprimariaambulatoriaycomunitaria-4df2ff",
      "locationSet": {"include": ["ar"]},
      "tags": {
        "amenity": "clinic",
        "healthcare": "clinic",
        "operator": "Subsecretaría de Atención Primaria, Ambulatoria y Comunitaria"
      }
    },
    {
      "displayName": "Szpital Uniwersytecki Collegium Medicum Uniwersytetu Jagiellońskiego",
      "id": "szpitaluniwersyteckicollegiummedicumuniwersytetujagiellonskiego-73e20b",
      "locationSet": {"include": ["pl"]},
      "tags": {
        "amenity": "clinic",
        "healthcare": "clinic",
        "operator": "Szpital Uniwersytecki Collegium Medicum Uniwersytetu Jagiellońskiego"
      }
    },
    {
      "displayName": "T.C. Sağlık Bakanlığı",
      "id": "tcsaglikbakanligi-712bef",
      "locationSet": {"include": ["tr"]},
      "tags": {
        "amenity": "clinic",
        "healthcare": "clinic",
        "operator": "T.C. Sağlık Bakanlığı",
        "operator:wikidata": "Q4294365",
        "operator:wikipedia": "tr:Türkiye Cumhuriyeti Sağlık Bakanlığı"
      }
    },
    {
      "displayName": "Terveystalo",
      "id": "terveystalo-6db834",
      "locationSet": {"include": ["fi"]},
      "tags": {
        "amenity": "clinic",
        "healthcare": "clinic",
        "name": "Terveystalo",
        "operator": "Terveystalo",
        "operator:wikidata": "Q11897034",
        "operator:wikipedia": "fi:Terveystalo"
      }
    },
    {
      "displayName": "UnityPoint Health",
      "id": "unitypointhealth-0ca787",
      "locationSet": {"include": ["us"]},
      "tags": {
        "amenity": "clinic",
        "healthcare": "clinic",
        "operator": "UnityPoint Health",
        "operator:wikidata": "Q17078774",
        "operator:wikipedia": "en:UnityPoint Health"
      }
    },
    {
      "displayName": "University Hospitals Dorset NHS Foundation Trust",
      "id": "universityhospitalsdorsetnhsfoundationtrust-da597c",
      "locationSet": {
        "include": ["gb-dor.geojson"]
      },
      "tags": {
        "amenity": "clinic",
        "healthcare": "clinic",
        "operator": "University Hospitals Dorset NHS Foundation Trust",
        "operator:wikidata": "Q99964922",
        "operator:wikipedia": "en:University Hospitals Dorset NHS Foundation Trust"
      }
    },
    {
      "displayName": "UPMC",
      "id": "upmc-0ca787",
      "locationSet": {"include": ["us"]},
      "tags": {
        "amenity": "clinic",
        "healthcare": "clinic",
        "operator": "UPMC",
        "operator:wikidata": "Q30281140"
      }
    },
    {
      "displayName": "VA Clinic",
      "id": "vaclinic-0ca787",
      "locationSet": {"include": ["us"]},
      "matchNames": [
        "department of veterans affairs clinic",
        "united states department of veterans affairs",
        "us department of veterans affairs",
        "veterans administration",
        "veterans administration clinic",
        "veterans affairs",
        "veterans affairs clinic"
      ],
      "tags": {
        "amenity": "clinic",
        "healthcare": "clinic",
        "healthcare:for": "veterans",
        "name": "VA Clinic",
        "operator": "VA",
        "operator:wikidata": "Q6580225",
        "operator:wikipedia": "en:Veterans Health Administration",
        "short_name": "VA"
      }
    },
    {
      "displayName": "Västra Götalandsregionen",
      "id": "vastragotalandsregionen-020929",
      "locationSet": {"include": ["se"]},
      "tags": {
        "amenity": "clinic",
        "healthcare": "clinic",
        "name": "Västra Götalandsregionen",
        "operator": "Västra Götalandsregionen"
      }
    },
    {
      "displayName": "Vivantes",
      "id": "vivantes-ee9e20",
      "locationSet": {"include": ["de"]},
      "tags": {
        "amenity": "clinic",
        "healthcare": "clinic",
        "operator": "Vivantes",
        "operator:wikidata": "Q878059",
        "operator:wikipedia": "de:Vivantes"
      }
    },
    {
      "displayName": "Yeovil District Hospital NHS Foundation Trust",
      "id": "yeovildistricthospitalnhsfoundationtrust-7489bf",
      "locationSet": {
        "include": ["gb-som.geojson"]
      },
      "tags": {
        "amenity": "clinic",
        "healthcare": "clinic",
        "operator": "Yeovil District Hospital NHS Foundation Trust",
        "operator:wikidata": "Q8052494",
        "operator:wikipedia": "en:Yeovil District Hospital NHS Foundation Trust"
      }
    },
    {
      "displayName": "ZoomCare",
      "id": "zoomcare-0ca787",
      "locationSet": {"include": ["us"]},
      "tags": {
        "amenity": "clinic",
        "healthcare": "clinic",
        "name": "ZoomCare",
        "operator": "ZoomCare",
        "operator:wikidata": "Q64120374",
        "operator:wikipedia": "en:ZoomCare",
        "urgent_care": "yes"
      }
    },
    {
      "displayName": "ГБУЗ МО 'Раменская ЦРБ'",
      "id": "cd5719-14b936",
      "locationSet": {"include": ["ru"]},
      "tags": {
        "amenity": "clinic",
        "healthcare": "clinic",
        "operator": "ГБУЗ МО 'Раменская ЦРБ'"
      }
    },
    {
      "displayName": "МИБС",
      "id": "2fd871-14b936",
      "locationSet": {"include": ["ru"]},
      "matchTags": ["shop/medical_supply"],
      "tags": {
        "amenity": "clinic",
        "healthcare": "clinic",
        "healthcare:speciality": "diagnostic_radiology",
        "name": "МИБС",
        "operator": "МИБС"
      }
    },
    {
      "displayName": "Скандинавия",
      "id": "e9ace9-14b936",
      "locationSet": {"include": ["ru"]},
      "tags": {
        "amenity": "clinic",
        "healthcare": "clinic",
        "operator": "Скандинавия"
      }
    },
    {
      "displayName": "ССМЦ",
      "id": "aa83b0-14b936",
      "locationSet": {"include": ["ru"]},
      "tags": {
        "amenity": "clinic",
        "healthcare": "clinic",
        "operator": "ССМЦ"
      }
    },
    {
      "displayName": "כללית",
      "id": "clalithealthcareservices-1b314b",
      "locationSet": {"include": ["il"]},
      "tags": {
        "amenity": "clinic",
        "healthcare": "clinic",
        "operator": "כללית",
        "operator:en": "Clalit Healthcare Services",
        "operator:he": "כללית",
        "operator:wikidata": "Q2028422",
        "operator:wikipedia": "he:שירותי בריאות כללית"
      }
    },
    {
      "displayName": "מכבי",
      "id": "maccabihealthcareservices-1b314b",
      "locationSet": {"include": ["il"]},
      "tags": {
        "amenity": "clinic",
        "healthcare": "clinic",
        "operator": "מכבי",
        "operator:en": "Maccabi Healthcare Services",
        "operator:he": "מכבי",
        "operator:wikidata": "Q2907040",
        "operator:wikipedia": "he:מכבי שירותי בריאות"
      }
    },
    {
      "displayName": "وزارة الصحة",
      "id": "1d9246-55c168",
      "locationSet": {"include": ["001"]},
      "tags": {
        "amenity": "clinic",
        "healthcare": "clinic",
        "operator": "وزارة الصحة"
      }
    },
    {
      "displayName": "โรงพยาบาลส่งเสริมสุขภาพตำบล",
      "id": "2beb32-144162",
      "locationSet": {"include": ["th"]},
      "matchTags": ["amenity/hospital"],
      "tags": {
        "amenity": "clinic",
        "healthcare": "clinic",
        "name": "โรงพยาบาลส่งเสริมสุขภาพตำบล",
        "name:th": "โรงพยาบาลส่งเสริมสุขภาพตำบล",
        "operator": "โรงพยาบาลส่งเสริมสุขภาพตำบล",
        "operator:th": "โรงพยาบาลส่งเสริมสุขภาพตำบล",
        "operator:wikidata": "Q16306413",
        "operator:wikipedia": "th:โรงพยาบาลส่งเสริมสุขภาพตำบล"
      }
    }
  ]
}
