{
  "properties": {
    "path": "operators/amenity/community_centre",
    "exclude": {
      "generic": [
        "^(community centre)$",
        "^(自治会|町内会)$",
        "^(commun(e|ity)|gemeinde)$",
        "^evangelische kirche$",
        "^mairie$",
        "^(government|municipalité)$",
        "^scouts$"
      ]
    }
  },
  "items": [
    {
      "displayName": "AGESCI",
      "id": "agesci-e4e4f8",
      "locationSet": {"include": ["it"]},
      "tags": {
        "amenity": "community_centre",
        "operator": "AGESCI",
        "operator:type": "association",
        "operator:wikidata": "Q637335"
      }
    },
    {
      "displayName": "Ajuntament de Barcelona",
      "id": "ajuntamentdebarcelona-b0bc99",
      "locationSet": {
        "include": ["es-b.geojson"]
      },
      "tags": {
        "amenity": "community_centre",
        "operator": "Ajuntament de Barcelona",
        "operator:type": "government",
        "operator:wikidata": "Q3129773"
      }
    },
    {
      "displayName": "Association des Maisons de quartier de Reims",
      "id": "associationdesmaisonsdequartierdereims-602375",
      "locationSet": {"include": ["fx"]},
      "tags": {
        "amenity": "community_centre",
        "operator": "Association des Maisons de quartier de Reims",
        "operator:type": "private"
      }
    },
    {
      "displayName": "Auckland Council",
      "id": "aucklandcouncil-8f36f1",
      "locationSet": {
        "include": ["nz-auk.geojson"]
      },
      "tags": {
        "amenity": "community_centre",
        "operator": "Auckland Council",
        "operator:type": "government",
        "operator:wikidata": "Q758635"
      }
    },
    {
      "displayName": "AWO",
      "id": "awo-57d70d",
      "locationSet": {"include": ["de"]},
      "tags": {
        "amenity": "community_centre",
        "operator": "AWO",
        "operator:type": "private"
      }
    },
    {
      "displayName": "Ayuntamiento de Madrid",
      "id": "ayuntamientodemadrid-bf9ebc",
      "locationSet": {
        "include": ["es-m.geojson"]
      },
      "tags": {
        "amenity": "community_centre",
        "operator": "Ayuntamiento de Madrid",
        "operator:type": "government",
        "operator:wikidata": "Q3773976"
      }
    },
    {
      "displayName": "Ayuntamiento de Málaga",
      "id": "ayuntamientodemalaga-1f7aba",
      "locationSet": {"include": ["es"]},
      "tags": {
        "amenity": "community_centre",
        "operator": "Ayuntamiento de Málaga",
        "operator:type": "government",
        "operator:wikidata": "Q5714892"
      }
    },
    {
      "displayName": "Baltimore City Health Department",
      "id": "baltimorecitydepartmentofhealth-e4e4f8",
      "locationSet": {"include": ["us-md-baltimore.geojson"]},
      "matchNames": ["Baltimore City Department of Health"],
      "tags": {
        "amenity": "community_centre",
        "operator": "Baltimore City Health Department",
        "operator:type": "government",
        "operator:wikidata": "Q21028393"
      }
    },
    {
      "displayName": "Baltimore County Department of Aging",
      "id": "baltimorecountydepartmentofaging-529004",
      "locationSet": {
        "include": ["us-md.geojson"]
      },
      "tags": {
        "amenity": "community_centre",
        "operator": "Baltimore County Department of Aging",
        "operator:type": "government"
      }
    },
    {
      "displayName": "Bezirksamt Eimsbüttel",
      "id": "bezirksamteimsbuttel-09d892",
      "locationSet": {
        "include": ["de-hh.geojson"]
      },
      "tags": {
        "amenity": "community_centre",
        "operator": "Bezirksamt Eimsbüttel",
        "operator:type": "government"
      }
    },
    {
      "displayName": "Bezirksamt Hamburg-Mitte",
      "id": "bezirksamthamburgmitte-09d892",
      "locationSet": {
        "include": ["de-hh.geojson"]
      },
      "tags": {
        "amenity": "community_centre",
        "operator": "Bezirksamt Hamburg-Mitte",
        "operator:type": "government"
      }
    },
    {
      "displayName": "Bezirksamt Hamburg-Nord",
      "id": "bezirksamthamburgnord-09d892",
      "locationSet": {
        "include": ["de-hh.geojson"]
      },
      "tags": {
        "amenity": "community_centre",
        "operator": "Bezirksamt Hamburg-Nord",
        "operator:type": "government"
      }
    },
    {
      "displayName": "Caritas",
      "id": "caritas-57d70d",
      "locationSet": {"include": ["de"]},
      "tags": {
        "amenity": "community_centre",
        "operator": "Caritas",
        "operator:type": "charitable",
        "operator:wikidata": "Q29508174"
      }
    },
    {
      "displayName": "Caruiz Gadm Tena",
      "id": "caruizgadmtena-aa1b4b",
      "locationSet": {"include": ["ec"]},
      "tags": {
        "amenity": "community_centre",
        "operator": "Caruiz Gadm Tena",
        "operator:type": "private"
      }
    },
    {
      "displayName": "Chicago Park District",
      "id": "chicagoparkdistrict-706aee",
      "locationSet": {
        "include": ["us-il.geojson"]
      },
      "tags": {
        "amenity": "community_centre",
        "operator": "Chicago Park District",
        "operator:type": "public",
        "operator:wikidata": "Q2963322"
      }
    },
    {
      "displayName": "Chiro",
      "id": "chiro-d3b2a9",
      "locationSet": {"include": ["be"]},
      "tags": {
        "amenity": "community_centre",
        "operator": "Chiro",
        "operator:type": "ngo",
        "operator:wikidata": "Q2749394"
      }
    },
    {
      "displayName": "City of Cape Town",
      "id": "cityofcapetown-2d14a3",
      "locationSet": {"include": ["za"]},
      "tags": {
        "amenity": "community_centre",
        "operator": "City of Cape Town",
        "operator:type": "government",
        "operator:wikidata": "Q1185115"
      }
    },
    {
      "displayName": "City of Cleveland",
      "id": "cityofcleveland-47f0c6",
      "locationSet": {
        "include": ["us-oh.geojson"]
      },
      "tags": {
        "amenity": "community_centre",
        "operator": "City of Cleveland",
        "operator:type": "government",
        "operator:wikidata": "Q37320"
      }
    },
    {
      "displayName": "City of Kitchener",
      "id": "cityofkitchener-6e645e",
      "locationSet": {
        "include": ["ca-on.geojson"]
      },
      "tags": {
        "amenity": "community_centre",
        "operator": "City of Kitchener",
        "operator:type": "government",
        "operator:wikidata": "Q200166"
      }
    },
    {
      "displayName": "City of London (Ontario)",
      "id": "cityoflondon-6e645e",
      "locationSet": {
        "include": ["ca-on.geojson"]
      },
      "tags": {
        "amenity": "community_centre",
        "operator": "City of London",
        "operator:type": "government",
        "operator:wikidata": "Q92561"
      }
    },
    {
      "displayName": "City of Los Angeles",
      "id": "cityoflosangeles-0fcd3d",
      "locationSet": {
        "include": [
          "us-ca-los_angeles_county.geojson"
        ]
      },
      "tags": {
        "amenity": "community_centre",
        "operator": "City of Los Angeles",
        "operator:type": "government",
        "operator:wikidata": "Q65"
      }
    },
    {
      "displayName": "City of Orlando",
      "id": "cityoforlando-fb3645",
      "locationSet": {
        "include": ["us-fl.geojson"]
      },
      "matchNames": ["orlando"],
      "tags": {
        "amenity": "community_centre",
        "operator": "City of Orlando",
        "operator:type": "government",
        "operator:wikidata": "Q49233"
      }
    },
    {
      "displayName": "City of Ottawa",
      "id": "cityofottawa-6e645e",
      "locationSet": {
        "include": ["ca-on.geojson"]
      },
      "matchNames": ["ottawa"],
      "tags": {
        "amenity": "community_centre",
        "operator": "City of Ottawa",
        "operator:type": "government",
        "operator:wikidata": "Q5123850"
      }
    },
    {
      "displayName": "City of Portland (Oregon)",
      "id": "cityofportland-60cfde",
      "locationSet": {
        "include": ["us-or.geojson"]
      },
      "tags": {
        "amenity": "community_centre",
        "operator": "City of Portland",
        "operator:type": "government",
        "operator:wikidata": "Q6106"
      }
    },
    {
      "displayName": "City of Toronto",
      "id": "cityoftoronto-6e645e",
      "locationSet": {
        "include": ["ca-on.geojson"]
      },
      "tags": {
        "amenity": "community_centre",
        "operator": "City of Toronto",
        "operator:type": "government",
        "operator:wikidata": "Q172"
      }
    },
    {
      "displayName": "Mairie de Sarzeau",
      "id": "communedesarzeau-e4e4f8",
      "locationSet": {"include": ["fr-bre.geojson"]},
      "matchNames": ["Commune de Sarzeau"],
      "tags": {
        "amenity": "community_centre",
        "operator": "Mairie de Sarzeau",
        "operator:type": "government",
        "operator:wikidata": "Q115909985"
      }
    },
    {
      "displayName": "Commune de Sèvremont",
      "id": "communedesevremont-e4e4f8",
      "locationSet": {"include": ["fr-pdl.geojson"]},
      "tags": {
        "amenity": "community_centre",
        "operator": "Commune de Sèvremont",
        "operator:type": "government",
        "operator:wikidata": "Q118840318"
      }
    },
    {
      "displayName": "Concello de Abegondo",
      "id": "concellodeabegondo-1f7aba",
      "locationSet": {"include": ["es"]},
      "tags": {
        "amenity": "community_centre",
        "operator": "Concello de Abegondo",
        "operator:type": "government",
        "operator:wikidata": "Q318323"
      }
    },
    {
      "displayName": "Concello de Carral",
      "id": "concellodecarral-1f7aba",
      "locationSet": {"include": ["es"]},
      "tags": {
        "amenity": "community_centre",
        "operator": "Concello de Carral",
        "operator:type": "government",
        "operator:wikidata": "Q601352"
      }
    },
    {
      "displayName": "Gemeente Nijmegen",
      "id": "gemeentenijmegen-f90bd5",
      "locationSet": {"include": ["nl"]},
      "tags": {
        "amenity": "community_centre",
        "operator": "Gemeente Nijmegen",
        "operator:type": "government",
        "operator:wikidata": "Q47887"
      }
    },
    {
      "displayName": "Gmina Chojnów",
      "id": "gminachojnow-c977f5",
      "locationSet": {"include": ["pl"]},
      "tags": {
        "amenity": "community_centre",
        "operator": "Gmina Chojnów",
        "operator:type": "government",
        "operator:wikidata": "Q2463113"
      }
    },
    {
      "displayName": "Göteborgs Stad",
      "id": "goteborgsstad-e4e4f8",
      "locationSet": {"include": ["se"]},
      "tags": {
        "amenity": "community_centre",
        "operator": "Göteborgs Stad",
        "operator:type": "government",
        "operator:wikidata": "Q52502"
      }
    },
    {
      "displayName": "Halifax Regional Municipality",
      "id": "halifaxregionalmunicipality-74c2ea",
      "locationSet": {
        "include": ["ca-ns.geojson"]
      },
      "tags": {
        "amenity": "community_centre",
        "operator": "Halifax Regional Municipality",
        "operator:type": "government",
        "operator:wikidata": "Q2141"
      }
    },
    {
      "displayName": "Helsingin kaupunki",
      "id": "helsinginkaupunki-cf4763",
      "locationSet": {"include": ["fi"]},
      "tags": {
        "amenity": "community_centre",
        "operator": "Helsingin kaupunki",
        "operator:type": "government",
        "operator:wikidata": "Q20251620"
      }
    },
    {
      "displayName": "Instituto Ecuatoriano de Seguridad Social",
      "id": "institutoecuatorianodeseguridadsocial-aa1b4b",
      "locationSet": {"include": ["ec"]},
      "tags": {
        "amenity": "community_centre",
        "operator": "Instituto Ecuatoriano de Seguridad Social",
        "operator:short": "IESS",
        "operator:type": "government",
        "operator:wikidata": "Q5917290"
      }
    },
    {
      "displayName": "Institutul Cultural Român",
      "id": "institutulculturalroman-e4e4f8",
      "locationSet": {"include": ["001"]},
      "tags": {
        "amenity": "community_centre",
        "operator": "Institutul Cultural Român",
        "operator:type": "public",
        "operator:wikidata": "Q2740485"
      }
    },
    {
      "displayName": "International Rescue Committee",
      "id": "irc-e4e4f8",
      "locationSet": {"include": ["001"]},
      "tags": {
        "amenity": "community_centre",
        "operator:short": "IRC",
        "operator:type": "ngo",
        "operator": "International Rescue Committee"
        "operator:wikidata": "Q1666849"
      }
    },
    {
      "displayName": "JUNGE KIRCHE SPEYER Diözesanverband",
      "id": "jungekirchespeyerdiozesanverband-84d773",
      "locationSet": {
        "include": [
          "de-rp.geojson",
          "de-sl.geojson"
        ]
      },
      "tags": {
        "amenity": "community_centre",
        "operator": "JUNGE KIRCHE SPEYER Diözesanverband",
        "operator:type": "religious",
        "operator:wikidata": "Q130152117"
      }
    },
    {
      "displayName": "Junta de Andalucía",
      "id": "juntadeandalucia-1f7aba",
      "locationSet": {"include": ["es"]},
      "tags": {
        "amenity": "community_centre",
        "operator": "Junta de Andalucía",
        "operator:type": "government",
        "operator:wikidata": "Q2743342"
      }
    },
    {
      "displayName": "Kreisjugendring München-Stadt",
      "id": "kreisjugendringmunchenstadt-1aa910",
      "locationSet": {
        "include": ["de-by.geojson"]
      },
      "tags": {
        "amenity": "community_centre",
        "operator": "Kreisjugendring München-Stadt",
        "operator:type": "ngo",
        "operator:wikidata": "Q1330682"
      }
    },
    {
      "displayName": "KSA",
      "id": "ksa-e4e4f8",
      "locationSet": {"include": ["be"]},
      "tags": {
        "amenity": "community_centre",
        "operator": "KSA",
        "operator:type": "association",
        "operator:wikidata": "Q2244475"
      }
    },
    {
      "displayName": "Mairie de Creil",
      "id": "mairiedecreil-953561",
      "locationSet": {
        "include": ["fr-hdf.geojson"]
      },
      "tags": {
        "amenity": "community_centre",
        "operator": "Mairie de Creil",
        "operator:type": "government",
        "operator:wikidata": "Q118524793"
      }
    },
    {
      "displayName": "Mairie de Torcy",
      "id": "mairiedetorcy-8ae51c",
      "locationSet": {
        "include": ["fr-idf.geojson"]
      },
      "tags": {
        "amenity": "community_centre",
        "operator": "Mairie de Torcy",
        "operator:type": "government",
        "operator:wikidata": "Q118837878"
      }
    },
    {
      "displayName": "Mairie de Villenave-d'Ornon",
      "id": "mairiedevillenavedornon-1d732e",
      "locationSet": {
        "include": ["fr-naq.geojson"]
      },
      "matchNames": ["villenave-d'ornon"],
      "tags": {
        "amenity": "community_centre",
        "operator": "Mairie de Villenave-d'Ornon",
        "operator:type": "government",
        "operator:wikidata": "Q118555147"
      }
    },
    {
      "displayName": "Municipalidad de Cutral Có",
      "id": "municipalidaddecutralco-ff4eea",
      "locationSet": {
        "include": ["ar-q.geojson"]
      },
      "tags": {
        "amenity": "community_centre",
        "operator": "Municipalidad de Cutral Có",
        "operator:type": "government",
        "operator:wikidata": "Q970536"
      }
    },
    {
      "displayName": "Municipalidad de Neuquén",
      "id": "municipalidaddeneuquen-ff4eea",
      "locationSet": {
        "include": ["ar-q.geojson"]
      },
      "tags": {
        "amenity": "community_centre",
        "operator": "Municipalidad de Neuquén",
        "operator:type": "government",
        "operator:wikidata": "Q118390946"
      }
    },
    {
      "displayName": "Newry, Mourne and Down District Council",
      "id": "newrymourneanddowndistrictcouncil-2e855e",
      "locationSet": {"include": ["gb-nir"]},
      "tags": {
        "amenity": "community_centre",
        "operator": "Newry, Mourne and Down District Council",
        "operator:type": "government",
        "operator:wikidata": "Q16998911"
      }
    },
    {
      "displayName": "RU-VGG-2-23",
      "id": "ruvgg223-67abd2",
      "locationSet": {"include": ["ru"]},
      "tags": {
        "amenity": "community_centre",
        "operator": "RU-VGG-2-23",
        "operator:type": "private"
      }
    },
    {
      "displayName": "Scouts South Africa",
      "id": "scoutssouthafrica-2d14a3",
      "locationSet": {"include": ["za"]},
      "tags": {
        "amenity": "community_centre",
        "operator": "Scouts South Africa",
        "operator:type": "association",
        "operator:wikidata": "Q7565791"
      }
    },
    {
      "displayName": "SIBAT",
      "id": "sibat-e4e4f8",
      "locationSet": {"include": ["id-ml"]},
      "tags": {
        "amenity": "community_centre",
        "operator": "SIBAT",
        "operator:type": "ngo"
      }
    },
    {
      "displayName": "Stadt Paderborn",
      "id": "stadtpaderborn-ffde9d",
      "locationSet": {
        "include": ["de-nw.geojson"]
      },
      "tags": {
        "amenity": "community_centre",
        "operator": "Stadt Paderborn",
        "operator:type": "government",
        "operator:wikidata": "Q2971"
      }
    },
    {
      "displayName": "Stadtjugendring Augsburg",
      "id": "stadtjugendringaugsburg-1aa910",
      "locationSet": {
        "include": ["de-by.geojson"]
      },
      "matchNames": [
        "stadtjugendring augsburg (sjr) kdör"
      ],
      "tags": {
        "amenity": "community_centre",
        "operator": "Stadtjugendring Augsburg",
        "operator:short": "SJR",
        "operator:type": "private",
        "operator:wikidata": "Q130152840"
      }
    },
    {
      "displayName": "Stiftung Zürcher Gemeinschaftszentren",
      "id": "stiftungzurchergemeinschaftszentren-4b6460",
      "locationSet": {
        "include": ["ch-zh.geojson"]
      },
      "tags": {
        "amenity": "community_centre",
        "operator": "Stiftung Zürcher Gemeinschaftszentren",
        "operator:type": "public",
        "operator:wikidata": "Q96178809"
      }
    },
    {
      "displayName": "Svenska kyrkan",
      "id": "svenskakyrkan-57685d",
      "locationSet": {"include": ["se"]},
      "tags": {
        "amenity": "community_centre",
        "operator": "Svenska kyrkan",
        "operator:type": "religious",
        "operator:wikidata": "Q749243"
      }
    },
    {
      "displayName": "The Salvation Army",
      "id": "thesalvationarmy-e4e4f8",
      "locationSet": {"include": ["001"]},
      "matchNames": ["salvation army"],
      "tags": {
        "amenity": "community_centre",
        "operator": "The Salvation Army",
        "operator:type": "charitable",
        "operator:wikidata": "Q188307"
      }
    },
    {
      "displayName": "University of Florida",
      "id": "universityofflorida-fb3645",
      "locationSet": {
        "include": ["us-fl.geojson"]
      },
      "tags": {
        "amenity": "community_centre",
        "operator": "University of Florida",
        "operator:type": "university",
        "operator:wikidata": "Q501758"
      }
    },
    {
      "displayName": "Ville de Besançon",
      "id": "villedebesancon-b39e7e",
      "locationSet": {
        "include": ["fr-bfc.geojson"]
      },
      "tags": {
        "amenity": "community_centre",
        "operator": "Ville de Besançon",
        "operator:type": "government",
        "operator:wikidata": "Q86697997"
      }
    },
    {
      "displayName": "Ville de Gatineau",
      "id": "villedegatineau-6ac2a2",
      "locationSet": {
        "include": ["ca-qc.geojson"]
      },
      "tags": {
        "amenity": "community_centre",
        "operator": "Ville de Gatineau",
        "operator:type": "government",
        "operator:wikidata": "Q141844"
      }
    },
    {
      "displayName": "Ville de Montpellier",
      "id": "villedemontpellier-68cc74",
      "locationSet": {
        "include": ["fr-occ.geojson"]
      },
      "matchNames": ["montpellier"],
      "tags": {
        "amenity": "community_centre",
        "operator": "Ville de Montpellier",
        "operator:type": "government",
        "operator:wikidata": "Q86688720"
      }
    },
    {
      "displayName": "YMCA (USA)",
      "id": "ymca-232bda",
      "locationSet": {"include": ["us"]},
      "matchTags": [
        "amenity/social_facility",
        "office/ngo"
      ],
      "tags": {
        "amenity": "community_centre",
        "operator": "YMCA",
        "operator:type": "ngo",
        "operator:wikidata": "Q54834579"
      }
    },
    {
      "displayName": "ГБУ \"Талисман\"",
      "id": "3e975b-67abd2",
      "locationSet": {"include": ["ru"]},
      "tags": {
        "amenity": "community_centre",
        "operator": "ГБУ \"Талисман\"",
        "operator:type": "private"
      }
    },
    {
      "displayName": "ГБУ ЦДМСИ \"Крылья\"",
      "id": "334f15-67abd2",
      "locationSet": {"include": ["ru"]},
      "tags": {
        "amenity": "community_centre",
        "operator": "ГБУ ЦДМСИ \"Крылья\"",
        "operator:type": "private"
      }
    },
    {
      "displayName": "Дом детского тврочества",
      "id": "8dc1e2-67abd2",
      "locationSet": {"include": ["ru"]},
      "tags": {
        "amenity": "community_centre",
        "operator": "Дом детского тврочества",
        "operator:type": "private"
      }
    },
    {
      "displayName": "МКУ \"МСКК\"",
      "id": "345ef1-67abd2",
      "locationSet": {"include": ["ru"]},
      "tags": {
        "amenity": "community_centre",
        "operator": "МКУ \"МСКК\"",
        "operator:type": "private"
      }
    },
    {
      "displayName": "Муниципальное учреждение дополнительного образования «Центр детского творчества» Ленинского района г. Саратова",
      "id": "e5be1a-67abd2",
      "locationSet": {"include": ["ru"]},
      "tags": {
        "amenity": "community_centre",
        "operator": "Муниципальное учреждение дополнительного образования «Центр детского творчества» Ленинского района г. Саратова",
        "operator:type": "private"
      }
    },
    {
      "displayName": "وزارة الثقافة",
      "id": "495ab9-e4e4f8",
      "locationSet": {"include": ["001"]},
      "note": "this appears to translate to Ministry of Culture, and is present in multiple Asian and African countries",
      "tags": {
        "amenity": "community_centre",
        "operator": "وزارة الثقافة",
        "operator:type": "government"
      }
    },
    {
      "displayName": "つくば市",
      "id": "13a16f-e4e4f8",
      "locationSet": {"include": ["jp-08.geojson"]},
      "tags": {
        "amenity": "community_centre",
        "operator": "つくば市",
        "operator:type": "government",
        "operator:wikidata": "Q273863"
      }
    },
    {
      "displayName": "中國青年救國團",
      "id": "aa206b-0eb52d",
      "locationSet": {"include": ["tw"]},
      "matchNames": [
        "china youth corps",
        "cyc",
        "救國團"
      ],
      "matchTags": [
        "amenity/social_facility",
        "office/ngo"
      ],
      "tags": {
        "amenity": "community_centre",
        "operator": "中國青年救國團",
        "operator:type": "ngo",
        "operator:wikidata": "Q700615"
      }
    },
    {
      "displayName": "佐賀市",
      "id": "b55ddb-e1672a",
      "locationSet": {"include": ["jp"]},
      "tags": {
        "amenity": "community_centre",
        "operator": "佐賀市",
        "operator:type": "private"
      }
    },
    {
      "displayName": "八戸市",
      "id": "df2604-e1672a",
      "locationSet": {"include": ["jp"]},
      "tags": {
        "amenity": "community_centre",
        "operator": "八戸市",
        "operator:type": "private"
      }
    },
    {
      "displayName": "加古川市",
      "id": "745ff2-e1672a",
      "locationSet": {"include": ["jp"]},
      "tags": {
        "amenity": "community_centre",
        "operator": "加古川市",
        "operator:type": "private"
      }
    },
    {
      "displayName": "半田市",
      "id": "8b380e-e1672a",
      "locationSet": {"include": ["jp"]},
      "tags": {
        "amenity": "community_centre",
        "operator": "半田市",
        "operator:type": "private"
      }
    },
    {
      "displayName": "唐津市",
      "id": "8246f5-e4e4f8",
      "locationSet": {"include": ["jp-41.geojson"]},
      "tags": {
        "amenity": "community_centre",
        "operator": "唐津市",
        "operator:type": "government",
        "operator:wikidata": "Q738275"
      }
    },
    {
      "displayName": "大田区",
      "id": "431e24-e1672a",
      "locationSet": {"include": ["jp"]},
      "tags": {
        "amenity": "community_centre",
        "operator": "大田区",
        "operator:type": "government"
      }
    },
    {
      "displayName": "新ひだか町",
      "id": "4f449b-e1672a",
      "locationSet": {"include": ["jp"]},
      "tags": {
        "amenity": "community_centre",
        "operator": "新ひだか町",
        "operator:ja": "新ひだか町",
        "operator:type": "private"
      }
    },
    {
      "displayName": "札幌市",
      "id": "e1715c-e1672a",
      "locationSet": {"include": ["jp"]},
      "tags": {
        "amenity": "community_centre",
        "operator": "札幌市",
        "operator:type": "government"
      }
    },
    {
      "displayName": "横手市",
      "id": "bdecba-e1672a",
      "locationSet": {"include": ["jp"]},
      "tags": {
        "amenity": "community_centre",
        "operator": "横手市",
        "operator:type": "government"
      }
    },
    {
      "displayName": "浜松市",
      "id": "dba649-e1672a",
      "locationSet": {"include": ["jp"]},
      "tags": {
        "amenity": "community_centre",
        "operator": "浜松市",
        "operator:type": "private"
      }
    },
    {
      "displayName": "那覇市",
      "id": "030961-e1672a",
      "locationSet": {"include": ["jp"]},
      "tags": {
        "amenity": "community_centre",
        "operator": "那覇市",
        "operator:type": "government"
      }
    },
    {
      "displayName": "青木村",
      "id": "8c34a6-e1672a",
      "locationSet": {"include": ["jp"]},
      "tags": {
        "amenity": "community_centre",
        "operator": "青木村",
        "operator:type": "private"
      }
    },
    {
      "displayName": "鳥取市教育委員会",
      "id": "19f193-e1672a",
      "locationSet": {"include": ["jp"]},
      "tags": {
        "amenity": "community_centre",
        "operator": "鳥取市教育委員会",
        "operator:type": "private"
      }
    }
  ]
}
