{
  "properties": {
    "path": "operators/amenity/courthouse",
    "exclude": {
      "generic": [
        "^courthouse$",
        "^government$",
        "^суд$"
      ]
    }
  },
  "items": [
    {
      "displayName": "Circuit Court of Cook County",
      "id": "circuitcourtofcookcounty-ca7500",
      "locationSet": {
        "include": ["us-il.geojson"]
      },
      "tags": {
        "amenity": "courthouse",
        "operator": "Circuit Court of Cook County",
        "operator:wikidata": "Q5121577"
      }
    },
    {
      "displayName": "Commonwealth of Massachusetts",
      "id": "commonwealthofmassachusetts-cb4f91",
      "locationSet": {
        "include": ["us-ma.geojson"]
      },
      "tags": {
        "amenity": "courthouse",
        "operator": "Commonwealth of Massachusetts",
        "operator:wikidata": "Q771"
      }
    },
    {
      "displayName": "Corte Superior de Justicia de Lima",
      "id": "cortesuperiordejusticiadelima-351c1b",
      "locationSet": {"include": ["pe"]},
      "tags": {
        "amenity": "courthouse",
        "operator": "Corte Superior de Justicia de Lima"
      }
    },
    {
      "displayName": "Corte Superior de Justicia de Lima Sur",
      "id": "cortesuperiordejusticiadelimasur-351c1b",
      "locationSet": {"include": ["pe"]},
      "tags": {
        "amenity": "courthouse",
        "operator": "Corte Superior de Justicia de Lima Sur"
      }
    },
    {
      "displayName": "Courts of the Republic of Ireland",
      "id": "courtsoftherepublicofireland-920af5",
      "locationSet": {"include": ["ie"]},
      "matchNames": [
        "courts service of ireland",
        "cri"
      ],
      "tags": {
        "amenity": "courthouse",
        "operator": "Courts of the Republic of Ireland",
        "operator:type": "government",
        "operator:wikidata": "Q204829"
      }
    },
    {
      "displayName": "Fiscalía General de la Nación",
      "id": "fiscaliageneraldelanacion-a94c87",
      "locationSet": {"include": ["co"]},
      "tags": {
        "amenity": "courthouse",
        "operator": "Fiscalía General de la Nación"
      }
    },
    {
      "displayName": "Freistaat Sachsen",
      "id": "freistaatsachsen-48dad6",
      "locationSet": {"include": ["de"]},
      "tags": {
        "amenity": "courthouse",
        "operator": "Freistaat Sachsen"
      }
    },
    {
      "displayName": "HM Courts and Tribunals Service",
      "id": "hmcourtsandtribunalsservice-c561a5",
      "locationSet": {"include": ["gb"]},
      "matchNames": [
        "her majesty's courts and tribunals service",
        "his majesty's courts and tribunals service",
        "hmcts"
      ],
      "tags": {
        "amenity": "courthouse",
        "operator": "HM Courts and Tribunals Service",
        "operator:type": "government",
        "operator:wikidata": "Q5732294"
      }
    },
    {
      "displayName": "Ministère de la Justice (Algeria)",
      "id": "ministeredelajustice-20bc39",
      "locationSet": {"include": ["dz"]},
      "tags": {
        "amenity": "courthouse",
        "operator": "Ministère de la Justice",
        "operator:wikidata": "Q3315293"
      }
    },
    {
      "displayName": "Ministère de la Justice (Cameroon)",
      "id": "ministeredelajustice-cb209b",
      "locationSet": {"include": ["cm"]},
      "tags": {
        "amenity": "courthouse",
        "operator": "Ministère de la Justice",
        "operator:wikidata": "Q6867324"
      }
    },
    {
      "displayName": "Ministère de la Justice (DRC)",
      "id": "ministeredelajustice-160188",
      "locationSet": {"include": ["cd"]},
      "tags": {
        "amenity": "courthouse",
        "operator": "Ministère de la Justice",
        "operator:wikidata": "Q97185601"
      }
    },
    {
      "displayName": "Ministère de la Justice (France)",
      "id": "ministeredelajustice-58873b",
      "locationSet": {"include": ["fr"]},
      "tags": {
        "amenity": "courthouse",
        "operator": "Ministère de la Justice",
        "operator:wikidata": "Q509816"
      }
    },
    {
      "displayName": "Ministério da Justiça (Angola)",
      "id": "ministeriodajustica-3a5e8d",
      "locationSet": {"include": ["ao"]},
      "tags": {
        "amenity": "courthouse",
        "operator": "Ministério da Justiça",
        "operator:wikidata": "Q56290000"
      }
    },
    {
      "displayName": "Ministério da Justiça (Brazil)",
      "id": "ministeriodajustica-e063cd",
      "locationSet": {"include": ["br"]},
      "tags": {
        "amenity": "courthouse",
        "operator": "Ministério da Justiça",
        "operator:wikidata": "Q10330387"
      }
    },
    {
      "displayName": "Ministério da Justiça (Portugal)",
      "id": "ministeriodajustica-b3c1f4",
      "locationSet": {"include": ["pt"]},
      "tags": {
        "amenity": "courthouse",
        "operator": "Ministério da Justiça",
        "operator:wikidata": "Q4294868"
      }
    },
    {
      "displayName": "Ministerio de Justicia (Bolivia)",
      "id": "ministeriodejusticia-66344a",
      "locationSet": {"include": ["bo"]},
      "tags": {
        "amenity": "courthouse",
        "operator": "Ministerio de Justicia",
        "operator:wikidata": "Q51737043"
      }
    },
    {
      "displayName": "Ministerio de Justicia (Colombia)",
      "id": "ministeriodejusticia-a94c87",
      "locationSet": {"include": ["co"]},
      "tags": {
        "amenity": "courthouse",
        "operator": "Ministerio de Justicia",
        "operator:wikidata": "Q6867316"
      }
    },
    {
      "displayName": "Ministerio de Justicia (Cuba)",
      "id": "ministeriodejusticia-9189e8",
      "locationSet": {"include": ["cu"]},
      "tags": {
        "amenity": "courthouse",
        "operator": "Ministerio de Justicia",
        "operator:wikidata": "Q55648327"
      }
    },
    {
      "displayName": "Ministerio de Justicia (El Salvador)",
      "id": "ministeriodejusticia-ad776b",
      "locationSet": {"include": ["sv"]},
      "tags": {
        "amenity": "courthouse",
        "operator": "Ministerio de Justicia",
        "operator:wikidata": "Q6017376"
      }
    },
    {
      "displayName": "Ministerio de Justicia (Spain)",
      "id": "ministeriodejusticia-3a2cbc",
      "locationSet": {"include": ["es"]},
      "tags": {
        "amenity": "courthouse",
        "operator": "Ministerio de Justicia",
        "operator:wikidata": "Q3181035"
      }
    },
    {
      "displayName": "Ministero della Giustizia",
      "id": "ministerodellagiustizia-df8fce",
      "locationSet": {"include": ["it"]},
      "tags": {
        "amenity": "courthouse",
        "operator": "Ministero della Giustizia"
      }
    },
    {
      "displayName": "Ministry of Justice (Great Britain)",
      "id": "ministryofjustice-c561a5",
      "locationSet": {"include": ["gb"]},
      "tags": {
        "amenity": "courthouse",
        "operator": "Ministry of Justice",
        "operator:wikidata": "Q2983190"
      }
    },
    {
      "displayName": "Ministry of Justice (New Zealand)",
      "id": "ministryofjustice-497bf0",
      "locationSet": {"include": ["nz"]},
      "tags": {
        "amenity": "courthouse",
        "operator": "Ministry of Justice",
        "operator:wikidata": "Q7015504"
      }
    },
    {
      "displayName": "Poder Judicial (Chile)",
      "id": "poderjudicial-64080d",
      "locationSet": {"include": ["cl"]},
      "tags": {
        "amenity": "courthouse",
        "operator": "Poder Judicial",
        "operator:wikidata": "Q6303091"
      }
    },
    {
      "displayName": "Poder Judicial (Costa Rica)",
      "id": "poderjudicial-db9fe2",
      "locationSet": {"include": ["cr"]},
      "tags": {
        "amenity": "courthouse",
        "operator": "Poder Judicial",
        "operator:wikidata": "Q7644938"
      }
    },
    {
      "displayName": "Poder Judicial de la Nación",
      "id": "poderjudicialdelanacion-738ae9",
      "locationSet": {"include": ["ar"]},
      "tags": {
        "amenity": "courthouse",
        "operator": "Poder Judicial de la Nación"
      }
    },
    {
      "displayName": "Poder Judicial de la Provincia de Buenos Aires",
      "id": "poderjudicialdelaprovinciadebuenosaires-738ae9",
      "locationSet": {"include": ["ar"]},
      "tags": {
        "amenity": "courthouse",
        "operator": "Poder Judicial de la Provincia de Buenos Aires"
      }
    },
    {
      "displayName": "Poder Judicial de Neuquén",
      "id": "poderjudicialdeneuquen-738ae9",
      "locationSet": {"include": ["ar"]},
      "tags": {
        "amenity": "courthouse",
        "operator": "Poder Judicial de Neuquén"
      }
    },
    {
      "displayName": "Poder Judicial del Perú",
      "id": "poderjudicialdelperu-351c1b",
      "locationSet": {"include": ["pe"]},
      "tags": {
        "amenity": "courthouse",
        "operator": "Poder Judicial del Perú"
      }
    },
    {
      "displayName": "Scottish Courts and Tribunals Service",
      "id": "scottishcourtsandtribunalsservice-b762da",
      "locationSet": {"include": ["gb-sct"]},
      "matchNames": ["scts"],
      "tags": {
        "amenity": "courthouse",
        "operator": "Scottish Courts and Tribunals Service",
        "operator:type": "government",
        "operator:wikidata": "Q7437682"
      }
    },
    {
      "displayName": "Tribunal de Justiça do Distrito Federal e dos Territórios",
      "id": "tribunaldejusticadodistritofederaledosterritorios-e063cd",
      "locationSet": {"include": ["br"]},
      "tags": {
        "amenity": "courthouse",
        "operator": "Tribunal de Justiça do Distrito Federal e dos Territórios"
      }
    },
    {
      "displayName": "Tribunal de Justiça do Estado da Bahia",
      "id": "tribunaldejusticadoestadodabahia-e063cd",
      "locationSet": {"include": ["br"]},
      "tags": {
        "amenity": "courthouse",
        "operator": "Tribunal de Justiça do Estado da Bahia"
      }
    },
    {
      "displayName": "Tribunal de Justiça do Estado de Minas Gerais",
      "id": "tribunaldejusticadoestadodeminasgerais-e063cd",
      "locationSet": {"include": ["br"]},
      "tags": {
        "amenity": "courthouse",
        "operator": "Tribunal de Justiça do Estado de Minas Gerais"
      }
    },
    {
      "displayName": "Tribunal de Justiça do Estado de São Paulo",
      "id": "tribunaldejusticadoestadodesaopaulo-e063cd",
      "locationSet": {"include": ["br"]},
      "tags": {
        "amenity": "courthouse",
        "operator": "Tribunal de Justiça do Estado de São Paulo"
      }
    },
    {
      "displayName": "Tribunal de Justiça do Estado do Espírito Santo",
      "id": "tribunaldejusticadoestadodoespiritosanto-e063cd",
      "locationSet": {"include": ["br"]},
      "tags": {
        "amenity": "courthouse",
        "operator": "Tribunal de Justiça do Estado do Espírito Santo"
      }
    }
  ]
}
