{
  "properties": {
    "path": "operators/amenity/doctors",
    "preserveTags": ["^name"],
    "exclude": {
      "generic": [
        "^doctors?$",
        "^gemeinschaftspraxis$",
        "^no$"
      ],
      "named": ["^dr chirugien dentiste$"]
    }
  },
  "items": [
    {
      "displayName": "Abrazo Community Health Network",
      "id": "abrazocommunityhealthnetwork-85b200",
      "locationSet": {
        "include": ["us-az.geojson"]
      },
      "tags": {
        "amenity": "doctors",
        "healthcare": "doctor",
        "operator": "Abrazo Community Health Network"
      }
    },
    {
      "displayName": "Albany Medical Health System - Saratoga Hospital",
      "id": "albanymedicalhealthsystemsaratogahospital-cadfb7",
      "locationSet": {
        "include": ["us-ny.geojson"]
      },
      "tags": {
        "amenity": "doctors",
        "healthcare": "doctor",
        "operator": "Albany Medical Health System - Saratoga Hospital"
      }
    },
    {
      "displayName": "ASU - Friuli Centrale",
      "id": "asufriulicentrale-2ca1b1",
      "locationSet": {"include": ["it"]},
      "tags": {
        "amenity": "doctors",
        "healthcare": "doctor",
        "operator": "ASU - Friuli Centrale"
      }
    },
    {
      "displayName": "Augenzentrum Eckert",
      "id": "augenzentrumeckert-628c49",
      "locationSet": {"include": ["de"]},
      "tags": {
        "amenity": "doctors",
        "healthcare": "doctor",
        "operator": "Augenzentrum Eckert"
      }
    },
    {
      "displayName": "Biržų rajono savivaldybės poliklinika",
      "id": "birzurajonosavivaldybespoliklinika-d25fb6",
      "locationSet": {"include": ["lt"]},
      "tags": {
        "amenity": "doctors",
        "healthcare": "doctor",
        "operator": "Biržų rajono savivaldybės poliklinika"
      }
    },
    {
      "displayName": "Dom zdravlja Čakovec",
      "id": "domzdravljacakovec-1e7d6e",
      "locationSet": {"include": ["hr"]},
      "tags": {
        "amenity": "doctors",
        "healthcare": "doctor",
        "operator": "Dom zdravlja Čakovec"
      }
    },
    {
      "displayName": "Dom zdravlja Sisačko-moslavačke županije",
      "id": "domzdravljasisackomoslavackezupanije-1e7d6e",
      "locationSet": {"include": ["hr"]},
      "tags": {
        "amenity": "doctors",
        "healthcare": "doctor",
        "operator": "Dom zdravlja Sisačko-moslavačke županije"
      }
    },
    {
      "displayName": "Dom zdravlja Vinkovci",
      "id": "domzdravljavinkovci-1e7d6e",
      "locationSet": {"include": ["hr"]},
      "tags": {
        "amenity": "doctors",
        "healthcare": "doctor",
        "operator": "Dom zdravlja Vinkovci"
      }
    },
    {
      "displayName": "Dom zdravlja Vukovar",
      "id": "domzdravljavukovar-1e7d6e",
      "locationSet": {"include": ["hr"]},
      "tags": {
        "amenity": "doctors",
        "healthcare": "doctor",
        "operator": "Dom zdravlja Vukovar"
      }
    },
    {
      "displayName": "Dom zdravlja Zagreb - Centar",
      "id": "domzdravljazagrebcentar-1e7d6e",
      "locationSet": {"include": ["hr"]},
      "tags": {
        "amenity": "doctors",
        "healthcare": "doctor",
        "operator": "Dom zdravlja Zagreb - Centar"
      }
    },
    {
      "displayName": "Dom zdravlja Zagreb - Istok",
      "id": "domzdravljazagrebistok-1e7d6e",
      "locationSet": {"include": ["hr"]},
      "tags": {
        "amenity": "doctors",
        "healthcare": "doctor",
        "operator": "Dom zdravlja Zagreb - Istok"
      }
    },
    {
      "displayName": "Dom zdravlja Zagreb - Zapad",
      "id": "domzdravljazagrebzapad-1e7d6e",
      "locationSet": {"include": ["hr"]},
      "tags": {
        "amenity": "doctors",
        "healthcare": "doctor",
        "operator": "Dom zdravlja Zagreb - Zapad"
      }
    },
    {
      "displayName": "Dom zdravlja Zagrebačke županije",
      "id": "domzdravljazagrebackezupanije-1e7d6e",
      "locationSet": {"include": ["hr"]},
      "tags": {
        "amenity": "doctors",
        "healthcare": "doctor",
        "operator": "Dom zdravlja Zagrebačke županije"
      }
    },
    {
      "displayName": "Dom zdravlja Županja",
      "id": "domzdravljazupanja-1e7d6e",
      "locationSet": {"include": ["hr"]},
      "tags": {
        "amenity": "doctors",
        "healthcare": "doctor",
        "operator": "Dom zdravlja Županja"
      }
    },
    {
      "displayName": "Generalitat Valenciana",
      "id": "generalitatvalenciana-82fbf1",
      "locationSet": {"include": ["es"]},
      "tags": {
        "amenity": "doctors",
        "healthcare": "doctor",
        "operator": "Generalitat Valenciana",
        "operator:type": "public",
        "operator:wikidata": "Q2477285"
      }
    },
    {
      "displayName": "GGD Rotterdam-Rijnmond",
      "id": "ggdrotterdamrijnmond-dc48cf",
      "locationSet": {"include": ["nl"]},
      "tags": {
        "amenity": "doctors",
        "healthcare": "doctor",
        "operator": "GGD Rotterdam-Rijnmond",
        "operator:wikidata": "Q5596011"
      }
    },
    {
      "displayName": "GGD Zeeland",
      "id": "ggdzeeland-dc48cf",
      "locationSet": {"include": ["nl"]},
      "tags": {
        "amenity": "doctors",
        "healthcare": "doctor",
        "operator": "GGD Zeeland"
      }
    },
    {
      "displayName": "HBK-Poliklinik gemeinnützige GmbH",
      "id": "hbkpoliklinikgemeinnutzigegmbh-158874",
      "locationSet": {
        "include": ["de-sn.geojson"]
      },
      "tags": {
        "amenity": "doctors",
        "healthcare": "doctor",
        "operator": "HBK-Poliklinik gemeinnützige GmbH"
      }
    },
    {
      "displayName": "Mercy Health",
      "id": "mercyhealth-4a018b",
      "locationSet": {
        "include": [
          "us-ky.geojson",
          "us-oh.geojson"
        ]
      },
      "tags": {
        "amenity": "doctors",
        "healthcare": "doctor",
        "operator": "Mercy Health",
        "operator:wikidata": "Q5053169"
      }
    },
    {
      "displayName": "Ministère de la santé et de l'action sociale",
      "id": "ministeredelasanteetdelactionsociale-523ac1",
      "locationSet": {"include": ["sn"]},
      "tags": {
        "amenity": "doctors",
        "healthcare": "doctor",
        "operator": "Ministère de la santé et de l'action sociale"
      }
    },
    {
      "displayName": "Municipalidad de General Rodríguez",
      "id": "municipalidaddegeneralrodriguez-9d9149",
      "locationSet": {"include": ["ar"]},
      "tags": {
        "amenity": "doctors",
        "healthcare": "doctor",
        "operator": "Municipalidad de General Rodríguez"
      }
    },
    {
      "displayName": "Municipalidad de Luján",
      "id": "municipalidaddelujan-9d9149",
      "locationSet": {"include": ["ar"]},
      "tags": {
        "amenity": "doctors",
        "healthcare": "doctor",
        "operator": "Municipalidad de Luján"
      }
    },
    {
      "displayName": "Municipalidad de Merlo",
      "id": "municipalidaddemerlo-9d9149",
      "locationSet": {"include": ["ar"]},
      "tags": {
        "amenity": "doctors",
        "healthcare": "doctor",
        "operator": "Municipalidad de Merlo"
      }
    },
    {
      "displayName": "Municipalidad de Moreno",
      "id": "municipalidaddemoreno-9d9149",
      "locationSet": {"include": ["ar"]},
      "tags": {
        "amenity": "doctors",
        "healthcare": "doctor",
        "operator": "Municipalidad de Moreno"
      }
    },
    {
      "displayName": "Municipalidad de Posadas",
      "id": "municipalidaddeposadas-9d9149",
      "locationSet": {"include": ["ar"]},
      "tags": {
        "amenity": "doctors",
        "healthcare": "doctor",
        "operator": "Municipalidad de Posadas"
      }
    },
    {
      "displayName": "NFZ",
      "id": "nfz-982037",
      "locationSet": {"include": ["pl"]},
      "tags": {
        "amenity": "doctors",
        "healthcare": "doctor",
        "operator": "NFZ"
      }
    },
    {
      "displayName": "Rochester Regional Health",
      "id": "rochesterregionalhealth-cadfb7",
      "locationSet": {
        "include": ["us-ny.geojson"]
      },
      "matchNames": ["rochester regional"],
      "tags": {
        "amenity": "doctors",
        "healthcare": "doctor",
        "operator": "Rochester Regional Health",
        "operator:wikidata": "Q7353978"
      }
    },
    {
      "displayName": "RU-VGG-2-23",
      "id": "ruvgg223-7b8af0",
      "locationSet": {"include": ["ru"]},
      "tags": {
        "amenity": "doctors",
        "healthcare": "doctor",
        "operator": "RU-VGG-2-23"
      }
    },
    {
      "displayName": "Samodzielny Zespół Publicznych Zakładów Lecznictwa Otwartego Warszawa-Mokotów",
      "id": "samodzielnyzespolpublicznychzakladowlecznictwaotwartegowarszawamokotow-982037",
      "locationSet": {"include": ["pl"]},
      "tags": {
        "amenity": "doctors",
        "healthcare": "doctor",
        "operator": "Samodzielny Zespół Publicznych Zakładów Lecznictwa Otwartego Warszawa-Mokotów"
      }
    },
    {
      "displayName": "Sanlas Holding",
      "id": "sanlasholding-9498b5",
      "locationSet": {"include": ["at"]},
      "tags": {
        "amenity": "doctors",
        "healthcare": "doctor",
        "operator": "Sanlas Holding"
      }
    },
    {
      "displayName": "UR Medicine",
      "id": "universityofrochestermedicalcenter-cadfb7",
      "locationSet": {
        "include": ["us-ny.geojson"]
      },
      "matchNames": ["urmc"],
      "tags": {
        "amenity": "doctors",
        "healthcare": "doctor",
        "operator": "University of Rochester Medical Center",
        "operator:short": "UR Medicine",
        "operator:wikidata": "Q7896217"
      }
    },
    {
      "displayName": "UW Medicine",
      "id": "uwmedicine-3ba0f7",
      "locationSet": {
        "include": ["us-wa.geojson"]
      },
      "tags": {
        "amenity": "doctors",
        "healthcare": "doctor",
        "operator": "UW Medicine",
        "operator:wikidata": "Q98277868"
      }
    },
    {
      "displayName": "КДЛ ДОМОДЕДОВО-ТЕСТ",
      "id": "a85d1a-402f23",
      "locationSet": {"include": ["001"]},
      "tags": {
        "amenity": "doctors",
        "healthcare": "doctor",
        "operator": "КДЛ ДОМОДЕДОВО-ТЕСТ"
      }
    },
    {
      "displayName": "КДЛ НОВОКУЗНЕЦК-ТЕСТ",
      "id": "74b5fe-402f23",
      "locationSet": {"include": ["001"]},
      "tags": {
        "amenity": "doctors",
        "healthcare": "doctor",
        "operator": "КДЛ НОВОКУЗНЕЦК-ТЕСТ"
      }
    },
    {
      "displayName": "КДЛ Новосибирск - тест",
      "id": "b0daa1-402f23",
      "locationSet": {"include": ["001"]},
      "tags": {
        "amenity": "doctors",
        "healthcare": "doctor",
        "operator": "КДЛ Новосибирск - тест"
      }
    },
    {
      "displayName": "КДЛ УФА-ТЕСТ",
      "id": "7d4209-402f23",
      "locationSet": {"include": ["001"]},
      "tags": {
        "amenity": "doctors",
        "healthcare": "doctor",
        "operator": "КДЛ УФА-ТЕСТ"
      }
    },
    {
      "displayName": "КДЛ-Домодедово-тест», филиал»КДЛ Саратов»",
      "id": "a960b5-402f23",
      "locationSet": {"include": ["001"]},
      "tags": {
        "amenity": "doctors",
        "healthcare": "doctor",
        "operator": "КДЛ-Домодедово-тест», филиал»КДЛ Саратов»"
      }
    },
    {
      "displayName": "Онгудайская центральная районная больница",
      "id": "44c64d-402f23",
      "locationSet": {"include": ["001"]},
      "tags": {
        "amenity": "doctors",
        "healthcare": "doctor",
        "operator": "Онгудайская центральная районная больница"
      }
    },
    {
      "displayName": "Синлаб-ЕМЛ",
      "id": "c444ed-402f23",
      "locationSet": {"include": ["001"]},
      "tags": {
        "amenity": "doctors",
        "healthcare": "doctor",
        "operator": "Синлаб-ЕМЛ"
      }
    },
    {
      "displayName": "ССМП",
      "id": "9cfa26-402f23",
      "locationSet": {"include": ["001"]},
      "tags": {
        "amenity": "doctors",
        "healthcare": "doctor",
        "operator": "ССМП"
      }
    },
    {
      "displayName": "Филиал \"КДЛ Тюмень\" ООО \"Медицинский центр \"Диапазон\"",
      "id": "1cff92-402f23",
      "locationSet": {"include": ["001"]},
      "tags": {
        "amenity": "doctors",
        "healthcare": "doctor",
        "operator": "Филиал \"КДЛ Тюмень\" ООО \"Медицинский центр \"Диапазон\""
      }
    },
    {
      "displayName": "Филиал КДЛ Ростов-на-Дону ООО КДЛ ДОМОДЕДОВО-ТЕСТ",
      "id": "cb7031-402f23",
      "locationSet": {"include": ["001"]},
      "tags": {
        "amenity": "doctors",
        "healthcare": "doctor",
        "operator": "Филиал КДЛ Ростов-на-Дону ООО КДЛ ДОМОДЕДОВО-ТЕСТ"
      }
    },
    {
      "displayName": "Хеликс",
      "id": "05f62b-402f23",
      "locationSet": {"include": ["001"]},
      "tags": {
        "amenity": "doctors",
        "healthcare": "doctor",
        "operator": "Хеликс"
      }
    }
  ]
}
