{
  "properties": {
    "path": "operators/amenity/drinking_water",
    "exclude": {
      "generic": [
        "^(croix-rouge|red cross)$",
        "^(institution|wsb|wsp) \\(staff\\)$",
        "^\\(local\\) private sector- name\\/no$",
        "^ayuntamiento$",
        "^community \\(technician\\) name\\/no$",
        "^community$",
        "^drinking water$",
        "^gemeinde$",
        "^institution staff$",
        "^mairie$",
        "^ngo$",
        "^öffentlich$",
        "^private$",
        "^public$",
        "^tom$",
        "^yes$",
        "^вода$"
      ]
    }
  },
  "items": [
    {
      "displayName": "A2A Ciclo Idrico",
      "id": "a2acicloidrico-8df115",
      "locationSet": {"include": ["it"]},
      "matchNames": ["a2a ciclo idrico s.p.a."],
      "tags": {
        "amenity": "drinking_water",
        "operator": "A2A Ciclo Idrico"
      }
    },
    {
      "displayName": "AAH-Uganda",
      "id": "aahuganda-357a6e",
      "locationSet": {"include": ["ug"]},
      "tags": {
        "amenity": "drinking_water",
        "operator": "AAH-Uganda"
      }
    },
    {
      "displayName": "Acea",
      "id": "acea-8df115",
      "locationSet": {"include": ["it"]},
      "tags": {
        "amenity": "drinking_water",
        "operator": "Acea"
      }
    },
    {
      "displayName": "Acque Bresciane",
      "id": "acquebresciane-8df115",
      "locationSet": {"include": ["it"]},
      "tags": {
        "amenity": "drinking_water",
        "operator": "Acque Bresciane"
      }
    },
    {
      "displayName": "Acque Spa",
      "id": "acquespa-8df115",
      "locationSet": {"include": ["it"]},
      "tags": {
        "amenity": "drinking_water",
        "operator": "Acque Spa"
      }
    },
    {
      "displayName": "Acquedotto Pugliese",
      "id": "acquedottopugliese-8df115",
      "locationSet": {"include": ["it"]},
      "tags": {
        "amenity": "drinking_water",
        "operator": "Acquedotto Pugliese"
      }
    },
    {
      "displayName": "Acquedotto Pugliese - Cooperativa Comunità Melpignano",
      "id": "acquedottopugliesecooperativacomunitamelpignano-8df115",
      "locationSet": {"include": ["it"]},
      "tags": {
        "amenity": "drinking_water",
        "operator": "Acquedotto Pugliese - Cooperativa Comunità Melpignano"
      }
    },
    {
      "displayName": "Ada's Hoeve",
      "id": "adashoeve-0a63fc",
      "locationSet": {"include": ["nl"]},
      "tags": {
        "amenity": "drinking_water",
        "operator": "Ada's Hoeve"
      }
    },
    {
      "displayName": "Ajuntament de Barcelona",
      "id": "ajuntamentdebarcelona-a7f52c",
      "locationSet": {"include": ["es"]},
      "tags": {
        "amenity": "drinking_water",
        "operator": "Ajuntament de Barcelona"
      }
    },
    {
      "displayName": "Ajuntament de l'Hospitalet de Llobregat",
      "id": "ajuntamentdelhospitaletdellobregat-a7f52c",
      "locationSet": {"include": ["es"]},
      "tags": {
        "amenity": "drinking_water",
        "operator": "Ajuntament de l'Hospitalet de Llobregat"
      }
    },
    {
      "displayName": "Ajuntament de Montcada i Reixac",
      "id": "ajuntamentdemontcadaireixac-a7f52c",
      "locationSet": {"include": ["es"]},
      "tags": {
        "amenity": "drinking_water",
        "operator": "Ajuntament de Montcada i Reixac"
      }
    },
    {
      "displayName": "Ajuntament de València",
      "id": "ajuntamentdevalencia-a7f52c",
      "locationSet": {"include": ["es"]},
      "tags": {
        "amenity": "drinking_water",
        "operator": "Ajuntament de València"
      }
    },
    {
      "displayName": "AQP",
      "id": "aqp-8df115",
      "locationSet": {"include": ["it"]},
      "tags": {
        "amenity": "drinking_water",
        "operator": "AQP"
      }
    },
    {
      "displayName": "Ayuntamiento de Barbastro",
      "id": "ayuntamientodebarbastro-a7f52c",
      "locationSet": {"include": ["es"]},
      "tags": {
        "amenity": "drinking_water",
        "operator": "Ayuntamiento de Barbastro"
      }
    },
    {
      "displayName": "Ayuntamiento de Los Corrales de Buelna",
      "id": "ayuntamientodeloscorralesdebuelna-a7f52c",
      "locationSet": {"include": ["es"]},
      "tags": {
        "amenity": "drinking_water",
        "operator": "Ayuntamiento de Los Corrales de Buelna"
      }
    },
    {
      "displayName": "Ayuntamiento de Madrid",
      "id": "ayuntamientodemadrid-a7f52c",
      "locationSet": {"include": ["es"]},
      "tags": {
        "amenity": "drinking_water",
        "operator": "Ayuntamiento de Madrid",
        "operator:wikidata": "Q3773976"
      }
    },
    {
      "displayName": "Ayuntamiento de San Felices de Buelna",
      "id": "ayuntamientodesanfelicesdebuelna-a7f52c",
      "locationSet": {"include": ["es"]},
      "tags": {
        "amenity": "drinking_water",
        "operator": "Ayuntamiento de San Felices de Buelna"
      }
    },
    {
      "displayName": "Azienda Servizi Ambientali S.p.A.",
      "id": "aziendaserviziambientalispa-8df115",
      "locationSet": {"include": ["it"]},
      "tags": {
        "amenity": "drinking_water",
        "operator": "Azienda Servizi Ambientali S.p.A.",
        "operator:wikidata": "Q3601161"
      }
    },
    {
      "displayName": "Azienda Servizi Valtrompia S.p.a.",
      "id": "aziendaservizivaltrompiaspa-8df115",
      "locationSet": {"include": ["it"]},
      "tags": {
        "amenity": "drinking_water",
        "operator": "Azienda Servizi Valtrompia S.p.a."
      }
    },
    {
      "displayName": "Bebedouro",
      "id": "bebedouro-1f0e93",
      "locationSet": {"include": ["br"]},
      "tags": {
        "amenity": "drinking_water",
        "operator": "Bebedouro"
      }
    },
    {
      "displayName": "Berliner Wasserbetriebe",
      "id": "berlinerwasserbetriebe-fc0883",
      "locationSet": {"include": ["de"]},
      "tags": {
        "amenity": "drinking_water",
        "operator": "Berliner Wasserbetriebe",
        "operator:wikidata": "Q821856"
      }
    },
    {
      "displayName": "Brabant Water",
      "id": "brabantwater-0a63fc",
      "locationSet": {"include": ["nl"]},
      "tags": {
        "amenity": "drinking_water",
        "operator": "Brabant Water",
        "operator:wikidata": "Q2458134"
      }
    },
    {
      "displayName": "CAMEP",
      "id": "camep-10264b",
      "locationSet": {"include": ["ht"]},
      "tags": {
        "amenity": "drinking_water",
        "operator": "CAMEP"
      }
    },
    {
      "displayName": "Chemun de Urtijëi - Gemeinde St. Ulrich - Comune di Ortisei",
      "id": "chemundeurtijeigemeindestulrichcomunediortisei-8df115",
      "locationSet": {"include": ["it"]},
      "tags": {
        "amenity": "drinking_water",
        "operator": "Chemun de Urtijëi - Gemeinde St. Ulrich - Comune di Ortisei"
      }
    },
    {
      "displayName": "Christchurch City Council",
      "id": "christchurchcitycouncil-987ff7",
      "locationSet": {"include": ["nz"]},
      "tags": {
        "amenity": "drinking_water",
        "operator": "Christchurch City Council"
      }
    },
    {
      "displayName": "City of Austin (Texas)",
      "id": "cityofaustin-6aaee1",
      "locationSet": {
        "include": ["us-tx.geojson"]
      },
      "tags": {
        "amenity": "drinking_water",
        "operator": "City of Austin",
        "operator:type": "government",
        "operator:wikidata": "Q16559"
      }
    },
    {
      "displayName": "City of Burnaby",
      "id": "cityofburnaby-f4df2b",
      "locationSet": {
        "include": ["ca-bc.geojson"]
      },
      "tags": {
        "amenity": "drinking_water",
        "operator": "City of Burnaby",
        "operator:wikidata": "Q244025"
      }
    },
    {
      "displayName": "City of Denton",
      "id": "cityofdenton-6aaee1",
      "locationSet": {
        "include": ["us-tx.geojson"]
      },
      "tags": {
        "amenity": "drinking_water",
        "operator": "City of Denton",
        "operator:type": "government",
        "operator:wikidata": "Q128306"
      }
    },
    {
      "displayName": "Comune di Castiglione d'Orcia",
      "id": "comunedicastiglionedorcia-8df115",
      "locationSet": {"include": ["it"]},
      "tags": {
        "amenity": "drinking_water",
        "operator": "Comune di Castiglione d'Orcia"
      }
    },
    {
      "displayName": "Comune di Montalcino",
      "id": "comunedimontalcino-8df115",
      "locationSet": {"include": ["it"]},
      "tags": {
        "amenity": "drinking_water",
        "operator": "Comune di Montalcino"
      }
    },
    {
      "displayName": "Comune di Montepulciano",
      "id": "comunedimontepulciano-8df115",
      "locationSet": {"include": ["it"]},
      "tags": {
        "amenity": "drinking_water",
        "operator": "Comune di Montepulciano"
      }
    },
    {
      "displayName": "Comune di Monteroni d'Arbia",
      "id": "comunedimonteronidarbia-8df115",
      "locationSet": {"include": ["it"]},
      "tags": {
        "amenity": "drinking_water",
        "operator": "Comune di Monteroni d'Arbia"
      }
    },
    {
      "displayName": "Comune di Ortisei / Gemeinde St. Ulrich",
      "id": "comunediortiseigemeindestulrich-8df115",
      "locationSet": {"include": ["it"]},
      "tags": {
        "amenity": "drinking_water",
        "operator": "Comune di Ortisei / Gemeinde St. Ulrich"
      }
    },
    {
      "displayName": "Comune di San Quirico d'Orcia",
      "id": "comunedisanquiricodorcia-8df115",
      "locationSet": {"include": ["it"]},
      "tags": {
        "amenity": "drinking_water",
        "operator": "Comune di San Quirico d'Orcia"
      }
    },
    {
      "displayName": "Comune di Selva / Gemeinde Wolkenstein",
      "id": "comunediselvagemeindewolkenstein-8df115",
      "locationSet": {"include": ["it"]},
      "tags": {
        "amenity": "drinking_water",
        "operator": "Comune di Selva / Gemeinde Wolkenstein"
      }
    },
    {
      "displayName": "Comune di Siena",
      "id": "comunedisiena-8df115",
      "locationSet": {"include": ["it"]},
      "tags": {
        "amenity": "drinking_water",
        "operator": "Comune di Siena"
      }
    },
    {
      "displayName": "Comune di Torrita di Siena",
      "id": "comuneditorritadisiena-8df115",
      "locationSet": {"include": ["it"]},
      "tags": {
        "amenity": "drinking_water",
        "operator": "Comune di Torrita di Siena"
      }
    },
    {
      "displayName": "Darebin City Council",
      "id": "darebincitycouncil-bffbbc",
      "locationSet": {
        "include": ["au-vic.geojson"]
      },
      "tags": {
        "amenity": "drinking_water",
        "operator": "Darebin City Council",
        "operator:wikidata": "Q56477803"
      }
    },
    {
      "displayName": "De Watergroep",
      "id": "dewatergroep-d9e26a",
      "locationSet": {"include": ["be"]},
      "tags": {
        "amenity": "drinking_water",
        "operator": "De Watergroep"
      }
    },
    {
      "displayName": "Dunea",
      "id": "dunea-0a63fc",
      "locationSet": {"include": ["nl"]},
      "tags": {
        "amenity": "drinking_water",
        "operator": "Dunea",
        "operator:wikidata": "Q2623164"
      }
    },
    {
      "displayName": "Eau de Paris",
      "id": "eaudeparis-02ca9b",
      "locationSet": {"include": ["fx"]},
      "tags": {
        "amenity": "drinking_water",
        "operator": "Eau de Paris",
        "operator:wikidata": "Q3046689"
      }
    },
    {
      "displayName": "Emasa",
      "id": "emasa-a7f52c",
      "locationSet": {"include": ["es"]},
      "tags": {
        "amenity": "drinking_water",
        "operator": "Emasa"
      }
    },
    {
      "displayName": "Emasesa",
      "id": "emasesa-a7f52c",
      "locationSet": {"include": ["es"]},
      "tags": {
        "amenity": "drinking_water",
        "operator": "Emasesa",
        "operator:wikidata": "Q5831718"
      }
    },
    {
      "displayName": "Evides",
      "id": "evides-0a63fc",
      "locationSet": {"include": ["nl"]},
      "tags": {
        "amenity": "drinking_water",
        "operator": "Evides",
        "operator:wikidata": "Q2199007"
      }
    },
    {
      "displayName": "Farys",
      "id": "farys-d9e26a",
      "locationSet": {"include": ["be"]},
      "tags": {
        "amenity": "drinking_water",
        "operator": "Farys"
      }
    },
    {
      "displayName": "Gemeinde Gampel-Bratsch",
      "id": "gemeindegampelbratsch-a1fadc",
      "locationSet": {"include": ["ch"]},
      "tags": {
        "amenity": "drinking_water",
        "operator": "Gemeinde Gampel-Bratsch"
      }
    },
    {
      "displayName": "Gemeinde Toblach",
      "id": "gemeindetoblach-8df115",
      "locationSet": {"include": ["it"]},
      "tags": {
        "amenity": "drinking_water",
        "operator": "Gemeinde Toblach"
      }
    },
    {
      "displayName": "Gemeinde Truden",
      "id": "gemeindetruden-8df115",
      "locationSet": {"include": ["it"]},
      "tags": {
        "amenity": "drinking_water",
        "operator": "Gemeinde Truden"
      }
    },
    {
      "displayName": "GlobalTap",
      "id": "globaltap-3fbe17",
      "locationSet": {"include": ["001"]},
      "tags": {
        "amenity": "drinking_water",
        "operator": "GlobalTap",
        "operator:wikidata": "Q17076840"
      }
    },
    {
      "displayName": "Helsingin seudun ympäristöpalvelut",
      "id": "helsinginseudunymparistopalvelut-077748",
      "locationSet": {"include": ["fi"]},
      "tags": {
        "amenity": "drinking_water",
        "operator": "Helsingin seudun ympäristöpalvelut",
        "operator:short": "HSY",
        "operator:wikidata": "Q10520595"
      }
    },
    {
      "displayName": "Hocking Hills State Park",
      "id": "hockinghillsstatepark-44b6ea",
      "locationSet": {"include": ["us"]},
      "tags": {
        "amenity": "drinking_water",
        "operator": "Hocking Hills State Park",
        "operator:wikidata": "Q5875771"
      }
    },
    {
      "displayName": "Holding Graz",
      "id": "holdinggraz-0f3232",
      "locationSet": {"include": ["at"]},
      "tags": {
        "amenity": "drinking_water",
        "operator": "Holding Graz",
        "operator:wikidata": "Q1624412"
      }
    },
    {
      "displayName": "Iren",
      "id": "iren-8df115",
      "locationSet": {"include": ["it"]},
      "tags": {
        "amenity": "drinking_water",
        "operator": "Iren",
        "operator:wikidata": "Q3801865"
      }
    },
    {
      "displayName": "Jointhepipe",
      "id": "jointhepipe-0a63fc",
      "locationSet": {"include": ["nl"]},
      "tags": {
        "amenity": "drinking_water",
        "operator": "Jointhepipe"
      }
    },
    {
      "displayName": "JoinThePipe, for Brabant Water",
      "id": "jointhepipeforbrabantwater-0a63fc",
      "locationSet": {"include": ["nl"]},
      "tags": {
        "amenity": "drinking_water",
        "operator": "JoinThePipe, for Brabant Water"
      }
    },
    {
      "displayName": "Junta de Freguesia de Faiões",
      "id": "juntadefreguesiadefaioes-a2faed",
      "locationSet": {"include": ["pt"]},
      "tags": {
        "amenity": "drinking_water",
        "operator": "Junta de Freguesia de Faiões"
      }
    },
    {
      "displayName": "Kartanonhaan palstaviljelijät ry",
      "id": "kartanonhaanpalstaviljelijatry-077748",
      "locationSet": {"include": ["fi"]},
      "tags": {
        "amenity": "drinking_water",
        "operator": "Kartanonhaan palstaviljelijät ry"
      }
    },
    {
      "displayName": "London Drinking Fountain Fund",
      "id": "londondrinkingfountainfund-a0e8dc",
      "locationSet": {
        "include": ["gb-lon.geojson"]
      },
      "tags": {
        "amenity": "drinking_water",
        "operator": "London Drinking Fountain Fund"
      }
    },
    {
      "displayName": "LWSC",
      "id": "lwsc-8d8858",
      "locationSet": {"include": ["zm"]},
      "tags": {
        "amenity": "drinking_water",
        "operator": "LWSC"
      }
    },
    {
      "displayName": "Marktgemeinde Schlanders, Abt. Energie und Infrastrukturen",
      "id": "marktgemeindeschlandersabtenergieundinfrastrukturen-8df115",
      "locationSet": {"include": ["it"]},
      "tags": {
        "amenity": "drinking_water",
        "operator": "Marktgemeinde Schlanders, Abt. Energie und Infrastrukturen"
      }
    },
    {
      "displayName": "Metropolitana Milanese - MM SpA",
      "id": "metropolitanamilanesemmspa-8df115",
      "locationSet": {"include": ["it"]},
      "tags": {
        "amenity": "drinking_water",
        "operator": "Metropolitana Milanese - MM SpA"
      }
    },
    {
      "displayName": "Miami Dade College",
      "id": "miamidadecollege-4ee648",
      "locationSet": {
        "include": ["us-fl.geojson"]
      },
      "tags": {
        "amenity": "drinking_water",
        "operator": "Miami Dade College",
        "operator:wikidata": "Q3027788"
      }
    },
    {
      "displayName": "MPWiK",
      "id": "mpwik-f887e0",
      "locationSet": {"include": ["pl"]},
      "tags": {
        "amenity": "drinking_water",
        "operator": "MPWiK"
      }
    },
    {
      "displayName": "MPWiK Wrocław",
      "id": "mpwikwroclaw-f887e0",
      "locationSet": {"include": ["pl"]},
      "tags": {
        "amenity": "drinking_water",
        "operator": "MPWiK Wrocław"
      }
    },
    {
      "displayName": "MTS",
      "id": "mts-15c82d",
      "locationSet": {"include": ["ne"]},
      "tags": {
        "amenity": "drinking_water",
        "operator": "MTS"
      }
    },
    {
      "displayName": "Municipality of Shumen",
      "id": "municipalityofshumen-65e457",
      "locationSet": {"include": ["bg"]},
      "tags": {
        "amenity": "drinking_water",
        "operator": "Municipality of Shumen"
      }
    },
    {
      "displayName": "Nederlandse Spoorwegen",
      "id": "nederlandsespoorwegen-0a63fc",
      "locationSet": {"include": ["nl"]},
      "tags": {
        "amenity": "drinking_water",
        "operator": "Nederlandse Spoorwegen"
      }
    },
    {
      "displayName": "NS",
      "id": "ns-0a63fc",
      "locationSet": {"include": ["nl"]},
      "tags": {
        "amenity": "drinking_water",
        "operator": "NS",
        "operator:wikidata": "Q23076"
      }
    },
    {
      "displayName": "Oasen",
      "id": "oasen-0a63fc",
      "locationSet": {"include": ["nl"]},
      "tags": {
        "amenity": "drinking_water",
        "operator": "Oasen",
        "operator:wikidata": "Q2594590"
      }
    },
    {
      "displayName": "ONEA",
      "id": "onea-12cfce",
      "locationSet": {"include": ["bf"]},
      "tags": {
        "amenity": "drinking_water",
        "operator": "ONEA"
      }
    },
    {
      "displayName": "Oxfam",
      "id": "oxfam-3fbe17",
      "locationSet": {"include": ["001"]},
      "tags": {
        "amenity": "drinking_water",
        "operator": "Oxfam",
        "operator:wikidata": "Q267941"
      }
    },
    {
      "displayName": "Panyolai Önkormányzat",
      "id": "panyolaionkormanyzat-321b46",
      "locationSet": {"include": ["hu"]},
      "tags": {
        "amenity": "drinking_water",
        "operator": "Panyolai Önkormányzat"
      }
    },
    {
      "displayName": "Parks Victoria",
      "id": "parksvictoria-87b3b2",
      "locationSet": {"include": ["au"]},
      "tags": {
        "amenity": "drinking_water",
        "operator": "Parks Victoria"
      }
    },
    {
      "displayName": "PBOT",
      "id": "portlandbureauoftransportation-f48dad",
      "locationSet": {
        "include": ["us-or.geojson"]
      },
      "tags": {
        "amenity": "drinking_water",
        "operator": "Portland Bureau of Transportation",
        "operator:short": "PBOT",
        "operator:wikidata": "Q18156807"
      }
    },
    {
      "displayName": "Peace wind Japan",
      "id": "peacewindjapan-1f271a",
      "locationSet": {"include": ["ke"]},
      "tags": {
        "amenity": "drinking_water",
        "operator": "Peace wind Japan"
      }
    },
    {
      "displayName": "Provincia di Brescia",
      "id": "provinciadibrescia-8df115",
      "locationSet": {"include": ["it"]},
      "tags": {
        "amenity": "drinking_water",
        "operator": "Provincia di Brescia"
      }
    },
    {
      "displayName": "Publiacqua",
      "id": "publiacqua-8df115",
      "locationSet": {"include": ["it"]},
      "tags": {
        "amenity": "drinking_water",
        "operator": "Publiacqua"
      }
    },
    {
      "displayName": "PWN",
      "id": "pwn-0a63fc",
      "locationSet": {"include": ["nl"]},
      "matchNames": [
        "n.v. pwn waterleidingbedrijf noord-holland",
        "pwn waterleidingbedrijf noord-holland"
      ],
      "tags": {
        "amenity": "drinking_water",
        "operator": "PWN",
        "operator:wikidata": "Q1968432"
      }
    },
    {
      "displayName": "Régie des Eaux de Montpellier",
      "id": "regiedeseauxdemontpellier-02ca9b",
      "locationSet": {"include": ["fx"]},
      "tags": {
        "amenity": "drinking_water",
        "operator": "Régie des Eaux de Montpellier"
      }
    },
    {
      "displayName": "RheinEnergie",
      "id": "rheinenergie-fc0883",
      "locationSet": {"include": ["de"]},
      "tags": {
        "amenity": "drinking_water",
        "operator": "RheinEnergie"
      }
    },
    {
      "displayName": "Rīgas ūdens",
      "id": "rigasudens-12a6c1",
      "locationSet": {"include": ["lv"]},
      "tags": {
        "amenity": "drinking_water",
        "operator": "Rīgas ūdens"
      }
    },
    {
      "displayName": "SBB",
      "id": "sbb-a1fadc",
      "locationSet": {"include": ["ch"]},
      "tags": {
        "amenity": "drinking_water",
        "operator": "SBB",
        "operator:wikidata": "Q83835"
      }
    },
    {
      "displayName": "Scottish Water",
      "id": "scottishwater-3032ed",
      "locationSet": {"include": ["gb-sct"]},
      "tags": {
        "amenity": "drinking_water",
        "name": "Top Up Tap",
        "operator": "Scottish Water",
        "operator:wikidata": "Q7438022"
      }
    },
    {
      "displayName": "Seattle Public Utilities",
      "id": "seattlepublicutilities-223fdb",
      "locationSet": {
        "include": ["us-wa.geojson"]
      },
      "tags": {
        "amenity": "drinking_water",
        "operator": "Seattle Public Utilities",
        "operator:short": "SPU",
        "operator:type": "public",
        "operator:wikidata": "Q7442159"
      }
    },
    {
      "displayName": "Sit Lucretili",
      "id": "sitlucretili-8df115",
      "locationSet": {"include": ["it"]},
      "tags": {
        "amenity": "drinking_water",
        "operator": "Sit Lucretili"
      }
    },
    {
      "displayName": "SMAT",
      "id": "smat-8df115",
      "locationSet": {"include": ["it"]},
      "tags": {
        "amenity": "drinking_water",
        "operator": "SMAT",
        "operator:wikidata": "Q3943724"
      }
    },
    {
      "displayName": "SNCF Gares & Connexions",
      "id": "sncfgaresandconnexions-02ca9b",
      "locationSet": {"include": ["fx"]},
      "tags": {
        "amenity": "drinking_water",
        "operator": "SNCF Gares & Connexions"
      }
    },
    {
      "displayName": "Stadt Bludenz",
      "id": "stadtbludenz-0f3232",
      "locationSet": {"include": ["at"]},
      "tags": {
        "amenity": "drinking_water",
        "operator": "Stadt Bludenz"
      }
    },
    {
      "displayName": "Stadt Dornbirn",
      "id": "stadtdornbirn-0f3232",
      "locationSet": {"include": ["at"]},
      "tags": {
        "amenity": "drinking_water",
        "operator": "Stadt Dornbirn"
      }
    },
    {
      "displayName": "Stadt Graz",
      "id": "stadtgraz-0f3232",
      "locationSet": {"include": ["at"]},
      "tags": {
        "amenity": "drinking_water",
        "operator": "Stadt Graz"
      }
    },
    {
      "displayName": "Stadt Linz",
      "id": "stadtlinz-0f3232",
      "locationSet": {"include": ["at"]},
      "tags": {
        "amenity": "drinking_water",
        "operator": "Stadt Linz"
      }
    },
    {
      "displayName": "Stadt Wien",
      "id": "stadtwien-0f3232",
      "locationSet": {"include": ["at"]},
      "tags": {
        "amenity": "drinking_water",
        "operator": "Stadt Wien"
      }
    },
    {
      "displayName": "Stadtwerke Brixen AG",
      "id": "stadtwerkebrixenag-8df115",
      "locationSet": {"include": ["it"]},
      "tags": {
        "amenity": "drinking_water",
        "operator": "Stadtwerke Brixen AG",
        "operator:wikidata": "Q2328441"
      }
    },
    {
      "displayName": "Stadtwerke Meran/Azienda Servizi Municipalizzati di Merano",
      "id": "stadtwerkemeranaziendaservizimunicipalizzatidimerano-8df115",
      "locationSet": {"include": ["it"]},
      "tags": {
        "amenity": "drinking_water",
        "operator": "Stadtwerke Meran/Azienda Servizi Municipalizzati di Merano"
      }
    },
    {
      "displayName": "Szegedi Vízmű Zrt.",
      "id": "szegedivizmuzrt-321b46",
      "locationSet": {"include": ["hu"]},
      "tags": {
        "amenity": "drinking_water",
        "operator": "Szegedi Vízmű Zrt."
      }
    },
    {
      "displayName": "Taigua",
      "id": "taigua-a7f52c",
      "locationSet": {"include": ["es"]},
      "tags": {
        "amenity": "drinking_water",
        "operator": "Taigua"
      }
    },
    {
      "displayName": "Tiefbauamt Stuttgart",
      "id": "tiefbauamtstuttgart-fc0883",
      "locationSet": {"include": ["de"]},
      "tags": {
        "amenity": "drinking_water",
        "operator": "Tiefbauamt Stuttgart"
      }
    },
    {
      "displayName": "Township of Langley",
      "id": "townshipoflangley-f4df2b",
      "locationSet": {
        "include": ["ca-bc.geojson"]
      },
      "tags": {
        "amenity": "drinking_water",
        "operator": "Township of Langley",
        "operator:wikidata": "Q1805330"
      }
    },
    {
      "displayName": "Trevornick Holiday Park",
      "id": "trevornickholidaypark-ca4970",
      "locationSet": {
        "include": [[-5.13, 50.386, 0.5]]
      },
      "note": "Holywell Bay / Beach area, Cornwall",
      "tags": {
        "amenity": "drinking_water",
        "operator": "Trevornick Holiday Park"
      }
    },
    {
      "displayName": "UNICEF",
      "id": "unicef-3fbe17",
      "locationSet": {"include": ["001"]},
      "tags": {
        "amenity": "drinking_water",
        "operator": "UNICEF",
        "operator:wikidata": "Q740308"
      }
    },
    {
      "displayName": "University of Melbourne",
      "id": "universityofmelbourne-bffbbc",
      "locationSet": {
        "include": ["au-vic.geojson"]
      },
      "tags": {
        "amenity": "drinking_water",
        "operator": "University of Melbourne",
        "operator:wikidata": "Q319078"
      }
    },
    {
      "displayName": "University of South Wales",
      "id": "universityofsouthwales-97bbae",
      "locationSet": {"include": ["gb-wls"]},
      "tags": {
        "amenity": "drinking_water",
        "operator": "University of South Wales",
        "operator:wikidata": "Q1971174"
      }
    },
    {
      "displayName": "Vale of Glamorgan Council",
      "id": "valeofglamorgancouncil-97bbae",
      "locationSet": {"include": ["gb-wls"]},
      "matchNames": [
        "vale of glamorgan county borough council"
      ],
      "tags": {
        "amenity": "drinking_water",
        "operator": "Vale of Glamorgan Council",
        "operator:wikidata": "Q7909538"
      }
    },
    {
      "displayName": "Veolia Eau",
      "id": "veoliaeau-02ca9b",
      "locationSet": {"include": ["fx"]},
      "tags": {
        "amenity": "drinking_water",
        "operator": "Veolia Eau",
        "operator:wikidata": "Q682599"
      }
    },
    {
      "displayName": "Veřejná zeleň města Brna",
      "id": "verejnazelenmestabrna-eb7dc3",
      "locationSet": {"include": ["cz"]},
      "tags": {
        "amenity": "drinking_water",
        "operator": "Veřejná zeleň města Brna",
        "operator:short": "VZMB",
        "operator:wikidata": "Q118583570"
      }
    },
    {
      "displayName": "Ville d'Anglet",
      "id": "villedanglet-02ca9b",
      "locationSet": {"include": ["fx"]},
      "tags": {
        "amenity": "drinking_water",
        "operator": "Ville d'Anglet"
      }
    },
    {
      "displayName": "Ville de Boisbriand",
      "id": "villedeboisbriand-5fe9c1",
      "locationSet": {
        "include": ["ca-qc.geojson"]
      },
      "tags": {
        "amenity": "drinking_water",
        "operator": "Ville de Boisbriand",
        "operator:wikidata": "Q139474"
      }
    },
    {
      "displayName": "Ville de Lévis",
      "id": "villedelevis-5fe9c1",
      "locationSet": {
        "include": ["ca-qc.geojson"]
      },
      "tags": {
        "amenity": "drinking_water",
        "operator": "Ville de Lévis",
        "operator:wikidata": "Q139208"
      }
    },
    {
      "displayName": "Ville de Liège",
      "id": "villedeliege-d9e26a",
      "locationSet": {"include": ["be"]},
      "tags": {
        "amenity": "drinking_water",
        "operator": "Ville de Liège"
      }
    },
    {
      "displayName": "Ville de Montpellier",
      "id": "villedemontpellier-02ca9b",
      "locationSet": {"include": ["fx"]},
      "tags": {
        "amenity": "drinking_water",
        "operator": "Ville de Montpellier"
      }
    },
    {
      "displayName": "Vitens",
      "id": "vitens-0a63fc",
      "locationSet": {"include": ["nl"]},
      "tags": {
        "amenity": "drinking_water",
        "operator": "Vitens",
        "operator:wikidata": "Q1943963"
      }
    },
    {
      "displayName": "Vitens/Jointhepipe",
      "id": "vitensjointhepipe-0a63fc",
      "locationSet": {"include": ["nl"]},
      "tags": {
        "amenity": "drinking_water",
        "operator": "Vitens/Jointhepipe"
      }
    },
    {
      "displayName": "Východoslovenská vodárenská spoločnosť",
      "id": "vychodoslovenskavodarenskaspolocnost-82b290",
      "locationSet": {"include": ["sk"]},
      "tags": {
        "amenity": "drinking_water",
        "operator": "Východoslovenská vodárenská spoločnosť",
        "operator:short": "VVS",
        "operator:wikidata": "Q16520438"
      }
    },
    {
      "displayName": "Water Trust",
      "id": "watertrust-8d8858",
      "locationSet": {"include": ["zm"]},
      "tags": {
        "amenity": "drinking_water",
        "operator": "Water Trust"
      }
    },
    {
      "displayName": "Waterbedrijf Groningen",
      "id": "waterbedrijfgroningen-0a63fc",
      "locationSet": {"include": ["nl"]},
      "tags": {
        "amenity": "drinking_water",
        "operator": "Waterbedrijf Groningen",
        "operator:wikidata": "Q2200078"
      }
    },
    {
      "displayName": "Waterlink",
      "id": "waterlink-d9e26a",
      "locationSet": {"include": ["be"]},
      "tags": {
        "amenity": "drinking_water",
        "operator": "Waterlink",
        "operator:wikidata": "Q14754208"
      }
    },
    {
      "displayName": "Waternet",
      "id": "waternet-0a63fc",
      "locationSet": {"include": ["nl"]},
      "tags": {
        "amenity": "drinking_water",
        "operator": "Waternet",
        "operator:wikidata": "Q2137469"
      }
    },
    {
      "displayName": "Wellington City Council",
      "id": "wellingtoncitycouncil-987ff7",
      "locationSet": {"include": ["nz"]},
      "tags": {
        "amenity": "drinking_water",
        "operator": "Wellington City Council",
        "operator:wikidata": "Q601800"
      }
    },
    {
      "displayName": "Wessex Water Refill",
      "id": "wessexwater-87a91c",
      "locationSet": {
        "include": ["gb-south-west.geojson"]
      },
      "tags": {
        "amenity": "drinking_water",
        "operator": "Wessex Water",
        "operator:wikidata": "Q7984154"
      }
    },
    {
      "displayName": "WMD Drents drinkwater",
      "id": "wmddrentsdrinkwater-0a63fc",
      "locationSet": {"include": ["nl"]},
      "tags": {
        "amenity": "drinking_water",
        "operator": "WMD Drents drinkwater",
        "operator:wikidata": "Q63152976"
      }
    },
    {
      "displayName": "WML Limburgs drinkwater",
      "id": "wmllimburgsdrinkwater-0a63fc",
      "locationSet": {"include": ["nl"]},
      "tags": {
        "amenity": "drinking_water",
        "operator": "WML Limburgs drinkwater",
        "operator:wikidata": "Q27959418"
      }
    },
    {
      "displayName": "WVZ",
      "id": "wvz-a1fadc",
      "locationSet": {"include": ["ch"]},
      "tags": {
        "amenity": "drinking_water",
        "operator": "WVZ",
        "operator:wikidata": "Q27229237"
      }
    },
    {
      "displayName": "ZWiK Sp. z o.o. w Oławie",
      "id": "zwikspzoowolawie-f887e0",
      "locationSet": {"include": ["pl"]},
      "tags": {
        "amenity": "drinking_water",
        "operator": "ZWiK Sp. z o.o. w Oławie"
      }
    },
    {
      "displayName": "ГУП «Водоканал Санкт-Петербурга»",
      "id": "edaa6f-feac74",
      "locationSet": {"include": ["ru"]},
      "tags": {
        "amenity": "drinking_water",
        "operator": "ГУП «Водоканал Санкт-Петербурга»"
      }
    },
    {
      "displayName": "การประปานครหลวง",
      "id": "543499-77d894",
      "locationSet": {"include": ["th"]},
      "tags": {
        "amenity": "drinking_water",
        "operator": "การประปานครหลวง",
        "operator:th": "การประปานครหลวง"
      }
    },
    {
      "displayName": "会津若松市 花と緑の課",
      "id": "aabdcb-07acb2",
      "locationSet": {"include": ["jp"]},
      "tags": {
        "amenity": "drinking_water",
        "operator": "会津若松市 花と緑の課",
        "operator:ja": "会津若松市 花と緑の課"
      }
    },
    {
      "displayName": "博愛國小總務處",
      "id": "a7d2cf-3c68ca",
      "locationSet": {"include": ["tw"]},
      "tags": {
        "amenity": "drinking_water",
        "operator": "博愛國小總務處"
      }
    },
    {
      "displayName": "品川区",
      "id": "9b71a0-07acb2",
      "locationSet": {"include": ["jp"]},
      "tags": {
        "amenity": "drinking_water",
        "operator": "品川区"
      }
    },
    {
      "displayName": "大田区",
      "id": "431e24-07acb2",
      "locationSet": {"include": ["jp"]},
      "tags": {
        "amenity": "drinking_water",
        "operator": "大田区"
      }
    },
    {
      "displayName": "工務局公園處",
      "id": "9227d0-3c68ca",
      "locationSet": {"include": ["tw"]},
      "tags": {
        "amenity": "drinking_water",
        "operator": "工務局公園處"
      }
    },
    {
      "displayName": "工務局公園處南港管理所",
      "id": "515216-3c68ca",
      "locationSet": {"include": ["tw"]},
      "tags": {
        "amenity": "drinking_water",
        "operator": "工務局公園處南港管理所"
      }
    },
    {
      "displayName": "工務局公園處圓山管理所",
      "id": "4d7c7f-3c68ca",
      "locationSet": {"include": ["tw"]},
      "tags": {
        "amenity": "drinking_water",
        "operator": "工務局公園處圓山管理所"
      }
    },
    {
      "displayName": "工務局公園處陽明山管理所",
      "id": "8cd721-3c68ca",
      "locationSet": {"include": ["tw"]},
      "tags": {
        "amenity": "drinking_water",
        "operator": "工務局公園處陽明山管理所"
      }
    },
    {
      "displayName": "工務局公園處青年管理所",
      "id": "c50b84-3c68ca",
      "locationSet": {"include": ["tw"]},
      "tags": {
        "amenity": "drinking_water",
        "operator": "工務局公園處青年管理所"
      }
    },
    {
      "displayName": "市政大樓公管中心",
      "id": "ef2223-3c68ca",
      "locationSet": {"include": ["tw"]},
      "tags": {
        "amenity": "drinking_water",
        "operator": "市政大樓公管中心"
      }
    },
    {
      "displayName": "敦化國中總務處",
      "id": "ca8603-3c68ca",
      "locationSet": {"include": ["tw"]},
      "tags": {
        "amenity": "drinking_water",
        "operator": "敦化國中總務處"
      }
    },
    {
      "displayName": "東門國小總務處",
      "id": "6f6579-3c68ca",
      "locationSet": {"include": ["tw"]},
      "tags": {
        "amenity": "drinking_water",
        "operator": "東門國小總務處"
      }
    },
    {
      "displayName": "海巡署",
      "id": "057e0b-3c68ca",
      "locationSet": {"include": ["tw"]},
      "tags": {
        "amenity": "drinking_water",
        "operator": "海巡署"
      }
    },
    {
      "displayName": "百齡國小總務處",
      "id": "f8ad5c-3c68ca",
      "locationSet": {"include": ["tw"]},
      "tags": {
        "amenity": "drinking_water",
        "operator": "百齡國小總務處"
      }
    },
    {
      "displayName": "臺北大眾捷運股份有限公司",
      "id": "6562b9-3c68ca",
      "locationSet": {"include": ["tw"]},
      "tags": {
        "amenity": "drinking_water",
        "operator": "臺北大眾捷運股份有限公司"
      }
    },
    {
      "displayName": "臺北自來水事業處",
      "id": "8a1cdb-3c68ca",
      "locationSet": {"include": ["tw"]},
      "tags": {
        "amenity": "drinking_water",
        "operator": "臺北自來水事業處"
      }
    }
  ]
}
