{
  "properties": {
    "path": "operators/amenity/hospital",
    "exclude": {
      "generic": [
        "^(govern?ment( authorities)?|govt( hospital)?|municipal|private|public|private not for profit|village)$",
        "^centro (de salud|de saúde|médico)$",
        "^hospital$"
      ],
      "named": [
        "^(центральна районна лікарня|црб)$",
        "^(центральная районная )?больница$"
      ]
    }
  },
  "items": [
    {
      "displayName": "Advent Health",
      "id": "adventhealth-888e5a",
      "locationSet": {"include": ["us"]},
      "matchNames": ["adventist health system"],
      "tags": {
        "amenity": "hospital",
        "healthcare": "hospital",
        "operator": "Advent Health",
        "operator:wikidata": "Q3509447",
        "operator:wikipedia": "en:AdventHealth"
      }
    },
    {
      "displayName": "Adventist Health",
      "id": "adventisthealth-888e5a",
      "locationSet": {"include": ["us"]},
      "tags": {
        "amenity": "hospital",
        "healthcare": "hospital",
        "operator": "Adventist Health",
        "operator:wikidata": "Q4686452",
        "operator:wikipedia": "en:Adventist Health"
      }
    },
    {
      "displayName": "Advocate Aurora Health",
      "id": "advocateaurorahealth-888e5a",
      "locationSet": {"include": ["us"]},
      "matchNames": [
        "advocate health care",
        "aurora health care"
      ],
      "tags": {
        "amenity": "hospital",
        "healthcare": "hospital",
        "operator": "Advocate Aurora Health",
        "operator:short": "AAH",
        "operator:wikidata": "Q4822546",
        "operator:wikipedia": "en:Advocate Aurora Health"
      }
    },
    {
      "displayName": "Agaplesion",
      "id": "agaplesion-8bb61e",
      "locationSet": {"include": ["de"]},
      "tags": {
        "amenity": "hospital",
        "healthcare": "hospital",
        "operator": "Agaplesion",
        "operator:wikidata": "Q55445",
        "operator:wikipedia": "de:Agaplesion"
      }
    },
    {
      "displayName": "Alberta Health Services",
      "id": "albertahealthservices-462225",
      "locationSet": {"include": ["ca"]},
      "tags": {
        "amenity": "hospital",
        "healthcare": "hospital",
        "operator": "Alberta Health Services",
        "operator:short": "AHS",
        "operator:wikidata": "Q4711650",
        "operator:wikipedia": "en:Alberta Health Services"
      }
    },
    {
      "displayName": "Alexianer GmbH",
      "id": "alexianergmbh-8bb61e",
      "locationSet": {"include": ["de"]},
      "tags": {
        "amenity": "hospital",
        "healthcare": "hospital",
        "operator": "Alexianer GmbH",
        "operator:wikidata": "Q1688254",
        "operator:wikipedia": "de:Alexianer GmbH"
      }
    },
    {
      "displayName": "Allgemeine Hospitalgesellschaft",
      "id": "allgemeinehospitalgesellschaft-8bb61e",
      "locationSet": {"include": ["de"]},
      "tags": {
        "amenity": "hospital",
        "healthcare": "hospital",
        "operator": "Allgemeine Hospitalgesellschaft",
        "operator:short": "AHG",
        "operator:wikidata": "Q292807",
        "operator:wikipedia": "de:AHG Allgemeine Hospitalgesellschaft"
      }
    },
    {
      "displayName": "Allina Health",
      "id": "allinahealth-888e5a",
      "locationSet": {"include": ["us"]},
      "tags": {
        "amenity": "hospital",
        "healthcare": "hospital",
        "operator": "Allina Health",
        "operator:wikidata": "Q4732681",
        "operator:wikipedia": "en:Allina Health"
      }
    },
    {
      "displayName": "Ameos",
      "id": "ameos-98b222",
      "locationSet": {
        "include": ["at", "ch", "de"]
      },
      "tags": {
        "amenity": "hospital",
        "healthcare": "hospital",
        "operator": "Ameos",
        "operator:wikidata": "Q462865",
        "operator:wikipedia": "de:Ameos"
      }
    },
    {
      "displayName": "Apollo Hospitals",
      "id": "apollohospitals-585fc8",
      "locationSet": {"include": ["in"]},
      "tags": {
        "amenity": "hospital",
        "healthcare": "hospital",
        "name": "Apollo Hospitals",
        "operator": "Apollo Hospitals",
        "operator:wikidata": "Q4780321",
        "operator:wikipedia": "en:Apollo Hospitals"
      }
    },
    {
      "displayName": "Ascension",
      "id": "ascension-888e5a",
      "locationSet": {"include": ["us"]},
      "tags": {
        "amenity": "hospital",
        "healthcare": "hospital",
        "operator": "Ascension",
        "operator:wikidata": "Q96372437",
        "operator:wikipedia": "en:Ascension (company)"
      }
    },
    {
      "displayName": "Asklepios Kliniken",
      "id": "asklepioskliniken-8bb61e",
      "locationSet": {"include": ["de"]},
      "matchNames": [
        "asklepios",
        "asklepios harzkliniken gmbh",
        "asklepios kliniken gmbh & co. kgaa"
      ],
      "tags": {
        "amenity": "hospital",
        "healthcare": "hospital",
        "operator": "Asklepios Kliniken",
        "operator:type": "private",
        "operator:wikidata": "Q732068",
        "operator:wikipedia": "de:Asklepios Kliniken"
      }
    },
    {
      "displayName": "ASL",
      "id": "asl-046097",
      "locationSet": {"include": ["it"]},
      "tags": {
        "amenity": "hospital",
        "healthcare": "hospital",
        "operator": "ASL",
        "operator:wikidata": "Q3631467",
        "operator:wikipedia": "it:Azienda sanitaria locale"
      }
    },
    {
      "displayName": "ASSE",
      "id": "asse-d92411",
      "locationSet": {"include": ["uy"]},
      "tags": {
        "amenity": "hospital",
        "healthcare": "hospital",
        "operator": "ASSE",
        "operator:wikidata": "Q5657845",
        "operator:wikipedia": "en:State Health Services Administration"
      }
    },
    {
      "displayName": "Assistance publique - Hôpitaux de Paris",
      "id": "assistancepubliquehopitauxdeparis-73646a",
      "locationSet": {"include": ["fx"]},
      "tags": {
        "amenity": "hospital",
        "healthcare": "hospital",
        "operator": "Assistance publique - Hôpitaux de Paris",
        "operator:short": "APHP",
        "operator:wikidata": "Q2867205",
        "operator:wikipedia": "fr:Assistance publique - Hôpitaux de Paris"
      }
    },
    {
      "displayName": "Avera Health",
      "id": "averahealth-888e5a",
      "locationSet": {"include": ["us"]},
      "matchNames": ["avera"],
      "tags": {
        "amenity": "hospital",
        "healthcare": "hospital",
        "operator": "Avera Health",
        "operator:wikidata": "Q4828238",
        "operator:wikipedia": "en:Avera Health"
      }
    },
    {
      "displayName": "Banner Health",
      "id": "bannerhealth-888e5a",
      "locationSet": {"include": ["us"]},
      "tags": {
        "amenity": "hospital",
        "healthcare": "hospital",
        "operator": "Banner Health",
        "operator:wikidata": "Q4856918",
        "operator:wikipedia": "en:Banner Health"
      }
    },
    {
      "displayName": "Baptist Health",
      "id": "baptisthealth-888e5a",
      "locationSet": {"include": ["us"]},
      "tags": {
        "amenity": "hospital",
        "healthcare": "hospital",
        "operator": "Baptist Health"
      }
    },
    {
      "displayName": "Baylor Scott & White Health",
      "id": "baylorscottandwhitehealth-888e5a",
      "locationSet": {"include": ["us"]},
      "tags": {
        "amenity": "hospital",
        "healthcare": "hospital",
        "operator": "Baylor Scott & White Health"
      }
    },
    {
      "displayName": "BBT-Gruppe",
      "id": "bbtgruppe-8bb61e",
      "locationSet": {"include": ["de"]},
      "tags": {
        "amenity": "hospital",
        "healthcare": "hospital",
        "operator": "BBT-Gruppe",
        "operator:wikidata": "Q22282680",
        "operator:wikipedia": "de:BBT-Gruppe"
      }
    },
    {
      "displayName": "BG Kliniken",
      "id": "bgkliniken-8bb61e",
      "locationSet": {"include": ["de"]},
      "tags": {
        "amenity": "hospital",
        "healthcare": "hospital",
        "operator": "BG Kliniken",
        "operator:wikidata": "Q27074262",
        "operator:wikipedia": "de:BG Kliniken"
      }
    },
    {
      "displayName": "Caja Nacional de Salud (Bolivia)",
      "id": "cajanacionaldesalud-bdc341",
      "locationSet": {"include": ["bo"]},
      "tags": {
        "amenity": "hospital",
        "healthcare": "hospital",
        "operator": "Caja Nacional de Salud",
        "operator:short": "CNS"
      }
    },
    {
      "displayName": "Capio",
      "id": "capio-ee5a4b",
      "locationSet": {
        "include": ["de", "dk", "fx", "no", "se"]
      },
      "tags": {
        "amenity": "hospital",
        "healthcare": "hospital",
        "operator": "Capio",
        "operator:wikidata": "Q498606",
        "operator:wikipedia": "de:Capio"
      }
    },
    {
      "displayName": "CCSS",
      "id": "ccss-4f92b3",
      "locationSet": {"include": ["cr"]},
      "tags": {
        "amenity": "hospital",
        "healthcare": "hospital",
        "operator": "CCSS",
        "operator:wikidata": "Q5174896",
        "operator:wikipedia": "en:Costa Rican Social Security Fund"
      }
    },
    {
      "displayName": "Celenus Kliniken",
      "id": "celenuskliniken-8bb61e",
      "locationSet": {"include": ["de"]},
      "tags": {
        "amenity": "hospital",
        "healthcare": "hospital",
        "operator": "Celenus Kliniken",
        "operator:wikidata": "Q15793787",
        "operator:wikipedia": "de:Celenus Kliniken"
      }
    },
    {
      "displayName": "Centura Health",
      "id": "centurahealth-888e5a",
      "locationSet": {"include": ["us"]},
      "tags": {
        "amenity": "hospital",
        "healthcare": "hospital",
        "operator": "Centura Health"
      }
    },
    {
      "displayName": "CHRISTUS Health",
      "id": "christushealth-888e5a",
      "locationSet": {"include": ["us"]},
      "tags": {
        "amenity": "hospital",
        "healthcare": "hospital",
        "operator": "CHRISTUS Health",
        "operator:wikidata": "Q5011309",
        "operator:wikipedia": "en:CHRISTUS Health"
      }
    },
    {
      "displayName": "Cleveland Clinic",
      "id": "clevelandclinic-888e5a",
      "locationSet": {"include": ["us"]},
      "tags": {
        "amenity": "hospital",
        "healthcare": "hospital",
        "operator": "Cleveland Clinic",
        "operator:wikidata": "Q4117596",
        "operator:wikipedia": "en:Cleveland Clinic"
      }
    },
    {
      "displayName": "Comunidad de Madrid",
      "id": "comunidaddemadrid-34fe48",
      "locationSet": {"include": ["es"]},
      "tags": {
        "amenity": "hospital",
        "healthcare": "hospital",
        "operator": "Comunidad de Madrid"
      }
    },
    {
      "displayName": "Cruz Roja",
      "id": "cruzroja-16e9ec",
      "locationSet": {
        "include": ["ar", "cl", "co", "es", "mx"]
      },
      "tags": {
        "amenity": "hospital",
        "healthcare": "hospital",
        "name": "Cruz Roja",
        "operator": "Cruz Roja",
        "operator:wikidata": "Q7178",
        "operator:wikipedia": "es:Cruz Roja"
      }
    },
    {
      "displayName": "Department of Health Services (India)",
      "id": "departmentofhealthservices-585fc8",
      "locationSet": {"include": ["in"]},
      "matchNames": [
        "department of health",
        "department of health service",
        "department of helth service",
        "dhs (department of health services)"
      ],
      "tags": {
        "amenity": "hospital",
        "healthcare": "hospital",
        "operator": "Department of Health Services",
        "short_name": "DHS"
      }
    },
    {
      "displayName": "Dignity Health",
      "id": "dignityhealth-888e5a",
      "locationSet": {"include": ["us"]},
      "tags": {
        "amenity": "hospital",
        "healthcare": "hospital",
        "operator": "Dignity Health",
        "operator:wikidata": "Q5276334",
        "operator:wikipedia": "en:Dignity Health"
      }
    },
    {
      "displayName": "Dr. Becker Klinikgruppe",
      "id": "drbeckerklinikgruppe-8bb61e",
      "locationSet": {"include": ["de"]},
      "tags": {
        "amenity": "hospital",
        "healthcare": "hospital",
        "operator": "Dr. Becker Klinikgruppe",
        "operator:wikidata": "Q1253817",
        "operator:wikipedia": "de:Dr. Becker Unternehmensgruppe"
      }
    },
    {
      "displayName": "Eglise Catholique",
      "id": "eglisecatholique-1eb48a",
      "locationSet": {"include": ["ht"]},
      "tags": {
        "amenity": "hospital",
        "healthcare": "hospital",
        "operator": "Eglise Catholique"
      }
    },
    {
      "displayName": "Elsan",
      "id": "elsan-73646a",
      "locationSet": {"include": ["fx"]},
      "matchNames": ["groupe elsan"],
      "tags": {
        "amenity": "hospital",
        "healthcare": "hospital",
        "operator": "Elsan",
        "operator:wikidata": "Q48747106",
        "operator:wikipedia": "fr:Elsan"
      }
    },
    {
      "displayName": "Employees' State Insurance (India)",
      "id": "esihospital-585fc8",
      "locationSet": {"include": ["in"]},
      "tags": {
        "amenity": "hospital",
        "healthcare": "hospital",
        "name": "ESI Hospital",
        "operator": "Employees' State Insurance",
        "operator:short": "ESI",
        "operator:wikidata": "Q3595726",
        "operator:wikipedia": "hi:कर्मचारी राज्‍य बीमा निगम"
      }
    },
    {
      "displayName": "Encompass Health",
      "id": "encompasshealth-888e5a",
      "locationSet": {"include": ["us"]},
      "matchNames": ["healthsouth corporation"],
      "tags": {
        "amenity": "hospital",
        "healthcare": "hospital",
        "operator": "Encompass Health",
        "operator:wikidata": "Q5690400",
        "operator:wikipedia": "en:Encompass Health"
      }
    },
    {
      "displayName": "Essentia Health",
      "id": "essentiahealth-888e5a",
      "locationSet": {"include": ["us"]},
      "tags": {
        "amenity": "hospital",
        "healthcare": "hospital",
        "operator": "Essentia Health",
        "operator:wikidata": "Q16975060",
        "operator:wikipedia": "en:Essentia Health"
      }
    },
    {
      "displayName": "Fortis Healthcare",
      "id": "fortishealthcare-585fc8",
      "locationSet": {"include": ["in"]},
      "tags": {
        "amenity": "hospital",
        "healthcare": "hospital",
        "name": "Fortis Healthcare",
        "operator": "Fortis Healthcare",
        "operator:wikidata": "Q7810035",
        "operator:wikipedia": "en:Fortis Healthcare"
      }
    },
    {
      "displayName": "Franciscan Health",
      "id": "franciscanhealth-888e5a",
      "locationSet": {"include": ["us"]},
      "tags": {
        "amenity": "hospital",
        "healthcare": "hospital",
        "operator": "Franciscan Health",
        "operator:wikidata": "Q16993763",
        "operator:wikipedia": "en:Franciscan Health"
      }
    },
    {
      "displayName": "Fraser Health Authority",
      "id": "fraserhealthauthority-bebe85",
      "locationSet": {
        "include": ["ca-bc.geojson"]
      },
      "tags": {
        "amenity": "hospital",
        "healthcare": "hospital",
        "operator": "Fraser Health Authority",
        "operator:wikidata": "Q5493608",
        "operator:wikipedia": "en:Fraser Health"
      }
    },
    {
      "displayName": "Gesundheitszentren Rhein-Neckar",
      "id": "gesundheitszentrenrheinneckar-8bb61e",
      "locationSet": {"include": ["de"]},
      "tags": {
        "amenity": "hospital",
        "healthcare": "hospital",
        "operator": "Gesundheitszentren Rhein-Neckar",
        "operator:short": "GRN",
        "operator:wikidata": "Q48754458",
        "operator:wikipedia": "de:Gesundheitszentren Rhein-Neckar"
      }
    },
    {
      "displayName": "Gobierno Regional (Peru)",
      "id": "gobiernoregional-d29164",
      "locationSet": {"include": ["pe"]},
      "tags": {
        "amenity": "hospital",
        "healthcare": "hospital",
        "operator": "Gobierno Regional",
        "operator:wikidata": "Q3824815",
        "operator:wikipedia": "en:Regional Governments of Peru"
      }
    },
    {
      "displayName": "HCA",
      "id": "hca-888e5a",
      "locationSet": {"include": ["us"]},
      "tags": {
        "amenity": "hospital",
        "healthcare": "hospital",
        "operator": "HCA",
        "operator:wikidata": "Q1630431",
        "operator:wikipedia": "en:HCA Healthcare"
      }
    },
    {
      "displayName": "HCA North Florida",
      "id": "hcanorthflorida-888e5a",
      "locationSet": {"include": ["us"]},
      "tags": {
        "amenity": "hospital",
        "healthcare": "hospital",
        "operator": "HCA North Florida"
      }
    },
    {
      "displayName": "HCA West Florida",
      "id": "hcawestflorida-888e5a",
      "locationSet": {"include": ["us"]},
      "tags": {
        "amenity": "hospital",
        "healthcare": "hospital",
        "operator": "HCA West Florida"
      }
    },
    {
      "displayName": "Health Service Executive",
      "id": "healthserviceexecutive-467fad",
      "locationSet": {"include": ["ie"]},
      "tags": {
        "amenity": "hospital",
        "healthcare": "hospital",
        "operator": "Health Service Executive",
        "operator:short": "HSE",
        "operator:wikidata": "Q5690681",
        "operator:wikipedia": "en:Health Service Executive"
      }
    },
    {
      "displayName": "Helios Kliniken",
      "id": "helioskliniken-8bb61e",
      "locationSet": {"include": ["de"]},
      "matchNames": [
        "helios",
        "helios kliniken gmbh"
      ],
      "tags": {
        "amenity": "hospital",
        "healthcare": "hospital",
        "operator": "Helios Kliniken",
        "operator:wikidata": "Q1254151",
        "operator:wikipedia": "de:Helios Kliniken"
      }
    },
    {
      "displayName": "Hospital Sisters Health System",
      "id": "hospitalsistershealthsystem-888e5a",
      "locationSet": {"include": ["us"]},
      "tags": {
        "amenity": "hospital",
        "healthcare": "hospital",
        "operator": "Hospital Sisters Health System",
        "operator:short": "HSHS",
        "operator:wikidata": "Q28450575",
        "operator:wikipedia": "en:Hospital Sisters Health System"
      }
    },
    {
      "displayName": "Indian Health Service",
      "id": "indianhealthservice-888e5a",
      "locationSet": {"include": ["us"]},
      "tags": {
        "amenity": "hospital",
        "healthcare": "hospital",
        "operator": "Indian Health Service",
        "operator:short": "IHS",
        "operator:wikidata": "Q6020429",
        "operator:wikipedia": "en:Indian Health Service"
      }
    },
    {
      "displayName": "Indiana University Health",
      "id": "indianauniversityhealth-888e5a",
      "locationSet": {"include": ["us"]},
      "tags": {
        "amenity": "hospital",
        "healthcare": "hospital",
        "operator": "Indiana University Health",
        "operator:wikidata": "Q6023587",
        "operator:wikipedia": "en:Indiana University Health"
      }
    },
    {
      "displayName": "Instituto de Seguridad y Servicios Sociales de los Trabajadores del Estado",
      "id": "institutodeseguridadyserviciossocialesdelostrabajadoresdelestado-5e0bc0",
      "locationSet": {"include": ["mx"]},
      "tags": {
        "amenity": "hospital",
        "healthcare": "hospital",
        "operator": "Instituto de Seguridad y Servicios Sociales de los Trabajadores del Estado",
        "operator:short": "ISSSTE",
        "operator:wikidata": "Q954557",
        "operator:wikipedia": "es:Instituto de Seguridad y Servicios Sociales de los Trabajadores del Estado"
      }
    },
    {
      "displayName": "Instituto Ecuatoriano de Seguridad Social",
      "id": "institutoecuatorianodeseguridadsocial-92bc1d",
      "locationSet": {"include": ["ec"]},
      "tags": {
        "amenity": "hospital",
        "healthcare": "hospital",
        "operator": "Instituto Ecuatoriano de Seguridad Social",
        "operator:short": "IESS",
        "operator:wikidata": "Q5917290",
        "operator:wikipedia": "en:Ecuadorian Institute of Social Security"
      }
    },
    {
      "displayName": "Instituto Mexicano del Seguro Social",
      "id": "institutomexicanodelsegurosocial-5e0bc0",
      "locationSet": {"include": ["mx"]},
      "tags": {
        "amenity": "hospital",
        "healthcare": "hospital",
        "operator": "Instituto Mexicano del Seguro Social",
        "operator:short": "IMSS",
        "operator:wikidata": "Q904999",
        "operator:wikipedia": "es:Instituto Mexicano del Seguro Social"
      }
    },
    {
      "displayName": "Intermountain Healthcare",
      "id": "intermountainhealthcare-888e5a",
      "locationSet": {"include": ["us"]},
      "tags": {
        "amenity": "hospital",
        "healthcare": "hospital",
        "operator": "Intermountain Healthcare",
        "operator:wikidata": "Q6047563",
        "operator:wikipedia": "en:Intermountain Healthcare"
      }
    },
    {
      "displayName": "Johannesbad",
      "id": "johannesbad-8bb61e",
      "locationSet": {"include": ["de"]},
      "tags": {
        "amenity": "hospital",
        "healthcare": "hospital",
        "operator": "Johannesbad",
        "operator:wikidata": "Q1698796",
        "operator:wikipedia": "de:Johannesbad Unternehmensgruppe"
      }
    },
    {
      "displayName": "Johanniter GmbH",
      "id": "johannitergmbh-8bb61e",
      "locationSet": {"include": ["de"]},
      "tags": {
        "amenity": "hospital",
        "healthcare": "hospital",
        "operator": "Johanniter GmbH",
        "operator:wikidata": "Q28131582",
        "operator:wikipedia": "de:Johanniter GmbH"
      }
    },
    {
      "displayName": "Kaiser Permanente",
      "id": "kaiserpermanente-888e5a",
      "locationSet": {"include": ["us"]},
      "tags": {
        "amenity": "hospital",
        "healthcare": "hospital",
        "operator": "Kaiser Permanente",
        "operator:short": "KP",
        "operator:wikidata": "Q1721601",
        "operator:wikipedia": "en:Kaiser Permanente"
      }
    },
    {
      "displayName": "Kementerian Kesihatan Malaysia",
      "id": "kementeriankesihatanmalaysia-a918ec",
      "locationSet": {"include": ["my"]},
      "tags": {
        "amenity": "hospital",
        "healthcare": "hospital",
        "operator": "Kementerian Kesihatan Malaysia",
        "operator:wikidata": "Q4294352",
        "operator:wikipedia": "en:Ministry of Health (Malaysia)"
      }
    },
    {
      "displayName": "KentuckyOne Health",
      "id": "kentuckyonehealth-888e5a",
      "locationSet": {"include": ["us"]},
      "tags": {
        "amenity": "hospital",
        "healthcare": "hospital",
        "operator": "KentuckyOne Health"
      }
    },
    {
      "displayName": "Kindred Healthcare",
      "id": "kindredhealthcare-888e5a",
      "locationSet": {"include": ["us"]},
      "tags": {
        "amenity": "hospital",
        "healthcare": "hospital",
        "operator": "Kindred Healthcare",
        "operator:wikidata": "Q921363",
        "operator:wikipedia": "en:Kindred Healthcare"
      }
    },
    {
      "displayName": "KMG Kliniken",
      "id": "kmgkliniken-8bb61e",
      "locationSet": {"include": ["de"]},
      "tags": {
        "amenity": "hospital",
        "healthcare": "hospital",
        "operator": "KMG Kliniken",
        "operator:wikidata": "Q1718815",
        "operator:wikipedia": "de:KMG Kliniken"
      }
    },
    {
      "displayName": "Ludwig-Maximilians-Universität",
      "id": "ludwigmaximiliansuniversitat-8bb61e",
      "locationSet": {"include": ["de"]},
      "matchNames": [
        "ludwig-maximilians-universität (lmu)"
      ],
      "tags": {
        "amenity": "hospital",
        "healthcare": "hospital",
        "operator": "Ludwig-Maximilians-Universität",
        "operator:short": "LMU",
        "operator:wikidata": "Q55044",
        "operator:wikipedia": "de:Ludwig-Maximilians-Universität München"
      }
    },
    {
      "displayName": "Marienhaus",
      "id": "marienhaus-8bb61e",
      "locationSet": {"include": ["de"]},
      "tags": {
        "amenity": "hospital",
        "healthcare": "hospital",
        "operator": "Marienhaus",
        "operator:wikidata": "Q20828783",
        "operator:wikipedia": "de:Marienhaus"
      }
    },
    {
      "displayName": "Mayo Clinic Health System",
      "id": "mayoclinichealthsystem-888e5a",
      "locationSet": {"include": ["us"]},
      "tags": {
        "amenity": "hospital",
        "healthcare": "hospital",
        "operator": "Mayo Clinic Health System"
      }
    },
    {
      "displayName": "Median Kliniken",
      "id": "mediankliniken-8bb61e",
      "locationSet": {"include": ["de"]},
      "tags": {
        "amenity": "hospital",
        "healthcare": "hospital",
        "operator": "Median Kliniken",
        "operator:wikidata": "Q1916200",
        "operator:wikipedia": "de:Median Kliniken"
      }
    },
    {
      "displayName": "Medical Park",
      "id": "medicalpark-8bb61e",
      "locationSet": {"include": ["de"]},
      "tags": {
        "amenity": "hospital",
        "healthcare": "hospital",
        "operator": "Medical Park",
        "operator:wikidata": "Q47087904",
        "operator:wikipedia": "de:Medical Park"
      }
    },
    {
      "displayName": "Mediclin",
      "id": "mediclin-8bb61e",
      "locationSet": {"include": ["de"]},
      "tags": {
        "amenity": "hospital",
        "healthcare": "hospital",
        "operator": "Mediclin",
        "operator:wikidata": "Q1916295",
        "operator:wikipedia": "de:Mediclin"
      }
    },
    {
      "displayName": "Mercy",
      "id": "mercy-888e5a",
      "locationSet": {"include": ["us"]},
      "tags": {
        "amenity": "hospital",
        "healthcare": "hospital",
        "operator": "Mercy",
        "operator:wikidata": "Q19896177",
        "operator:wikipedia": "en:Mercy (healthcare organization)"
      }
    },
    {
      "displayName": "Mercy Health",
      "id": "mercyhealth-888e5a",
      "locationSet": {"include": ["us"]},
      "tags": {
        "amenity": "hospital",
        "healthcare": "hospital",
        "operator": "Mercy Health"
      }
    },
    {
      "displayName": "Merit Health",
      "id": "merithealth-888e5a",
      "locationSet": {"include": ["us"]},
      "tags": {
        "amenity": "hospital",
        "healthcare": "hospital",
        "operator": "Merit Health"
      }
    },
    {
      "displayName": "Ministère de la Santé",
      "id": "ministeredelasante-fbd4f5",
      "locationSet": {"include": ["001"]},
      "tags": {
        "amenity": "hospital",
        "healthcare": "hospital",
        "operator": "Ministère de la Santé"
      }
    },
    {
      "displayName": "Ministério da Saúde",
      "id": "ministeriodasaude-fbd4f5",
      "locationSet": {"include": ["001"]},
      "tags": {
        "amenity": "hospital",
        "healthcare": "hospital",
        "operator": "Ministério da Saúde"
      }
    },
    {
      "displayName": "Ministerio de Salud",
      "id": "ministeriodesalud-fbd4f5",
      "locationSet": {"include": ["001"]},
      "tags": {
        "amenity": "hospital",
        "healthcare": "hospital",
        "operator": "Ministerio de Salud"
      }
    },
    {
      "displayName": "Ministerio de Salud Pública",
      "id": "ministeriodesaludpublica-fbd4f5",
      "locationSet": {"include": ["001"]},
      "tags": {
        "amenity": "hospital",
        "healthcare": "hospital",
        "operator": "Ministerio de Salud Pública"
      }
    },
    {
      "displayName": "Ministry of Health",
      "id": "ministryofhealth-fbd4f5",
      "locationSet": {"include": ["001"]},
      "tags": {
        "amenity": "hospital",
        "healthcare": "hospital",
        "operator": "Ministry of Health"
      }
    },
    {
      "displayName": "Ministry of Public Health",
      "id": "ministryofpublichealth-fbd4f5",
      "locationSet": {"include": ["001"]},
      "tags": {
        "amenity": "hospital",
        "healthcare": "hospital",
        "operator": "Ministry of Public Health"
      }
    },
    {
      "displayName": "MINSA",
      "id": "minsa-fbd4f5",
      "locationSet": {"include": ["001"]},
      "tags": {
        "amenity": "hospital",
        "healthcare": "hospital",
        "operator": "MINSA"
      }
    },
    {
      "displayName": "MinSalud",
      "id": "minsalud-bdc341",
      "locationSet": {"include": ["bo"]},
      "tags": {
        "amenity": "hospital",
        "healthcare": "hospital",
        "operator": "MinSalud"
      }
    },
    {
      "displayName": "MINSAP",
      "id": "minsap-08985e",
      "locationSet": {"include": ["cu"]},
      "tags": {
        "amenity": "hospital",
        "healthcare": "hospital",
        "operator": "MINSAP"
      }
    },
    {
      "displayName": "MS",
      "id": "ms-8532a9",
      "locationSet": {"include": ["bf"]},
      "tags": {
        "amenity": "hospital",
        "healthcare": "hospital",
        "operator": "MS"
      }
    },
    {
      "displayName": "MSP",
      "id": "msp-fbd4f5",
      "locationSet": {"include": ["001"]},
      "tags": {
        "amenity": "hospital",
        "healthcare": "hospital",
        "operator": "MSP"
      }
    },
    {
      "displayName": "MSPP",
      "id": "mspp-1eb48a",
      "locationSet": {"include": ["ht"]},
      "tags": {
        "amenity": "hospital",
        "healthcare": "hospital",
        "operator": "MSPP"
      }
    },
    {
      "displayName": "Municipalidad Metropolitana de Lima",
      "id": "municipalidadmetropolitanadelima-d29164",
      "locationSet": {"include": ["pe"]},
      "tags": {
        "amenity": "hospital",
        "healthcare": "hospital",
        "operator": "Municipalidad Metropolitana de Lima",
        "operator:wikidata": "Q12184118",
        "operator:wikipedia": "en:Metropolitan Municipality of Lima"
      }
    },
    {
      "displayName": "NA",
      "id": "na-14c7e1",
      "locationSet": {"include": ["ug"]},
      "tags": {
        "amenity": "hospital",
        "healthcare": "hospital",
        "operator": "NA"
      }
    },
    {
      "displayName": "NHS",
      "id": "nhs-b0b612",
      "locationSet": {"include": ["gb"]},
      "tags": {
        "amenity": "hospital",
        "healthcare": "hospital",
        "operator": "NHS",
        "operator:wikidata": "Q918396",
        "operator:wikipedia": "en:National Health Service"
      }
    },
    {
      "displayName": "Northwell Health",
      "id": "northwellhealth-888e5a",
      "locationSet": {"include": ["us"]},
      "tags": {
        "amenity": "hospital",
        "healthcare": "hospital",
        "operator": "Northwell Health",
        "operator:wikidata": "Q7056650",
        "operator:wikipedia": "en:Northwell Health"
      }
    },
    {
      "displayName": "NSW Health",
      "id": "nswhealth-86ebc0",
      "locationSet": {"include": ["au"]},
      "tags": {
        "amenity": "hospital",
        "healthcare": "hospital",
        "operator": "NSW Health",
        "operator:wikidata": "Q6867095",
        "operator:wikipedia": "en:Ministry of Health (New South Wales)"
      }
    },
    {
      "displayName": "Ochsner Health System",
      "id": "ochsnerhealthsystem-888e5a",
      "locationSet": {"include": ["us"]},
      "tags": {
        "amenity": "hospital",
        "healthcare": "hospital",
        "operator": "Ochsner Health System",
        "operator:wikidata": "Q17037263",
        "operator:wikipedia": "en:Ochsner Health System"
      }
    },
    {
      "displayName": "OhioHealth",
      "id": "ohiohealth-888e5a",
      "locationSet": {"include": ["us"]},
      "tags": {
        "amenity": "hospital",
        "healthcare": "hospital",
        "operator": "OhioHealth",
        "operator:wikidata": "Q7080724",
        "operator:wikipedia": "en:OhioHealth"
      }
    },
    {
      "displayName": "Others",
      "id": "others-fbd4f5",
      "locationSet": {"include": ["001"]},
      "tags": {
        "amenity": "hospital",
        "healthcare": "hospital",
        "operator": "Others"
      }
    },
    {
      "displayName": "Paracelsus-Kliniken",
      "id": "paracelsuskliniken-8bb61e",
      "locationSet": {"include": ["de"]},
      "tags": {
        "amenity": "hospital",
        "healthcare": "hospital",
        "operator": "Paracelsus-Kliniken",
        "operator:wikidata": "Q2051237",
        "operator:wikipedia": "de:Paracelsus-Kliniken"
      }
    },
    {
      "displayName": "Prefeitura Municipal",
      "id": "prefeituramunicipal-d30bb4",
      "locationSet": {"include": ["br"]},
      "tags": {
        "amenity": "hospital",
        "healthcare": "hospital",
        "operator": "Prefeitura Municipal"
      }
    },
    {
      "displayName": "primary",
      "id": "primary-fbd4f5",
      "locationSet": {"include": ["001"]},
      "tags": {
        "amenity": "hospital",
        "healthcare": "hospital",
        "operator": "primary"
      }
    },
    {
      "displayName": "Prime Healthcare Services",
      "id": "primehealthcareservices-888e5a",
      "locationSet": {"include": ["us"]},
      "matchNames": ["prime healthcare"],
      "tags": {
        "amenity": "hospital",
        "healthcare": "hospital",
        "operator": "Prime Healthcare Services",
        "operator:wikidata": "Q7243267",
        "operator:wikipedia": "en:Prime Healthcare Services"
      }
    },
    {
      "displayName": "Privado",
      "id": "privado-fbd4f5",
      "locationSet": {"include": ["001"]},
      "tags": {
        "amenity": "hospital",
        "healthcare": "hospital",
        "operator": "Privado"
      }
    },
    {
      "displayName": "Private Not For Profit",
      "id": "privatenotforprofit-fbd4f5",
      "locationSet": {"include": ["001"]},
      "tags": {
        "amenity": "hospital",
        "healthcare": "hospital",
        "operator": "Private Not For Profit"
      }
    },
    {
      "displayName": "Providence Health & Services",
      "id": "providencehealthandservices-888e5a",
      "locationSet": {"include": ["us"]},
      "tags": {
        "amenity": "hospital",
        "healthcare": "hospital",
        "operator": "Providence Health & Services",
        "operator:wikidata": "Q7252430",
        "operator:wikipedia": "en:Providence Health & Services"
      }
    },
    {
      "displayName": "Provincia de Santa Fe",
      "id": "provinciadesantafe-b92ad7",
      "locationSet": {"include": ["ar"]},
      "tags": {
        "amenity": "hospital",
        "healthcare": "hospital",
        "operator": "Provincia de Santa Fe"
      }
    },
    {
      "displayName": "Provincial (Argentinia)",
      "id": "provincial-b92ad7",
      "locationSet": {"include": ["ar"]},
      "tags": {
        "amenity": "hospital",
        "healthcare": "hospital",
        "operator": "Provincial"
      }
    },
    {
      "displayName": "Queensland Health",
      "id": "queenslandhealth-86ebc0",
      "locationSet": {"include": ["au"]},
      "matchNames": ["qld health"],
      "tags": {
        "amenity": "hospital",
        "healthcare": "hospital",
        "operator": "Queensland Health",
        "operator:wikidata": "Q17006271",
        "operator:wikipedia": "en:Queensland Health"
      }
    },
    {
      "displayName": "Ramsay Santé",
      "id": "ramsaysante-73646a",
      "locationSet": {"include": ["fx"]},
      "tags": {
        "amenity": "hospital",
        "healthcare": "hospital",
        "operator": "Ramsay Santé",
        "operator:wikidata": "Q3123085",
        "operator:wikipedia": "fr:Ramsay Santé"
      }
    },
    {
      "displayName": "Rhön-Klinikum",
      "id": "rhonklinikum-8bb61e",
      "locationSet": {"include": ["de"]},
      "tags": {
        "amenity": "hospital",
        "healthcare": "hospital",
        "operator": "Rhön-Klinikum",
        "operator:wikidata": "Q573604",
        "operator:wikipedia": "de:Rhön-Klinikum"
      }
    },
    {
      "displayName": "RSUD Selayar",
      "id": "rsudselayar-fbd4f5",
      "locationSet": {"include": ["001"]},
      "tags": {
        "amenity": "hospital",
        "healthcare": "hospital",
        "operator": "RSUD Selayar"
      }
    },
    {
      "displayName": "Sağlık Bakanlığı",
      "id": "saglikbakanligi-4e781b",
      "locationSet": {"include": ["tr"]},
      "matchNames": ["t.c. sağlık bakanlığı"],
      "tags": {
        "amenity": "hospital",
        "healthcare": "hospital",
        "operator": "Sağlık Bakanlığı",
        "operator:wikidata": "Q4294365",
        "operator:wikipedia": "tr:Türkiye Cumhuriyeti Sağlık Bakanlığı"
      }
    },
    {
      "displayName": "Saint Joseph Health",
      "id": "saintjosephhealth-888e5a",
      "locationSet": {"include": ["us"]},
      "tags": {
        "amenity": "hospital",
        "healthcare": "hospital",
        "operator": "Saint Joseph Health"
      }
    },
    {
      "displayName": "Sana Kliniken",
      "id": "sanakliniken-8bb61e",
      "locationSet": {"include": ["de"]},
      "tags": {
        "amenity": "hospital",
        "healthcare": "hospital",
        "operator": "Sana Kliniken",
        "operator:wikidata": "Q2220152",
        "operator:wikipedia": "de:Sana Kliniken"
      }
    },
    {
      "displayName": "Sanford Health",
      "id": "sanfordhealth-888e5a",
      "locationSet": {"include": ["us"]},
      "tags": {
        "amenity": "hospital",
        "healthcare": "hospital",
        "operator": "Sanford Health",
        "operator:wikidata": "Q7417625",
        "operator:wikipedia": "en:Sanford Health"
      }
    },
    {
      "displayName": "Schön Klinik",
      "id": "schonklinik-8bb61e",
      "locationSet": {"include": ["de"]},
      "tags": {
        "amenity": "hospital",
        "healthcare": "hospital",
        "operator": "Schön Klinik",
        "operator:wikidata": "Q2258661",
        "operator:wikipedia": "de:Schön Klinik"
      }
    },
    {
      "displayName": "Seguro Social de Salud (Peru)",
      "id": "segurosocialdesalud-d29164",
      "locationSet": {"include": ["pe"]},
      "tags": {
        "amenity": "hospital",
        "healthcare": "hospital",
        "operator": "Seguro Social de Salud",
        "operator:short": "Essalud",
        "operator:wikidata": "Q6123930",
        "operator:wikipedia": "es:Seguro Social de Salud del Perú"
      }
    },
    {
      "displayName": "Select Specialty Hospital",
      "id": "selectspecialtyhospital-888e5a",
      "locationSet": {"include": ["us"]},
      "matchNames": ["select speciality"],
      "tags": {
        "amenity": "hospital",
        "healthcare": "hospital",
        "name": "Select Specialty Hospital",
        "operator": "Select Specialty Hospital",
        "operator:wikidata": "Q66360902"
      }
    },
    {
      "displayName": "Sentara Healthcare",
      "id": "sentarahealthcare-888e5a",
      "locationSet": {"include": ["us"]},
      "tags": {
        "amenity": "hospital",
        "healthcare": "hospital",
        "operator": "Sentara Healthcare",
        "operator:wikidata": "Q7451179",
        "operator:wikipedia": "en:Sentara Healthcare"
      }
    },
    {
      "displayName": "Shriners Hospital for Children",
      "id": "shrinershospitalsforchildren-888e5a",
      "locationSet": {"include": ["us"]},
      "matchNames": [
        "shriners burn hospital",
        "shriners hospital"
      ],
      "tags": {
        "amenity": "hospital",
        "healthcare": "hospital",
        "healthcare:speciality": "paediatrics",
        "name": "Shriners Hospitals for Children",
        "operator": "Shriners Hospitals for Children",
        "operator:wikidata": "Q7504109",
        "operator:wikipedia": "en:Shriners Hospitals for Children"
      }
    },
    {
      "displayName": "Sistema Único de Saúde",
      "id": "sistemaunicodesaude-d30bb4",
      "locationSet": {"include": ["br"]},
      "tags": {
        "amenity": "hospital",
        "healthcare": "hospital",
        "operator": "Sistema Único de Saúde",
        "operator:short": "SUS",
        "operator:wikidata": "Q7531056",
        "operator:wikipedia": "pt:Sistema Único de Saúde"
      }
    },
    {
      "displayName": "St. Franziskus-Stiftung Münster",
      "id": "stfranziskusstiftungmunster-8bb61e",
      "locationSet": {"include": ["de"]},
      "tags": {
        "amenity": "hospital",
        "healthcare": "hospital",
        "operator": "St. Franziskus-Stiftung Münster",
        "operator:wikidata": "Q2318238",
        "operator:wikipedia": "de:St. Franziskus-Stiftung Münster"
      }
    },
    {
      "displayName": "State Ministry Of Health (Nigeria)",
      "id": "stateministryofhealth-f23e0b",
      "locationSet": {"include": ["ng"]},
      "tags": {
        "amenity": "hospital",
        "healthcare": "hospital",
        "operator": "State Ministry Of Health",
        "operator:wikidata": "Q19604794",
        "operator:wikipedia": "en:Lagos State Ministry of Health"
      }
    },
    {
      "displayName": "state primary health care",
      "id": "stateprimaryhealthcare-fbd4f5",
      "locationSet": {"include": ["001"]},
      "tags": {
        "amenity": "hospital",
        "healthcare": "hospital",
        "operator": "state primary health care"
      }
    },
    {
      "displayName": "State Primary HealthCare Development Agency",
      "id": "stateprimaryhealthcaredevelopmentagency-fbd4f5",
      "locationSet": {"include": ["001"]},
      "tags": {
        "amenity": "hospital",
        "healthcare": "hospital",
        "operator": "State Primary HealthCare Development Agency"
      }
    },
    {
      "displayName": "Steiermärkische Krankenanstaltengesellschaft m.b.H.",
      "id": "steiermarkischekrankenanstaltengesellschaftmbh-7f2aa5",
      "locationSet": {"include": ["at"]},
      "tags": {
        "amenity": "hospital",
        "healthcare": "hospital",
        "operator": "Steiermärkische Krankenanstaltengesellschaft m.b.H.",
        "operator:wikidata": "Q15849047",
        "operator:wikipedia": "de:Steiermärkische Krankenanstaltengesellschaft"
      }
    },
    {
      "displayName": "Steward Health Care",
      "id": "stewardhealthcare-888e5a",
      "locationSet": {"include": ["us"]},
      "tags": {
        "amenity": "hospital",
        "healthcare": "hospital",
        "operator": "Steward Health Care",
        "operator:wikidata": "Q7615662",
        "operator:wikipedia": "en:Steward Health Care System"
      }
    },
    {
      "displayName": "subdistrict",
      "id": "subdistrict-fbd4f5",
      "locationSet": {"include": ["001"]},
      "tags": {
        "amenity": "hospital",
        "healthcare": "hospital",
        "operator": "subdistrict"
      }
    },
    {
      "displayName": "Sutter Health",
      "id": "sutterhealth-888e5a",
      "locationSet": {"include": ["us"]},
      "tags": {
        "amenity": "hospital",
        "healthcare": "hospital",
        "operator": "Sutter Health",
        "operator:wikidata": "Q7650154",
        "operator:wikipedia": "en:Sutter Health"
      }
    },
    {
      "displayName": "Tennova Healthcare",
      "id": "tennovahealthcare-888e5a",
      "locationSet": {"include": ["us"]},
      "tags": {
        "amenity": "hospital",
        "healthcare": "hospital",
        "operator": "Tennova Healthcare"
      }
    },
    {
      "displayName": "Texas Department of Aging and Disability Services",
      "id": "texasdepartmentofaginganddisabilityservices-888e5a",
      "locationSet": {"include": ["us"]},
      "tags": {
        "amenity": "hospital",
        "healthcare": "hospital",
        "operator": "Texas Department of Aging and Disability Services"
      }
    },
    {
      "displayName": "Texas Health",
      "id": "texashealth-888e5a",
      "locationSet": {"include": ["us"]},
      "tags": {
        "amenity": "hospital",
        "healthcare": "hospital",
        "operator": "Texas Health"
      }
    },
    {
      "displayName": "TH Medical",
      "id": "thmedical-888e5a",
      "locationSet": {"include": ["us"]},
      "tags": {
        "amenity": "hospital",
        "healthcare": "hospital",
        "operator": "TH Medical"
      }
    },
    {
      "displayName": "TriStar Health",
      "id": "tristarhealth-888e5a",
      "locationSet": {"include": ["us"]},
      "tags": {
        "amenity": "hospital",
        "healthcare": "hospital",
        "operator": "TriStar Health"
      }
    },
    {
      "displayName": "Unimed",
      "id": "unimed-d30bb4",
      "locationSet": {"include": ["br"]},
      "tags": {
        "amenity": "hospital",
        "healthcare": "hospital",
        "operator": "Unimed",
        "operator:wikidata": "Q7865295",
        "operator:wikipedia": "pt:Unimed"
      }
    },
    {
      "displayName": "UnityPoint Health",
      "id": "unitypointhealth-888e5a",
      "locationSet": {"include": ["us"]},
      "tags": {
        "amenity": "hospital",
        "healthcare": "hospital",
        "operator": "UnityPoint Health",
        "operator:wikidata": "Q17078774",
        "operator:wikipedia": "en:UnityPoint Health"
      }
    },
    {
      "displayName": "Universal Health Services",
      "id": "universalhealthservices-888e5a",
      "locationSet": {"include": ["us"]},
      "tags": {
        "amenity": "hospital",
        "healthcare": "hospital",
        "operator": "Universal Health Services",
        "operator:short": "UHS",
        "operator:wikidata": "Q7893967",
        "operator:wikipedia": "en:Universal Health Services"
      }
    },
    {
      "displayName": "University Hospitals of Cleveland",
      "id": "universityhospitalsofcleveland-888e5a",
      "locationSet": {"include": ["us"]},
      "matchNames": ["university hospitals"],
      "tags": {
        "amenity": "hospital",
        "healthcare": "hospital",
        "operator": "University Hospitals of Cleveland",
        "operator:wikidata": "Q7894779",
        "operator:wikipedia": "en:University Hospitals Cleveland Medical Center"
      }
    },
    {
      "displayName": "University of Pittsburgh Medical Center",
      "id": "universityofpittsburghmedicalcenter-888e5a",
      "locationSet": {"include": ["us"]},
      "tags": {
        "amenity": "hospital",
        "healthcare": "hospital",
        "operator": "University of Pittsburgh Medical Center",
        "operator:short": "UPMC",
        "operator:wikidata": "Q7896131",
        "operator:wikipedia": "en:University of Pittsburgh Medical Center"
      }
    },
    {
      "displayName": "VA Medical Center",
      "id": "vamedicalcenter-888e5a",
      "locationSet": {"include": ["us"]},
      "matchNames": [
        "department of veterans affairs medical center",
        "united states department of veterans affairs",
        "veterans administration",
        "veterans administration hospital",
        "veterans administration medical center",
        "veterans affairs",
        "veterans affairs hospital",
        "veterans affairs medical center"
      ],
      "tags": {
        "amenity": "hospital",
        "healthcare": "hospital",
        "healthcare:for": "veterans",
        "name": "VA Medical Center",
        "operator": "Veterans Health Administration",
        "operator:short": "VA",
        "operator:wikidata": "Q6580225",
        "operator:wikipedia": "en:Veterans Health Administration",
        "short_name": "VA"
      }
    },
    {
      "displayName": "Vivantes",
      "id": "vivantes-8bb61e",
      "locationSet": {"include": ["de"]},
      "tags": {
        "amenity": "hospital",
        "healthcare": "hospital",
        "operator": "Vivantes",
        "operator:wikidata": "Q878059",
        "operator:wikipedia": "de:Vivantes"
      }
    },
    {
      "displayName": "Ziekenhuis Netwerk Antwerpen",
      "id": "ziekenhuisnetwerkantwerpen-1fd604",
      "locationSet": {"include": ["be"]},
      "tags": {
        "amenity": "hospital",
        "healthcare": "hospital",
        "operator": "Ziekenhuis Netwerk Antwerpen",
        "operator:short": "ZNA",
        "operator:wikidata": "Q14526992",
        "operator:wikipedia": "nl:Ziekenhuis Netwerk Antwerpen"
      }
    },
    {
      "displayName": "Ε.Σ.Υ.",
      "id": "9c8f5c-4242e0",
      "locationSet": {"include": ["gr"]},
      "tags": {
        "amenity": "hospital",
        "healthcare": "hospital",
        "operator": "Ε.Σ.Υ."
      }
    },
    {
      "displayName": "Городская клиническая больница №20 им. И.С. Берзона",
      "id": "58dff7-fbd4f5",
      "locationSet": {"include": ["001"]},
      "tags": {
        "amenity": "hospital",
        "healthcare": "hospital",
        "operator": "Городская клиническая больница №20 им. И.С. Берзона"
      }
    },
    {
      "displayName": "Детская больница",
      "id": "da1c9b-fbd4f5",
      "locationSet": {"include": ["001"]},
      "tags": {
        "amenity": "hospital",
        "healthcare": "hospital",
        "name": "Детская больница",
        "operator": "Детская больница"
      }
    },
    {
      "displayName": "Медпункт",
      "id": "4382ab-fbd4f5",
      "locationSet": {"include": ["001"]},
      "tags": {
        "amenity": "hospital",
        "healthcare": "hospital",
        "name": "Медпункт",
        "operator": "Медпункт"
      }
    },
    {
      "displayName": "Противотуберкулезный диспансер",
      "id": "af05e5-fbd4f5",
      "locationSet": {"include": ["001"]},
      "tags": {
        "amenity": "hospital",
        "healthcare": "hospital",
        "name": "Противотуберкулезный диспансер",
        "operator": "Противотуберкулезный диспансер"
      }
    },
    {
      "displayName": "Районная больница",
      "id": "bca383-fbd4f5",
      "locationSet": {"include": ["001"]},
      "tags": {
        "amenity": "hospital",
        "healthcare": "hospital",
        "name": "Районная больница",
        "operator": "Районная больница"
      }
    },
    {
      "displayName": "Роддом",
      "id": "dbf000-fbd4f5",
      "locationSet": {"include": ["001"]},
      "tags": {
        "amenity": "hospital",
        "healthcare": "hospital",
        "name": "Роддом",
        "operator": "Роддом"
      }
    },
    {
      "displayName": "Родильный дом",
      "id": "addbb5-fbd4f5",
      "locationSet": {"include": ["001"]},
      "tags": {
        "amenity": "hospital",
        "healthcare": "hospital",
        "name": "Родильный дом",
        "operator": "Родильный дом"
      }
    },
    {
      "displayName": "Скорая помощь",
      "id": "6824f8-fbd4f5",
      "locationSet": {"include": ["001"]},
      "tags": {
        "amenity": "hospital",
        "healthcare": "hospital",
        "name": "Скорая помощь",
        "operator": "Скорая помощь"
      }
    },
    {
      "displayName": "وزارة الصحة",
      "id": "1d9246-fbd4f5",
      "locationSet": {"include": ["001"]},
      "tags": {
        "amenity": "hospital",
        "healthcare": "hospital",
        "operator": "وزارة الصحة"
      }
    },
    {
      "displayName": "醫院管理局 Hospital Authority",
      "id": "3e5a23-fafb13",
      "locationSet": {"include": ["hk"]},
      "tags": {
        "amenity": "hospital",
        "healthcare": "hospital",
        "operator": "醫院管理局 Hospital Authority",
        "operator:wikidata": "Q5908350",
        "operator:wikipedia": "zh-yue:醫院管理局"
      }
    }
  ]
}
