{
  "properties": {
    "path": "operators/amenity/kindergarten",
    "exclude": {
      "generic": [
        "^association$",
        "^kindergarden$",
        "^kindergarten$"
      ]
    }
  },
  "items": [
    {
      "displayName": "Adelby 1 Kinder- und Jugenddienste gGmbH",
      "id": "adelby1kinderundjugenddiensteggmbh-747d0f",
      "locationSet": {"include": ["de"]},
      "tags": {
        "amenity": "kindergarten",
        "operator": "Adelby 1 Kinder- und Jugenddienste gGmbH"
      }
    },
    {
      "displayName": "Association des Maisons de quartier de Reims",
      "id": "associationdesmaisonsdequartierdereims-94d05d",
      "locationSet": {"include": ["fx"]},
      "tags": {
        "amenity": "kindergarten",
        "operator": "Association des Maisons de quartier de Reims"
      }
    },
    {
      "displayName": "AWO Familienglobus gGmbH, Liststr. 2, 40470 Düsseldorf",
      "id": "awofamilienglobusggmbhliststr240470dusseldorf-747d0f",
      "locationSet": {"include": ["de"]},
      "tags": {
        "amenity": "kindergarten",
        "operator": "AWO Familienglobus gGmbH, Liststr. 2, 40470 Düsseldorf"
      }
    },
    {
      "displayName": "AWO Soziale Dienste gemeinnützige GmbH",
      "id": "awosozialedienstegemeinnutzigegmbh-747d0f",
      "locationSet": {"include": ["de"]},
      "tags": {
        "amenity": "kindergarten",
        "operator": "AWO Soziale Dienste gemeinnützige GmbH"
      }
    },
    {
      "displayName": "BKJ Betreungseinrichtungen für Kinder und Jugendliche der Stadt Eschweiler / AÖR",
      "id": "bkjbetreungseinrichtungenfurkinderundjugendlichederstadteschweileraor-747d0f",
      "locationSet": {"include": ["de"]},
      "tags": {
        "amenity": "kindergarten",
        "operator": "BKJ Betreungseinrichtungen für Kinder und Jugendliche der Stadt Eschweiler / AÖR"
      }
    },
    {
      "displayName": "BVZ GmbH",
      "id": "bvzgmbh-0ff93d",
      "locationSet": {"include": ["001"]},
      "tags": {
        "amenity": "kindergarten",
        "operator": "BVZ GmbH"
      }
    },
    {
      "displayName": "Centre Communal d'Action Sociale",
      "id": "centrecommunaldactionsociale-0ff93d",
      "locationSet": {"include": ["001"]},
      "tags": {
        "amenity": "kindergarten",
        "operator": "Centre Communal d'Action Sociale"
      }
    },
    {
      "displayName": "CompaNanny",
      "id": "compananny-0ff93d",
      "locationSet": {"include": ["001"]},
      "tags": {
        "amenity": "kindergarten",
        "operator": "CompaNanny"
      }
    },
    {
      "displayName": "Comune di Milano",
      "id": "comunedimilano-9b156a",
      "locationSet": {"include": ["it"]},
      "tags": {
        "amenity": "kindergarten",
        "operator": "Comune di Milano"
      }
    },
    {
      "displayName": "Comune di Modena",
      "id": "comunedimodena-9b156a",
      "locationSet": {"include": ["it"]},
      "tags": {
        "amenity": "kindergarten",
        "operator": "Comune di Modena"
      }
    },
    {
      "displayName": "Der Magistrat der Stadt",
      "id": "dermagistratderstadt-0ff93d",
      "locationSet": {"include": ["001"]},
      "tags": {
        "amenity": "kindergarten",
        "operator": "Der Magistrat der Stadt"
      }
    },
    {
      "displayName": "Deutscher Kinderschutzbund Ortsverband Essen e.V.",
      "id": "deutscherkinderschutzbundortsverbandessenev-747d0f",
      "locationSet": {"include": ["de"]},
      "tags": {
        "amenity": "kindergarten",
        "operator": "Deutscher Kinderschutzbund Ortsverband Essen e.V."
      }
    },
    {
      "displayName": "Diakonisches Werk – Stadtmission Bayreuth e. V.",
      "id": "diakonischeswerkstadtmissionbayreuthev-747d0f",
      "locationSet": {"include": ["de"]},
      "tags": {
        "amenity": "kindergarten",
        "operator": "Diakonisches Werk – Stadtmission Bayreuth e. V."
      }
    },
    {
      "displayName": "Eigenbetrieb Kindertageseinrichtungen Dresden",
      "id": "eigenbetriebkindertageseinrichtungendresden-747d0f",
      "locationSet": {"include": ["de"]},
      "tags": {
        "amenity": "kindergarten",
        "operator": "Eigenbetrieb Kindertageseinrichtungen Dresden"
      }
    },
    {
      "displayName": "Elbkinder Vereinigung Hamburger Kitas gGmbH",
      "id": "elbkindervereinigunghamburgerkitasggmbh-747d0f",
      "locationSet": {"include": ["de"]},
      "tags": {
        "amenity": "kindergarten",
        "operator": "Elbkinder Vereinigung Hamburger Kitas gGmbH"
      }
    },
    {
      "displayName": "Elterninitiative",
      "id": "elterninitiative-0ff93d",
      "locationSet": {"include": ["001"]},
      "tags": {
        "amenity": "kindergarten",
        "operator": "Elterninitiative"
      }
    },
    {
      "displayName": "Esbjerg Kommune",
      "id": "esbjergkommune-0ff93d",
      "locationSet": {"include": ["001"]},
      "tags": {
        "amenity": "kindergarten",
        "operator": "Esbjerg Kommune"
      }
    },
    {
      "displayName": "Espoon kaupunki",
      "id": "espoonkaupunki-0ff93d",
      "locationSet": {"include": ["001"]},
      "tags": {
        "amenity": "kindergarten",
        "operator": "Espoon kaupunki"
      }
    },
    {
      "displayName": "Ev.-luth. Kindertagesstättenverband Grafschaft Diepholz",
      "id": "evluthkindertagesstattenverbandgrafschaftdiepholz-747d0f",
      "locationSet": {"include": ["de"]},
      "tags": {
        "amenity": "kindergarten",
        "operator": "Ev.-luth. Kindertagesstättenverband Grafschaft Diepholz"
      }
    },
    {
      "displayName": "Evangelische Kirche",
      "id": "evangelischekirche-0ff93d",
      "locationSet": {"include": ["001"]},
      "tags": {
        "amenity": "kindergarten",
        "operator": "Evangelische Kirche"
      }
    },
    {
      "displayName": "Evangelische Kirchengemeinde",
      "id": "evangelischekirchengemeinde-0ff93d",
      "locationSet": {"include": ["001"]},
      "tags": {
        "amenity": "kindergarten",
        "operator": "Evangelische Kirchengemeinde"
      }
    },
    {
      "displayName": "Evangelischer Kirchenkreis Dortmund",
      "id": "evangelischerkirchenkreisdortmund-747d0f",
      "locationSet": {"include": ["de"]},
      "tags": {
        "amenity": "kindergarten",
        "operator": "Evangelischer Kirchenkreis Dortmund"
      }
    },
    {
      "displayName": "Evangelischer Kirchenkreis Hamm",
      "id": "evangelischerkirchenkreishamm-747d0f",
      "locationSet": {"include": ["de"]},
      "tags": {
        "amenity": "kindergarten",
        "operator": "Evangelischer Kirchenkreis Hamm"
      }
    },
    {
      "displayName": "FABIDO",
      "id": "fabido-0ff93d",
      "locationSet": {"include": ["001"]},
      "tags": {
        "amenity": "kindergarten",
        "operator": "FABIDO"
      }
    },
    {
      "displayName": "Fröbel e.V.",
      "id": "frobelev-0ff93d",
      "locationSet": {"include": ["001"]},
      "tags": {
        "amenity": "kindergarten",
        "operator": "Fröbel e.V."
      }
    },
    {
      "displayName": "Fundación Integra",
      "id": "fundacionintegra-0ff93d",
      "locationSet": {"include": ["001"]},
      "tags": {
        "amenity": "kindergarten",
        "operator": "Fundación Integra"
      }
    },
    {
      "displayName": "gmina",
      "id": "gmina-0ff93d",
      "locationSet": {"include": ["001"]},
      "tags": {
        "amenity": "kindergarten",
        "operator": "gmina"
      }
    },
    {
      "displayName": "Gradski ured za obrazovanje",
      "id": "gradskiuredzaobrazovanje-0ff93d",
      "locationSet": {"include": ["001"]},
      "tags": {
        "amenity": "kindergarten",
        "operator": "Gradski ured za obrazovanje"
      }
    },
    {
      "displayName": "Helsingin kaupunki",
      "id": "helsinginkaupunki-0ff93d",
      "locationSet": {"include": ["001"]},
      "tags": {
        "amenity": "kindergarten",
        "operator": "Helsingin kaupunki"
      }
    },
    {
      "displayName": "Internationaler Bund",
      "id": "internationalerbund-0ff93d",
      "locationSet": {"include": ["001"]},
      "tags": {
        "amenity": "kindergarten",
        "operator": "Internationaler Bund"
      }
    },
    {
      "displayName": "Johanniter",
      "id": "johanniter-747d0f",
      "locationSet": {"include": ["de"]},
      "tags": {
        "amenity": "kindergarten",
        "operator": "Johanniter"
      }
    },
    {
      "displayName": "Johanniter-Unfall-Hilfe e.V.",
      "id": "johanniterunfallhilfeev-747d0f",
      "locationSet": {"include": ["de"]},
      "tags": {
        "amenity": "kindergarten",
        "operator": "Johanniter-Unfall-Hilfe e.V."
      }
    },
    {
      "displayName": "Jugend- und Sozialwerk gemeinnützige GmbH",
      "id": "jugendundsozialwerkgemeinnutzigegmbh-0ff93d",
      "locationSet": {"include": ["001"]},
      "tags": {
        "amenity": "kindergarten",
        "operator": "Jugend- und Sozialwerk gemeinnützige GmbH"
      }
    },
    {
      "displayName": "Jugendamt Landeshauptstadt Düsseldorf, Willi-Becker-Allee 7, 40227 Düsseldorf",
      "id": "jugendamtlandeshauptstadtdusseldorfwillibeckerallee740227dusseldorf-747d0f",
      "locationSet": {"include": ["de"]},
      "tags": {
        "amenity": "kindergarten",
        "operator": "Jugendamt Landeshauptstadt Düsseldorf, Willi-Becker-Allee 7, 40227 Düsseldorf"
      }
    },
    {
      "displayName": "Jugendamt Stadt Essen",
      "id": "jugendamtstadtessen-747d0f",
      "locationSet": {"include": ["de"]},
      "tags": {
        "amenity": "kindergarten",
        "operator": "Jugendamt Stadt Essen"
      }
    },
    {
      "displayName": "Kath. Kindertageseinrichtungen Hellweg",
      "id": "kathkindertageseinrichtungenhellweg-0ff93d",
      "locationSet": {"include": ["001"]},
      "tags": {
        "amenity": "kindergarten",
        "operator": "Kath. Kindertageseinrichtungen Hellweg"
      }
    },
    {
      "displayName": "Katholische Gesamtkirchengemeinde Ravensburg",
      "id": "katholischegesamtkirchengemeinderavensburg-747d0f",
      "locationSet": {"include": ["de"]},
      "tags": {
        "amenity": "kindergarten",
        "operator": "Katholische Gesamtkirchengemeinde Ravensburg"
      }
    },
    {
      "displayName": "Katholische Kirche",
      "id": "katholischekirche-0ff93d",
      "locationSet": {"include": ["001"]},
      "tags": {
        "amenity": "kindergarten",
        "operator": "Katholische Kirche"
      }
    },
    {
      "displayName": "Katholische KiTa gGmbH Saarland",
      "id": "katholischekitaggmbhsaarland-747d0f",
      "locationSet": {"include": ["de"]},
      "tags": {
        "amenity": "kindergarten",
        "operator": "Katholische KiTa gGmbH Saarland"
      }
    },
    {
      "displayName": "Kidsa Barnehager AS",
      "id": "kidsabarnehageras-0ff93d",
      "locationSet": {"include": ["001"]},
      "tags": {
        "amenity": "kindergarten",
        "operator": "Kidsa Barnehager AS"
      }
    },
    {
      "displayName": "Kindergärten City, Eigenbetrieb von Berlin",
      "id": "kindergartencityeigenbetriebvonberlin-747d0f",
      "locationSet": {"include": ["de"]},
      "tags": {
        "amenity": "kindergarten",
        "operator": "Kindergärten City, Eigenbetrieb von Berlin"
      }
    },
    {
      "displayName": "Kindergärten NordOst",
      "id": "kindergartennordost-747d0f",
      "locationSet": {"include": ["de"]},
      "tags": {
        "amenity": "kindergarten",
        "operator": "Kindergärten NordOst"
      }
    },
    {
      "displayName": "Kindergärten NordOst, Eigenbetrieb von Berlin",
      "id": "kindergartennordosteigenbetriebvonberlin-747d0f",
      "locationSet": {"include": ["de"]},
      "tags": {
        "amenity": "kindergarten",
        "operator": "Kindergärten NordOst, Eigenbetrieb von Berlin"
      }
    },
    {
      "displayName": "Kinderhaus e. V.",
      "id": "kinderhausev-0ff93d",
      "locationSet": {"include": ["001"]},
      "tags": {
        "amenity": "kindergarten",
        "operator": "Kinderhaus e. V."
      }
    },
    {
      "displayName": "Kindertagesstätten Nordwest, Eigenbetrieb von Berlin",
      "id": "kindertagesstattennordwesteigenbetriebvonberlin-747d0f",
      "locationSet": {"include": ["de"]},
      "tags": {
        "amenity": "kindergarten",
        "operator": "Kindertagesstätten Nordwest, Eigenbetrieb von Berlin"
      }
    },
    {
      "displayName": "Kindertagesstätten SüdOst, Eigenbetrieb von Berlin",
      "id": "kindertagesstattensudosteigenbetriebvonberlin-747d0f",
      "locationSet": {"include": ["de"]},
      "tags": {
        "amenity": "kindergarten",
        "operator": "Kindertagesstätten SüdOst, Eigenbetrieb von Berlin"
      }
    },
    {
      "displayName": "KiTa Bremen",
      "id": "kitabremen-747d0f",
      "locationSet": {"include": ["de"]},
      "tags": {
        "amenity": "kindergarten",
        "operator": "KiTa Bremen"
      }
    },
    {
      "displayName": "Kita Frankfurt",
      "id": "kitafrankfurt-747d0f",
      "locationSet": {"include": ["de"]},
      "tags": {
        "amenity": "kindergarten",
        "operator": "Kita Frankfurt"
      }
    },
    {
      "displayName": "Kungsbacka kommun",
      "id": "kungsbackakommun-0ff93d",
      "locationSet": {"include": ["001"]},
      "tags": {
        "amenity": "kindergarten",
        "operator": "Kungsbacka kommun"
      }
    },
    {
      "displayName": "La Maison Bleue",
      "id": "lamaisonbleue-0ff93d",
      "locationSet": {"include": ["001"]},
      "tags": {
        "amenity": "kindergarten",
        "operator": "La Maison Bleue"
      }
    },
    {
      "displayName": "Læringsverkstedet AS",
      "id": "laeringsverkstedetas-0ff93d",
      "locationSet": {"include": ["001"]},
      "tags": {
        "amenity": "kindergarten",
        "operator": "Læringsverkstedet AS"
      }
    },
    {
      "displayName": "Landeshauptstadt Stuttgart",
      "id": "landeshauptstadtstuttgart-0ff93d",
      "locationSet": {"include": ["001"]},
      "tags": {
        "amenity": "kindergarten",
        "operator": "Landeshauptstadt Stuttgart"
      }
    },
    {
      "displayName": "Lillehammer kommune",
      "id": "lillehammerkommune-0ff93d",
      "locationSet": {"include": ["001"]},
      "tags": {
        "amenity": "kindergarten",
        "operator": "Lillehammer kommune"
      }
    },
    {
      "displayName": "Luleå kommun",
      "id": "luleakommun-0ff93d",
      "locationSet": {"include": ["001"]},
      "tags": {
        "amenity": "kindergarten",
        "operator": "Luleå kommun"
      }
    },
    {
      "displayName": "Mairie de Paris",
      "id": "mairiedeparis-94d05d",
      "locationSet": {"include": ["fx"]},
      "tags": {
        "amenity": "kindergarten",
        "operator": "Mairie de Paris"
      }
    },
    {
      "displayName": "Mairie de Toulouse",
      "id": "mairiedetoulouse-94d05d",
      "locationSet": {"include": ["fx"]},
      "tags": {
        "amenity": "kindergarten",
        "operator": "Mairie de Toulouse"
      }
    },
    {
      "displayName": "Nachbarschaftsheim Schöneberg e.V.",
      "id": "nachbarschaftsheimschonebergev-0ff93d",
      "locationSet": {"include": ["001"]},
      "tags": {
        "amenity": "kindergarten",
        "operator": "Nachbarschaftsheim Schöneberg e.V."
      }
    },
    {
      "displayName": "Pinal Gila Community Child Services",
      "id": "pinalgilacommunitychildservices-0ff93d",
      "locationSet": {"include": ["001"]},
      "tags": {
        "amenity": "kindergarten",
        "operator": "Pinal Gila Community Child Services"
      }
    },
    {
      "displayName": "Prefeitura Municipal de Blumenau",
      "id": "prefeituramunicipaldeblumenau-0ff93d",
      "locationSet": {"include": ["001"]},
      "tags": {
        "amenity": "kindergarten",
        "operator": "Prefeitura Municipal de Blumenau"
      }
    },
    {
      "displayName": "pro futura",
      "id": "profutura-0ff93d",
      "locationSet": {"include": ["001"]},
      "tags": {
        "amenity": "kindergarten",
        "operator": "pro futura"
      }
    },
    {
      "displayName": "pro multis gGmbH",
      "id": "promultisggmbh-0ff93d",
      "locationSet": {"include": ["001"]},
      "tags": {
        "amenity": "kindergarten",
        "operator": "pro multis gGmbH"
      }
    },
    {
      "displayName": "San José Unified School District",
      "id": "sanjoseunifiedschooldistrict-3b2a3e",
      "locationSet": {
        "include": ["us-ca.geojson"]
      },
      "tags": {
        "amenity": "kindergarten",
        "operator": "San José Unified School District",
        "operator:short": "SJUSD",
        "operator:type": "public",
        "operator:wikidata": "Q7414497",
        "operator:wikipedia": "en:San José Unified School District"
      }
    },
    {
      "displayName": "Save The Children",
      "id": "savethechildren-0ff93d",
      "locationSet": {"include": ["001"]},
      "tags": {
        "amenity": "kindergarten",
        "operator": "Save The Children"
      }
    },
    {
      "displayName": "Sistema Estatal Para El Desarrollo Integral De La Familia",
      "id": "sistemaestatalparaeldesarrollointegraldelafamilia-0ff93d",
      "locationSet": {"include": ["001"]},
      "tags": {
        "amenity": "kindergarten",
        "operator": "Sistema Estatal Para El Desarrollo Integral De La Familia"
      }
    },
    {
      "displayName": "Sozialpädagogischer Verein zur familienergänzenden Erziehung e.V.",
      "id": "sozialpadagogischervereinzurfamilienerganzendenerziehungev-0ff93d",
      "locationSet": {"include": ["001"]},
      "tags": {
        "amenity": "kindergarten",
        "operator": "Sozialpädagogischer Verein zur familienergänzenden Erziehung e.V."
      }
    },
    {
      "displayName": "Stadt Freising",
      "id": "stadtfreising-747d0f",
      "locationSet": {"include": ["de"]},
      "tags": {
        "amenity": "kindergarten",
        "operator": "Stadt Freising"
      }
    },
    {
      "displayName": "Stadt Gelsenkirchen",
      "id": "stadtgelsenkirchen-747d0f",
      "locationSet": {"include": ["de"]},
      "tags": {
        "amenity": "kindergarten",
        "operator": "Stadt Gelsenkirchen"
      }
    },
    {
      "displayName": "Stadt Graz",
      "id": "stadtgraz-7bcf1a",
      "locationSet": {"include": ["at"]},
      "tags": {
        "amenity": "kindergarten",
        "operator": "Stadt Graz"
      }
    },
    {
      "displayName": "Stadt Krefeld",
      "id": "stadtkrefeld-747d0f",
      "locationSet": {"include": ["de"]},
      "tags": {
        "amenity": "kindergarten",
        "operator": "Stadt Krefeld"
      }
    },
    {
      "displayName": "Stadt Mannheim",
      "id": "stadtmannheim-747d0f",
      "locationSet": {"include": ["de"]},
      "tags": {
        "amenity": "kindergarten",
        "operator": "Stadt Mannheim"
      }
    },
    {
      "displayName": "Stadt Mössingen",
      "id": "stadtmossingen-0ff93d",
      "locationSet": {"include": ["001"]},
      "tags": {
        "amenity": "kindergarten",
        "operator": "Stadt Mössingen"
      }
    },
    {
      "displayName": "Stadt München",
      "id": "stadtmunchen-747d0f",
      "locationSet": {"include": ["de"]},
      "tags": {
        "amenity": "kindergarten",
        "operator": "Stadt München"
      }
    },
    {
      "displayName": "Stadt Rodgau",
      "id": "stadtrodgau-0ff93d",
      "locationSet": {"include": ["001"]},
      "tags": {
        "amenity": "kindergarten",
        "operator": "Stadt Rodgau"
      }
    },
    {
      "displayName": "Stadt Singen",
      "id": "stadtsingen-0ff93d",
      "locationSet": {"include": ["001"]},
      "tags": {
        "amenity": "kindergarten",
        "operator": "Stadt Singen"
      }
    },
    {
      "displayName": "Stadt Troisdorf",
      "id": "stadttroisdorf-747d0f",
      "locationSet": {"include": ["de"]},
      "tags": {
        "amenity": "kindergarten",
        "operator": "Stadt Troisdorf"
      }
    },
    {
      "displayName": "Stadt Ulm",
      "id": "stadtulm-747d0f",
      "locationSet": {"include": ["de"]},
      "tags": {
        "amenity": "kindergarten",
        "operator": "Stadt Ulm"
      }
    },
    {
      "displayName": "Stadt Weinstadt",
      "id": "stadtweinstadt-0ff93d",
      "locationSet": {"include": ["001"]},
      "tags": {
        "amenity": "kindergarten",
        "operator": "Stadt Weinstadt"
      }
    },
    {
      "displayName": "Stadt Winnenden",
      "id": "stadtwinnenden-747d0f",
      "locationSet": {"include": ["de"]},
      "tags": {
        "amenity": "kindergarten",
        "operator": "Stadt Winnenden"
      }
    },
    {
      "displayName": "Stadt Wolfenbüttel",
      "id": "stadtwolfenbuttel-747d0f",
      "locationSet": {"include": ["de"]},
      "tags": {
        "amenity": "kindergarten",
        "operator": "Stadt Wolfenbüttel"
      }
    },
    {
      "displayName": "Stiftelsen Kanvas",
      "id": "stiftelsenkanvas-0ff93d",
      "locationSet": {"include": ["001"]},
      "tags": {
        "amenity": "kindergarten",
        "operator": "Stiftelsen Kanvas"
      }
    },
    {
      "displayName": "Szeged Megyei Jogú Város Önkormányzata Óvodák Igazgatósága",
      "id": "szegedmegyeijoguvarosonkormanyzataovodakigazgatosaga-0ff93d",
      "locationSet": {"include": ["001"]},
      "tags": {
        "amenity": "kindergarten",
        "operator": "Szeged Megyei Jogú Város Önkormányzata Óvodák Igazgatósága"
      }
    },
    {
      "displayName": "Tallinna Haridusamet",
      "id": "tallinnaharidusamet-0ff93d",
      "locationSet": {"include": ["001"]},
      "tags": {
        "amenity": "kindergarten",
        "operator": "Tallinna Haridusamet"
      }
    },
    {
      "displayName": "Värnamo kommun",
      "id": "varnamokommun-0ff93d",
      "locationSet": {"include": ["001"]},
      "tags": {
        "amenity": "kindergarten",
        "operator": "Värnamo kommun"
      }
    },
    {
      "displayName": "Vereinigung Hamburger Kindertagesstätten",
      "id": "vereinigunghamburgerkindertagesstatten-747d0f",
      "locationSet": {"include": ["de"]},
      "tags": {
        "amenity": "kindergarten",
        "operator": "Vereinigung Hamburger Kindertagesstätten"
      }
    },
    {
      "displayName": "Ville d'Amiens",
      "id": "villedamiens-94d05d",
      "locationSet": {"include": ["fx"]},
      "tags": {
        "amenity": "kindergarten",
        "operator": "Ville d'Amiens"
      }
    },
    {
      "displayName": "Ville de Montpellier",
      "id": "villedemontpellier-94d05d",
      "locationSet": {"include": ["fx"]},
      "tags": {
        "amenity": "kindergarten",
        "operator": "Ville de Montpellier"
      }
    },
    {
      "displayName": "ГБОУ Школа №1598",
      "id": "5050ce-0ff93d",
      "locationSet": {"include": ["001"]},
      "tags": {
        "amenity": "kindergarten",
        "operator": "ГБОУ Школа №1598"
      }
    },
    {
      "displayName": "Житомирська міська рада",
      "id": "351435-0ff93d",
      "locationSet": {"include": ["001"]},
      "tags": {
        "amenity": "kindergarten",
        "operator": "Житомирська міська рада"
      }
    },
    {
      "displayName": "Мiнiстерство освiти i науки",
      "id": "bddd58-0ff93d",
      "locationSet": {"include": ["001"]},
      "tags": {
        "amenity": "kindergarten",
        "operator": "Мiнiстерство освiти i науки"
      }
    },
    {
      "displayName": "Международный общественный фонд (МОФ) “Инициатива Розы Отунбаевой”",
      "id": "412652-0ff93d",
      "locationSet": {"include": ["001"]},
      "tags": {
        "amenity": "kindergarten",
        "operator": "Международный общественный фонд (МОФ) “Инициатива Розы Отунбаевой”"
      }
    },
    {
      "displayName": "Предшколска установа „Дечја радост“",
      "id": "8bf48c-0ff93d",
      "locationSet": {"include": ["001"]},
      "tags": {
        "amenity": "kindergarten",
        "operator": "Предшколска установа „Дечја радост“"
      }
    },
    {
      "displayName": "民間",
      "id": "fc139e-0ff93d",
      "locationSet": {"include": ["001"]},
      "tags": {
        "amenity": "kindergarten",
        "operator": "民間"
      }
    }
  ]
}
