{
  "properties": {
    "path": "operators/amenity/library",
    "exclude": {
      "generic": ["^library$", "^public$"]
    }
  },
  "items": [
    {
      "displayName": "Ajuntament de València",
      "id": "ajuntamentdevalencia-9284e0",
      "locationSet": {"include": ["001"]},
      "tags": {
        "amenity": "library",
        "operator": "Ajuntament de València"
      }
    },
    {
      "displayName": "Alachua County Library District",
      "id": "alachuacountylibrarydistrict-9284e0",
      "locationSet": {"include": ["001"]},
      "tags": {
        "amenity": "library",
        "operator": "Alachua County Library District"
      }
    },
    {
      "displayName": "Anne Arundel County Public Library",
      "id": "annearundelcountypubliclibrary-9284e0",
      "locationSet": {"include": ["001"]},
      "tags": {
        "amenity": "library",
        "operator": "Anne Arundel County Public Library"
      }
    },
    {
      "displayName": "Auckland Libraries",
      "id": "aucklandlibraries-9284e0",
      "locationSet": {"include": ["001"]},
      "tags": {
        "amenity": "library",
        "operator": "Auckland Libraries"
      }
    },
    {
      "displayName": "Ayuntamiento de Málaga",
      "id": "ayuntamientodemalaga-9284e0",
      "locationSet": {"include": ["001"]},
      "tags": {
        "amenity": "library",
        "operator": "Ayuntamiento de Málaga"
      }
    },
    {
      "displayName": "Baltimore County Public Library",
      "id": "baltimorecountypubliclibrary-9284e0",
      "locationSet": {"include": ["001"]},
      "tags": {
        "amenity": "library",
        "operator": "Baltimore County Public Library"
      }
    },
    {
      "displayName": "Biblionet Groningen",
      "id": "biblionetgroningen-9284e0",
      "locationSet": {"include": ["001"]},
      "tags": {
        "amenity": "library",
        "operator": "Biblionet Groningen"
      }
    },
    {
      "displayName": "Biblioteca Comunale di Trento",
      "id": "bibliotecacomunaleditrento-9284e0",
      "locationSet": {"include": ["001"]},
      "tags": {
        "amenity": "library",
        "operator": "Biblioteca Comunale di Trento"
      }
    },
    {
      "displayName": "Biblioteka Kraków",
      "id": "bibliotekakrakow-9284e0",
      "locationSet": {"include": ["001"]},
      "tags": {
        "amenity": "library",
        "operator": "Biblioteka Kraków"
      }
    },
    {
      "displayName": "Biblioteka Miejska w Łodzi",
      "id": "bibliotekamiejskawlodzi-9284e0",
      "locationSet": {"include": ["001"]},
      "tags": {
        "amenity": "library",
        "operator": "Biblioteka Miejska w Łodzi"
      }
    },
    {
      "displayName": "Biblioteka Publiczna im. J. U. Niemcewicza w Dzielnicy Ursynów m.st. Warszawy",
      "id": "bibliotekapublicznaimjuniemcewiczawdzielnicyursynowmstwarszawy-9284e0",
      "locationSet": {"include": ["001"]},
      "tags": {
        "amenity": "library",
        "operator": "Biblioteka Publiczna im. J. U. Niemcewicza w Dzielnicy Ursynów m.st. Warszawy"
      }
    },
    {
      "displayName": "Biblioteka Publiczna m.st. Warszawy",
      "id": "bibliotekapublicznamstwarszawy-9284e0",
      "locationSet": {"include": ["001"]},
      "tags": {
        "amenity": "library",
        "operator": "Biblioteka Publiczna m.st. Warszawy"
      }
    },
    {
      "displayName": "Biblioteka Raczyńskich",
      "id": "bibliotekaraczynskich-9284e0",
      "locationSet": {"include": ["001"]},
      "tags": {
        "amenity": "library",
        "operator": "Biblioteka Raczyńskich"
      }
    },
    {
      "displayName": "Birmingham Public Library",
      "id": "birminghampubliclibrary-9284e0",
      "locationSet": {"include": ["001"]},
      "tags": {
        "amenity": "library",
        "operator": "Birmingham Public Library"
      }
    },
    {
      "displayName": "Biržų rajono savivaldybės Jurgio Bielinio viešoji biblioteka",
      "id": "birzurajonosavivaldybesjurgiobielinioviesojibiblioteka-9284e0",
      "locationSet": {"include": ["001"]},
      "tags": {
        "amenity": "library",
        "operator": "Biržų rajono savivaldybės Jurgio Bielinio viešoji biblioteka"
      }
    },
    {
      "displayName": "Bowling Green State University",
      "id": "bowlinggreenstateuniversity-9284e0",
      "locationSet": {"include": ["001"]},
      "tags": {
        "amenity": "library",
        "operator": "Bowling Green State University"
      }
    },
    {
      "displayName": "Brisbane City Council",
      "id": "brisbanecitycouncil-9284e0",
      "locationSet": {"include": ["001"]},
      "tags": {
        "amenity": "library",
        "operator": "Brisbane City Council"
      }
    },
    {
      "displayName": "Bruce County Public Library",
      "id": "brucecountypubliclibrary-9284e0",
      "locationSet": {"include": ["001"]},
      "tags": {
        "amenity": "library",
        "operator": "Bruce County Public Library"
      }
    },
    {
      "displayName": "Calgary Public Library",
      "id": "calgarypubliclibrary-9284e0",
      "locationSet": {"include": ["001"]},
      "tags": {
        "amenity": "library",
        "operator": "Calgary Public Library"
      }
    },
    {
      "displayName": "CCEG",
      "id": "cceg-9284e0",
      "locationSet": {"include": ["001"]},
      "tags": {
        "amenity": "library",
        "operator": "CCEG"
      }
    },
    {
      "displayName": "Chicago Public Library",
      "id": "chicagopubliclibrary-9284e0",
      "locationSet": {"include": ["001"]},
      "tags": {
        "amenity": "library",
        "operator": "Chicago Public Library"
      }
    },
    {
      "displayName": "City of San Antonio",
      "id": "cityofsanantonio-9284e0",
      "locationSet": {"include": ["001"]},
      "tags": {
        "amenity": "library",
        "operator": "City of San Antonio"
      }
    },
    {
      "displayName": "City of San Diego",
      "id": "cityofsandiego-9284e0",
      "locationSet": {"include": ["001"]},
      "tags": {
        "amenity": "library",
        "operator": "City of San Diego"
      }
    },
    {
      "displayName": "Clare County Library",
      "id": "clarecountylibrary-9284e0",
      "locationSet": {"include": ["001"]},
      "tags": {
        "amenity": "library",
        "operator": "Clare County Library"
      }
    },
    {
      "displayName": "Cleveland Public Library",
      "id": "clevelandpubliclibrary-9284e0",
      "locationSet": {"include": ["001"]},
      "tags": {
        "amenity": "library",
        "operator": "Cleveland Public Library"
      }
    },
    {
      "displayName": "Cobb County Public Library System",
      "id": "cobbcountypubliclibrarysystem-9284e0",
      "locationSet": {"include": ["001"]},
      "tags": {
        "amenity": "library",
        "operator": "Cobb County Public Library System"
      }
    },
    {
      "displayName": "Communauté de communes Châteaubriant-Derval",
      "id": "communautedecommuneschateaubriantderval-9284e0",
      "locationSet": {"include": ["001"]},
      "tags": {
        "amenity": "library",
        "operator": "Communauté de communes Châteaubriant-Derval"
      }
    },
    {
      "displayName": "Communauté de communes du Pays d'Ancenis",
      "id": "communautedecommunesdupaysdancenis-9284e0",
      "locationSet": {"include": ["001"]},
      "tags": {
        "amenity": "library",
        "operator": "Communauté de communes du Pays d'Ancenis"
      }
    },
    {
      "displayName": "County",
      "id": "county-9284e0",
      "locationSet": {"include": ["001"]},
      "tags": {
        "amenity": "library",
        "operator": "County"
      }
    },
    {
      "displayName": "Detroit Public Library",
      "id": "detroitpubliclibrary-9284e0",
      "locationSet": {"include": ["001"]},
      "tags": {
        "amenity": "library",
        "operator": "Detroit Public Library"
      }
    },
    {
      "displayName": "Diputació de Barcelona",
      "id": "diputaciodebarcelona-9284e0",
      "locationSet": {"include": ["001"]},
      "tags": {
        "amenity": "library",
        "operator": "Diputació de Barcelona"
      }
    },
    {
      "displayName": "Directorate of Public Libraries",
      "id": "directorateofpubliclibraries-9284e0",
      "locationSet": {"include": ["001"]},
      "tags": {
        "amenity": "library",
        "operator": "Directorate of Public Libraries"
      }
    },
    {
      "displayName": "Dublin City Council",
      "id": "dublincitycouncil-9284e0",
      "locationSet": {"include": ["001"]},
      "tags": {
        "amenity": "library",
        "operator": "Dublin City Council"
      }
    },
    {
      "displayName": "Edmonton Public Library",
      "id": "edmontonpubliclibrary-9284e0",
      "locationSet": {"include": ["001"]},
      "tags": {
        "amenity": "library",
        "operator": "Edmonton Public Library"
      }
    },
    {
      "displayName": "Eepos kirjastot",
      "id": "eeposkirjastot-9284e0",
      "locationSet": {"include": ["001"]},
      "tags": {
        "amenity": "library",
        "operator": "Eepos kirjastot"
      }
    },
    {
      "displayName": "Enoch Pratt Free Library",
      "id": "enochprattfreelibrary-9284e0",
      "locationSet": {"include": ["001"]},
      "tags": {
        "amenity": "library",
        "operator": "Enoch Pratt Free Library"
      }
    },
    {
      "displayName": "Essex County Council",
      "id": "essexcountycouncil-9284e0",
      "locationSet": {"include": ["001"]},
      "tags": {
        "amenity": "library",
        "operator": "Essex County Council"
      }
    },
    {
      "displayName": "Fővárosi Szabó Ervin Könyvtár",
      "id": "fovarosiszaboervinkonyvtar-9284e0",
      "locationSet": {"include": ["001"]},
      "tags": {
        "amenity": "library",
        "operator": "Fővárosi Szabó Ervin Könyvtár"
      }
    },
    {
      "displayName": "Fraser Valley Regional Library",
      "id": "fraservalleyregionallibrary-9284e0",
      "locationSet": {"include": ["001"]},
      "tags": {
        "amenity": "library",
        "operator": "Fraser Valley Regional Library"
      }
    },
    {
      "displayName": "Freie Universität Berlin",
      "id": "freieuniversitatberlin-9284e0",
      "locationSet": {"include": ["001"]},
      "tags": {
        "amenity": "library",
        "operator": "Freie Universität Berlin"
      }
    },
    {
      "displayName": "Gemeinde",
      "id": "gemeinde-9284e0",
      "locationSet": {"include": ["001"]},
      "tags": {
        "amenity": "library",
        "operator": "Gemeinde"
      }
    },
    {
      "displayName": "Hamilton Public Library",
      "id": "hamiltonpubliclibrary-9284e0",
      "locationSet": {"include": ["001"]},
      "tags": {
        "amenity": "library",
        "operator": "Hamilton Public Library"
      }
    },
    {
      "displayName": "Hampshire County Council",
      "id": "hampshirecountycouncil-9284e0",
      "locationSet": {"include": ["001"]},
      "tags": {
        "amenity": "library",
        "operator": "Hampshire County Council"
      }
    },
    {
      "displayName": "Helmet",
      "id": "helmet-9284e0",
      "locationSet": {"include": ["001"]},
      "tags": {
        "amenity": "library",
        "operator": "Helmet"
      }
    },
    {
      "displayName": "Hennepin County Library",
      "id": "hennepincountylibrary-9284e0",
      "locationSet": {"include": ["001"]},
      "tags": {
        "amenity": "library",
        "operator": "Hennepin County Library"
      }
    },
    {
      "displayName": "Huron County Library",
      "id": "huroncountylibrary-9284e0",
      "locationSet": {"include": ["001"]},
      "tags": {
        "amenity": "library",
        "operator": "Huron County Library"
      }
    },
    {
      "displayName": "Kawartha Lakes Public Library",
      "id": "kawarthalakespubliclibrary-9284e0",
      "locationSet": {"include": ["001"]},
      "tags": {
        "amenity": "library",
        "operator": "Kawartha Lakes Public Library"
      }
    },
    {
      "displayName": "Kent County Council",
      "id": "kentcountycouncil-9284e0",
      "locationSet": {"include": ["001"]},
      "tags": {
        "amenity": "library",
        "operator": "Kent County Council"
      }
    },
    {
      "displayName": "King County Library System",
      "id": "kingcountylibrarysystem-9284e0",
      "locationSet": {"include": ["001"]},
      "tags": {
        "amenity": "library",
        "operator": "King County Library System"
      }
    },
    {
      "displayName": "Kingston Frontenac Public Library",
      "id": "kingstonfrontenacpubliclibrary-9284e0",
      "locationSet": {"include": ["001"]},
      "tags": {
        "amenity": "library",
        "operator": "Kingston Frontenac Public Library"
      }
    },
    {
      "displayName": "Knižnica pre mládež mesta Košice",
      "id": "kniznicapremladezmestakosice-9284e0",
      "locationSet": {"include": ["001"]},
      "tags": {
        "amenity": "library",
        "operator": "Knižnica pre mládež mesta Košice"
      }
    },
    {
      "displayName": "Książnica Płocka im. Władysława Broniewskiego",
      "id": "ksiaznicaplockaimwladyslawabroniewskiego-9284e0",
      "locationSet": {"include": ["001"]},
      "tags": {
        "amenity": "library",
        "operator": "Książnica Płocka im. Władysława Broniewskiego"
      }
    },
    {
      "displayName": "Lake Agassiz Regional Library System",
      "id": "lakeagassizregionallibrarysystem-9284e0",
      "locationSet": {"include": ["001"]},
      "tags": {
        "amenity": "library",
        "operator": "Lake Agassiz Regional Library System"
      }
    },
    {
      "displayName": "Lambton County Library",
      "id": "lambtoncountylibrary-9284e0",
      "locationSet": {"include": ["001"]},
      "tags": {
        "amenity": "library",
        "operator": "Lambton County Library"
      }
    },
    {
      "displayName": "Lancashire County Council",
      "id": "lancashirecountycouncil-9284e0",
      "locationSet": {"include": ["001"]},
      "tags": {
        "amenity": "library",
        "operator": "Lancashire County Council"
      }
    },
    {
      "displayName": "Libraries Tasmania",
      "id": "librariestasmania-9284e0",
      "locationSet": {"include": ["001"]},
      "tags": {
        "amenity": "library",
        "operator": "Libraries Tasmania"
      }
    },
    {
      "displayName": "London Public Library",
      "id": "londonpubliclibrary-9284e0",
      "locationSet": {"include": ["001"]},
      "tags": {
        "amenity": "library",
        "operator": "London Public Library"
      }
    },
    {
      "displayName": "Mairie",
      "id": "mairie-9284e0",
      "locationSet": {"include": ["001"]},
      "tags": {
        "amenity": "library",
        "operator": "Mairie"
      }
    },
    {
      "displayName": "Mairie de Paris",
      "id": "mairiedeparis-9284e0",
      "locationSet": {"include": ["001"]},
      "tags": {
        "amenity": "library",
        "operator": "Mairie de Paris"
      }
    },
    {
      "displayName": "Mestna knjižnica Ljubljana",
      "id": "mestnaknjiznicaljubljana-9284e0",
      "locationSet": {"include": ["001"]},
      "tags": {
        "amenity": "library",
        "operator": "Mestna knjižnica Ljubljana"
      }
    },
    {
      "displayName": "Městská knihovna v Praze",
      "id": "mestskaknihovnavpraze-9284e0",
      "locationSet": {"include": ["001"]},
      "tags": {
        "amenity": "library",
        "operator": "Městská knihovna v Praze"
      }
    },
    {
      "displayName": "Middlesex County Library",
      "id": "middlesexcountylibrary-9284e0",
      "locationSet": {"include": ["001"]},
      "tags": {
        "amenity": "library",
        "operator": "Middlesex County Library"
      }
    },
    {
      "displayName": "Miejska Biblioteka Publiczna im. Hieronima Łopacińskiego w Lublinie",
      "id": "miejskabibliotekapublicznaimhieronimalopacinskiegowlublinie-9284e0",
      "locationSet": {"include": ["001"]},
      "tags": {
        "amenity": "library",
        "operator": "Miejska Biblioteka Publiczna im. Hieronima Łopacińskiego w Lublinie"
      }
    },
    {
      "displayName": "Miejska Biblioteka Publiczna we Wrocławiu",
      "id": "miejskabibliotekapublicznawewroclawiu-9284e0",
      "locationSet": {"include": ["001"]},
      "tags": {
        "amenity": "library",
        "operator": "Miejska Biblioteka Publiczna we Wrocławiu"
      }
    },
    {
      "displayName": "Milwaukee Public Library",
      "id": "milwaukeepubliclibrary-9284e0",
      "locationSet": {"include": ["001"]},
      "tags": {
        "amenity": "library",
        "operator": "Milwaukee Public Library"
      }
    },
    {
      "displayName": "Mississauga Library",
      "id": "mississaugalibrary-9284e0",
      "locationSet": {"include": ["001"]},
      "tags": {
        "amenity": "library",
        "operator": "Mississauga Library"
      }
    },
    {
      "displayName": "Monroe County Library System",
      "id": "monroecountylibrarysystem-9284e0",
      "locationSet": {"include": ["001"]},
      "tags": {
        "amenity": "library",
        "operator": "Monroe County Library System"
      }
    },
    {
      "displayName": "Montpellier Méditerranée Métropole",
      "id": "montpelliermediterraneemetropole-9284e0",
      "locationSet": {"include": ["001"]},
      "tags": {
        "amenity": "library",
        "operator": "Montpellier Méditerranée Métropole"
      }
    },
    {
      "displayName": "Multnomah County Library",
      "id": "multnomahcountylibrary-9284e0",
      "locationSet": {"include": ["001"]},
      "tags": {
        "amenity": "library",
        "operator": "Multnomah County Library"
      }
    },
    {
      "displayName": "Münchner Stadtbibliothek",
      "id": "munchnerstadtbibliothek-9284e0",
      "locationSet": {"include": ["001"]},
      "tags": {
        "amenity": "library",
        "operator": "Münchner Stadtbibliothek"
      }
    },
    {
      "displayName": "New York Public Library",
      "id": "newyorkpubliclibrary-895178",
      "locationSet": {"include": ["us"]},
      "tags": {
        "amenity": "library",
        "operator": "New York Public Library",
        "operator:short": "NYPL",
        "operator:type": "public",
        "operator:wikidata": "Q219555",
        "operator:wikipedia": "en:New York Public Library"
      }
    },
    {
      "displayName": "Norfolk County Council",
      "id": "norfolkcountycouncil-9284e0",
      "locationSet": {"include": ["001"]},
      "tags": {
        "amenity": "library",
        "operator": "Norfolk County Council"
      }
    },
    {
      "displayName": "Northamptonshire County Council",
      "id": "northamptonshirecountycouncil-9284e0",
      "locationSet": {"include": ["001"]},
      "tags": {
        "amenity": "library",
        "operator": "Northamptonshire County Council"
      }
    },
    {
      "displayName": "NTNU Universitetsbiblioteket",
      "id": "ntnuuniversitetsbiblioteket-9284e0",
      "locationSet": {"include": ["001"]},
      "tags": {
        "amenity": "library",
        "operator": "NTNU Universitetsbiblioteket"
      }
    },
    {
      "displayName": "OBA",
      "id": "oba-9284e0",
      "locationSet": {"include": ["001"]},
      "tags": {
        "amenity": "library",
        "operator": "OBA"
      }
    },
    {
      "displayName": "Onondaga County Public Library",
      "id": "onondagacountypubliclibrary-9284e0",
      "locationSet": {"include": ["001"]},
      "tags": {
        "amenity": "library",
        "operator": "Onondaga County Public Library"
      }
    },
    {
      "displayName": "Orange County Library System",
      "id": "orangecountylibrarysystem-9284e0",
      "locationSet": {"include": ["001"]},
      "tags": {
        "amenity": "library",
        "operator": "Orange County Library System"
      }
    },
    {
      "displayName": "Ottawa Public Library",
      "id": "ottawapubliclibrary-9284e0",
      "locationSet": {"include": ["001"]},
      "tags": {
        "amenity": "library",
        "operator": "Ottawa Public Library"
      }
    },
    {
      "displayName": "Oxford County Library",
      "id": "oxfordcountylibrary-9284e0",
      "locationSet": {"include": ["001"]},
      "tags": {
        "amenity": "library",
        "operator": "Oxford County Library"
      }
    },
    {
      "displayName": "Oxfordshire County Council",
      "id": "oxfordshirecountycouncil-9284e0",
      "locationSet": {"include": ["001"]},
      "tags": {
        "amenity": "library",
        "operator": "Oxfordshire County Council"
      }
    },
    {
      "displayName": "PBZ Pestalozzi-Bibliothek Zürich",
      "id": "pbzpestalozzibibliothekzurich-9284e0",
      "locationSet": {"include": ["001"]},
      "tags": {
        "amenity": "library",
        "operator": "PBZ Pestalozzi-Bibliothek Zürich"
      }
    },
    {
      "displayName": "Philipps-Universität Marburg",
      "id": "philippsuniversitatmarburg-9284e0",
      "locationSet": {"include": ["001"]},
      "tags": {
        "amenity": "library",
        "operator": "Philipps-Universität Marburg"
      }
    },
    {
      "displayName": "Pikes Peak Library District",
      "id": "pikespeaklibrarydistrict-9284e0",
      "locationSet": {"include": ["001"]},
      "tags": {
        "amenity": "library",
        "operator": "Pikes Peak Library District"
      }
    },
    {
      "displayName": "Plymouth City Council",
      "id": "plymouthcitycouncil-9284e0",
      "locationSet": {"include": ["001"]},
      "tags": {
        "amenity": "library",
        "operator": "Plymouth City Council"
      }
    },
    {
      "displayName": "Public Library of Cincinnati and Hamilton County",
      "id": "publiclibraryofcincinnatiandhamiltoncounty-9284e0",
      "locationSet": {"include": ["001"]},
      "tags": {
        "amenity": "library",
        "operator": "Public Library of Cincinnati and Hamilton County"
      }
    },
    {
      "displayName": "Purdue University",
      "id": "purdueuniversity-9284e0",
      "locationSet": {"include": ["001"]},
      "tags": {
        "amenity": "library",
        "operator": "Purdue University"
      }
    },
    {
      "displayName": "Red Municipal de Bibliotecas de Murcia",
      "id": "redmunicipaldebibliotecasdemurcia-9284e0",
      "locationSet": {"include": ["001"]},
      "tags": {
        "amenity": "library",
        "operator": "Red Municipal de Bibliotecas de Murcia"
      }
    },
    {
      "displayName": "Rochester Public Library",
      "id": "rochesterpubliclibrary-9284e0",
      "locationSet": {"include": ["001"]},
      "tags": {
        "amenity": "library",
        "operator": "Rochester Public Library"
      }
    },
    {
      "displayName": "Salford Council",
      "id": "salfordcouncil-9284e0",
      "locationSet": {"include": ["001"]},
      "tags": {
        "amenity": "library",
        "operator": "Salford Council"
      }
    },
    {
      "displayName": "San Francisco Public Library",
      "id": "sanfranciscopubliclibrary-9284e0",
      "locationSet": {"include": ["001"]},
      "tags": {
        "amenity": "library",
        "operator": "San Francisco Public Library"
      }
    },
    {
      "displayName": "San José Public Library",
      "id": "sanjosepubliclibrary-9284e0",
      "locationSet": {"include": ["001"]},
      "tags": {
        "amenity": "library",
        "operator": "San José Public Library"
      }
    },
    {
      "displayName": "Satakirjastot",
      "id": "satakirjastot-9284e0",
      "locationSet": {"include": ["001"]},
      "tags": {
        "amenity": "library",
        "operator": "Satakirjastot"
      }
    },
    {
      "displayName": "SDG Library",
      "id": "sdglibrary-9284e0",
      "locationSet": {"include": ["001"]},
      "tags": {
        "amenity": "library",
        "operator": "SDG Library"
      }
    },
    {
      "displayName": "Seattle Public Library",
      "id": "seattlepubliclibrary-9284e0",
      "locationSet": {"include": ["001"]},
      "tags": {
        "amenity": "library",
        "operator": "Seattle Public Library"
      }
    },
    {
      "displayName": "Stichting Bibliotheek Oosterschelde",
      "id": "stichtingbibliotheekoosterschelde-9284e0",
      "locationSet": {"include": ["001"]},
      "tags": {
        "amenity": "library",
        "operator": "Stichting Bibliotheek Oosterschelde"
      }
    },
    {
      "displayName": "Stichting Bibliotheek Zeeuws-Vlaanderen",
      "id": "stichtingbibliotheekzeeuwsvlaanderen-9284e0",
      "locationSet": {"include": ["001"]},
      "tags": {
        "amenity": "library",
        "operator": "Stichting Bibliotheek Zeeuws-Vlaanderen"
      }
    },
    {
      "displayName": "Stichting Noord Oost Brabantse Bibliotheken",
      "id": "stichtingnoordoostbrabantsebibliotheken-9284e0",
      "locationSet": {"include": ["001"]},
      "tags": {
        "amenity": "library",
        "operator": "Stichting Noord Oost Brabantse Bibliotheken"
      }
    },
    {
      "displayName": "Toronto Public Library",
      "id": "torontopubliclibrary-9284e0",
      "locationSet": {"include": ["001"]},
      "tags": {
        "amenity": "library",
        "operator": "Toronto Public Library"
      }
    },
    {
      "displayName": "Universidad de León",
      "id": "universidaddeleon-9284e0",
      "locationSet": {"include": ["001"]},
      "tags": {
        "amenity": "library",
        "operator": "Universidad de León"
      }
    },
    {
      "displayName": "Universidad de Málaga",
      "id": "universidaddemalaga-9284e0",
      "locationSet": {"include": ["001"]},
      "tags": {
        "amenity": "library",
        "operator": "Universidad de Málaga"
      }
    },
    {
      "displayName": "Università degli Studi di Roma \"La Sapienza\"",
      "id": "universitadeglistudidiromalasapienza-9284e0",
      "locationSet": {"include": ["001"]},
      "tags": {
        "amenity": "library",
        "operator": "Università degli Studi di Roma \"La Sapienza\""
      }
    },
    {
      "displayName": "Università degli studi di Trieste",
      "id": "universitadeglistudiditrieste-9284e0",
      "locationSet": {"include": ["001"]},
      "tags": {
        "amenity": "library",
        "operator": "Università degli studi di Trieste"
      }
    },
    {
      "displayName": "Universität Bonn",
      "id": "universitatbonn-9284e0",
      "locationSet": {"include": ["001"]},
      "tags": {
        "amenity": "library",
        "operator": "Universität Bonn"
      }
    },
    {
      "displayName": "Universität Hamburg",
      "id": "universitathamburg-9284e0",
      "locationSet": {"include": ["001"]},
      "tags": {
        "amenity": "library",
        "operator": "Universität Hamburg"
      }
    },
    {
      "displayName": "Universität Wien",
      "id": "universitatwien-9284e0",
      "locationSet": {"include": ["001"]},
      "tags": {
        "amenity": "library",
        "operator": "Universität Wien"
      }
    },
    {
      "displayName": "Universitäts- und Landesbibliothek Sachsen-Anhalt",
      "id": "universitatsundlandesbibliotheksachsenanhalt-9284e0",
      "locationSet": {"include": ["001"]},
      "tags": {
        "amenity": "library",
        "operator": "Universitäts- und Landesbibliothek Sachsen-Anhalt"
      }
    },
    {
      "displayName": "Universitätsbibliothek der Humboldt-Universität zu Berlin",
      "id": "universitatsbibliothekderhumboldtuniversitatzuberlin-9284e0",
      "locationSet": {"include": ["001"]},
      "tags": {
        "amenity": "library",
        "operator": "Universitätsbibliothek der Humboldt-Universität zu Berlin"
      }
    },
    {
      "displayName": "Universitätsbibliothek der LMU München",
      "id": "universitatsbibliothekderlmumunchen-9284e0",
      "locationSet": {"include": ["001"]},
      "tags": {
        "amenity": "library",
        "operator": "Universitätsbibliothek der LMU München"
      }
    },
    {
      "displayName": "Université Bordeaux Montaigne",
      "id": "universitebordeauxmontaigne-9284e0",
      "locationSet": {"include": ["001"]},
      "tags": {
        "amenity": "library",
        "operator": "Université Bordeaux Montaigne"
      }
    },
    {
      "displayName": "Université de Lorraine",
      "id": "universitedelorraine-9284e0",
      "locationSet": {"include": ["001"]},
      "tags": {
        "amenity": "library",
        "operator": "Université de Lorraine"
      }
    },
    {
      "displayName": "University of Toronto",
      "id": "universityoftoronto-9284e0",
      "locationSet": {"include": ["001"]},
      "tags": {
        "amenity": "library",
        "operator:wikidata":"Q180865",
        "operator:wikipedia":"en:University of Toronto",
        "operator": "University of Toronto"
      }
    },
    {
      "displayName": "Vancouver Public Library",
      "id": "vancouverpubliclibrary-9284e0",
      "locationSet": {"include": ["ca"]},
      "tags": {
        "amenity": "library",
        "operator:wikidata":"Q1376408",
        "operator:wikipedia":"en:Vancouver Public Library",
        "operator": "Vancouver Public Library"
      }
    },
    {
      "displayName": "Ville de Genève",
      "id": "villedegeneve-9284e0",
      "locationSet": {"include": ["001"]},
      "tags": {
        "amenity": "library",
        "operator": "Ville de Genève"
      }
    },
    {
      "displayName": "Ville de Lyon",
      "id": "villedelyon-9284e0",
      "locationSet": {"include": ["001"]},
      "tags": {
        "amenity": "library",
        "operator": "Ville de Lyon"
      }
    },
    {
      "displayName": "Wellington County Library",
      "id": "wellingtoncountylibrary-9284e0",
      "locationSet": {"include": ["ca","nz"]},
      "tags": {
        "amenity": "library",
        "operator:wikidata":"Q53678310",
        "operator": "Wellington County Library"
      }
    },
    {
      "displayName": "ВІННИЦЬКА МІСЬКА ЦЕНТРАЛІЗОВАНА БІБЛІОТЕЧНА СИСТЕМА",
      "id": "f08ae8-9284e0",
      "locationSet": {"include": ["001"]},
      "tags": {
        "amenity": "library",
        "operator": "ВІННИЦЬКА МІСЬКА ЦЕНТРАЛІЗОВАНА БІБЛІОТЕЧНА СИСТЕМА"
      }
    },
    {
      "displayName": "МБУ межпоселенческая \"Центральная библиотека Приморского района\"",
      "id": "cfe7c6-9284e0",
      "locationSet": {"include": ["001"]},
      "tags": {
        "amenity": "library",
        "operator": "МБУ межпоселенческая \"Центральная библиотека Приморского района\""
      }
    },
    {
      "displayName": "МБУК \"Библиотеки Тольятти\"",
      "id": "b7690e-9284e0",
      "locationSet": {"include": ["001"]},
      "tags": {
        "amenity": "library",
        "operator": "МБУК \"Библиотеки Тольятти\""
      }
    },
    {
      "displayName": "МБУК \"Объединение детских библиотек\"",
      "id": "d92d43-9284e0",
      "locationSet": {"include": ["001"]},
      "tags": {
        "amenity": "library",
        "operator": "МБУК \"Объединение детских библиотек\""
      }
    },
    {
      "displayName": "МУК \"Централизованная библиотечная система\"",
      "id": "b338ab-9284e0",
      "locationSet": {"include": ["001"]},
      "tags": {
        "amenity": "library",
        "operator": "МУК \"Централизованная библиотечная система\""
      }
    },
    {
      "displayName": "Централизованная библиотечная система",
      "id": "afed6b-9284e0",
      "locationSet": {"include": ["001"]},
      "tags": {
        "amenity": "library",
        "operator": "Централизованная библиотечная система"
      }
    },
    {
      "displayName": "Центральная городская библиотека",
      "id": "479213-9284e0",
      "locationSet": {"include": ["001"]},
      "tags": {
        "amenity": "library",
        "operator": "Центральная городская библиотека"
      }
    },
    {
      "displayName": "Центральная детская библиотека",
      "id": "7a6882-9284e0",
      "locationSet": {"include": ["001"]},
      "tags": {
        "amenity": "library",
        "operator": "Центральная детская библиотека"
      }
    },
    {
      "displayName": "인천광역시 연수구청",
      "id": "33efe3-9284e0",
      "locationSet": {"include": ["kr"]},
      "tags": {
        "amenity": "library",
        "operator": "인천광역시 연수구청",
        "operator:en":"Incheon Metropolitan City Yeonsu-gu Office",
        "operator:ko": "인천광역시 연수구청"
      }
    },
    {
      "displayName": "新北市立圖書館",
      "id": "df33f2-9284e0",
      "locationSet": {"include": ["tw"]},
      "tags": {
        "amenity": "library",
        "operator:wikidata":"Q11081463",
        "operator:wikipedia":"zh:新北市立圖書館",
        "operator:zh":"新北市立圖書館",
        "operator:en":"New Taipei City Library",
        "operator": "新北市立圖書館"
      }
    },
    {
      "displayName": "臺中市政府文化局",
      "id": "ab7581-9284e0",
      "locationSet": {"include": ["tw"]},
      "tags": {
        "amenity": "library",
        "operator:wikipedia":"zh:臺中市政府文化局",
        "operator:zh":"臺中市政府文化局",
        "operator:en":"Cultural Affairs Bureau, Taichung City Government",
        "operator": "臺中市政府文化局"
      }
    },
    {
      "displayName": "臺北市立圖書館",
      "id": "8b989a-9284e0",
      "locationSet": {"include": ["tw"]},
      "tags": {
        "amenity": "library",
        "operator:wikidata":"Q15896397",
        "operator:wikipedia":"zh:臺北市立圖書館",
        "operator:zh":"臺北市立圖書館",
        "operator:en":"Taipei Public Library",
        "operator": "臺北市立圖書館"
      }
    },
    {
      "displayName": "高雄市立圖書館",
      "id": "a32e09-9284e0",
      "locationSet": {"include": ["tw"]},
      "tags": {
        "amenity": "library",
        "operator:wikidata":"Q15900287",
        "operator:wikipedia":"zh:高雄市立圖書館",
        "operator:zh":"高雄市立圖書館",
        "operator:en":"Kaohsiung Public Library",
        "operator": "高雄市立圖書館"
      }
    }
  ]
}
