{
  "operators/amenity/parking": [
    {
      "displayName": "Colonial Parking",
      "id": "colonialparking-c11ec2",
      "locationSet": {"include": ["us"]},
      "tags": {
        "amenity": "parking",
        "brand": "Colonial Parking",
        "name": "Colonial Parking",
        "operator": "Colonial Parking"
      }
    },
    {
      "displayName": "Diamond Parking",
      "id": "diamondparking-4ef6cc",
      "locationSet": {"include": ["ca", "us"]},
      "tags": {
        "amenity": "parking",
        "brand": "Diamond Parking",
        "brand:wikidata": "Q5270887",
        "brand:wikipedia": "en:Diamond Parking",
        "name": "Diamond Parking",
        "operator": "Diamond Parking",
        "operator:wikidata": "Q5270887",
        "operator:wikipedia": "en:Diamond Parking"
      }
    },
    {
      "displayName": "Effia",
      "id": "effia-bebcb4",
      "locationSet": {"include": ["fr"]},
      "tags": {
        "amenity": "parking",
        "brand": "Effia",
        "brand:wikidata": "Q3045894",
        "brand:wikipedia": "fr:Effia",
        "name": "Effia",
        "operator": "Effia",
        "operator:wikidata": "Q3045894",
        "operator:wikipedia": "fr:Effia"
      }
    },
    {
      "displayName": "Indigo",
      "id": "indigo-00023b",
      "locationSet": {"include": ["001"]},
      "tags": {
        "amenity": "parking",
        "brand": "Indigo",
        "brand:wikidata": "Q3559970",
        "brand:wikipedia": "fr:Indigo (entreprise)",
        "fee": "yes",
        "name": "Indigo",
        "operator": "Indigo",
        "operator:wikidata": "Q3559970",
        "operator:wikipedia": "fr:Indigo (entreprise)"
      }
    },
    {
      "displayName": "NPC24H",
      "id": "npc24h-a16317",
      "locationSet": {"include": ["jp"]},
      "tags": {
        "amenity": "parking",
        "brand": "NPC",
        "brand:wikidata": "Q11506782",
        "brand:wikipedia": "ja:日本パーキング",
        "fee": "yes",
        "name": "NPC24H",
        "official_name": "日本パーキング",
        "operator": "NPC",
        "operator:wikidata": "Q11506782",
        "operator:wikipedia": "ja:日本パーキング"
      }
    },
    {
      "displayName": "Parking Company of America",
      "id": "parkingcompanyofamerica-c11ec2",
      "locationSet": {"include": ["us"]},
      "tags": {
        "amenity": "parking",
        "brand": "Parking Company of America",
        "brand:wikidata": "Q65491376",
        "fee": "yes",
        "name": "Parking Company of America",
        "operator": "Parking Company of America",
        "operator:wikidata": "Q65491376",
        "short_name": "PCA"
      }
    },
    {
      "displayName": "Q-Park",
      "id": "qpark-99dc74",
      "locationSet": {
        "include": [
          "be",
          "de",
          "dk",
          "fr",
          "gb",
          "ie",
          "nl"
        ]
      },
      "tags": {
        "amenity": "parking",
        "brand": "Q-Park",
        "brand:wikidata": "Q1127798",
        "brand:wikipedia": "en:Q-Park",
        "fee": "yes",
        "operator": "Q-Park",
        "operator:wikidata": "Q1127798",
        "operator:wikipedia": "en:Q-Park"
      }
    },
    {
      "displayName": "SP+",
      "id": "sp-4ef6cc",
      "locationSet": {"include": ["ca", "us"]},
      "matchNames": [
        "central parking",
        "central parking system",
        "standard parking"
      ],
      "tags": {
        "alt_name": "SP Plus",
        "amenity": "parking",
        "brand": "SP+",
        "brand:wikidata": "Q7598289",
        "brand:wikipedia": "en:SP Plus Corporation",
        "fee": "yes",
        "name": "SP+",
        "operator": "SP+",
        "operator:wikidata": "Q7598289",
        "operator:wikipedia": "en:SP Plus Corporation"
      }
    },
    {
      "displayName": "Wilson Parking",
      "id": "wilsonparking-25d86c",
      "locationSet": {
        "include": [
          "au",
          "cn",
          "hk",
          "kr",
          "nz",
          "sg"
        ]
      },
      "matchNames": ["wilson"],
      "tags": {
        "amenity": "parking",
        "brand": "Wilson Parking",
        "brand:wikidata": "Q28448427",
        "brand:wikipedia": "en:Wilson Parking",
        "fee": "yes",
        "name": "Wilson Parking",
        "operator": "Wilson Parking",
        "operator:wikidata": "Q28448427",
        "operator:wikipedia": "en:Wilson Parking"
      }
    },
    {
      "displayName": "アップルパーク",
      "id": "applepark-a16317",
      "locationSet": {"include": ["jp"]},
      "tags": {
        "amenity": "parking",
        "brand": "アップルパーク",
        "brand:en": "Apple Park",
        "brand:ja": "アップルパーク",
        "brand:wikidata": "Q30923801",
        "brand:wikipedia": "ja:アップルパーク",
        "fee": "yes",
        "name": "アップルパーク",
        "name:en": "Apple Park",
        "name:ja": "アップルパーク",
        "operator": "アップルパーク",
        "operator:en": "Apple Park",
        "operator:ja": "アップルパーク",
        "operator:wikidata": "Q30923801",
        "operator:wikipedia": "ja:アップルパーク"
      }
    },
    {
      "displayName": "タイムズ",
      "id": "times-a16317",
      "locationSet": {"include": ["jp"]},
      "matchNames": ["times 24th", "タイムズ24"],
      "tags": {
        "amenity": "parking",
        "brand": "タイムズ",
        "brand:en": "Times",
        "brand:ja": "タイムズ",
        "brand:wikidata": "Q11089693",
        "brand:wikipedia": "ja:パーク24",
        "fee": "yes",
        "name": "タイムズ",
        "name:en": "Times",
        "name:ja": "タイムズ",
        "operator": "タイムズ",
        "operator:en": "Times",
        "operator:ja": "タイムズ",
        "operator:wikidata": "Q11089693",
        "operator:wikipedia": "ja:パーク24"
      }
    },
    {
      "displayName": "トラストパーク",
      "id": "trustpark-a16317",
      "locationSet": {"include": ["jp"]},
      "tags": {
        "amenity": "parking",
        "brand": "トラストパーク",
        "brand:en": "Trust Park",
        "brand:ja": "トラストパーク",
        "brand:wikidata": "Q11321776",
        "brand:wikipedia": "ja:トラストホールディングス",
        "fee": "yes",
        "name": "トラストパーク",
        "name:en": "Trust Park",
        "name:ja": "トラストパーク",
        "operator": "トラストパーク",
        "operator:en": "Trust Park",
        "operator:ja": "トラストパーク",
        "operator:wikidata": "Q11321776",
        "operator:wikipedia": "ja:トラストホールディングス"
      }
    },
    {
      "displayName": "パラカ",
      "id": "paraca-a16317",
      "locationSet": {"include": ["jp"]},
      "tags": {
        "amenity": "parking",
        "brand": "パラカ",
        "brand:en": "Paraca",
        "brand:ja": "パラカ",
        "brand:wikidata": "Q11329318",
        "brand:wikipedia": "ja:パラカ",
        "fee": "yes",
        "name": "パラカ",
        "name:en": "Paraca",
        "name:ja": "パラカ",
        "operator": "パラカ",
        "operator:en": "Paraca",
        "operator:ja": "パラカ",
        "operator:wikidata": "Q11329318",
        "operator:wikipedia": "ja:パラカ"
      }
    },
    {
      "displayName": "ル・パルク",
      "id": "leperc-a16317",
      "locationSet": {"include": ["jp"]},
      "matchNames": ["nttル・パルク"],
      "tags": {
        "amenity": "parking",
        "brand": "ル・パルク",
        "brand:en": "LePerc",
        "brand:ja": "ル・パルク",
        "brand:wikidata": "Q11236111",
        "brand:wikipedia": "ja:NTTル・パルク",
        "fee": "yes",
        "name": "ル・パルク",
        "name:en": "LePerc",
        "name:ja": "ル・パルク",
        "operator": "ル・パルク",
        "operator:en": "LePerc",
        "operator:ja": "ル・パルク",
        "operator:wikidata": "Q11236111",
        "operator:wikipedia": "ja:NTTル・パルク"
      }
    },
    {
      "displayName": "三井のリパーク",
      "id": "mitsuirepark-a16317",
      "locationSet": {"include": ["jp"]},
      "tags": {
        "amenity": "parking",
        "brand": "三井のリパーク",
        "brand:en": "Mitsui Repark",
        "brand:ja": "三井のリパーク",
        "brand:wikidata": "Q11415765",
        "brand:wikipedia": "ja:名鉄協商",
        "fee": "yes",
        "name": "三井のリパーク",
        "name:en": "Mitsui Repark",
        "name:ja": "三井のリパーク",
        "operator": "三井のリパーク",
        "operator:en": "Mitsui Repark",
        "operator:ja": "三井のリパーク",
        "operator:wikidata": "Q11415765",
        "operator:wikipedia": "ja:名鉄協商"
      }
    },
    {
      "displayName": "名鉄協商パーキング",
      "id": "meitetsukyosho-a16317",
      "locationSet": {"include": ["jp"]},
      "tags": {
        "amenity": "parking",
        "brand": "名鉄協商パーキング",
        "brand:en": "Meitetsu Kyosho",
        "brand:ja": "名鉄協商パーキング",
        "brand:wikidata": "Q11415765",
        "brand:wikipedia": "ja:名鉄協商",
        "fee": "yes",
        "name": "名鉄協商パーキング",
        "name:en": "Meitetsu Kyosho",
        "name:ja": "名鉄協商パーキング",
        "operator": "名鉄協商パーキング",
        "operator:en": "Meitetsu Kyosho",
        "operator:ja": "名鉄協商パーキング",
        "operator:wikidata": "Q11415765",
        "operator:wikipedia": "ja:名鉄協商"
      }
    }
  ]
}