{
  "operators/amenity/police": [
    {
      "displayName": "Arma dei Carabinieri",
      "id": "armadeicarabinieri-f71f16",
      "locationSet": {"include": ["it"]},
      "tags": {
        "amenity": "police",
        "operator": "Arma dei Carabinieri",
        "operator:short": "Carabinieri",
        "operator:wikidata": "Q54852",
        "operator:wikipedia": "en:Carabinieri"
      }
    },
    {
      "displayName": "Avon and Somerset Police",
      "id": "avonandsomersetpolice-e8776d",
      "locationSet": {"include": ["gb-eng"]},
      "tags": {
        "amenity": "police",
        "operator": "Avon and Somerset Police",
        "operator:wikidata": "Q4829263",
        "operator:wikipedia": "en:Avon and Somerset Police"
      }
    },
    {
      "displayName": "Ayuntamiento de Madrid.",
      "id": "ayuntamientodemadrid-dd66e9",
      "locationSet": {"include": ["es"]},
      "tags": {
        "amenity": "police",
        "operator": "Ayuntamiento de Madrid."
      }
    },
    {
      "displayName": "Bedfordshire Police",
      "id": "bedfordshirepolice-e8776d",
      "locationSet": {"include": ["gb-eng"]},
      "tags": {
        "amenity": "police",
        "operator": "Bedfordshire Police",
        "operator:wikidata": "Q4879244",
        "operator:wikipedia": "en:Bedfordshire Police"
      }
    },
    {
      "displayName": "Brigada Militar do Rio Grande do Sul",
      "id": "brigadamilitardoriograndedosul-f7f40a",
      "locationSet": {"include": ["br"]},
      "matchNames": ["brigada militar"],
      "tags": {
        "amenity": "police",
        "operator": "Brigada Militar do Rio Grande do Sul",
        "operator:en": "Military Police Brigade of Rio Grande do Sul",
        "operator:short": "BMRS",
        "operator:wikipedia": "en:Military Brigade of Rio Grande do Sul"
      }
    },
    {
      "displayName": "British Transport Police",
      "id": "britishtransportpolice-e8776d",
      "locationSet": {"include": ["gb-eng"]},
      "tags": {
        "amenity": "police",
        "operator": "British Transport Police",
        "operator:wikidata": "Q174588",
        "operator:wikipedia": "en:British Transport Police"
      }
    },
    {
      "displayName": "Bundespolizei (Deutschland)",
      "id": "bundespolizei-120877",
      "locationSet": {"include": ["de"]},
      "tags": {
        "amenity": "police",
        "operator": "Bundespolizei",
        "operator:short": "BPOL",
        "operator:wikidata": "Q56026",
        "operator:wikipedia": "de:Bundespolizei (Deutschland)"
      }
    },
    {
      "displayName": "Bundespolizei (Österreich)",
      "id": "bundespolizei-6671a8",
      "locationSet": {"include": ["at"]},
      "tags": {
        "amenity": "police",
        "operator": "Bundespolizei",
        "operator:wikidata": "Q700124",
        "operator:wikipedia": "de:Bundespolizei (Österreich)"
      }
    },
    {
      "displayName": "Cambridgeshire Constabulary",
      "id": "cambridgeshireconstabulary-e8776d",
      "locationSet": {"include": ["gb-eng"]},
      "tags": {
        "amenity": "police",
        "operator": "Cambridgeshire Constabulary",
        "operator:wikidata": "Q5025653",
        "operator:wikipedia": "en:Cambridgeshire Constabulary"
      }
    },
    {
      "displayName": "Carabineros de Chile",
      "id": "carabinerosdechile-2e4672",
      "locationSet": {"include": ["cl"]},
      "tags": {
        "amenity": "police",
        "operator": "Carabineros de Chile",
        "operator:wikidata": "Q2317752",
        "operator:wikipedia": "es:Carabineros de Chile"
      }
    },
    {
      "displayName": "Cheshire Constabulary",
      "id": "cheshireconstabulary-e8776d",
      "locationSet": {"include": ["gb-eng"]},
      "tags": {
        "amenity": "police",
        "operator": "Cheshire Constabulary",
        "operator:wikidata": "Q5092942",
        "operator:wikipedia": "en:Cheshire Constabulary"
      }
    },
    {
      "displayName": "Chicago Police Department",
      "id": "chicagopolicedepartment-04d52e",
      "locationSet": {"include": ["us"]},
      "tags": {
        "amenity": "police",
        "operator": "Chicago Police Department",
        "operator:wikidata": "Q1340186",
        "operator:wikipedia": "en:Chicago Police Department"
      }
    },
    {
      "displayName": "Comunidad de Madrid",
      "id": "comunidaddemadrid-dd66e9",
      "locationSet": {"include": ["es"]},
      "tags": {
        "amenity": "police",
        "operator": "Comunidad de Madrid"
      }
    },
    {
      "displayName": "Corpo Forestale dello Stato",
      "id": "corpoforestaledellostato-f71f16",
      "locationSet": {"include": ["it"]},
      "tags": {
        "amenity": "police",
        "operator": "Corpo Forestale dello Stato",
        "operator:wikidata": "Q1134650",
        "operator:wikipedia": "it:Corpo forestale dello Stato"
      }
    },
    {
      "displayName": "Cuerpo de Agentes de Control Municipal",
      "id": "cuerpodeagentesdecontrolmunicipal-d00fc1",
      "locationSet": {"include": ["001"]},
      "tags": {
        "amenity": "police",
        "operator": "Cuerpo de Agentes de Control Municipal"
      }
    },
    {
      "displayName": "Cuerpo Nacional de Policía",
      "id": "cuerponacionaldepolicia-dd66e9",
      "locationSet": {"include": ["es"]},
      "matchNames": [
        "ministerio de interior",
        "policia nacional"
      ],
      "tags": {
        "amenity": "police",
        "operator": "Cuerpo Nacional de Policía",
        "operator:en": "National Police Corps",
        "operator:short": "CNP",
        "operator:wikipedia": "en:National Police Corps"
      }
    },
    {
      "displayName": "Cumbria Constabulary",
      "id": "cumbriaconstabulary-e8776d",
      "locationSet": {"include": ["gb-eng"]},
      "tags": {
        "amenity": "police",
        "operator": "Cumbria Constabulary",
        "operator:wikidata": "Q5194029",
        "operator:wikipedia": "en:Cumbria Constabulary"
      }
    },
    {
      "displayName": "Departamento de Polícia Federal",
      "id": "departamentodepoliciafederal-f7f40a",
      "locationSet": {"include": ["br"]},
      "tags": {
        "amenity": "police",
        "operator": "Departamento de Polícia Federal",
        "operator:wikipedia": "Federal Police of Brazil"
      }
    },
    {
      "displayName": "Derbyshire Constabulary",
      "id": "derbyshireconstabulary-e8776d",
      "locationSet": {"include": ["gb-eng"]},
      "tags": {
        "amenity": "police",
        "operator": "Derbyshire Constabulary",
        "operator:wikidata": "Q5261560",
        "operator:wikipedia": "en:Derbyshire Constabulary"
      }
    },
    {
      "displayName": "Devon and Cornwall Police",
      "id": "devonandcornwallpolice-e8776d",
      "locationSet": {"include": ["gb-eng"]},
      "tags": {
        "amenity": "police",
        "operator": "Devon and Cornwall Police",
        "operator:wikidata": "Q5267784",
        "operator:wikipedia": "en:Devon and Cornwall Police"
      }
    },
    {
      "displayName": "DGSN (Algeria)",
      "id": "directiongeneraledelasuretenationale-1f771a",
      "locationSet": {"include": ["dz"]},
      "tags": {
        "amenity": "police",
        "operator": "Direction générale de la Sûreté nationale",
        "operator:ar": "المديرية العامة للأمن الوطني",
        "operator:short": "DGSN",
        "operator:wikidata": "Q12218510",
        "operator:wikipedia": "fr:Police nationale (Algérie)"
      }
    },
    {
      "displayName": "Direcția Generală de Poliție a Municipiului București",
      "id": "directiageneraladepolitieamunicipiuluibucuresti-f06bca",
      "locationSet": {"include": ["ro"]},
      "tags": {
        "amenity": "police",
        "operator": "Direcția Generală de Poliție a Municipiului București",
        "operator:wikidata": "Q18539731",
        "operator:wikipedia": "ro:Direcția Generală de Poliție a Municipiului București"
      }
    },
    {
      "displayName": "Dorset Police",
      "id": "dorsetpolice-e8776d",
      "locationSet": {"include": ["gb-eng"]},
      "tags": {
        "amenity": "police",
        "operator": "Dorset Police",
        "operator:wikidata": "Q5298864",
        "operator:wikipedia": "en:Dorset Police"
      }
    },
    {
      "displayName": "Essex Police",
      "id": "essexpolice-e8776d",
      "locationSet": {"include": ["gb-eng"]},
      "tags": {
        "amenity": "police",
        "operator": "Essex Police",
        "operator:wikidata": "Q5399777",
        "operator:wikipedia": "en:Essex Police"
      }
    },
    {
      "displayName": "Estadual",
      "id": "estadual-f7f40a",
      "locationSet": {"include": ["br"]},
      "tags": {
        "amenity": "police",
        "operator": "Estadual"
      }
    },
    {
      "displayName": "Federal Bureau of Investigation",
      "id": "federalbureauofinvestigation-04d52e",
      "locationSet": {"include": ["us"]},
      "tags": {
        "amenity": "police",
        "operator": "Federal Bureau of Investigation",
        "operator:short": "FBI",
        "operator:wikidata": "Q8333",
        "operator:wikipedia": "en:Federal Bureau of Investigation"
      }
    },
    {
      "displayName": "Federal Police of Brazil",
      "id": "policiafederal-f7f40a",
      "locationSet": {"include": ["br"]},
      "matchNames": ["federal"],
      "tags": {
        "amenity": "police",
        "operator": "Polícia Federal",
        "operator:en": "Federal Police Department",
        "operator:wikipedia": "en:Federal Police of Brazil"
      }
    },
    {
      "displayName": "Garda Síochána",
      "id": "gardasiochana-82aa2a",
      "locationSet": {"include": ["ie"]},
      "matchNames": ["an garda síochána"],
      "tags": {
        "amenity": "police",
        "operator": "Garda Síochána",
        "operator:wikidata": "Q1366959",
        "operator:wikipedia": "en:Garda Síochána"
      }
    },
    {
      "displayName": "Gendarmería Nacional Argentina",
      "id": "gendarmerianacionalargentina-e73d55",
      "locationSet": {"include": ["ar"]},
      "tags": {
        "amenity": "police",
        "operator": "Gendarmería Nacional Argentina",
        "operator:wikidata": "Q3100095",
        "operator:wikipedia": "es:Gendarmería Nacional Argentina"
      }
    },
    {
      "displayName": "Gendarmerie nationale",
      "id": "gendarmerienationale-d00fc1",
      "locationSet": {"include": ["001"]},
      "tags": {
        "amenity": "police",
        "operator": "Gendarmerie nationale"
      }
    },
    {
      "displayName": "Gendarmerie nationale (Algeria)",
      "id": "gendarmerienationale-1f771a",
      "locationSet": {"include": ["dz"]},
      "matchNames": [
        "mdn",
        "ministry of national defence",
        "ministry of national defense",
        "ministère de la défense nationale",
        "وزارة الدفاع الوطني الجزائرية"
      ],
      "tags": {
        "amenity": "police",
        "operator": "Gendarmerie nationale",
        "operator:ar": "الدرك الوطني"
      }
    },
    {
      "displayName": "Guardia Civil",
      "id": "guardiacivil-dd66e9",
      "locationSet": {"include": ["es"]},
      "tags": {
        "amenity": "police",
        "operator": "Guardia Civil",
        "operator:wikidata": "Q932821",
        "operator:wikipedia": "es:Guardia Civil"
      }
    },
    {
      "displayName": "Guardia Costiera",
      "id": "guardiacostiera-f71f16",
      "locationSet": {"include": ["it"]},
      "tags": {
        "amenity": "police",
        "operator": "Guardia Costiera",
        "operator:wikidata": "Q1552839",
        "operator:wikipedia": "it:Corpo delle capitanerie di porto - Guardia costiera"
      }
    },
    {
      "displayName": "Guardia di Finanza",
      "id": "guardiadifinanza-f71f16",
      "locationSet": {"include": ["it"]},
      "tags": {
        "amenity": "police",
        "operator": "Guardia di Finanza",
        "operator:wikidata": "Q1552861",
        "operator:wikipedia": "it:Guardia di Finanza"
      }
    },
    {
      "displayName": "Gwent Police",
      "id": "gwentpolice-03a321",
      "locationSet": {"include": ["gb-wls"]},
      "tags": {
        "amenity": "police",
        "operator": "Gwent Police",
        "operator:wikidata": "Q1774842",
        "operator:wikipedia": "en:Gwent Police"
      }
    },
    {
      "displayName": "Indonesian National Police",
      "id": "indonesiannationalpolice-d8ba39",
      "locationSet": {"include": ["id"]},
      "tags": {
        "amenity": "police",
        "operator": "Indonesian National Police",
        "operator:id": "Kepolisian Negara Republik Indonesia",
        "operator:short": "POLRI",
        "operator:wikidata": "Q3103954",
        "operator:wikipedia": "en:Indonesian National Police"
      }
    },
    {
      "displayName": "Jammu And Kashmir Police",
      "id": "jammuandkashmirpolice-d00fc1",
      "locationSet": {"include": ["001"]},
      "tags": {
        "amenity": "police",
        "operator": "Jammu And Kashmir Police",
        "operator:wikidata": "Q6148022",
        "operator:wikipedia": "en:Jammu and Kashmir Police"
      }
    },
    {
      "displayName": "Kantonspolizei Thurgau",
      "id": "kantonspolizeithurgau-e64270",
      "locationSet": {"include": ["ch"]},
      "tags": {
        "amenity": "police",
        "operator": "Kantonspolizei Thurgau",
        "operator:wikidata": "Q56705297"
      }
    },
    {
      "displayName": "Komenda Miejska Policji w Lublinie",
      "id": "komendamiejskapolicjiwlublinie-821ef5",
      "locationSet": {"include": ["pl"]},
      "tags": {
        "amenity": "police",
        "operator": "Komenda Miejska Policji w Lublinie"
      }
    },
    {
      "displayName": "Los Angeles Police Department",
      "id": "cityoflosangelespolicedepartment-04d52e",
      "locationSet": {"include": ["us"]},
      "tags": {
        "amenity": "police",
        "operator": "City of Los Angeles Police Department",
        "operator:short": "LAPD",
        "operator:wikidata": "Q214126"
      }
    },
    {
      "displayName": "Metro Transit Police Department (DC)",
      "id": "metrotransitpolicedepartment-04d52e",
      "locationSet": {"include": ["us"]},
      "matchNames": ["wmata police"],
      "tags": {
        "amenity": "police",
        "operator": "Metro Transit Police Department",
        "operator:wikidata": "Q6824749",
        "operator:wikipedia": "en:Metro Transit Police Department"
      }
    },
    {
      "displayName": "Metropolitan Police (London)",
      "id": "metropolitanpolice-e8776d",
      "locationSet": {"include": ["gb-eng"]},
      "tags": {
        "amenity": "police",
        "operator": "Metropolitan Police",
        "operator:wikidata": "Q1139213",
        "operator:wikipedia": "en:Metropolitan Police"
      }
    },
    {
      "displayName": "Metropolitan Police Department (DC)",
      "id": "metropolitanpolicedepartment-04d52e",
      "locationSet": {"include": ["us"]},
      "matchNames": [
        "dcpd",
        "washington dc police department"
      ],
      "tags": {
        "amenity": "police",
        "operator": "Metropolitan Police Department",
        "operator:short": "MPD",
        "operator:wikidata": "Q1350854",
        "operator:wikipedia": "en:Metropolitan Police Department of the District of Columbia"
      }
    },
    {
      "displayName": "Ministère d'Etat, Ministère de l'Interieur et de la Sécurité",
      "id": "ministeredetatministeredelinterieuretdelasecurite-92205f",
      "locationSet": {"include": ["ci"]},
      "tags": {
        "amenity": "police",
        "operator": "Ministère d'Etat, Ministère de l'Interieur et de la Sécurité"
      }
    },
    {
      "displayName": "Ministerio de Defensa",
      "id": "ministeriodedefensa-d00fc1",
      "locationSet": {"include": ["001"]},
      "tags": {
        "amenity": "police",
        "operator": "Ministerio de Defensa"
      }
    },
    {
      "displayName": "Ministerio de Obras Públicas y Transportes",
      "id": "ministeriodeobraspublicasytransportes-05938a",
      "locationSet": {"include": ["cr"]},
      "tags": {
        "amenity": "police",
        "operator": "Ministerio de Obras Públicas y Transportes",
        "operator:short": "MOPT"
      }
    },
    {
      "displayName": "Ministerio del Interior",
      "id": "ministeriodelinterior-d00fc1",
      "locationSet": {"include": ["001"]},
      "matchNames": ["ministerio de interior"],
      "tags": {
        "amenity": "police",
        "operator": "Ministerio del Interior"
      }
    },
    {
      "displayName": "Ministerio del Interior y Justicia",
      "id": "ministeriodelinterioryjusticia-3383b4",
      "locationSet": {"include": ["ve"]},
      "matchNames": [
        "ministerio de interior y justicia"
      ],
      "tags": {
        "amenity": "police",
        "operator": "Ministerio del Interior y Justicia"
      }
    },
    {
      "displayName": "Ministerium des Innern und für Sport Rheinland-Pfalz",
      "id": "ministeriumdesinnernundfursportrheinlandpfalz-120877",
      "locationSet": {"include": ["de"]},
      "tags": {
        "amenity": "police",
        "operator": "Ministerium des Innern und für Sport Rheinland-Pfalz"
      }
    },
    {
      "displayName": "NAMPOL",
      "id": "nampol-292e37",
      "locationSet": {"include": ["na"]},
      "tags": {
        "amenity": "police",
        "operator": "NAMPOL",
        "operator:wikidata": "Q2101659",
        "operator:wikipedia": "en:Namibian Police Force"
      }
    },
    {
      "displayName": "Nationale Politie",
      "id": "nationalepolitie-5cfdc8",
      "locationSet": {"include": ["nl"]},
      "tags": {
        "amenity": "police",
        "operator": "Nationale Politie",
        "operator:wikidata": "Q1920305",
        "operator:wikipedia": "nl:Politie in Nederland"
      }
    },
    {
      "displayName": "Nepal Police",
      "id": "nepalpolice-f1d71d",
      "locationSet": {"include": ["np"]},
      "tags": {
        "amenity": "police",
        "operator": "Nepal Police",
        "operator:wikidata": "Q13182779",
        "operator:wikipedia": "ne:नेपाल प्रहरी"
      }
    },
    {
      "displayName": "New York Police Department",
      "id": "cityofnewyorkpolicedepartment-04d52e",
      "locationSet": {"include": ["us"]},
      "matchNames": [
        "new york city police department",
        "new york police department"
      ],
      "tags": {
        "amenity": "police",
        "operator": "City of New York Police Department",
        "operator:short": "NYPD",
        "operator:wikidata": "Q328473",
        "operator:wikipedia": "en:New York City Police Department"
      }
    },
    {
      "displayName": "NSW Police Force",
      "id": "nswpoliceforce-202ffd",
      "locationSet": {"include": ["au"]},
      "matchNames": [
        "new south wales police force"
      ],
      "tags": {
        "amenity": "police",
        "operator": "NSW Police Force",
        "operator:wikidata": "Q7011763",
        "operator:wikipedia": "en:New South Wales Police Force"
      }
    },
    {
      "displayName": "Ontario Provincial Police",
      "id": "ontarioprovincialpolice-b69ec0",
      "locationSet": {"include": ["ca"]},
      "tags": {
        "amenity": "police",
        "operator": "Ontario Provincial Police",
        "operator:wikidata": "Q1046157",
        "operator:wikipedia": "en:Ontario Provincial Police"
      }
    },
    {
      "displayName": "Ottawa Police Service",
      "id": "ottawapoliceservice-b69ec0",
      "locationSet": {"include": ["ca"]},
      "matchNames": ["ottawa"],
      "tags": {
        "amenity": "police",
        "operator": "Ottawa Police Service",
        "operator:wikidata": "Q2381871",
        "operator:wikipedia": "en:Ottawa Police Service"
      }
    },
    {
      "displayName": "Philippine National Police",
      "id": "philippinenationalpolice-959114",
      "locationSet": {"include": ["ph"]},
      "tags": {
        "amenity": "police",
        "operator": "Philippine National Police",
        "operator:short": "PNP",
        "operator:wikidata": "Q963772",
        "operator:wikipedia": "tl:Pambansang Pulisya ng Pilipinas"
      }
    },
    {
      "displayName": "Police",
      "id": "police-d00fc1",
      "locationSet": {"include": ["001"]},
      "tags": {
        "amenity": "police",
        "operator": "Police"
      }
    },
    {
      "displayName": "Police nationale (France)",
      "id": "policenationale-714d2d",
      "locationSet": {"include": ["fr"]},
      "matchNames": ["sûreté nationale"],
      "tags": {
        "amenity": "police",
        "operator": "Police nationale",
        "operator:wikidata": "Q121484",
        "operator:wikipedia": "en:National Police (France)"
      }
    },
    {
      "displayName": "Police Scotland",
      "id": "policescotland-ad9c86",
      "locationSet": {"include": ["gb-sct"]},
      "tags": {
        "amenity": "police",
        "operator": "Police Scotland",
        "operator:wikidata": "Q7209499",
        "operator:wikipedia": "en:Police Scotland"
      }
    },
    {
      "displayName": "Police Service of Northern Ireland",
      "id": "policeserviceofnorthernireland-e79ac6",
      "locationSet": {"include": ["gb-nir"]},
      "tags": {
        "amenity": "police",
        "operator": "Police Service of Northern Ireland",
        "operator:wikidata": "Q1482170",
        "operator:wikipedia": "en:Police Service of Northern Ireland"
      }
    },
    {
      "displayName": "Polícia Civil",
      "id": "policiacivil-f7f40a",
      "locationSet": {"include": ["br"]},
      "tags": {
        "amenity": "police",
        "operator": "Polícia Civil"
      }
    },
    {
      "displayName": "Polícia Civil do Estado de São Paulo",
      "id": "policiacivildoestadodesaopaulo-f7f40a",
      "locationSet": {"include": ["br"]},
      "tags": {
        "amenity": "police",
        "operator": "Polícia Civil do Estado de São Paulo",
        "operator:wikidata": "Q10350993",
        "operator:wikipedia": "pt:Polícia Civil do Estado de São Paulo"
      }
    },
    {
      "displayName": "Policía de la Ciudad",
      "id": "policiadelaciudad-e73d55",
      "locationSet": {"include": ["ar"]},
      "tags": {
        "amenity": "police",
        "operator": "Policía de la Ciudad",
        "operator:wikidata": "Q28647622",
        "operator:wikipedia": "es:Policía de la Ciudad de Buenos Aires"
      }
    },
    {
      "displayName": "Policía de La Pampa",
      "id": "policiadelapampa-e73d55",
      "locationSet": {"include": ["ar"]},
      "tags": {
        "amenity": "police",
        "operator": "Policía de La Pampa"
      }
    },
    {
      "displayName": "Policía de la Provincia de Buenos Aires",
      "id": "policiadelaprovinciadebuenosaires-e73d55",
      "locationSet": {"include": ["ar"]},
      "tags": {
        "amenity": "police",
        "operator": "Policía de la Provincia de Buenos Aires",
        "operator:wikidata": "Q4985546",
        "operator:wikipedia": "es:Policía de la Provincia de Buenos Aires"
      }
    },
    {
      "displayName": "Policía de la Provincia de Misiones",
      "id": "policiadelaprovinciademisiones-e73d55",
      "locationSet": {"include": ["ar"]},
      "tags": {
        "amenity": "police",
        "operator": "Policía de la Provincia de Misiones",
        "operator:wikidata": "Q6081702",
        "operator:wikipedia": "es:Policía de Misiones"
      }
    },
    {
      "displayName": "Policía de la Provincia de Neuquén",
      "id": "policiadelaprovinciadeneuquen-e73d55",
      "locationSet": {"include": ["ar"]},
      "tags": {
        "amenity": "police",
        "operator": "Policía de la Provincia de Neuquén"
      }
    },
    {
      "displayName": "Policía de Río Negro",
      "id": "policiaderionegro-e73d55",
      "locationSet": {"include": ["ar"]},
      "tags": {
        "amenity": "police",
        "operator": "Policía de Río Negro"
      }
    },
    {
      "displayName": "Polícia de Segurança Pública (Portugal)",
      "id": "policiadesegurancapublica-269632",
      "locationSet": {"include": ["pt"]},
      "tags": {
        "amenity": "police",
        "operator": "Polícia de Segurança Pública",
        "operator:short": "PSP",
        "operator:wikipedia": "en:Polícia de Segurança Pública"
      }
    },
    {
      "displayName": "Policía Federal Argentina",
      "id": "policiafederalargentina-e73d55",
      "locationSet": {"include": ["ar"]},
      "tags": {
        "amenity": "police",
        "operator": "Policía Federal Argentina",
        "operator:wikidata": "Q12981682",
        "operator:wikipedia": "es:Policía Federal Argentina"
      }
    },
    {
      "displayName": "Polícia Militar",
      "id": "policiamilitar-f7f40a",
      "locationSet": {"include": ["br"]},
      "tags": {
        "amenity": "police",
        "operator": "Polícia Militar",
        "wikipedia": "en:Military Police (Brazil)"
      }
    },
    {
      "displayName": "Polícia Militar de Minas Gerais",
      "id": "policiamilitardeminasgerais-f7f40a",
      "locationSet": {"include": ["br"]},
      "tags": {
        "amenity": "police",
        "operator": "Polícia Militar de Minas Gerais",
        "operator:wikidata": "Q6852134",
        "operator:wikipedia": "pt:Polícia Militar do Estado de Minas Gerais"
      }
    },
    {
      "displayName": "Polícia Militar do Estado de São Paulo",
      "id": "policiamilitardoestadodesaopaulo-f7f40a",
      "locationSet": {"include": ["br"]},
      "tags": {
        "amenity": "police",
        "operator": "Polícia Militar do Estado de São Paulo",
        "operator:wikidata": "Q10351025",
        "operator:wikipedia": "pt:Polícia Militar do Estado de São Paulo"
      }
    },
    {
      "displayName": "Polícia Militar do Estado do Rio de Janeiro",
      "id": "policiamilitardoestadodoriodejaneiro-f7f40a",
      "locationSet": {"include": ["br"]},
      "tags": {
        "amenity": "police",
        "operator": "Polícia Militar do Estado do Rio de Janeiro",
        "operator:wikidata": "Q6852137",
        "operator:wikipedia": "pt:Polícia Militar do Estado do Rio de Janeiro"
      }
    },
    {
      "displayName": "Policía Nacional",
      "id": "policianacional-d00fc1",
      "locationSet": {"include": ["001"]},
      "tags": {
        "amenity": "police",
        "operator": "Policía Nacional"
      }
    },
    {
      "displayName": "Policía Nacional Bolivariana",
      "id": "policianacionalbolivariana-3383b4",
      "locationSet": {"include": ["ve"]},
      "tags": {
        "amenity": "police",
        "operator": "Policía Nacional Bolivariana",
        "operator:en": "Bolivarian National Police",
        "operator:short": "PNB",
        "operator:wikipedia": "en:Venezuelan National Police"
      }
    },
    {
      "displayName": "Policía Nacional de Bolivia",
      "id": "policianacionaldebolivia-23a32a",
      "locationSet": {"include": ["bo"]},
      "matchNames": [
        "policia nacional",
        "policia nacional boliviana",
        "policia nacional boliviana (pnb)",
        "policia nacional de bolivia (pnb)"
      ],
      "tags": {
        "amenity": "police",
        "operator": "Policía Nacional de Bolivia",
        "operator:short": "PNB",
        "operator:wikidata": "Q3065571",
        "operator:wikipedia": "es:Policía Nacional de Bolivia"
      }
    },
    {
      "displayName": "Policía Nacional de Colombia",
      "id": "policianacionaldecolombia-057a57",
      "locationSet": {"include": ["co"]},
      "matchNames": ["policia nacional"],
      "tags": {
        "amenity": "police",
        "operator": "Policía Nacional de Colombia",
        "operator:wikidata": "Q3394180",
        "operator:wikipedia": "es:Policía Nacional de Colombia"
      }
    },
    {
      "displayName": "Policía Nacional del Perú",
      "id": "policianacionaldelperu-67e8f0",
      "locationSet": {"include": ["pe"]},
      "matchNames": ["policia nacional"],
      "tags": {
        "amenity": "police",
        "operator": "Policía Nacional del Perú",
        "operator:wikidata": "Q6320215",
        "operator:wikipedia": "es:Policía Nacional del Perú"
      }
    },
    {
      "displayName": "Polícia Rodoviária Federal",
      "id": "policiarodoviariafederal-f7f40a",
      "locationSet": {"include": ["br"]},
      "tags": {
        "amenity": "police",
        "operator": "Polícia Rodoviária Federal",
        "operator:wikidata": "Q1158853",
        "operator:wikipedia": "pt:Polícia Rodoviária Federal"
      }
    },
    {
      "displayName": "Policja",
      "id": "policja-821ef5",
      "locationSet": {"include": ["pl"]},
      "tags": {
        "amenity": "police",
        "operator": "Policja",
        "operator:wikidata": "Q622532",
        "operator:wikipedia": "pl:Policja (Polska)"
      }
    },
    {
      "displayName": "Polizei Viersen",
      "id": "polizeiviersen-120877",
      "locationSet": {"include": ["de"]},
      "tags": {
        "amenity": "police",
        "operator": "Polizei Viersen"
      }
    },
    {
      "displayName": "Polizia",
      "id": "polizia-f71f16",
      "locationSet": {"include": ["it"]},
      "tags": {
        "amenity": "police",
        "operator": "Polizia"
      }
    },
    {
      "displayName": "Polizia di Stato",
      "id": "poliziadistato-f71f16",
      "locationSet": {"include": ["it"]},
      "tags": {
        "amenity": "police",
        "operator": "Polizia di Stato",
        "operator:wikidata": "Q897817",
        "operator:wikipedia": "it:Polizia di Stato"
      }
    },
    {
      "displayName": "Polizia Locale",
      "id": "polizialocale-f71f16",
      "locationSet": {"include": ["it"]},
      "tags": {
        "amenity": "police",
        "operator": "Polizia Locale"
      }
    },
    {
      "displayName": "Polizia Municipale",
      "id": "poliziamunicipale-f71f16",
      "locationSet": {"include": ["it"]},
      "tags": {
        "amenity": "police",
        "operator": "Polizia Municipale"
      }
    },
    {
      "displayName": "Polizia Stradale",
      "id": "poliziastradale-f71f16",
      "locationSet": {"include": ["it"]},
      "note": "Highway Patrol; Subgroup of Polizia di Stato",
      "tags": {
        "amenity": "police",
        "operator": "Polizia Stradale",
        "operator:wikidata": "Q3907573",
        "operator:wikipedia": "it:Polizia stradale"
      }
    },
    {
      "displayName": "Prefectura Naval Argentina",
      "id": "prefecturanavalargentina-e73d55",
      "locationSet": {"include": ["ar"]},
      "tags": {
        "amenity": "police",
        "operator": "Prefectura Naval Argentina",
        "operator:wikidata": "Q2573626",
        "operator:wikipedia": "es:Prefectura Naval Argentina"
      }
    },
    {
      "displayName": "Public Force of the Ministry of Public Security",
      "id": "publicforce-05938a",
      "locationSet": {"include": ["cr"]},
      "matchNames": ["msp"],
      "tags": {
        "amenity": "police",
        "operator": "Public Force",
        "operator:es": "Fuerza Pública",
        "operator:wikipedia": "en:Public Force of Costa Rica"
      }
    },
    {
      "displayName": "Public Security Police Force of Macau",
      "id": "publicsecuritypoliceforce-18678f",
      "locationSet": {"include": ["cn"]},
      "tags": {
        "amenity": "police",
        "operator": "Public Security Police Force",
        "operator:cn": "治安警察局",
        "operator:pt": "Polícia de Segurança Pública",
        "operator:short": "CPSP",
        "operator:wikipedia": "en:Public Security Police Force of Macau"
      }
    },
    {
      "displayName": "Pulizija ta' Malta",
      "id": "pulizijatamalta-67380b",
      "locationSet": {"include": ["mt"]},
      "tags": {
        "amenity": "police",
        "operator": "Pulizija ta' Malta",
        "operator:wikidata": "Q2413538",
        "operator:wikipedia": "en:The Malta Police Force"
      }
    },
    {
      "displayName": "Queensland Police Service",
      "id": "queenslandpoliceservice-202ffd",
      "locationSet": {"include": ["au"]},
      "tags": {
        "amenity": "police",
        "operator": "Queensland Police Service",
        "operator:wikidata": "Q7270980",
        "operator:wikipedia": "en:Queensland Police Service"
      }
    },
    {
      "displayName": "Royal Canadian Mounted Police",
      "id": "royalcanadianmountedpolice-b69ec0",
      "locationSet": {"include": ["ca"]},
      "tags": {
        "amenity": "police",
        "operator": "Royal Canadian Mounted Police",
        "operator:short": "RCMP",
        "operator:wikidata": "Q335175",
        "operator:wikipedia": "en:Royal Canadian Mounted Police"
      }
    },
    {
      "displayName": "Royal Thai Police",
      "id": "royalthaipolice-951c56",
      "locationSet": {"include": ["th"]},
      "tags": {
        "amenity": "police",
        "operator": "Royal Thai Police",
        "operator:short": "RTP",
        "operator:th": "ตำรวจแห่งชาติ",
        "operator:wikipedia": "en:Royal Thai Police"
      }
    },
    {
      "displayName": "Secretaria da Segurança Pública do Estado de São Paulo",
      "id": "secretariadasegurancapublicadoestadodesaopaulo-f7f40a",
      "locationSet": {"include": ["br"]},
      "matchNames": [
        "secretaria de segurança pública do estado de são paulo"
      ],
      "tags": {
        "amenity": "police",
        "operator": "Secretaria da Segurança Pública do Estado de São Paulo"
      }
    },
    {
      "displayName": "Secretaria de Estado de Segurança Pública e Defesa Social",
      "id": "secretariadeestadodesegurancapublicaedefesasocial-f7f40a",
      "locationSet": {"include": ["br"]},
      "matchNames": [
        "secretaria de estado de segurança pública e defesa social - segup"
      ],
      "tags": {
        "amenity": "police",
        "operator": "Secretaria de Estado de Segurança Pública e Defesa Social",
        "operator:short": "SEGUP"
      }
    },
    {
      "displayName": "SEPSA",
      "id": "sepsa-0bef41",
      "locationSet": {"include": ["cu"]},
      "tags": {
        "amenity": "police",
        "operator": "SEPSA"
      }
    },
    {
      "displayName": "Service de police de la ville de Montréal",
      "id": "servicedepolicedelavilledemontreal-b69ec0",
      "locationSet": {"include": ["ca"]},
      "tags": {
        "amenity": "police",
        "operator": "Service de police de la ville de Montréal",
        "operator:wikipedia": "en:Service de police de la Ville de Montréal"
      }
    },
    {
      "displayName": "South African Police Service",
      "id": "southafricanpoliceservice-3a04a0",
      "locationSet": {"include": ["za"]},
      "tags": {
        "amenity": "police",
        "operator": "South African Police Service",
        "operator:short": "SAPS",
        "operator:wikidata": "Q1362732",
        "operator:wikipedia": "en:South African Police Service"
      }
    },
    {
      "displayName": "Texas Rangers",
      "id": "texasrangerdivision-04d52e",
      "locationSet": {"include": ["us"]},
      "tags": {
        "amenity": "police",
        "operator": "Texas Ranger Division",
        "operator:short": "Texas Rangers",
        "operator:wikidata": "Q510865",
        "operator:wikipedia": "en:Texas Ranger Division"
      }
    },
    {
      "displayName": "Toronto Police Service",
      "id": "torontopoliceservice-b69ec0",
      "locationSet": {"include": ["ca"]},
      "tags": {
        "amenity": "police",
        "operator": "Toronto Police Service",
        "operator:wikidata": "Q1521097",
        "operator:wikipedia": "en:Toronto Police Service"
      }
    },
    {
      "displayName": "Tourist Police (Thailand)",
      "id": "touristpolicebureau-951c56",
      "locationSet": {"include": ["th"]},
      "note": "Mostly for filing insurance claims and insulating tourists from the 'real' police",
      "tags": {
        "amenity": "police",
        "operator": "Tourist Police Bureau",
        "operator:th": "กองบัญชาการตำรวจท่องเที่ยว",
        "operator:wikipedia": "en:Tourist Police (Thailand)"
      }
    },
    {
      "displayName": "United States Park Police",
      "id": "unitedstatesparkpolice-04d52e",
      "locationSet": {"include": ["us"]},
      "tags": {
        "amenity": "police",
        "operator": "United States Park Police",
        "operator:short": "USPP",
        "operator:wikidata": "Q2005254",
        "operator:wikipedia": "en:United States Park Police"
      }
    },
    {
      "displayName": "Victoria Police",
      "id": "victoriapolice-202ffd",
      "locationSet": {"include": ["au"]},
      "tags": {
        "amenity": "police",
        "operator": "Victoria Police",
        "operator:wikidata": "Q1406658",
        "operator:wikipedia": "en:Victoria Police"
      }
    },
    {
      "displayName": "Министерство Внутренних Дел",
      "id": "ministryofinternalaffairs-3a79c7",
      "locationSet": {"include": ["ru"]},
      "matchNames": ["мвд россии", "мвд рф"],
      "tags": {
        "amenity": "police",
        "operator": "Министерство Внутренних Дел",
        "operator:en": "Ministry of Internal Affairs",
        "operator:short": "МВД",
        "operator:wikipedia": "en:Ministry of Internal Affairs (Russia)"
      }
    },
    {
      "displayName": "北海道警察本部",
      "id": "f7841d-18678f",
      "locationSet": {"include": ["cn"]},
      "tags": {
        "amenity": "police",
        "operator": "北海道警察本部"
      }
    },
    {
      "displayName": "吹田警察署",
      "id": "0f0a19-18678f",
      "locationSet": {"include": ["cn"]},
      "tags": {
        "amenity": "police",
        "operator": "吹田警察署"
      }
    },
    {
      "displayName": "海巡署",
      "id": "057e0b-18678f",
      "locationSet": {"include": ["cn"]},
      "tags": {
        "amenity": "police",
        "operator": "海巡署"
      }
    },
    {
      "displayName": "臺北市政府警察局",
      "id": "0e7388-18678f",
      "locationSet": {"include": ["cn"]},
      "tags": {
        "amenity": "police",
        "operator": "臺北市政府警察局"
      }
    },
    {
      "displayName": "那覇警察署",
      "id": "8e766a-18678f",
      "locationSet": {"include": ["cn"]},
      "tags": {
        "amenity": "police",
        "operator": "那覇警察署"
      }
    }
  ]
}