{
  "properties": {
    "path": "operators/amenity/post_box",
    "skipCollection": true,
    "exclude": {
      "generic": [
        "^(buzón de )?correos$",
        "^(mail|post)\\s?(box)?$",
        "^ポスト$",
        "^郵便ポスト$"
      ]
    }
  },
  "items": [
    {
      "note": "Auto create post boxes for all brand post offices - a few exceptions",
      "templateExclude": [
        "correios",
        "fedex",
        "orlen",
        "upsstore"
      ],
      "templateSource": "brands/amenity/post_office",
      "templateTags": {
        "amenity": "post_box",
        "name": "",
        "operator": "{source.tags.brand}",
        "operator:wikidata": "{source.tags.brand:wikidata}",
        "shop": ""
      }
    },
    {
      "note": "Auto create post boxes for all operator post offices except Swiss Post",
      "templateExclude": ["diepost"],
      "templateSource": "operators/amenity/post_office",
      "templateTags": {
        "amenity": "post_box",
        "name": "",
        "shop": ""
      }
    },
    {
      "note": "https://github.com/osmlab/name-suggestion-index/issues/6919",
      "templateInclude": ["diepost"],
      "templateSource": "operators/amenity/post_office",
      "templateTags": {
        "amenity": "post_box",
        "colour": "yellow",
        "name": ""
      }
    },
    {
      "displayName": "Caixa dos Correios",
      "locationSet": {"include": ["br"]},
      "tags": {
        "amenity": "post_box",
        "brand": "Empresa Brasileira de Correios e Telégrafos",
        "brand:short": "Correios",
        "brand:wikidata": "Q3375004",
        "operator": "Empresa Brasileira de Correios e Telégrafos",
        "operator:type": "public",
        "operator:wikidata": "Q3375004"
      }
    },
    {
      "displayName": "FedEx",
      "id": "fedex-b58716",
      "locationSet": {"include": ["001"]},
      "note": "https://github.com/osmlab/name-suggestion-index/issues/5749",
      "tags": {
        "amenity": "post_box",
        "brand": "FedEx",
        "brand:wikidata": "Q459477",
        "operator": "FedEx",
        "operator:type": "private",
        "operator:wikidata": "Q459477"
      }
    },
    {
      "displayName": "PIN Mail",
      "id": "pinmail-225eac",
      "locationSet": {"include": ["de"]},
      "matchNames": ["pin"],
      "tags": {
        "amenity": "post_box",
        "operator": "PIN Mail",
        "operator:type": "private",
        "operator:wikidata": "Q1342288"
      }
    },
    {
      "displayName": "UPS",
      "id": "ups-b58716",
      "locationSet": {"include": ["001"]},
      "note": "https://github.com/osmlab/name-suggestion-index/issues/4866",
      "tags": {
        "amenity": "post_box",
        "brand": "UPS",
        "brand:wikidata": "Q155026",
        "official_name": "United Parcel Service",
        "operator": "UPS",
        "operator:type": "private",
        "operator:wikidata": "Q155026"
      }
    }
  ]
}
