{
  "properties": {
    "path": "operators/amenity/post_depot",
    "preserveTags": ["^name"],
    "exclude": {"generic": ["^post depot$"]}
  },
  "items": [
    {
      "displayName": "An Post",
      "id": "anpost-2f7b40",
      "locationSet": {"include": ["ie"]},
      "tags": {
        "amenity": "post_depot",
        "name": "An Post",
        "operator": "An Post",
        "operator:wikidata": "Q482490",
        "operator:wikipedia": "en:An Post"
      }
    },
    {
      "displayName": "Canada Post",
      "id": "canadapost-c92f48",
      "locationSet": {
        "include": ["ca"],
        "exclude": ["quebec.geojson"]
      },
      "tags": {
        "amenity": "post_depot",
        "operator": "Canada Post",
        "operator:wikidata": "Q1032001",
        "operator:wikipedia": "en:Canada Post"
      }
    },
    {
      "displayName": "Deutsche Post",
      "id": "deutschepost-6fd7ff",
      "locationSet": {"include": ["de"]},
      "matchNames": ["deutsche post ag"],
      "tags": {
        "amenity": "post_depot",
        "name": "Deutsche Post",
        "operator": "Deutsche Post",
        "operator:wikidata": "Q157645",
        "operator:wikipedia": "de:Deutsche Post AG"
      }
    },
    {
      "displayName": "DHL",
      "id": "dhl-93b2a6",
      "locationSet": {"include": ["001"]},
      "tags": {
        "amenity": "post_depot",
        "name": "DHL",
        "operator": "DHL",
        "operator:wikidata": "Q489815",
        "operator:wikipedia": "de:DHL"
      }
    },
    {
      "displayName": "DPD",
      "id": "dpd-93b2a6",
      "locationSet": {"include": ["001"]},
      "matchNames": [
        "dpd dynamic parcel distribution"
      ],
      "tags": {
        "amenity": "post_depot",
        "name": "DPD",
        "operator": "DPD",
        "operator:wikidata": "Q541030",
        "operator:wikipedia": "de:DPDgroup"
      }
    },
    {
      "displayName": "La Poste",
      "id": "laposte-5d47ca",
      "locationSet": {"include": ["fr"]},
      "tags": {
        "amenity": "post_depot",
        "name": "La Poste",
        "operator": "La Poste",
        "operator:wikidata": "Q373724",
        "operator:wikipedia": "fr:La Poste (entreprise fran√ßaise)"
      }
    },
    {
      "displayName": "Royal Mail",
      "id": "royalmail-a473cc",
      "locationSet": {"include": ["gb"]},
      "tags": {
        "amenity": "post_depot",
        "name": "Royal Mail",
        "operator": "Royal Mail",
        "operator:wikidata": "Q638098",
        "operator:wikipedia": "en:Royal Mail"
      }
    },
    {
      "displayName": "Yodel",
      "id": "yodel-a473cc",
      "locationSet": {"include": ["gb"]},
      "matchNames": [
        "hdn",
        "home delivery network"
      ],
      "tags": {
        "amenity": "post_depot",
        "name": "Yodel",
        "operator": "Yodel",
        "operator:wikidata": "QQ17020712",
        "operator:wikipedia": "en:Yodel (company)"
      }
    }
  ]
}
