{
  "operators/amenity/post_office": [
    {
      "displayName": "???",
      "id": "d41d8c-91a3cc",
      "locationSet": {"include": ["001"]},
      "tags": {
        "amenity": "post_office",
        "brand": "???",
        "name": "???",
        "operator": "???"
      }
    },
    {
      "displayName": "4-72",
      "id": "472-754eb3",
      "locationSet": {"include": ["co"]},
      "matchNames": [
        "servicios postales nacionales s.a."
      ],
      "tags": {
        "amenity": "post_office",
        "brand": "4-72",
        "brand:wikidata": "Q85800448",
        "brand:wikipedia": "es:4-72",
        "name": "4-72",
        "official_name": "Servicios Postales Nacionales",
        "operator": "4-72",
        "operator:wikidata": "Q85800448",
        "operator:wikipedia": "es:4-72"
      }
    },
    {
      "displayName": "Aerocav C.A",
      "id": "aerocavca-de64fe",
      "locationSet": {"include": ["ve"]},
      "tags": {
        "amenity": "post_office",
        "brand": "Aerocav C.A",
        "name": "Aerocav C.A",
        "operator": "Aerocav C.A"
      }
    },
    {
      "displayName": "Algérie Poste",
      "id": "algerieposte-e99ec0",
      "locationSet": {"include": ["dz"]},
      "tags": {
        "amenity": "post_office",
        "brand": "Algérie Poste",
        "brand:ar": "بريد الجزائر",
        "brand:fr": "Algérie Poste",
        "brand:wikidata": "Q2836029",
        "brand:wikipedia": "fr:Algérie Poste",
        "name": "Algerie Poste",
        "name:ar": "بريد الجزائر",
        "name:fr": "Algérie Poste",
        "operator": "Algérie Poste",
        "operator:ar": "بريد الجزائر",
        "operator:fr": "Algérie Poste",
        "operator:wikidata": "Q2836029",
        "operator:wikipedia": "fr:Algérie Poste"
      }
    },
    {
      "displayName": "An Post",
      "id": "anpost-a056d1",
      "locationSet": {"include": ["ie"]},
      "tags": {
        "amenity": "post_office",
        "brand": "An Post",
        "brand:wikidata": "Q482490",
        "brand:wikipedia": "en:An Post",
        "name": "An Post",
        "operator": "An Post",
        "operator:wikidata": "Q482490",
        "operator:wikipedia": "en:An Post"
      }
    },
    {
      "displayName": "Australia Post",
      "id": "australiapost-536bec",
      "locationSet": {"include": ["au"]},
      "matchNames": ["aust post"],
      "tags": {
        "amenity": "post_office",
        "brand": "Australia Post",
        "brand:wikidata": "Q1142936",
        "brand:wikipedia": "en:Australia Post",
        "name": "Australia Post",
        "operator": "Australia Post",
        "operator:wikidata": "Q1142936",
        "operator:wikipedia": "en:Australia Post"
      }
    },
    {
      "displayName": "Azerpost",
      "id": "azerpost-ab1104",
      "locationSet": {"include": ["az"]},
      "tags": {
        "amenity": "post_office",
        "brand": "Azerpost",
        "brand:wikidata": "Q2660860",
        "brand:wikipedia": "en:Azərpoçt",
        "name": "Azerpost",
        "operator": "Azerpost",
        "operator:wikidata": "Q2660860",
        "operator:wikipedia": "en:Azərpoçt"
      }
    },
    {
      "displayName": "Barid Al-Maghrib",
      "id": "baridalmaghrib-efee55",
      "locationSet": {"include": ["ma"]},
      "matchNames": [
        "barid al maghrib بريد المغرب"
      ],
      "tags": {
        "amenity": "post_office",
        "brand": "Poste Maroc",
        "brand:wikidata": "Q3399778",
        "brand:wikipedia": "fr:Poste Maroc",
        "name": "Barid Al-Maghrib",
        "name:ar": "بريد المغرب",
        "name:fr": "Barid Al-Maghrib",
        "operator": "Poste Maroc",
        "operator:wikidata": "Q3399778",
        "operator:wikipedia": "fr:Poste Maroc"
      }
    },
    {
      "displayName": "bpost",
      "id": "bpost-1b232e",
      "locationSet": {"include": ["be"]},
      "tags": {
        "amenity": "post_office",
        "brand": "bpost",
        "brand:wikidata": "Q740553",
        "brand:wikipedia": "de:Bpost",
        "name": "bpost",
        "operator": "bpost",
        "operator:wikidata": "Q740553",
        "operator:wikipedia": "de:Bpost"
      }
    },
    {
      "displayName": "Canada Post",
      "id": "canadapost-a47b7d",
      "locationSet": {
        "include": ["ca"],
        "exclude": ["quebec.geojson"]
      },
      "tags": {
        "amenity": "post_office",
        "brand": "Canada Post",
        "brand:wikidata": "Q1032001",
        "brand:wikipedia": "en:Canada Post",
        "name": "Canada Post",
        "operator": "Canada Post",
        "operator:wikidata": "Q1032001",
        "operator:wikipedia": "en:Canada Post"
      }
    },
    {
      "displayName": "Cargus",
      "id": "cargus-08dfb1",
      "locationSet": {"include": ["ro"]},
      "tags": {
        "amenity": "post_office",
        "brand": "Cargus",
        "brand:wikidata": "Q12723442",
        "brand:wikipedia": "ro:Urgent Cargus",
        "name": "Cargus",
        "operator": "Cargus",
        "operator:wikidata": "Q12723442",
        "operator:wikipedia": "ro:Urgent Cargus"
      }
    },
    {
      "displayName": "Česká pošta",
      "id": "ceskaposta-aa9270",
      "locationSet": {"include": ["cz"]},
      "matchNames": ["česká pošta sp"],
      "tags": {
        "amenity": "post_office",
        "brand": "Česká pošta",
        "brand:wikidata": "Q341090",
        "brand:wikipedia": "cz:Česká pošta",
        "name": "Česká pošta",
        "operator": "Česká pošta",
        "operator:wikidata": "Q341090",
        "operator:wikipedia": "cz:Česká pošta"
      }
    },
    {
      "displayName": "Chilexpress",
      "id": "chilexpress-3d11d9",
      "locationSet": {"include": ["cl"]},
      "tags": {
        "amenity": "post_office",
        "brand": "Chilexpress",
        "name": "Chilexpress",
        "operator": "Chilexpress"
      }
    },
    {
      "displayName": "Chronopost",
      "id": "chronopost-8f3efe",
      "locationSet": {"include": ["fr"]},
      "note": "Still Chronopost in France, possibly moved to DPD elsewhere - #4675",
      "tags": {
        "amenity": "post_office",
        "brand": "Chronopost",
        "brand:wikidata": "Q2967313",
        "brand:wikipedia": "fr:Chronopost",
        "name": "Chronopost",
        "operator": "Chronopost",
        "operator:wikidata": "Q2967313",
        "operator:wikipedia": "fr:Chronopost"
      }
    },
    {
      "displayName": "Correios",
      "id": "correios-e82118",
      "locationSet": {"include": ["br"]},
      "tags": {
        "amenity": "post_office",
        "brand": "Correios",
        "brand:wikidata": "Q3375004",
        "brand:wikipedia": "en:Correios",
        "name": "Correios",
        "operator": "Correios",
        "operator:wikidata": "Q3375004",
        "operator:wikipedia": "en:Correios"
      }
    },
    {
      "displayName": "Correo Argentino",
      "id": "correoargentino-debce4",
      "locationSet": {"include": ["ar"]},
      "matchNames": [
        "correo oficial de la república argentina s.a.",
        "correo oficial de la república argentina sociedad anónima"
      ],
      "tags": {
        "amenity": "post_office",
        "brand": "Correo Argentino",
        "brand:wikidata": "Q4036566",
        "brand:wikipedia": "en:Correo Argentino",
        "name": "Correo Argentino",
        "operator": "Correo Argentino",
        "operator:wikidata": "Q4036566",
        "operator:wikipedia": "en:Correo Argentino"
      }
    },
    {
      "displayName": "Correos",
      "id": "correos-e6c145",
      "locationSet": {"include": ["es"]},
      "matchNames": [
        "correos y telégrafos",
        "oficina de correos",
        "sociedad estatal correos y telégrafos",
        "sociedad estatal correos y telégrafos sa"
      ],
      "tags": {
        "amenity": "post_office",
        "brand": "Correos",
        "brand:wikidata": "Q776605",
        "brand:wikipedia": "es:Correos (España)",
        "name": "Correos",
        "operator": "Correos",
        "operator:wikidata": "Q776605",
        "operator:wikipedia": "es:Correos (España)"
      }
    },
    {
      "displayName": "Correos de Chile",
      "id": "correosdechile-3d11d9",
      "locationSet": {"include": ["cl"]},
      "tags": {
        "amenity": "post_office",
        "brand": "Correos de Chile",
        "brand:wikidata": "Q5172893",
        "brand:wikipedia": "en:Correos de Chile",
        "name": "Correos de Chile",
        "operator": "Correos de Chile",
        "operator:wikidata": "Q5172893",
        "operator:wikipedia": "en:Correos de Chile"
      }
    },
    {
      "displayName": "Correos de Costa Rica",
      "id": "correosdecostarica-4fea3e",
      "locationSet": {"include": ["cr"]},
      "tags": {
        "amenity": "post_office",
        "brand": "Correos de Costa Rica",
        "brand:wikidata": "Q5172894",
        "brand:wikipedia": "en:Correos de Costa Rica",
        "name": "Correos de Costa Rica",
        "operator": "Correos de Costa Rica",
        "operator:wikidata": "Q5172894",
        "operator:wikipedia": "en:Correos de Costa Rica"
      }
    },
    {
      "displayName": "Correos de Cuba",
      "id": "correosdecuba-e577ef",
      "locationSet": {"include": ["cu"]},
      "tags": {
        "amenity": "post_office",
        "brand": "Correos de Cuba",
        "brand:wikidata": "Q5789322",
        "brand:wikipedia": "es:Correos de Cuba",
        "name": "Correos de Cuba",
        "operator": "Correos de Cuba",
        "operator:wikidata": "Q5789322",
        "operator:wikipedia": "es:Correos de Cuba"
      }
    },
    {
      "displayName": "Correos de México",
      "id": "correosdemexico-0b19e1",
      "locationSet": {"include": ["mx"]},
      "tags": {
        "amenity": "post_office",
        "brand": "Correos de México",
        "brand:wikidata": "Q5172898",
        "brand:wikipedia": "en:Correos de México",
        "name": "Correos de México",
        "operator": "Correos de México",
        "operator:wikidata": "Q5172898",
        "operator:wikipedia": "en:Correos de México"
      }
    },
    {
      "displayName": "Costcutter",
      "id": "costcutter-2ecbba",
      "locationSet": {"include": ["gb"]},
      "tags": {
        "amenity": "post_office",
        "brand": "Costcutter",
        "brand:wikidata": "Q5175072",
        "brand:wikipedia": "en:Costcutter",
        "name": "Costcutter",
        "operator": "Costcutter",
        "operator:wikidata": "Q5175072",
        "operator:wikipedia": "en:Costcutter"
      }
    },
    {
      "displayName": "CTT (Macau)",
      "id": "ctt-13f722",
      "locationSet": {"include": ["mo"]},
      "tags": {
        "amenity": "post_office",
        "brand": "CTT",
        "brand:wikidata": "Q909429",
        "brand:wikipedia": "en:CTT (Macau)",
        "name": "CTT",
        "operator": "CTT",
        "operator:wikidata": "Q909429",
        "operator:wikipedia": "en:CTT (Macau)"
      }
    },
    {
      "displayName": "CTT (Portugal)",
      "id": "ctt-5666eb",
      "locationSet": {"include": ["pt"]},
      "tags": {
        "amenity": "post_office",
        "brand": "CTT",
        "brand:wikidata": "Q1024518",
        "brand:wikipedia": "en:CTT Correios de Portugal, S.A.",
        "name": "CTT",
        "operator": "CTT",
        "operator:wikidata": "Q1024518",
        "operator:wikipedia": "en:CTT Correios de Portugal, S.A."
      }
    },
    {
      "displayName": "Deutsche Post",
      "id": "deutschepost-8c0db3",
      "locationSet": {"include": ["de"]},
      "matchNames": [
        "deutsche post ag",
        "deutsche post dhl",
        "deutsche post filiale",
        "deutsche postbank ag"
      ],
      "tags": {
        "amenity": "post_office",
        "brand": "Deutsche Post",
        "brand:wikidata": "Q157645",
        "brand:wikipedia": "en:Deutsche Post",
        "name": "Deutsche Post",
        "operator": "Deutsche Post",
        "operator:wikidata": "Q157645",
        "operator:wikipedia": "en:Deutsche Post"
      }
    },
    {
      "displayName": "DHL",
      "id": "dhl-91a3cc",
      "locationSet": {"include": ["001"]},
      "matchNames": [
        "dhl paketshop",
        "dhl vertrieb"
      ],
      "tags": {
        "amenity": "post_office",
        "brand": "DHL",
        "brand:wikidata": "Q489815",
        "brand:wikipedia": "en:DHL",
        "name": "DHL",
        "operator": "DHL",
        "operator:wikidata": "Q489815",
        "operator:wikipedia": "en:DHL"
      }
    },
    {
      "displayName": "Die Post",
      "id": "diepost-62a267",
      "locationSet": {"include": ["ch"]},
      "matchNames": [
        "die schweizerische post",
        "die schweizerische post ag",
        "la poste suisse sa",
        "post ch ag",
        "schweizerische post",
        "schweizerische post ag"
      ],
      "tags": {
        "amenity": "post_office",
        "brand": "Die Post",
        "brand:de": "Die Post",
        "brand:en": "Swiss Post",
        "brand:fr": "La Poste",
        "brand:it": "La Posta",
        "brand:wikidata": "Q614803",
        "brand:wikipedia": "de:Die Schweizerische Post",
        "name": "Die Post",
        "name:de": "Die Post",
        "name:en": "Swiss Post",
        "name:fr": "La Poste",
        "name:it": "La Posta",
        "operator": "Die Post",
        "operator:de": "Die Post",
        "operator:en": "Swiss Post",
        "operator:fr": "La Poste",
        "operator:it": "La Posta",
        "operator:wikidata": "Q614803",
        "operator:wikipedia": "de:Die Schweizerische Post"
      }
    },
    {
      "displayName": "Domesa",
      "id": "domesa-de64fe",
      "locationSet": {"include": ["ve"]},
      "tags": {
        "amenity": "post_office",
        "brand": "Domesa",
        "name": "Domesa",
        "operator": "Domesa"
      }
    },
    {
      "displayName": "DPD",
      "id": "dpd-f556cb",
      "locationSet": {
        "include": ["001"],
        "exclude": ["bg"]
      },
      "matchNames": [
        "direct parcel distribution cz sro.",
        "dpd dynamic parcel distribution",
        "dpd paketshop"
      ],
      "note": "Named 'Speedy' in Bulgaria, but uses the DPD logo - #4674",
      "tags": {
        "amenity": "post_office",
        "brand": "DPD",
        "brand:wikidata": "Q541030",
        "brand:wikipedia": "de:DPDgroup",
        "name": "DPD",
        "operator": "DPD",
        "operator:wikidata": "Q541030",
        "operator:wikipedia": "de:DPDgroup"
      }
    },
    {
      "displayName": "Econt",
      "id": "econt-03f0fb",
      "locationSet": {"include": ["bg"]},
      "tags": {
        "amenity": "post_office",
        "brand": "Econt",
        "brand:wikidata": "Q12279603",
        "brand:wikipedia": "bg:Еконт Експрес",
        "name": "Econt",
        "operator": "Econt",
        "operator:wikidata": "Q12279603",
        "operator:wikipedia": "bg:Еконт Експрес"
      }
    },
    {
      "displayName": "Eesti Post",
      "id": "eestipost-df7ea1",
      "locationSet": {"include": ["ee"]},
      "tags": {
        "amenity": "post_office",
        "brand": "Eesti Post",
        "brand:wikidata": "Q282457",
        "brand:wikipedia": "et:Eesti Post",
        "name": "Eesti Post",
        "operator": "Eesti Post",
        "operator:wikidata": "Q282457",
        "operator:wikipedia": "et:Eesti Post"
      }
    },
    {
      "displayName": "Emirates Post",
      "id": "emiratespost-c6764e",
      "locationSet": {"include": ["ae"]},
      "tags": {
        "amenity": "post_office",
        "brand": "Emirates Post",
        "brand:wikidata": "Q5372577",
        "brand:wikipedia": "en:Emirates Post",
        "name": "Emirates Post",
        "operator": "Emirates Post",
        "operator:wikidata": "Q5372577",
        "operator:wikipedia": "en:Emirates Post"
      }
    },
    {
      "displayName": "Empresa Brasileira de Correios e Telégrafos",
      "id": "empresabrasileiradecorreiosetelegrafos-e82118",
      "locationSet": {"include": ["br"]},
      "matchNames": ["ect"],
      "tags": {
        "amenity": "post_office",
        "brand": "Empresa Brasileira de Correios e Telégrafos",
        "brand:wikidata": "Q3375004",
        "brand:wikipedia": "pt:Empresa Brasileira de Correios e Telégrafos",
        "name": "Empresa Brasileira de Correios e Telégrafos",
        "operator": "Empresa Brasileira de Correios e Telégrafos",
        "operator:wikidata": "Q3375004",
        "operator:wikipedia": "pt:Empresa Brasileira de Correios e Telégrafos",
        "short_name": "EBCT"
      }
    },
    {
      "displayName": "Fancourier",
      "id": "fancourier-08dfb1",
      "locationSet": {"include": ["ro"]},
      "tags": {
        "amenity": "post_office",
        "brand": "Fancourier",
        "brand:wikidata": "Q12727984",
        "brand:wikipedia": "ro:FAN Courier Express",
        "name": "Fancourier",
        "operator": "Fancourier",
        "operator:wikidata": "Q12727984",
        "operator:wikipedia": "ro:FAN Courier Express"
      }
    },
    {
      "displayName": "FedEx",
      "id": "fedex-91a3cc",
      "locationSet": {"include": ["001"]},
      "tags": {
        "amenity": "post_office",
        "brand": "FedEx",
        "brand:wikidata": "Q459477",
        "brand:wikipedia": "en:FedEx",
        "name": "FedEx",
        "operator": "FedEx",
        "operator:wikidata": "Q459477",
        "operator:wikipedia": "en:FedEx"
      }
    },
    {
      "displayName": "General Logistics Systems Germany",
      "id": "generallogisticssystemsgermany-8c0db3",
      "locationSet": {"include": ["de"]},
      "tags": {
        "amenity": "post_office",
        "brand": "General Logistics Systems Germany",
        "brand:wikidata": "Q46495823",
        "brand:wikipedia": "de:General Logistics Systems Germany",
        "name": "General Logistics Systems Germany",
        "operator": "General Logistics Systems Germany",
        "operator:wikidata": "Q46495823",
        "operator:wikipedia": "de:General Logistics Systems Germany"
      }
    },
    {
      "displayName": "Georgian Post",
      "id": "georgianpost-791091",
      "locationSet": {"include": ["ge"]},
      "tags": {
        "amenity": "post_office",
        "brand": "Georgian Post",
        "brand:wikidata": "Q12869041",
        "brand:wikipedia": "en:Georgian Post",
        "name": "Georgian Post",
        "operator": "Georgian Post",
        "operator:wikidata": "Q12869041",
        "operator:wikipedia": "en:Georgian Post"
      }
    },
    {
      "displayName": "Ghana Post",
      "id": "ghanapost-aa5324",
      "locationSet": {"include": ["gh"]},
      "tags": {
        "amenity": "post_office",
        "brand": "Ghana Post",
        "brand:wikidata": "Q4351971",
        "brand:wikipedia": "en:Ghana Post",
        "name": "Ghana Post",
        "operator": "Ghana Post",
        "operator:wikidata": "Q4351971",
        "operator:wikipedia": "en:Ghana Post"
      }
    },
    {
      "displayName": "GLS",
      "id": "gls-91a3cc",
      "locationSet": {"include": ["001"]},
      "tags": {
        "amenity": "post_office",
        "brand": "GLS",
        "brand:wikidata": "Q366182",
        "brand:wikipedia": "en:GLS Group",
        "name": "GLS",
        "operator": "GLS",
        "operator:wikidata": "Q366182",
        "operator:wikipedia": "en:GLS Group"
      }
    },
    {
      "displayName": "HayPost",
      "id": "haypost-1aee57",
      "locationSet": {"include": ["am"]},
      "tags": {
        "amenity": "post_office",
        "brand": "HayPost",
        "brand:en": "HayPost",
        "brand:hy": "Հայփոստ",
        "brand:wikidata": "Q3128876",
        "brand:wikipedia": "en:HayPost",
        "name": "HayPost",
        "name:en": "HayPost",
        "name:hy": "Հայփոստ",
        "operator": "HayPost",
        "operator:en": "HayPost",
        "operator:hy": "Հայփոստ",
        "operator:wikidata": "Q3128876",
        "operator:wikipedia": "en:HayPost"
      }
    },
    {
      "displayName": "Hermes Paketshop",
      "id": "hermespaketshop-8c0db3",
      "locationSet": {"include": ["de"]},
      "matchNames": [
        "hermes",
        "hermes logistik gruppe deutschland",
        "hermes logistik gruppe deutschland gmbh"
      ],
      "tags": {
        "amenity": "post_office",
        "brand": "Hermes Paketshop",
        "brand:wikidata": "Q1613532",
        "brand:wikipedia": "en:Hermes Group",
        "name": "Hermes Paketshop",
        "operator": "Hermes Paketshop",
        "operator:wikidata": "Q1613532",
        "operator:wikipedia": "en:Hermes Group"
      }
    },
    {
      "displayName": "Hrvatska pošta",
      "id": "hrvatskaposta-745f1e",
      "locationSet": {"include": ["hr"]},
      "tags": {
        "amenity": "post_office",
        "brand": "Hrvatska pošta",
        "brand:wikidata": "Q507289",
        "brand:wikipedia": "hr:Hrvatska pošta",
        "name": "Hrvatska pošta",
        "operator": "Hrvatska pošta",
        "operator:wikidata": "Q507289",
        "operator:wikipedia": "hr:Hrvatska pošta"
      }
    },
    {
      "displayName": "India Post",
      "id": "indiapost-45da12",
      "locationSet": {"include": ["in"]},
      "matchNames": [
        "indian post",
        "indian postal service"
      ],
      "tags": {
        "amenity": "post_office",
        "brand": "India Post",
        "brand:wikidata": "Q3519720",
        "brand:wikipedia": "en:India Post",
        "name": "India Post",
        "operator": "India Post",
        "operator:wikidata": "Q3519720",
        "operator:wikipedia": "en:India Post"
      }
    },
    {
      "displayName": "InPost",
      "id": "inpost-504b8a",
      "locationSet": {"include": ["pl"]},
      "tags": {
        "amenity": "post_office",
        "brand": "InPost",
        "brand:wikidata": "Q3182097",
        "brand:wikipedia": "pl:InPost",
        "name": "InPost",
        "operator": "InPost",
        "operator:wikidata": "Q3182097",
        "operator:wikipedia": "pl:InPost"
      }
    },
    {
      "displayName": "Íslandspóstur",
      "id": "islandspostur-b0beaf",
      "locationSet": {"include": ["is"]},
      "tags": {
        "amenity": "post_office",
        "brand": "Íslandspóstur",
        "brand:wikidata": "Q291809",
        "brand:wikipedia": "is:Íslandspóstur",
        "name": "Íslandspóstur",
        "operator": "Íslandspóstur",
        "operator:wikidata": "Q291809",
        "operator:wikipedia": "is:Íslandspóstur"
      }
    },
    {
      "displayName": "Itella",
      "id": "itella-91a3cc",
      "locationSet": {"include": ["001"]},
      "tags": {
        "amenity": "post_office",
        "brand": "Itella",
        "name": "Itella",
        "operator": "Itella"
      }
    },
    {
      "displayName": "J&T Express",
      "id": "jandtexpress-b78fda",
      "locationSet": {
        "include": ["id", "my", "ph"]
      },
      "tags": {
        "amenity": "post_office",
        "brand": "J&T Express",
        "brand:wikidata": "Q95690344",
        "brand:wikipedia": "id:J&T Express",
        "name": "J&T Express",
        "operator": "J&T Express",
        "operator:wikidata": "Q95690344",
        "operator:wikipedia": "id:J&T Express"
      }
    },
    {
      "displayName": "Justin",
      "id": "justin-970b0c",
      "locationSet": {"include": ["ua"]},
      "tags": {
        "amenity": "post_office",
        "brand": "Justin",
        "name": "Justin",
        "operator": "Justin"
      }
    },
    {
      "displayName": "La Poste",
      "id": "laposte-8f3efe",
      "locationSet": {"include": ["fr"]},
      "tags": {
        "amenity": "post_office",
        "brand": "La Poste",
        "brand:wikidata": "Q373724",
        "brand:wikipedia": "fr:La Poste (entreprise française)",
        "name": "La Poste",
        "operator": "La Poste",
        "operator:wikidata": "Q373724",
        "operator:wikipedia": "fr:La Poste (entreprise française)"
      }
    },
    {
      "displayName": "La Poste Tunisienne",
      "id": "lapostetunisienne-fea313",
      "locationSet": {"include": ["tn"]},
      "tags": {
        "amenity": "post_office",
        "brand": "La Poste Tunisienne",
        "brand:ar": "البريد التونسي",
        "brand:fr": "La Poste Tunisienne",
        "brand:wikidata": "Q3399820",
        "brand:wikipedia": "fr:Poste tunisienne",
        "name": "La Poste Tunisienne",
        "name:ar": "البريد التونسي",
        "name:fr": "La Poste Tunisienne",
        "operator": "La Poste Tunisienne",
        "operator:ar": "البريد التونسي",
        "operator:fr": "La Poste Tunisienne",
        "operator:wikidata": "Q3399820",
        "operator:wikipedia": "fr:Poste tunisienne"
      }
    },
    {
      "displayName": "Latvijas Pasts",
      "id": "latvijaspasts-52791c",
      "locationSet": {"include": ["lv"]},
      "tags": {
        "amenity": "post_office",
        "brand": "Latvijas Pasts",
        "brand:wikidata": "Q1807088",
        "brand:wikipedia": "lv:Latvijas Pasts",
        "name": "Latvijas Pasts",
        "operator": "Latvijas Pasts",
        "operator:wikidata": "Q1807088",
        "operator:wikipedia": "lv:Latvijas Pasts"
      }
    },
    {
      "displayName": "LBC",
      "id": "lbc-7e1eed",
      "locationSet": {"include": ["ph"]},
      "matchNames": ["lbc express"],
      "tags": {
        "amenity": "post_office",
        "brand": "LBC",
        "brand:wikidata": "Q17075584",
        "brand:wikipedia": "en:LBC Express",
        "name": "LBC",
        "operator": "LBC",
        "operator:wikidata": "Q17075584",
        "operator:wikipedia": "en:LBC Express"
      }
    },
    {
      "displayName": "Lietuvos paštas",
      "id": "lietuvospastas-738531",
      "locationSet": {"include": ["lt"]},
      "tags": {
        "amenity": "post_office",
        "brand": "Lietuvos paštas",
        "brand:wikidata": "Q175964",
        "brand:wikipedia": "lt:Lietuvos paštas",
        "name": "Lietuvos paštas",
        "operator": "Lietuvos paštas",
        "operator:wikidata": "Q175964",
        "operator:wikipedia": "lt:Lietuvos paštas"
      }
    },
    {
      "displayName": "Londis",
      "id": "londis-2ecbba",
      "locationSet": {"include": ["gb"]},
      "tags": {
        "amenity": "post_office",
        "brand": "Londis",
        "brand:wikidata": "Q21008564",
        "brand:wikipedia": "en:Londis (United Kingdom)",
        "name": "Londis",
        "operator": "Londis",
        "operator:wikidata": "Q21008564",
        "operator:wikipedia": "en:Londis (United Kingdom)"
      }
    },
    {
      "displayName": "Magyar Posta",
      "id": "magyarposta-14f2b7",
      "locationSet": {"include": ["hu"]},
      "matchNames": ["magyar posta zrt."],
      "tags": {
        "amenity": "post_office",
        "brand": "Magyar Posta",
        "brand:wikidata": "Q145614",
        "brand:wikipedia": "hu:Magyar Posta Zrt.",
        "name": "Magyar Posta",
        "operator": "Magyar Posta",
        "operator:wikidata": "Q145614",
        "operator:wikipedia": "hu:Magyar Posta Zrt."
      }
    },
    {
      "displayName": "Mail Boxes Etc.",
      "id": "mailboxesetc-91a3cc",
      "locationSet": {"include": ["001"]},
      "tags": {
        "amenity": "post_office",
        "brand": "Mail Boxes Etc.",
        "brand:wikidata": "Q1139182",
        "brand:wikipedia": "en:Mail Boxes Etc.",
        "name": "Mail Boxes Etc.",
        "operator": "Mail Boxes Etc.",
        "operator:wikidata": "Q1139182",
        "operator:wikipedia": "en:Mail Boxes Etc."
      }
    },
    {
      "displayName": "McColl's",
      "id": "mccolls-2ecbba",
      "locationSet": {"include": ["gb"]},
      "tags": {
        "amenity": "post_office",
        "brand": "McColl's",
        "brand:wikidata": "Q16997477",
        "brand:wikipedia": "en:McColl's",
        "name": "McColl's",
        "operator": "McColl's",
        "operator:wikidata": "Q16997477",
        "operator:wikipedia": "en:McColl's"
      }
    },
    {
      "displayName": "Meest Express",
      "id": "meestexpress-970b0c",
      "locationSet": {"include": ["ua"]},
      "tags": {
        "amenity": "post_office",
        "brand": "Meest Express",
        "brand:wikidata": "Q25432124",
        "brand:wikipedia": "uk:Міст Експрес",
        "name": "Meest Express",
        "operator": "Meest Express",
        "operator:wikidata": "Q25432124",
        "operator:wikipedia": "uk:Міст Експрес"
      }
    },
    {
      "displayName": "MRW",
      "id": "mrw-0a445b",
      "locationSet": {
        "include": ["ad", "es", "gi", "pt", "ve"]
      },
      "tags": {
        "amenity": "post_office",
        "brand": "MRW",
        "brand:wikidata": "Q23767821",
        "brand:wikipedia": "es:MRW",
        "name": "MRW",
        "operator": "MRW",
        "operator:wikidata": "Q23767821",
        "operator:wikipedia": "es:MRW"
      }
    },
    {
      "displayName": "New Zealand Post",
      "id": "newzealandpost-91a3cc",
      "locationSet": {"include": ["001"]},
      "matchNames": ["nz post"],
      "tags": {
        "amenity": "post_office",
        "brand": "New Zealand Post",
        "brand:wikidata": "Q1144511",
        "brand:wikipedia": "en:New Zealand Post",
        "name": "New Zealand Post",
        "operator": "New Zealand Post",
        "operator:wikidata": "Q1144511",
        "operator:wikipedia": "en:New Zealand Post"
      }
    },
    {
      "displayName": "Omniva",
      "id": "omniva-df7ea1",
      "locationSet": {"include": ["ee"]},
      "tags": {
        "amenity": "post_office",
        "brand": "Omniva",
        "brand:wikidata": "Q282457",
        "brand:wikipedia": "en:Omniva",
        "name": "Omniva",
        "operator": "Omniva",
        "operator:wikidata": "Q282457",
        "operator:wikipedia": "en:Omniva"
      }
    },
    {
      "displayName": "One Stop",
      "id": "onestop-2ecbba",
      "locationSet": {"include": ["gb"]},
      "tags": {
        "amenity": "post_office",
        "brand": "One Stop",
        "name": "One Stop",
        "operator": "One Stop"
      }
    },
    {
      "displayName": "OPT",
      "id": "opt-91a3cc",
      "locationSet": {"include": ["001"]},
      "tags": {
        "amenity": "post_office",
        "brand": "OPT",
        "name": "OPT",
        "operator": "OPT"
      }
    },
    {
      "displayName": "Organización Coordinadora Argentina",
      "id": "organizacioncoordinadoraargentina-debce4",
      "locationSet": {"include": ["ar"]},
      "tags": {
        "amenity": "post_office",
        "brand": "Organización Coordinadora Argentina",
        "brand:wikidata": "Q5172887",
        "brand:wikipedia": "es:Correo OCA",
        "name": "Organización Coordinadora Argentina",
        "operator": "Organización Coordinadora Argentina",
        "operator:wikidata": "Q5172887",
        "operator:wikipedia": "es:Correo OCA",
        "short_name": "OCA"
      }
    },
    {
      "displayName": "Österreichische Post AG",
      "id": "osterreichischepostag-bb5e7f",
      "locationSet": {"include": ["at"]},
      "tags": {
        "amenity": "post_office",
        "brand": "Österreichische Post AG",
        "brand:wikidata": "Q1763505",
        "brand:wikipedia": "de:Österreichische Post",
        "name": "Österreichische Post AG",
        "operator": "Österreichische Post AG",
        "operator:wikidata": "Q1763505",
        "operator:wikipedia": "de:Österreichische Post"
      }
    },
    {
      "displayName": "P&T",
      "id": "pandt-be325d",
      "locationSet": {"include": ["lu"]},
      "tags": {
        "amenity": "post_office",
        "brand": "P&T",
        "brand:wikidata": "Q1570910",
        "brand:wikipedia": "de:Post Luxembourg",
        "name": "P&T",
        "operator": "P&T",
        "operator:wikidata": "Q1570910",
        "operator:wikipedia": "de:Post Luxembourg"
      }
    },
    {
      "displayName": "Pakistan Post",
      "id": "pakistanpost-87c3b9",
      "locationSet": {"include": ["pk"]},
      "tags": {
        "amenity": "post_office",
        "brand": "Pakistan Post",
        "brand:wikidata": "Q4046330",
        "brand:wikipedia": "en:Pakistan Post",
        "name": "Pakistan Post",
        "operator": "Pakistan Post",
        "operator:wikidata": "Q4046330",
        "operator:wikipedia": "en:Pakistan Post"
      }
    },
    {
      "displayName": "Palestine Post",
      "id": "palestinepost-c8471a",
      "locationSet": {"include": ["ps"]},
      "tags": {
        "amenity": "post_office",
        "brand": "Palestine Post",
        "brand:wikidata": "Q4351991",
        "brand:wikipedia": "en:Palestine Post",
        "name": "Palestine Post",
        "operator": "Palestine Post",
        "operator:wikidata": "Q4351991",
        "operator:wikipedia": "en:Palestine Post"
      }
    },
    {
      "displayName": "PHLPost",
      "id": "phlpost-7e1eed",
      "locationSet": {"include": ["ph"]},
      "matchNames": ["phl"],
      "tags": {
        "amenity": "post_office",
        "brand": "PHLPost",
        "brand:wikidata": "Q1406037",
        "brand:wikipedia": "en:Philippine Postal Corporation",
        "name": "PHLPost",
        "official_name": "Philippine Postal Corporation",
        "operator": "PHLPost",
        "operator:wikidata": "Q1406037",
        "operator:wikipedia": "en:Philippine Postal Corporation"
      }
    },
    {
      "displayName": "Poczta Polska",
      "id": "pocztapolska-504b8a",
      "locationSet": {"include": ["pl"]},
      "matchNames": [
        "poczta",
        "poczta polska sa"
      ],
      "tags": {
        "amenity": "post_office",
        "brand": "Poczta Polska",
        "brand:wikidata": "Q168833",
        "brand:wikipedia": "pl:Poczta Polska",
        "name": "Poczta Polska",
        "operator": "Poczta Polska",
        "operator:wikidata": "Q168833",
        "operator:wikipedia": "pl:Poczta Polska"
      }
    },
    {
      "displayName": "Pos Indonesia",
      "id": "kantorpos-ab1265",
      "locationSet": {"include": ["id"]},
      "matchNames": ["pt pos indonesia"],
      "tags": {
        "amenity": "post_office",
        "brand": "Pos Indonesia",
        "brand:wikidata": "Q4273095",
        "brand:wikipedia": "id:Pos Indonesia",
        "name": "Kantor Pos",
        "operator": "Pos Indonesia",
        "operator:wikidata": "Q4273095",
        "operator:wikipedia": "id:Pos Indonesia"
      }
    },
    {
      "displayName": "Pos Malaysia",
      "id": "posmalaysia-1e070a",
      "locationSet": {"include": ["my"]},
      "tags": {
        "amenity": "post_office",
        "brand": "Pos Malaysia",
        "brand:wikidata": "Q6112623",
        "brand:wikipedia": "en:Pos Malaysia",
        "name": "Pos Malaysia",
        "operator": "Pos Malaysia",
        "operator:wikidata": "Q6112623",
        "operator:wikipedia": "en:Pos Malaysia"
      }
    },
    {
      "displayName": "Post Danmark",
      "id": "postdanmark-6dc1f9",
      "locationSet": {"include": ["dk"]},
      "tags": {
        "amenity": "post_office",
        "brand": "Post Danmark",
        "brand:wikidata": "Q1334647",
        "brand:wikipedia": "da:PostNord Danmark",
        "name": "Post Danmark",
        "operator": "Post Danmark",
        "operator:wikidata": "Q1334647",
        "operator:wikipedia": "da:PostNord Danmark"
      }
    },
    {
      "displayName": "Post Office (UK)",
      "id": "postoffice-2ecbba",
      "locationSet": {"include": ["gb"]},
      "matchNames": [
        "post office ltd",
        "the post office"
      ],
      "tags": {
        "amenity": "post_office",
        "brand": "Post Office",
        "brand:wikidata": "Q1783168",
        "brand:wikipedia": "en:Post Office Ltd",
        "name": "Post Office",
        "operator": "Post Office",
        "operator:wikidata": "Q1783168",
        "operator:wikipedia": "en:Post Office Ltd"
      }
    },
    {
      "displayName": "Poșta Moldovei",
      "id": "postamoldovei-48c390",
      "locationSet": {"include": ["md"]},
      "tags": {
        "amenity": "post_office",
        "brand": "Poșta Moldovei",
        "brand:wikidata": "Q2085731",
        "brand:wikipedia": "en:Poșta Moldovei",
        "name": "Poșta Moldovei",
        "operator": "Poșta Moldovei",
        "operator:wikidata": "Q2085731",
        "operator:wikipedia": "en:Poșta Moldovei"
      }
    },
    {
      "displayName": "Poșta Română",
      "id": "postaromana-08dfb1",
      "locationSet": {"include": ["ro"]},
      "tags": {
        "amenity": "post_office",
        "brand": "Poșta Română",
        "brand:wikidata": "Q283175",
        "brand:wikipedia": "ro:Poșta Română",
        "name": "Poșta Română",
        "operator": "Poșta Română",
        "operator:wikidata": "Q283175",
        "operator:wikipedia": "ro:Poșta Română"
      }
    },
    {
      "displayName": "Posta Shqiptare",
      "id": "postashqiptare-6d9f6a",
      "locationSet": {"include": ["al"]},
      "tags": {
        "amenity": "post_office",
        "brand": "Posta Shqiptare",
        "brand:wikidata": "Q1334419",
        "brand:wikipedia": "sq:Posta Shqiptare",
        "name": "Posta Shqiptare",
        "operator": "Posta Shqiptare",
        "operator:wikidata": "Q1334419",
        "operator:wikipedia": "sq:Posta Shqiptare"
      }
    },
    {
      "displayName": "Pošta Slovenije",
      "id": "postaslovenije-0b013e",
      "locationSet": {"include": ["si"]},
      "tags": {
        "amenity": "post_office",
        "brand": "Pošta Slovenije",
        "brand:wikidata": "Q6522631",
        "brand:wikipedia": "sl:Pošta Slovenije",
        "name": "Pošta Slovenije",
        "operator": "Pošta Slovenije",
        "operator:wikidata": "Q6522631",
        "operator:wikipedia": "sl:Pošta Slovenije"
      }
    },
    {
      "displayName": "PostalAnnex",
      "id": "postalannex-c1ddbe",
      "locationSet": {"include": ["us"]},
      "matchTags": ["shop/post_office"],
      "tags": {
        "amenity": "post_office",
        "brand": "PostalAnnex",
        "brand:wikidata": "Q61960357",
        "name": "PostalAnnex",
        "operator": "PostalAnnex",
        "operator:wikidata": "Q61960357"
      }
    },
    {
      "displayName": "Postbank",
      "id": "postbank-91a3cc",
      "locationSet": {"include": ["001"]},
      "tags": {
        "amenity": "post_office",
        "brand": "Postbank",
        "name": "Postbank",
        "operator": "Postbank"
      }
    },
    {
      "displayName": "Postbank Finanzcenter",
      "id": "postbankfinanzcenter-8c0db3",
      "locationSet": {"include": ["de"]},
      "tags": {
        "amenity": "post_office",
        "brand": "Postbank Finanzcenter",
        "brand:wikidata": "Q708835",
        "brand:wikipedia": "de:Postbank",
        "name": "Postbank Finanzcenter",
        "operator": "Postbank Finanzcenter",
        "operator:wikidata": "Q708835",
        "operator:wikipedia": "de:Postbank"
      }
    },
    {
      "displayName": "Poste Italiane",
      "id": "posteitaliane-b5464b",
      "locationSet": {"include": ["it"]},
      "matchNames": ["poste italiane spa"],
      "tags": {
        "amenity": "post_office",
        "brand": "Poste Italiane",
        "brand:wikidata": "Q495026",
        "brand:wikipedia": "en:Poste italiane",
        "name": "Poste Italiane",
        "operator": "Poste Italiane",
        "operator:wikidata": "Q495026",
        "operator:wikipedia": "en:Poste italiane"
      }
    },
    {
      "displayName": "Posten (Norge)",
      "id": "posten-03f567",
      "locationSet": {"include": ["no"]},
      "tags": {
        "amenity": "post_office",
        "brand": "Posten",
        "brand:wikidata": "Q1815701",
        "brand:wikipedia": "no:Posten Norge",
        "name": "Posten",
        "operator": "Posten",
        "operator:wikidata": "Q1815701",
        "operator:wikipedia": "no:Posten Norge"
      }
    },
    {
      "displayName": "Postes Canada",
      "id": "postescanada-d8ff35",
      "locationSet": {
        "include": ["quebec.geojson"]
      },
      "matchNames": ["poste canada"],
      "tags": {
        "amenity": "post_office",
        "brand": "Postes Canada",
        "brand:wikidata": "Q1032001",
        "brand:wikipedia": "fr:Postes Canada",
        "name": "Postes Canada",
        "operator": "Postes Canada",
        "operator:wikidata": "Q1032001",
        "operator:wikipedia": "fr:Postes Canada"
      }
    },
    {
      "displayName": "Posti",
      "id": "posti-7504a1",
      "locationSet": {"include": ["fi"]},
      "tags": {
        "amenity": "post_office",
        "brand": "Posti",
        "brand:wikidata": "Q843453",
        "brand:wikipedia": "fi:Posti Group",
        "name": "Posti",
        "operator": "Posti",
        "operator:wikidata": "Q843453",
        "operator:wikipedia": "fi:Posti Group"
      }
    },
    {
      "displayName": "PostNL",
      "id": "postnl-b4b2c0",
      "locationSet": {"include": ["nl"]},
      "tags": {
        "amenity": "post_office",
        "brand": "PostNL",
        "brand:wikidata": "Q5921598",
        "brand:wikipedia": "nl:PostNL",
        "name": "PostNL",
        "operator": "PostNL",
        "operator:wikidata": "Q5921598",
        "operator:wikipedia": "nl:PostNL"
      }
    },
    {
      "displayName": "PostNord AB",
      "id": "postnordab-286ddb",
      "locationSet": {"include": ["se"]},
      "tags": {
        "amenity": "post_office",
        "brand": "PostNord AB",
        "brand:wikidata": "Q3181430",
        "brand:wikipedia": "sv:Postnord",
        "name": "PostNord AB",
        "operator": "PostNord AB",
        "operator:wikidata": "Q3181430",
        "operator:wikipedia": "sv:Postnord"
      }
    },
    {
      "displayName": "Premier",
      "id": "premier-2ecbba",
      "locationSet": {"include": ["gb"]},
      "tags": {
        "amenity": "post_office",
        "brand": "Premier",
        "brand:wikidata": "Q7240340",
        "brand:wikipedia": "en:Premier Stores",
        "name": "Premier",
        "operator": "Premier",
        "operator:wikidata": "Q7240340",
        "operator:wikipedia": "en:Premier Stores"
      }
    },
    {
      "displayName": "PTT",
      "id": "ptt-56f07f",
      "locationSet": {"include": ["tr"]},
      "tags": {
        "amenity": "post_office",
        "brand": "PTT",
        "brand:wikidata": "Q3079259",
        "brand:wikipedia": "tr:PTT",
        "name": "PTT",
        "operator": "PTT",
        "operator:wikidata": "Q3079259",
        "operator:wikipedia": "tr:PTT"
      }
    },
    {
      "displayName": "Royal Mail",
      "id": "royalmail-2ecbba",
      "locationSet": {"include": ["gb"]},
      "tags": {
        "amenity": "post_office",
        "brand": "Royal Mail",
        "brand:wikidata": "Q638098",
        "brand:wikipedia": "en:Royal Mail",
        "name": "Royal Mail",
        "operator": "Royal Mail",
        "operator:wikidata": "Q638098",
        "operator:wikipedia": "en:Royal Mail"
      }
    },
    {
      "displayName": "Serpost",
      "id": "serpost-41842d",
      "locationSet": {"include": ["pe"]},
      "matchNames": [
        "serpost sa",
        "servicios postales del peru",
        "servicios postales del peru sa"
      ],
      "matchTags": ["shop/post_office"],
      "tags": {
        "amenity": "post_office",
        "brand": "Serpost",
        "brand:wikidata": "Q19521863",
        "brand:wikipedia": "es:Servicios Postales del Perú",
        "name": "Serpost",
        "operator": "Serpost",
        "operator:wikidata": "Q19521863",
        "operator:wikipedia": "es:Servicios Postales del Perú"
      }
    },
    {
      "displayName": "Servientrega",
      "id": "servientrega-754eb3",
      "locationSet": {"include": ["co"]},
      "tags": {
        "amenity": "post_office",
        "brand": "Servientrega",
        "brand:wikidata": "Q96094519",
        "name": "Servientrega",
        "operator": "Servientrega",
        "operator:wikidata": "Q96094519"
      }
    },
    {
      "displayName": "Singapore Post",
      "id": "singaporepost-5f2b0a",
      "locationSet": {"include": ["sg"]},
      "tags": {
        "amenity": "post_office",
        "brand": "Singapore Post",
        "brand:wikidata": "Q4049531",
        "brand:wikipedia": "en:Singapore Post",
        "name": "Singapore Post",
        "operator": "Singapore Post",
        "operator:wikidata": "Q4049531",
        "operator:wikipedia": "en:Singapore Post"
      }
    },
    {
      "displayName": "Slovenská pošta",
      "id": "slovenskaposta-e92a45",
      "locationSet": {"include": ["sk"]},
      "matchNames": ["slovenska pošta as"],
      "tags": {
        "amenity": "post_office",
        "brand": "Slovenská pošta",
        "brand:wikidata": "Q1191849",
        "brand:wikipedia": "en:Slovenská pošta",
        "name": "Slovenská pošta",
        "operator": "Slovenská pošta",
        "operator:wikidata": "Q1191849",
        "operator:wikipedia": "en:Slovenská pošta"
      }
    },
    {
      "displayName": "South African Post Office",
      "id": "southafricanpostoffice-dec673",
      "locationSet": {"include": ["za"]},
      "tags": {
        "amenity": "post_office",
        "brand": "South African Post Office",
        "brand:wikidata": "Q7565777",
        "brand:wikipedia": "en:South African Post Office",
        "name": "South African Post Office",
        "operator": "South African Post Office",
        "operator:wikidata": "Q7565777",
        "operator:wikipedia": "en:South African Post Office",
        "short_name": "SAPO"
      }
    },
    {
      "displayName": "Spar",
      "id": "spar-91a3cc",
      "locationSet": {"include": ["001"]},
      "tags": {
        "amenity": "post_office",
        "brand": "Spar",
        "brand:wikidata": "Q610492",
        "brand:wikipedia": "en:Spar (retailer)",
        "name": "Spar",
        "operator": "Spar",
        "operator:wikidata": "Q610492",
        "operator:wikipedia": "en:Spar (retailer)"
      }
    },
    {
      "displayName": "Speedy",
      "id": "speedy-03f0fb",
      "locationSet": {"include": ["bg"]},
      "note": "Operated by DPD, and uses the DPD logo - #4674",
      "tags": {
        "amenity": "post_office",
        "brand": "DPD",
        "brand:wikidata": "Q541030",
        "brand:wikipedia": "en:DPDgroup",
        "name": "Speedy",
        "operator": "DPD",
        "operator:wikidata": "Q541030",
        "operator:wikipedia": "en:DPDgroup"
      }
    },
    {
      "displayName": "TCC",
      "id": "tcc-754eb3",
      "locationSet": {"include": ["co"]},
      "tags": {
        "amenity": "post_office",
        "brand": "TCC",
        "brand:wikidata": "Q27968821",
        "brand:wikipedia": "es:TCC (Colombia)",
        "name": "TCC",
        "old_name": "Transcomerco",
        "operator": "TCC",
        "operator:wikidata": "Q27968821",
        "operator:wikipedia": "es:TCC (Colombia)",
        "short_name": "TCC"
      }
    },
    {
      "displayName": "TEALCA",
      "id": "tealca-de64fe",
      "locationSet": {"include": ["ve"]},
      "matchNames": ["tealca ca"],
      "tags": {
        "amenity": "post_office",
        "brand": "TEALCA",
        "name": "TEALCA",
        "operator": "TEALCA"
      }
    },
    {
      "displayName": "Thailand Post",
      "id": "thailandpost-a61dae",
      "locationSet": {"include": ["th"]},
      "tags": {
        "amenity": "post_office",
        "brand": "Thailand Post",
        "brand:en": "Thailand Post",
        "brand:th": "ไปรษณีย์ไทย",
        "brand:wikidata": "Q6676271",
        "brand:wikipedia": "th:ไปรษณีย์ไทย (บริษัท)",
        "name": "Thailand Post",
        "name:en": "Thailand Post",
        "name:th": "ไปรษณีย์ไทย",
        "operator": "Thailand Post",
        "operator:en": "Thailand Post",
        "operator:th": "ไปรษณีย์ไทย",
        "operator:wikidata": "Q6676271",
        "operator:wikipedia": "th:ไปรษณีย์ไทย (บริษัท)"
      }
    },
    {
      "displayName": "The Co-operative Food",
      "id": "thecooperativefood-2ecbba",
      "locationSet": {"include": ["gb"]},
      "tags": {
        "amenity": "post_office",
        "brand": "The Co-operative Food",
        "brand:wikidata": "Q3277439",
        "brand:wikipedia": "en:Co-op Food",
        "name": "The Co-operative Food",
        "operator": "The Co-operative Food",
        "operator:wikidata": "Q3277439",
        "operator:wikipedia": "en:Co-op Food"
      }
    },
    {
      "displayName": "The UPS Store",
      "id": "theupsstore-2da3fc",
      "locationSet": {"include": ["ca", "us"]},
      "matchNames": [
        "united parcel service",
        "ups store"
      ],
      "matchTags": ["shop/copyshop"],
      "tags": {
        "amenity": "post_office",
        "brand": "The UPS Store",
        "brand:wikidata": "Q7771029",
        "brand:wikipedia": "en:The UPS Store",
        "name": "The UPS Store",
        "operator": "The UPS Store",
        "operator:wikidata": "Q7771029",
        "operator:wikipedia": "en:The UPS Store",
        "short_name": "UPS"
      }
    },
    {
      "displayName": "TNT",
      "id": "tnt-91a3cc",
      "locationSet": {"include": ["001"]},
      "tags": {
        "amenity": "post_office",
        "brand": "TNT",
        "brand:wikidata": "Q1105744",
        "brand:wikipedia": "en:TNT Express",
        "name": "TNT",
        "operator": "TNT",
        "operator:wikidata": "Q1105744",
        "operator:wikipedia": "en:TNT Express"
      }
    },
    {
      "displayName": "TTPost",
      "id": "ttpost-a1fd14",
      "locationSet": {"include": ["tt"]},
      "tags": {
        "amenity": "post_office",
        "brand": "TTPost",
        "brand:wikidata": "Q7671960",
        "brand:wikipedia": "en:TTPost",
        "name": "TTPost",
        "operator": "TTPost",
        "operator:wikidata": "Q7671960",
        "operator:wikipedia": "en:TTPost"
      }
    },
    {
      "displayName": "United States Post Office",
      "id": "unitedstatespostoffice-c1ddbe",
      "locationSet": {"include": ["us"]},
      "matchNames": [
        "united states postal service",
        "us post office",
        "us postal service",
        "usps post office"
      ],
      "tags": {
        "amenity": "post_office",
        "brand": "United States Post Office",
        "brand:wikidata": "Q668687",
        "brand:wikipedia": "en:United States Postal Service",
        "name": "United States Post Office",
        "operator": "United States Post Office",
        "operator:wikidata": "Q668687",
        "operator:wikipedia": "en:United States Postal Service",
        "short_name": "USPS"
      }
    },
    {
      "displayName": "Volg",
      "id": "volg-62a267",
      "locationSet": {"include": ["ch"]},
      "tags": {
        "amenity": "post_office",
        "brand": "Volg",
        "brand:wikidata": "Q2530746",
        "brand:wikipedia": "de:Volg",
        "name": "Volg",
        "operator": "Volg",
        "operator:wikidata": "Q2530746",
        "operator:wikipedia": "de:Volg"
      }
    },
    {
      "displayName": "WHSmith",
      "id": "whsmith-2ecbba",
      "locationSet": {"include": ["gb"]},
      "tags": {
        "amenity": "post_office",
        "brand": "WHSmith",
        "brand:wikidata": "Q1548712",
        "brand:wikipedia": "en:WHSmith",
        "name": "WHSmith",
        "operator": "WHSmith",
        "operator:wikidata": "Q1548712",
        "operator:wikipedia": "en:WHSmith"
      }
    },
    {
      "displayName": "Zoom",
      "id": "zoom-de64fe",
      "locationSet": {"include": ["ve"]},
      "matchNames": ["grupo zoom ca"],
      "tags": {
        "amenity": "post_office",
        "brand": "Zoom",
        "name": "Zoom",
        "operator": "Zoom"
      }
    },
    {
      "displayName": "Ελληνικά Ταχυδρομεία",
      "id": "hellenicpost-f0c950",
      "locationSet": {"include": ["gr"]},
      "tags": {
        "amenity": "post_office",
        "brand": "Ελληνικά Ταχυδρομεία",
        "brand:el": "Ελληνικά Ταχυδρομεία",
        "brand:en": "Hellenic Post",
        "brand:wikidata": "Q1275135",
        "brand:wikipedia": "el:Ελληνικά Ταχυδρομεία",
        "brnad:en": "Hellenic Post",
        "name": "Ελληνικά Ταχυδρομεία",
        "name:el": "Ελληνικά Ταχυδρομεία",
        "name:en": "Hellenic Post",
        "operator": "Ελληνικά Ταχυδρομεία",
        "operator:el": "Ελληνικά Ταχυδρομεία",
        "operator:en": "Hellenic Post",
        "operator:wikidata": "Q1275135",
        "operator:wikipedia": "el:Ελληνικά Ταχυδρομεία",
        "short_name": "ΕΛΤΑ"
      }
    },
    {
      "displayName": "Автолюкс",
      "id": "43b55e-970b0c",
      "locationSet": {"include": ["ua"]},
      "tags": {
        "amenity": "post_office",
        "brand": "Автолюкс",
        "name": "Автолюкс",
        "operator": "Автолюкс"
      }
    },
    {
      "displayName": "Белпошта",
      "id": "belposhta-4d7a9f",
      "locationSet": {"include": ["by"]},
      "matchNames": ["руп белпочта"],
      "tags": {
        "amenity": "post_office",
        "brand": "Белпошта",
        "brand:be": "Белпошта",
        "brand:en": "Belposhta",
        "brand:ru": "Белпочта",
        "brand:wikidata": "Q2662336",
        "brand:wikipedia": "be:Белпошта",
        "name": "Белпошта",
        "name:be": "Белпошта",
        "name:en": "Belposhta",
        "name:ru": "Белпочта",
        "operator": "Белпошта",
        "operator:be": "Белпошта",
        "operator:en": "Belposhta",
        "operator:ru": "Белпочта",
        "operator:wikidata": "Q2662336",
        "operator:wikipedia": "be:Белпошта"
      }
    },
    {
      "displayName": "Български пощи",
      "id": "6d0749-03f0fb",
      "locationSet": {"include": ["bg"]},
      "matchNames": ["български пощи еад"],
      "tags": {
        "amenity": "post_office",
        "brand": "Български пощи",
        "brand:wikidata": "Q2880826",
        "brand:wikipedia": "bg:Български пощи",
        "name": "Български пощи",
        "operator": "Български пощи",
        "operator:wikidata": "Q2880826",
        "operator:wikipedia": "bg:Български пощи"
      }
    },
    {
      "displayName": "ГиперМолл",
      "id": "1fa616-4d7a9f",
      "locationSet": {"include": ["by"]},
      "tags": {
        "amenity": "post_office",
        "brand": "ГиперМолл",
        "name": "ГиперМолл",
        "operator": "ГиперМолл"
      }
    },
    {
      "displayName": "ГУП Почта Приднестровья",
      "id": "transnistriapost-48c390",
      "locationSet": {"include": ["md"]},
      "tags": {
        "amenity": "post_office",
        "brand": "ГУП Почта Приднестровья",
        "brand:en": "Transnistria Post",
        "brand:ru": "ГУП Почта Приднестровья",
        "brand:wikidata": "Q4375351",
        "brand:wikipedia": "ru:Почта Приднестровья",
        "name": "ГУП Почта Приднестровья",
        "name:en": "Transnistria Post",
        "name:ru": "ГУП Почта Приднестровья",
        "operator": "ГУП Почта Приднестровья",
        "operator:en": "Transnistria Post",
        "operator:ru": "ГУП Почта Приднестровья",
        "operator:wikidata": "Q4375351",
        "operator:wikipedia": "ru:Почта Приднестровья"
      }
    },
    {
      "displayName": "Еконт",
      "id": "4f7c8b-03f0fb",
      "locationSet": {"include": ["bg"]},
      "tags": {
        "amenity": "post_office",
        "brand": "Еконт",
        "brand:wikidata": "Q2880826",
        "brand:wikipedia": "bg:Еконт Експрес",
        "name": "Еконт",
        "operator": "Еконт",
        "operator:wikidata": "Q2880826",
        "operator:wikipedia": "bg:Еконт Експрес"
      }
    },
    {
      "displayName": "Интернет-магазин Евроопт",
      "id": "ca40c3-4d7a9f",
      "locationSet": {"include": ["by"]},
      "tags": {
        "amenity": "post_office",
        "brand": "Интернет-магазин Евроопт",
        "name": "Интернет-магазин Евроопт",
        "operator": "Интернет-магазин Евроопт"
      }
    },
    {
      "displayName": "Ін-Тайм",
      "id": "ba4b41-970b0c",
      "locationSet": {"include": ["ua"]},
      "tags": {
        "amenity": "post_office",
        "brand": "Ін-Тайм",
        "name": "Ін-Тайм",
        "operator": "Ін-Тайм"
      }
    },
    {
      "displayName": "Казпочта",
      "id": "c12bb7-58ab80",
      "locationSet": {"include": ["kz"]},
      "tags": {
        "amenity": "post_office",
        "brand": "Казпочта",
        "brand:wikidata": "Q746263",
        "brand:wikipedia": "ru:Казпочта",
        "name": "Казпочта",
        "operator": "Казпочта",
        "operator:wikidata": "Q746263",
        "operator:wikipedia": "ru:Казпочта"
      }
    },
    {
      "displayName": "Македонска Пошта",
      "id": "7fe185-34211e",
      "locationSet": {"include": ["mk"]},
      "tags": {
        "amenity": "post_office",
        "brand": "Македонска Пошта",
        "brand:wikidata": "Q3209396",
        "brand:wikipedia": "mk:Македонска пошта",
        "name": "Македонска Пошта",
        "operator": "Македонска Пошта",
        "operator:wikidata": "Q3209396",
        "operator:wikipedia": "mk:Македонска пошта"
      }
    },
    {
      "displayName": "Нова Пошта",
      "id": "530f2c-970b0c",
      "locationSet": {"include": ["ua"]},
      "matchNames": [
        "нова пошта №1",
        "нова пошта №2",
        "нова пошта №3",
        "нова пошта №4",
        "нова пошта, відділення №1"
      ],
      "tags": {
        "amenity": "post_office",
        "brand": "Нова Пошта",
        "brand:wikidata": "Q12133863",
        "brand:wikipedia": "uk:Нова пошта",
        "name": "Нова Пошта",
        "operator": "Нова Пошта",
        "operator:wikidata": "Q12133863",
        "operator:wikipedia": "uk:Нова пошта"
      }
    },
    {
      "displayName": "Почта Крыма",
      "id": "postofcrimea-beb663",
      "locationSet": {
        "include": ["crimea.geojson"]
      },
      "tags": {
        "amenity": "post_office",
        "brand": "Почта Крыма",
        "brand:en": "Post of Crimea",
        "brand:ru": "Почта Крыма",
        "brand:wikidata": "Q21193668",
        "brand:wikipedia": "ru:Почта Крыма",
        "name": "Почта Крыма",
        "name:en": "Post of Crimea",
        "name:ru": "Почта Крыма",
        "operator": "Почта Крыма",
        "operator:en": "Post of Crimea",
        "operator:ru": "Почта Крыма",
        "operator:wikidata": "Q21193668",
        "operator:wikipedia": "ru:Почта Крыма"
      }
    },
    {
      "displayName": "Почта России",
      "id": "8e5a76-5789f0",
      "locationSet": {"include": ["ru"]},
      "matchNames": [
        "ао почта россии",
        "фгуп почта россии"
      ],
      "tags": {
        "amenity": "post_office",
        "brand": "Почта России",
        "brand:wikidata": "Q1502763",
        "brand:wikipedia": "ru:Почта России",
        "name": "Почта России",
        "operator": "Почта России",
        "operator:wikidata": "Q1502763",
        "operator:wikipedia": "ru:Почта России"
      }
    },
    {
      "displayName": "Пошта Србије",
      "id": "848860-6e4d23",
      "locationSet": {"include": ["rs"]},
      "tags": {
        "amenity": "post_office",
        "brand": "Пошта Србије",
        "brand:wikidata": "Q769311",
        "brand:wikipedia": "sr:Pošta Srbije",
        "name": "Пошта Србије",
        "operator": "Пошта Србије",
        "operator:wikidata": "Q769311",
        "operator:wikipedia": "sr:Pošta Srbije"
      }
    },
    {
      "displayName": "СДЭК",
      "id": "5ac048-5789f0",
      "locationSet": {"include": ["ru"]},
      "tags": {
        "amenity": "post_office",
        "brand": "СДЭК",
        "brand:wikidata": "Q28665980",
        "brand:wikipedia": "ru:СДЭК",
        "name": "СДЭК",
        "operator": "СДЭК",
        "operator:wikidata": "Q28665980",
        "operator:wikipedia": "ru:СДЭК"
      }
    },
    {
      "displayName": "Укрпошта",
      "id": "c8edb5-970b0c",
      "locationSet": {"include": ["ua"]},
      "matchNames": ["ат укрпошта"],
      "tags": {
        "amenity": "post_office",
        "brand": "Укрпошта",
        "brand:ru": "Укрпочта",
        "brand:uk": "Укрпошта",
        "brand:wikidata": "Q2470783",
        "brand:wikipedia": "uk:Укрпошта",
        "name": "Укрпошта",
        "name:ru": "Укрпочта",
        "name:uk": "Укрпошта",
        "operator": "Укрпошта",
        "operator:ru": "Укрпочта",
        "operator:uk": "Укрпошта",
        "operator:wikidata": "Q2470783",
        "operator:wikipedia": "uk:Укрпошта"
      }
    },
    {
      "displayName": "דואר ישראל",
      "id": "israelpostalcompany-74bc74",
      "locationSet": {"include": ["il"]},
      "tags": {
        "amenity": "post_office",
        "brand": "דואר ישראל",
        "brand:en": "Israel Postal Company",
        "brand:he": "דואר ישראל",
        "brand:wikidata": "Q671700",
        "brand:wikipedia": "he:דואר ישראל",
        "name": "דואר ישראל",
        "name:en": "Israel Postal Company",
        "name:he": "דואר ישראל",
        "operator": "דואר ישראל",
        "operator:en": "Israel Postal Company",
        "operator:he": "דואר ישראל",
        "operator:wikidata": "Q671700",
        "operator:wikipedia": "he:דואר ישראל"
      }
    },
    {
      "displayName": "البريد الإيراني",
      "id": "iranpost-05a404",
      "locationSet": {"include": ["ir"]},
      "tags": {
        "amenity": "post_office",
        "brand": "البريد الإيراني",
        "brand:ar": "البريد الإيراني",
        "brand:en": "Iran Post",
        "brand:wikidata": "Q6066851",
        "brand:wikipedia": "fa:شرکت ملی پست جمهوری اسلامی ایران",
        "name": "البريد الإيراني",
        "name:ar": "البريد الإيراني",
        "name:en": "Iran Post",
        "operator": "البريد الإيراني",
        "operator:ar": "البريد الإيراني",
        "operator:en": "Iran Post",
        "operator:wikidata": "Q6066851",
        "operator:wikipedia": "fa:شرکت ملی پست جمهوری اسلامی ایران"
      }
    },
    {
      "displayName": "우정사업본부",
      "id": "koreapost-168da6",
      "locationSet": {"include": ["kr"]},
      "tags": {
        "amenity": "post_office",
        "brand": "우정사업본부",
        "brand:en": "Korea Post",
        "brand:ko": "우정사업본부",
        "brand:wikidata": "Q483280",
        "brand:wikipedia": "ko:우정사업본부",
        "name": "우정사업본부",
        "name:en": "Korea Post",
        "name:ko": "우정사업본부",
        "operator": "우정사업본부",
        "operator:en": "Korea Post",
        "operator:ko": "우정사업본부",
        "operator:wikidata": "Q483280",
        "operator:wikipedia": "ko:우정사업본부"
      }
    },
    {
      "displayName": "ヤマト運輸",
      "id": "yamatotransport-0af292",
      "locationSet": {"include": ["jp"]},
      "tags": {
        "amenity": "post_office",
        "brand": "ヤマト運輸",
        "brand:en": "Yamato Transport",
        "brand:ja": "ヤマト運輸",
        "brand:wikidata": "Q6584353",
        "brand:wikipedia": "ja:ヤマト運輸",
        "name": "ヤマト運輸",
        "name:en": "Yamato Transport",
        "name:ja": "ヤマト運輸",
        "operator": "ヤマト運輸",
        "operator:en": "Yamato Transport",
        "operator:ja": "ヤマト運輸",
        "operator:wikidata": "Q6584353",
        "operator:wikipedia": "ja:ヤマト運輸"
      }
    },
    {
      "displayName": "中国邮政",
      "id": "chinapost-1c81b5",
      "locationSet": {"include": ["cn"]},
      "tags": {
        "amenity": "post_office",
        "brand": "中国邮政",
        "brand:en": "China Post",
        "brand:wikidata": "Q1066476",
        "brand:wikipedia": "en:China Post",
        "brand:zh": "中国邮政",
        "name": "中国邮政",
        "name:en": "China Post",
        "name:zh": "中国邮政",
        "operator": "中国邮政",
        "operator:en": "China Post",
        "operator:wikidata": "Q1066476",
        "operator:wikipedia": "en:China Post",
        "operator:zh": "中国邮政"
      }
    },
    {
      "displayName": "中華郵政",
      "id": "chunghwapost-feb726",
      "locationSet": {"include": ["tw"]},
      "matchNames": ["中華郵政公司", "中華郵政股份有限公司"],
      "tags": {
        "amenity": "post_office",
        "brand": "中華郵政",
        "brand:en": "Chunghwa Post",
        "brand:wikidata": "Q709259",
        "brand:wikipedia": "zh:中華郵政",
        "brand:zh": "中華郵政",
        "name": "中華郵政",
        "name:en": "Chunghwa Post",
        "name:zh": "中華郵政",
        "operator": "中華郵政",
        "operator:en": "Chunghwa Post",
        "operator:wikidata": "Q709259",
        "operator:wikipedia": "zh:中華郵政",
        "operator:zh": "中華郵政"
      }
    },
    {
      "displayName": "佐川急便",
      "id": "sagawaexpress-0af292",
      "locationSet": {"include": ["jp"]},
      "tags": {
        "amenity": "post_office",
        "brand": "佐川急便",
        "brand:en": "Sagawa Express",
        "brand:ja": "佐川急便",
        "brand:wikidata": "Q7399082",
        "brand:wikipedia": "ja:佐川急便",
        "name": "佐川急便",
        "name:en": "Sagawa Express",
        "name:ja": "佐川急便",
        "operator": "佐川急便",
        "operator:en": "Sagawa Express",
        "operator:ja": "佐川急便",
        "operator:wikidata": "Q7399082",
        "operator:wikipedia": "ja:佐川急便"
      }
    },
    {
      "displayName": "日本郵便",
      "id": "japanpost-0af292",
      "locationSet": {"include": ["jp"]},
      "matchNames": [
        "日本郵便株式会社",
        "日本郵政",
        "日本郵政グループ",
        "日本郵政株式会社"
      ],
      "tags": {
        "amenity": "post_office",
        "brand": "日本郵便",
        "brand:en": "Japan Post",
        "brand:ja": "日本郵便",
        "brand:wikidata": "Q11509260",
        "brand:wikipedia": "ja:日本郵便",
        "name": "日本郵便",
        "name:en": "Japan Post",
        "name:ja": "日本郵便",
        "operator": "日本郵便",
        "operator:en": "Japan Post",
        "operator:ja": "日本郵便",
        "operator:wikidata": "Q11509260",
        "operator:wikipedia": "ja:日本郵便",
        "short_name:en": "JP"
      }
    },
    {
      "displayName": "香港郵政 Hongkong Post",
      "id": "hongkongpost-c4c3b4",
      "locationSet": {"include": ["hk"]},
      "tags": {
        "amenity": "post_office",
        "brand": "香港郵政 Hongkong Post",
        "brand:en": "Hongkong Post",
        "brand:wikidata": "Q196631",
        "brand:wikipedia": "zh:香港郵政",
        "brand:zh": "香港郵政",
        "name": "香港郵政 Hongkong Post",
        "name:en": "Hongkong Post",
        "name:zh": "香港郵政",
        "operator": "香港郵政 Hongkong Post",
        "operator:en": "Hongkong Post",
        "operator:wikidata": "Q196631",
        "operator:wikipedia": "zh:香港郵政",
        "operator:zh": "香港郵政"
      }
    }
  ]
}
