{
  "properties": {
    "path": "operators/amenity/prison",
    "preserveTags": ["^name"],
    "exclude": {
      "generic": [
        "^(government|prison)$",
        "监狱管理局$"
      ]
    }
  },
  "items": [
    {
      "displayName": "Alabama Department of Corrections",
      "id": "alabamadepartmentofcorrections-d7c9d5",
      "locationSet": {
        "include": ["us-al.geojson"]
      },
      "matchNames": ["adoc"],
      "tags": {
        "amenity": "prison",
        "operator": "Alabama Department of Corrections",
        "operator:wikidata": "Q4705244"
      }
    },
    {
      "displayName": "Arkansas Department of Corrections",
      "id": "arkansasdepartmentofcorrections-079086",
      "locationSet": {
        "include": ["us-ar.geojson"]
      },
      "matchNames": [
        "adc",
        "arkansas department of correction"
      ],
      "tags": {
        "amenity": "prison",
        "operator": "Arkansas Department of Corrections",
        "operator:wikidata": "Q4791765"
      }
    },
    {
      "displayName": "Bermuda Department of Corrections",
      "id": "bermudadepartmentofcorrections-345f67",
      "locationSet": {"include": ["bm"]},
      "tags": {
        "amenity": "prison",
        "operator": "Bermuda Department of Corrections",
        "operator:type": "government",
        "operator:wikidata": "Q21015731"
      }
    },
    {
      "displayName": "Bureau of Jail Management and Penology",
      "id": "bureauofjailmanagementandpenology-9fb693",
      "locationSet": {"include": ["ph"]},
      "tags": {
        "amenity": "prison",
        "operator": "Bureau of Jail Management and Penology",
        "operator:wikidata": "Q17027213"
      }
    },
    {
      "displayName": "California Department of Corrections and Rehabilitation",
      "id": "californiadepartmentofcorrectionsandrehabilitation-8f7b9e",
      "locationSet": {
        "include": ["us-ca.geojson"]
      },
      "matchNames": ["cdcr"],
      "tags": {
        "amenity": "prison",
        "operator": "California Department of Corrections and Rehabilitation",
        "operator:wikidata": "Q5020415"
      }
    },
    {
      "displayName": "CoreCivic",
      "id": "corecivic-6535ca",
      "locationSet": {"include": ["us"]},
      "matchNames": [
        "cca",
        "corrections corporation of america"
      ],
      "tags": {
        "amenity": "prison",
        "operator": "CoreCivic",
        "operator:wikidata": "Q1135278"
      }
    },
    {
      "displayName": "Departamento de Administração Prisional",
      "id": "departamentodeadministracaoprisional-c44f42",
      "locationSet": {"include": ["br"]},
      "tags": {
        "amenity": "prison",
        "operator": "Departamento de Administração Prisional"
      }
    },
    {
      "displayName": "Department of Corrections",
      "id": "departmentofcorrections-1f32ed",
      "locationSet": {"include": ["nz"]},
      "matchNames": [
        "department of corrections new zealand",
        "new zealand department of corrections"
      ],
      "tags": {
        "amenity": "prison",
        "operator": "Department of Corrections",
        "operator:en": "Department of Corrections",
        "operator:mi": "Ara Poutama Aotearoa",
        "operator:wikidata": "Q5260217"
      }
    },
    {
      "displayName": "Direction de l'Administration pénitentiaire",
      "id": "directiondeladministrationpenitentiaire-3e48e3",
      "locationSet": {"include": ["fx"]},
      "matchNames": ["dap"],
      "tags": {
        "amenity": "prison",
        "operator": "Direction de l'Administration pénitentiaire",
        "operator:wikidata": "Q3029469"
      }
    },
    {
      "displayName": "Federal Bureau of Prisons",
      "id": "federalbureauofprisons-6535ca",
      "locationSet": {"include": ["us"]},
      "matchNames": ["bop", "fbop"],
      "tags": {
        "amenity": "prison",
        "operator": "Federal Bureau of Prisons",
        "operator:wikidata": "Q1400015"
      }
    },
    {
      "displayName": "Florida Department of Corrections",
      "id": "floridadepartmentofcorrections-59f3bf",
      "locationSet": {
        "include": ["us-fl.geojson"]
      },
      "tags": {
        "amenity": "prison",
        "operator": "Florida Department of Corrections",
        "operator:wikidata": "Q5461316"
      }
    },
    {
      "displayName": "Georgia Department of Corrections",
      "id": "georgiadepartmentofcorrections-c92cb0",
      "locationSet": {
        "include": ["us-ga.geojson"]
      },
      "matchNames": ["gdc"],
      "tags": {
        "amenity": "prison",
        "operator": "Georgia Department of Corrections",
        "operator:wikidata": "Q15571815"
      }
    },
    {
      "displayName": "His Majesty's Prison Service",
      "id": "hismajestysprisonservice-900d21",
      "locationSet": {
        "include": ["gb-eng", "gb-wls"]
      },
      "matchNames": [
        "her majestys prison service",
        "hmps"
      ],
      "tags": {
        "amenity": "prison",
        "operator": "His Majesty's Prison Service",
        "operator:type": "government",
        "operator:wikidata": "Q1607722"
      }
    },
    {
      "displayName": "IDOC",
      "id": "idahodepartmentofcorrection-e64a58",
      "locationSet": {
        "include": ["us-id.geojson"]
      },
      "matchNames": ["idoc"],
      "tags": {
        "amenity": "prison",
        "operator": "Idaho Department of Correction",
        "operator:wikidata": "Q5987349"
      }
    },
    {
      "displayName": "Illinois Department of Corrections",
      "id": "illinoisdepartmentofcorrections-ab530c",
      "locationSet": {
        "include": ["us-il.geojson"]
      },
      "matchNames": ["idoc"],
      "tags": {
        "amenity": "prison",
        "operator": "Illinois Department of Corrections",
        "operator:wikidata": "Q5999423"
      }
    },
    {
      "displayName": "Indiana Department of Correction",
      "id": "indianadepartmentofcorrection-910de5",
      "locationSet": {
        "include": ["us-in.geojson"]
      },
      "matchNames": ["idoc"],
      "tags": {
        "amenity": "prison",
        "operator": "Indiana Department of Correction",
        "operator:wikidata": "Q6023142"
      }
    },
    {
      "displayName": "Instituto Nacional Penitenciario",
      "id": "institutonacionalpenitenciario-e9927b",
      "locationSet": {"include": ["pe"]},
      "matchNames": [
        "inpe",
        "instituto nacional penitenciario del perú"
      ],
      "tags": {
        "amenity": "prison",
        "operator": "Instituto Nacional Penitenciario",
        "operator:wikidata": "Q6974856"
      }
    },
    {
      "displayName": "Irish Prison Service",
      "id": "irishprisonservice-324cac",
      "locationSet": {"include": ["ie"]},
      "matchNames": ["ips"],
      "tags": {
        "amenity": "prison",
        "operator": "Irish Prison Service",
        "operator:type": "government",
        "operator:wikidata": "Q6071108"
      }
    },
    {
      "displayName": "Kentucky Department of Corrections",
      "id": "kentuckydepartmentofcorrections-1153aa",
      "locationSet": {
        "include": ["us-ky.geojson"]
      },
      "tags": {
        "amenity": "prison",
        "operator": "Kentucky Department of Corrections",
        "operator:wikidata": "Q6392223"
      }
    },
    {
      "displayName": "Kriminalvården",
      "id": "kriminalvarden-363fe4",
      "locationSet": {"include": ["se"]},
      "tags": {
        "amenity": "prison",
        "operator": "Kriminalvården",
        "operator:wikidata": "Q7061065"
      }
    },
    {
      "displayName": "Ministerio de Justicia y Paz",
      "id": "ministeriodejusticiaypaz-e5ea62",
      "locationSet": {"include": ["cr"]},
      "matchNames": ["mjp"],
      "tags": {
        "amenity": "prison",
        "operator": "Ministerio de Justicia y Paz",
        "operator:wikidata": "Q28501092"
      }
    },
    {
      "displayName": "Ministero della Giustizia",
      "id": "ministerodellagiustizia-3a7478",
      "locationSet": {"include": ["001"]},
      "tags": {
        "amenity": "prison",
        "operator": "Ministero della Giustizia"
      }
    },
    {
      "displayName": "NDOC",
      "id": "nevadadepartmentofcorrections-fe3af9",
      "locationSet": {
        "include": ["us-nv.geojson"]
      },
      "matchNames": ["ndoc"],
      "tags": {
        "amenity": "prison",
        "operator": "Nevada Department of Corrections",
        "operator:wikidata": "Q7003410"
      }
    },
    {
      "displayName": "Northern Ireland Prison Service",
      "id": "northernirelandprisonservice-b47d33",
      "locationSet": {"include": ["gb-nir"]},
      "matchNames": ["nips"],
      "tags": {
        "amenity": "prison",
        "operator": "Northern Ireland Prison Service",
        "operator:type": "government",
        "operator:wikidata": "Q3015291"
      }
    },
    {
      "displayName": "Ohio Department of Rehabilitation and Correction",
      "id": "ohiodepartmentofrehabilitationandcorrection-367936",
      "locationSet": {
        "include": ["us-oh.geojson"]
      },
      "matchNames": ["drc", "odrc"],
      "tags": {
        "amenity": "prison",
        "operator": "Ohio Department of Rehabilitation and Correction",
        "operator:wikidata": "Q7080800"
      }
    },
    {
      "displayName": "Oregon DOC",
      "id": "oregondepartmentofcorrections-95714e",
      "locationSet": {
        "include": ["us-or.geojson"]
      },
      "matchNames": ["odoc"],
      "tags": {
        "amenity": "prison",
        "operator": "Oregon Department of Corrections",
        "operator:wikidata": "Q7101168"
      }
    },
    {
      "displayName": "Pennsylvania Department of Corrections",
      "id": "pennsylvaniadepartmentofcorrections-2d4209",
      "locationSet": {
        "include": ["us-pa.geojson"]
      },
      "matchNames": ["padoc"],
      "tags": {
        "amenity": "prison",
        "operator": "Pennsylvania Department of Corrections",
        "operator:wikidata": "Q7163705"
      }
    },
    {
      "displayName": "Scottish Prison Service",
      "id": "scottishprisonservice-7a6ad4",
      "locationSet": {"include": ["gb-sct"]},
      "matchNames": ["sps"],
      "tags": {
        "amenity": "prison",
        "operator": "Scottish Prison Service",
        "operator:type": "government",
        "operator:wikidata": "Q7437912"
      }
    },
    {
      "displayName": "Secretaria da Administração Penitenciária - Coordenadoria da Região Oeste do Estado",
      "id": "secretariadaadministracaopenitenciariacoordenadoriadaregiaooestedoestado-c44f42",
      "locationSet": {"include": ["br"]},
      "tags": {
        "amenity": "prison",
        "operator": "Secretaria da Administração Penitenciária - Coordenadoria da Região Oeste do Estado"
      }
    },
    {
      "displayName": "Secretaria da Segurança Pública do Estado de São Paulo",
      "id": "secretariadasegurancapublicadoestadodesaopaulo-c44f42",
      "locationSet": {"include": ["br"]},
      "tags": {
        "amenity": "prison",
        "operator": "Secretaria da Segurança Pública do Estado de São Paulo"
      }
    },
    {
      "displayName": "Tennessee Department of Correction",
      "id": "tennesseedepartmentofcorrection-438112",
      "locationSet": {
        "include": ["us-tn.geojson"]
      },
      "tags": {
        "amenity": "prison",
        "operator": "Tennessee Department of Correction",
        "operator:wikidata": "Q7700061"
      }
    },
    {
      "displayName": "Texas Department of Criminal Justice",
      "id": "texasdepartmentofcriminaljustice-024da5",
      "locationSet": {
        "include": ["us-tx.geojson"]
      },
      "matchNames": ["tdcj"],
      "tags": {
        "amenity": "prison",
        "operator": "Texas Department of Criminal Justice",
        "operator:wikidata": "Q3819598"
      }
    },
    {
      "displayName": "Texas Department of Criminal Justice Correctional Institutions Division",
      "id": "texasdepartmentofcriminaljusticecorrectionalinstitutionsdivision-024da5",
      "locationSet": {
        "include": ["us-tx.geojson"]
      },
      "tags": {
        "amenity": "prison",
        "operator": "Texas Department of Criminal Justice Correctional Institutions Division"
      }
    },
    {
      "displayName": "Virginia Department of Corrections",
      "id": "virginiadepartmentofcorrections-03430d",
      "locationSet": {
        "include": ["us-va.geojson"]
      },
      "matchNames": ["vadoc"],
      "tags": {
        "amenity": "prison",
        "operator": "Virginia Department of Corrections",
        "operator:wikidata": "Q3560672"
      }
    },
    {
      "displayName": "Washington State DOC",
      "id": "washingtonstatedepartmentofcorrections-c6fe94",
      "locationSet": {
        "include": ["us-wa.geojson"]
      },
      "matchNames": ["wadoc"],
      "tags": {
        "amenity": "prison",
        "operator": "Washington State Department of Corrections",
        "operator:wikidata": "Q861435"
      }
    },
    {
      "displayName": "Wisconsin Department of Corrections",
      "id": "wisconsindepartmentofcorrections-d538ac",
      "locationSet": {
        "include": ["us-wi.geojson"]
      },
      "matchNames": ["widoc"],
      "tags": {
        "amenity": "prison",
        "operator": "Wisconsin Department of Corrections",
        "operator:wikidata": "Q8027155"
      }
    },
    {
      "displayName": "Zbor väzenskej a justičnej stráže",
      "id": "zborvazenskejajusticnejstraze-c449b6",
      "locationSet": {"include": ["sk"]},
      "tags": {
        "amenity": "prison",
        "operator": "Zbor väzenskej a justičnej stráže",
        "operator:wikidata": "Q12779324"
      }
    },
    {
      "displayName": "ГУФСИН России по Свердловской области",
      "id": "3ae78b-a0aec7",
      "locationSet": {"include": ["ru"]},
      "tags": {
        "amenity": "prison",
        "operator": "ГУФСИН России по Свердловской области"
      }
    },
    {
      "displayName": "УФСИН по Тюменской области",
      "id": "51f30f-a0aec7",
      "locationSet": {"include": ["ru"]},
      "tags": {
        "amenity": "prison",
        "operator": "УФСИН по Тюменской области"
      }
    },
    {
      "displayName": "УФСИН России по Московской области",
      "id": "2c0ae1-a0aec7",
      "locationSet": {"include": ["ru"]},
      "tags": {
        "amenity": "prison",
        "operator": "УФСИН России по Московской области"
      }
    },
    {
      "displayName": "УФСИН России по Оренбургской области",
      "id": "7e79a9-a0aec7",
      "locationSet": {"include": ["ru"]},
      "tags": {
        "amenity": "prison",
        "operator": "УФСИН России по Оренбургской области"
      }
    },
    {
      "displayName": "УФСИН России по Республике Мордовия",
      "id": "347787-a0aec7",
      "locationSet": {"include": ["ru"]},
      "tags": {
        "amenity": "prison",
        "operator": "УФСИН России по Республике Мордовия"
      }
    },
    {
      "displayName": "УФСИН России по Удмуртской Республике",
      "id": "ac7222-a0aec7",
      "locationSet": {"include": ["ru"]},
      "tags": {
        "amenity": "prison",
        "operator": "УФСИН России по Удмуртской Республике"
      }
    }
  ]
}
