{
  "properties": {
    "path": "operators/amenity/recycling",
    "exclude": {
      "generic": [
        "^(altglascontainer|bauhof|biotonne|glascontainer|häckselplatz|recyclinghof|wertstoffhof)$",
        "^containere textile$",
        "^d[ée]ch[èe]tt?erie$",
        "^illegal$",
        "^public$",
        "^recycling$",
        "^verre$",
        "^waste management$",
        "^سطل زباله$"
      ]
    }
  },
  "items": [
    {
      "displayName": "Aamps",
      "id": "aamps-94eaae",
      "locationSet": {"include": ["it"]},
      "tags": {
        "amenity": "recycling",
        "operator": "Aamps"
      }
    },
    {
      "displayName": "Ab Ekorosk Oy",
      "id": "abekoroskoy-3e65e0",
      "locationSet": {"include": ["fi"]},
      "tags": {
        "amenity": "recycling",
        "operator": "Ab Ekorosk Oy"
      }
    },
    {
      "displayName": "Aberdeenshire Council",
      "id": "aberdeenshirecouncil-9fa0da",
      "locationSet": {"include": ["gb-sct"]},
      "tags": {
        "amenity": "recycling",
        "operator": "Aberdeenshire Council",
        "operator:wikidata": "Q13194614"
      }
    },
    {
      "displayName": "Abfall- und Wertstofflogistik Neuss GmbH (AWL)",
      "id": "abfallundwertstofflogistikneussgmbhawl-15b788",
      "locationSet": {
        "include": ["de-nw.geojson"]
      },
      "tags": {
        "amenity": "recycling",
        "operator": "Abfall- und Wertstofflogistik Neuss GmbH (AWL)"
      }
    },
    {
      "displayName": "Abfallwirtschaft Dithmarschen",
      "id": "abfallwirtschaftdithmarschen-079fb7",
      "locationSet": {
        "include": ["de-sh.geojson"]
      },
      "tags": {
        "amenity": "recycling",
        "operator": "Abfallwirtschaft Dithmarschen"
      }
    },
    {
      "displayName": "Abfallwirtschaft Landkreis Böblingen",
      "id": "abfallwirtschaftlandkreisboblingen-fd14c2",
      "locationSet": {
        "include": ["de-bw.geojson"]
      },
      "tags": {
        "amenity": "recycling",
        "operator": "Abfallwirtschaft Landkreis Böblingen"
      }
    },
    {
      "displayName": "Abfallwirtschaftsbetrieb Böblingen",
      "id": "abfallwirtschaftsbetriebboblingen-fd14c2",
      "locationSet": {
        "include": ["de-bw.geojson"]
      },
      "tags": {
        "amenity": "recycling",
        "operator": "Abfallwirtschaftsbetrieb Böblingen"
      }
    },
    {
      "displayName": "Abfallwirtschaftsbetrieb München",
      "id": "abfallwirtschaftsbetriebmunchen-4fb837",
      "locationSet": {
        "include": ["de-by.geojson"]
      },
      "tags": {
        "amenity": "recycling",
        "operator": "Abfallwirtschaftsbetrieb München",
        "operator:short": "AWM",
        "operator:wikidata": "Q319971"
      }
    },
    {
      "displayName": "Abfallwirtschaftsbetriebe Köln",
      "id": "abfallwirtschaftsbetriebekoln-15b788",
      "locationSet": {
        "include": ["de-nw.geojson"]
      },
      "matchNames": ["awb köln"],
      "tags": {
        "amenity": "recycling",
        "operator": "Abfallwirtschaftsbetriebe Köln",
        "operator:short": "AWB"
      }
    },
    {
      "displayName": "Abfallwirtschaftsbetriebe Münster",
      "id": "abfallwirtschaftsbetriebemunster-15b788",
      "locationSet": {
        "include": ["de-nw.geojson"]
      },
      "tags": {
        "amenity": "recycling",
        "operator": "Abfallwirtschaftsbetriebe Münster",
        "operator:short": "AWM"
      }
    },
    {
      "displayName": "Abfallwirtschaftsgesellschaft Bassum",
      "id": "abfallwirtschaftsgesellschaftbassum-7d4127",
      "locationSet": {
        "include": ["de-ni.geojson"]
      },
      "matchNames": ["awg bassum"],
      "tags": {
        "amenity": "recycling",
        "operator": "Abfallwirtschaftsgesellschaft Bassum",
        "operator:short": "AWG",
        "operator:wikidata": "Q51656091"
      }
    },
    {
      "displayName": "Abfallwirtschaftsgesellschaft Wuppertal",
      "id": "abfallwirtschaftsgesellschaftwuppertal-15b788",
      "locationSet": {
        "include": ["de-nw.geojson"]
      },
      "tags": {
        "amenity": "recycling",
        "operator": "Abfallwirtschaftsgesellschaft Wuppertal",
        "operator:short": "AWG",
        "operator:wikidata": "Q23787400"
      }
    },
    {
      "displayName": "ABV Kreis Viersen",
      "id": "abvkreisviersen-15b788",
      "locationSet": {
        "include": ["de-nw.geojson"]
      },
      "tags": {
        "amenity": "recycling",
        "operator": "ABV Kreis Viersen"
      }
    },
    {
      "displayName": "ABV Kreis Viersen, Stadt Viersen",
      "id": "abvkreisviersenstadtviersen-15b788",
      "locationSet": {
        "include": ["de-nw.geojson"]
      },
      "tags": {
        "amenity": "recycling",
        "operator": "ABV Kreis Viersen, Stadt Viersen"
      }
    },
    {
      "displayName": "Acea Pinerolese Industriale Spa",
      "id": "aceapineroleseindustrialespa-94eaae",
      "locationSet": {"include": ["it"]},
      "tags": {
        "amenity": "recycling",
        "operator": "Acea Pinerolese Industriale Spa"
      }
    },
    {
      "displayName": "AcegasApsAmga",
      "id": "acegasapsamga-94eaae",
      "locationSet": {"include": ["it"]},
      "tags": {
        "amenity": "recycling",
        "operator": "AcegasApsAmga"
      }
    },
    {
      "displayName": "Actifrip",
      "id": "actifrip-59e4c1",
      "locationSet": {"include": ["fx"]},
      "tags": {
        "amenity": "recycling",
        "operator": "Actifrip"
      }
    },
    {
      "displayName": "AHE",
      "id": "ahe-15b788",
      "locationSet": {
        "include": ["de-nw.geojson"]
      },
      "tags": {
        "amenity": "recycling",
        "operator": "AHE"
      }
    },
    {
      "displayName": "Ajonc",
      "id": "ajonc-59e4c1",
      "locationSet": {"include": ["fx"]},
      "tags": {
        "amenity": "recycling",
        "operator": "Ajonc"
      }
    },
    {
      "displayName": "Ajuntament de Barcelona",
      "id": "ajuntamentdebarcelona-49dabd",
      "locationSet": {"include": ["es"]},
      "tags": {
        "amenity": "recycling",
        "operator": "Ajuntament de Barcelona"
      }
    },
    {
      "displayName": "Ajuntament de Beniarbeig",
      "id": "ajuntamentdebeniarbeig-49dabd",
      "locationSet": {"include": ["es"]},
      "tags": {
        "amenity": "recycling",
        "operator": "Ajuntament de Beniarbeig"
      }
    },
    {
      "displayName": "Ajuntament de Riba-roja de Túria",
      "id": "ajuntamentderibarojadeturia-49dabd",
      "locationSet": {"include": ["es"]},
      "tags": {
        "amenity": "recycling",
        "operator": "Ajuntament de Riba-roja de Túria"
      }
    },
    {
      "displayName": "Ajuntament de Santa Coloma de Cervelló",
      "id": "ajuntamentdesantacolomadecervello-49dabd",
      "locationSet": {"include": ["es"]},
      "tags": {
        "amenity": "recycling",
        "operator": "Ajuntament de Santa Coloma de Cervelló"
      }
    },
    {
      "displayName": "Ajuntament de Santa Coloma de Gramenet",
      "id": "ajuntamentdesantacolomadegramenet-49dabd",
      "locationSet": {"include": ["es"]},
      "tags": {
        "amenity": "recycling",
        "operator": "Ajuntament de Santa Coloma de Gramenet"
      }
    },
    {
      "displayName": "Ajuntament Sant Boi de Llobregat",
      "id": "ajuntamentsantboidellobregat-49dabd",
      "locationSet": {"include": ["es"]},
      "tags": {
        "amenity": "recycling",
        "operator": "Ajuntament Sant Boi de Llobregat"
      }
    },
    {
      "displayName": "Aktex Rohstoff-Recycling Nord",
      "id": "aktexrohstoffrecyclingnord-6737d9",
      "locationSet": {"include": ["de"]},
      "tags": {
        "amenity": "recycling",
        "operator": "Aktex Rohstoff-Recycling Nord"
      }
    },
    {
      "displayName": "Aktion Friedensdorf",
      "id": "aktionfriedensdorf-6737d9",
      "locationSet": {"include": ["de"]},
      "tags": {
        "amenity": "recycling",
        "operator": "Aktion Friedensdorf"
      }
    },
    {
      "displayName": "Aktion Hoffnung",
      "id": "aktionhoffnung-6737d9",
      "locationSet": {"include": ["de"]},
      "tags": {
        "amenity": "recycling",
        "operator": "Aktion Hoffnung"
      }
    },
    {
      "displayName": "Alba",
      "id": "alba-6737d9",
      "locationSet": {"include": ["de"]},
      "matchNames": ["alba ag"],
      "tags": {
        "amenity": "recycling",
        "operator": "Alba",
        "operator:wikidata": "Q294349"
      }
    },
    {
      "displayName": "ALBA Braunschweig GmbH",
      "id": "albabraunschweiggmbh-7d4127",
      "locationSet": {
        "include": ["de-ni.geojson"]
      },
      "tags": {
        "amenity": "recycling",
        "operator": "ALBA Braunschweig GmbH"
      }
    },
    {
      "displayName": "Algar",
      "id": "algar-416028",
      "locationSet": {"include": ["pt"]},
      "tags": {
        "amenity": "recycling",
        "operator": "Algar"
      }
    },
    {
      "displayName": "Alia",
      "id": "alia-94eaae",
      "locationSet": {"include": ["it"]},
      "tags": {
        "amenity": "recycling",
        "operator": "Alia"
      }
    },
    {
      "displayName": "Alisea S.p.A.",
      "id": "aliseaspa-94eaae",
      "locationSet": {"include": ["it"]},
      "tags": {
        "amenity": "recycling",
        "operator": "Alisea S.p.A."
      }
    },
    {
      "displayName": "Alphen aan den Rijn",
      "id": "alphenaandenrijn-fcd61b",
      "locationSet": {"include": ["nl"]},
      "tags": {
        "amenity": "recycling",
        "operator": "Alphen aan den Rijn"
      }
    },
    {
      "displayName": "AMA (Roma)",
      "id": "ama-94eaae",
      "locationSet": {"include": ["it"]},
      "tags": {
        "amenity": "recycling",
        "operator": "AMA",
        "operator:wikidata": "Q3631446"
      }
    },
    {
      "displayName": "Amiu (Genova)",
      "id": "amiu-94eaae",
      "locationSet": {"include": ["it"]},
      "tags": {
        "amenity": "recycling",
        "operator": "Amiu"
      }
    },
    {
      "displayName": "AMOS",
      "id": "amos-59e4c1",
      "locationSet": {"include": ["fx"]},
      "tags": {
        "amenity": "recycling",
        "operator": "AMOS"
      }
    },
    {
      "displayName": "Apivet",
      "id": "apivet-59e4c1",
      "locationSet": {"include": ["fx"]},
      "tags": {
        "amenity": "recycling",
        "operator": "Apivet"
      }
    },
    {
      "displayName": "APS (Padova)",
      "id": "aps-94eaae",
      "locationSet": {"include": ["it"]},
      "tags": {
        "amenity": "recycling",
        "operator": "APS"
      }
    },
    {
      "displayName": "AREA",
      "id": "area-91c985",
      "locationSet": {"include": ["001"]},
      "tags": {
        "amenity": "recycling",
        "operator": "AREA"
      }
    },
    {
      "displayName": "Área Limpia",
      "id": "arealimpia-e0bb67",
      "locationSet": {"include": ["co"]},
      "tags": {
        "amenity": "recycling",
        "operator": "Área Limpia"
      }
    },
    {
      "displayName": "Asekol",
      "id": "asekol-91c985",
      "locationSet": {"include": ["001"]},
      "tags": {
        "amenity": "recycling",
        "operator": "Asekol"
      }
    },
    {
      "displayName": "ASEKOL PL",
      "id": "asekolpl-f1a5a5",
      "locationSet": {"include": ["pl"]},
      "tags": {
        "amenity": "recycling",
        "operator": "ASEKOL PL"
      }
    },
    {
      "displayName": "ASIA",
      "id": "asia-94eaae",
      "locationSet": {"include": ["it"]},
      "tags": {
        "amenity": "recycling",
        "operator": "ASIA"
      }
    },
    {
      "displayName": "association Jardin de Traverse",
      "id": "associationjardindetraverse-59e4c1",
      "locationSet": {"include": ["fx"]},
      "tags": {
        "amenity": "recycling",
        "operator": "association Jardin de Traverse"
      }
    },
    {
      "displayName": "Astral (Toronto)",
      "id": "astral-6d7601",
      "locationSet": {"include": ["ca"]},
      "tags": {
        "amenity": "recycling",
        "operator": "Astral"
      }
    },
    {
      "displayName": "Atrium Optima",
      "id": "atriumoptima-d6ea52",
      "locationSet": {"include": ["sk"]},
      "tags": {
        "amenity": "recycling",
        "operator": "Atrium Optima"
      }
    },
    {
      "displayName": "Attiva (Pescara)",
      "id": "attiva-94eaae",
      "locationSet": {"include": ["it"]},
      "tags": {
        "amenity": "recycling",
        "operator": "Attiva"
      }
    },
    {
      "displayName": "Avalex",
      "id": "avalex-fcd61b",
      "locationSet": {"include": ["nl"]},
      "tags": {
        "amenity": "recycling",
        "operator": "Avalex",
        "operator:wikidata": "Q58477507"
      }
    },
    {
      "displayName": "AVE",
      "id": "ave-778b5b",
      "locationSet": {"include": ["cz"]},
      "tags": {
        "amenity": "recycling",
        "operator": "AVE"
      }
    },
    {
      "displayName": "AVEA (Leverkusen)",
      "id": "avea-15b788",
      "locationSet": {
        "include": ["de-nw.geojson"]
      },
      "tags": {
        "amenity": "recycling",
        "operator": "AVEA"
      }
    },
    {
      "displayName": "Avri",
      "id": "avri-fcd61b",
      "locationSet": {"include": ["nl"]},
      "tags": {
        "amenity": "recycling",
        "operator": "Avri",
        "operator:wikidata": "Q58225764"
      }
    },
    {
      "displayName": "AWISTA (Düsseldorf)",
      "id": "awista-15b788",
      "locationSet": {
        "include": ["de-nw.geojson"]
      },
      "matchNames": ["awista gmbh"],
      "tags": {
        "amenity": "recycling",
        "operator": "AWISTA"
      }
    },
    {
      "displayName": "AWISTA (Starnberg)",
      "id": "awista-4fb837",
      "locationSet": {
        "include": ["de-by.geojson"]
      },
      "tags": {
        "amenity": "recycling",
        "operator": "AWISTA"
      }
    },
    {
      "displayName": "AWU Abfallwirtschafts-Union Oberhavel GmbH",
      "id": "awuabfallwirtschaftsunionoberhavelgmbh-5a52cc",
      "locationSet": {
        "include": ["de-bb.geojson"]
      },
      "tags": {
        "amenity": "recycling",
        "operator": "AWU Abfallwirtschafts-Union Oberhavel GmbH"
      }
    },
    {
      "displayName": "AWU Logistik OPR GmbH",
      "id": "awulogistikoprgmbh-5a52cc",
      "locationSet": {
        "include": ["de-bb.geojson"]
      },
      "tags": {
        "amenity": "recycling",
        "operator": "AWU Logistik OPR GmbH"
      }
    },
    {
      "displayName": "Ayto Villarcayo MCV",
      "id": "aytovillarcayomcv-49dabd",
      "locationSet": {"include": ["es"]},
      "tags": {
        "amenity": "recycling",
        "operator": "Ayto Villarcayo MCV"
      }
    },
    {
      "displayName": "Ayuntamiento de Albacete",
      "id": "ayuntamientodealbacete-49dabd",
      "locationSet": {"include": ["es"]},
      "tags": {
        "amenity": "recycling",
        "operator": "Ayuntamiento de Albacete"
      }
    },
    {
      "displayName": "Ayuntamiento de Madrid",
      "id": "ayuntamientodemadrid-91c985",
      "locationSet": {"include": ["001"]},
      "tags": {
        "amenity": "recycling",
        "operator": "Ayuntamiento de Madrid"
      }
    },
    {
      "displayName": "Ayuntamiento de Majadahonda",
      "id": "ayuntamientodemajadahonda-49dabd",
      "locationSet": {"include": ["es"]},
      "tags": {
        "amenity": "recycling",
        "operator": "Ayuntamiento de Majadahonda"
      }
    },
    {
      "displayName": "Ayuntamiento de Málaga",
      "id": "ayuntamientodemalaga-49dabd",
      "locationSet": {"include": ["es"]},
      "tags": {
        "amenity": "recycling",
        "operator": "Ayuntamiento de Málaga"
      }
    },
    {
      "displayName": "Ayuntamiento de Villarcayo MCV",
      "id": "ayuntamientodevillarcayomcv-49dabd",
      "locationSet": {"include": ["es"]},
      "tags": {
        "amenity": "recycling",
        "operator": "Ayuntamiento de Villarcayo MCV"
      }
    },
    {
      "displayName": "Baliz Textilwerke",
      "id": "baliztextilwerke-6737d9",
      "locationSet": {"include": ["de"]},
      "matchNames": ["baliz"],
      "tags": {
        "amenity": "recycling",
        "operator": "Baliz Textilwerke"
      }
    },
    {
      "displayName": "Bartow County",
      "id": "bartowcounty-624e31",
      "locationSet": {"include": ["us"]},
      "tags": {
        "amenity": "recycling",
        "operator": "Bartow County"
      }
    },
    {
      "displayName": "Bassin de Pompey",
      "id": "bassindepompey-59e4c1",
      "locationSet": {"include": ["fx"]},
      "tags": {
        "amenity": "recycling",
        "operator": "Bassin de Pompey"
      }
    },
    {
      "displayName": "Berlin-Textilrecycling",
      "id": "berlintextilrecycling-10028e",
      "locationSet": {
        "include": ["de-be.geojson"]
      },
      "tags": {
        "amenity": "recycling",
        "operator": "Berlin-Textilrecycling"
      }
    },
    {
      "displayName": "Berliner Stadtreinigungsbetriebe",
      "id": "berlinerstadtreinigungsbetriebe-10028e",
      "locationSet": {
        "include": ["de-be.geojson"]
      },
      "tags": {
        "amenity": "recycling",
        "operator": "Berliner Stadtreinigungsbetriebe",
        "operator:short": "BSR",
        "operator:wikidata": "Q733237"
      }
    },
    {
      "displayName": "Bethel",
      "id": "bethel-6737d9",
      "locationSet": {"include": ["de"]},
      "tags": {
        "amenity": "recycling",
        "operator": "Bethel"
      }
    },
    {
      "displayName": "Bil Ta Garbi",
      "id": "biltagarbi-59e4c1",
      "locationSet": {"include": ["fx"]},
      "tags": {
        "amenity": "recycling",
        "operator": "Bil Ta Garbi"
      }
    },
    {
      "displayName": "BIR",
      "id": "bir-3e1966",
      "locationSet": {"include": ["no"]},
      "tags": {
        "amenity": "recycling",
        "operator": "BIR"
      }
    },
    {
      "displayName": "bonnorange AöR",
      "id": "bonnorangeaor-15b788",
      "locationSet": {
        "include": ["de-nw.geojson"]
      },
      "tags": {
        "amenity": "recycling",
        "operator": "bonnorange AöR"
      }
    },
    {
      "displayName": "Bordeaux Métropole",
      "id": "bordeauxmetropole-59e4c1",
      "locationSet": {"include": ["fx"]},
      "tags": {
        "amenity": "recycling",
        "operator": "Bordeaux Métropole"
      }
    },
    {
      "displayName": "Bowling Green State University",
      "id": "bowlinggreenstateuniversity-624e31",
      "locationSet": {"include": ["us"]},
      "tags": {
        "amenity": "recycling",
        "operator": "Bowling Green State University"
      }
    },
    {
      "displayName": "BRF Norra Guldheden Nr 1",
      "id": "brfnorraguldhedennr1-91c985",
      "locationSet": {"include": ["001"]},
      "tags": {
        "amenity": "recycling",
        "operator": "BRF Norra Guldheden Nr 1"
      }
    },
    {
      "displayName": "Brighton & Hove City Council",
      "id": "brightonandhovecitycouncil-7c7e43",
      "locationSet": {"include": ["gb-eng"]},
      "tags": {
        "amenity": "recycling",
        "operator": "Brighton & Hove City Council",
        "operator:wikidata": "Q16953725"
      }
    },
    {
      "displayName": "British Heart Foundation",
      "id": "britishheartfoundation-79fa96",
      "locationSet": {"include": ["gb"]},
      "matchNames": ["bhf"],
      "tags": {
        "amenity": "recycling",
        "operator": "British Heart Foundation",
        "operator:wikidata": "Q4970039"
      }
    },
    {
      "displayName": "Brotex",
      "id": "brotex-15b788",
      "locationSet": {
        "include": ["de-nw.geojson"]
      },
      "tags": {
        "amenity": "recycling",
        "operator": "Brotex"
      }
    },
    {
      "displayName": "Bruxelles Environnement - Leefmilieu Brussel",
      "id": "bruxellesenvironnementleefmilieubrussel-980be7",
      "locationSet": {"include": ["be"]},
      "tags": {
        "amenity": "recycling",
        "operator": "Bruxelles Environnement - Leefmilieu Brussel"
      }
    },
    {
      "displayName": "Bruxelles-Propreté - Net Brussel",
      "id": "bruxellespropretenetbrussel-980be7",
      "locationSet": {"include": ["be"]},
      "tags": {
        "amenity": "recycling",
        "operator": "Bruxelles-Propreté - Net Brussel"
      }
    },
    {
      "displayName": "CACL",
      "id": "cacl-011ab0",
      "locationSet": {"include": ["gy"]},
      "tags": {
        "amenity": "recycling",
        "operator": "CACL"
      }
    },
    {
      "displayName": "Câmara Municipal de Lisboa",
      "id": "camaramunicipaldelisboa-416028",
      "locationSet": {"include": ["pt"]},
      "tags": {
        "amenity": "recycling",
        "operator": "Câmara Municipal de Lisboa"
      }
    },
    {
      "displayName": "Cannone",
      "id": "cannone-94eaae",
      "locationSet": {"include": ["it"]},
      "tags": {
        "amenity": "recycling",
        "operator": "Cannone"
      }
    },
    {
      "displayName": "Cannone srl",
      "id": "cannonesrl-91c985",
      "locationSet": {"include": ["001"]},
      "tags": {
        "amenity": "recycling",
        "operator": "Cannone srl"
      }
    },
    {
      "displayName": "Caritas Ambrosiana",
      "id": "caritasambrosiana-94eaae",
      "locationSet": {"include": ["it"]},
      "tags": {
        "amenity": "recycling",
        "operator": "Caritas Ambrosiana"
      }
    },
    {
      "displayName": "Cavtex",
      "id": "cavtex-10028e",
      "locationSet": {
        "include": ["de-be.geojson"]
      },
      "tags": {
        "amenity": "recycling",
        "operator": "Cavtex"
      }
    },
    {
      "displayName": "CCPOP",
      "id": "ccpop-59e4c1",
      "locationSet": {"include": ["fx"]},
      "tags": {
        "amenity": "recycling",
        "operator": "CCPOP"
      }
    },
    {
      "displayName": "CCPRO",
      "id": "ccpro-59e4c1",
      "locationSet": {"include": ["fx"]},
      "tags": {
        "amenity": "recycling",
        "operator": "CCPRO"
      }
    },
    {
      "displayName": "CCTVI",
      "id": "cctvi-59e4c1",
      "locationSet": {"include": ["fx"]},
      "tags": {
        "amenity": "recycling",
        "operator": "CCTVI"
      }
    },
    {
      "displayName": "CCVCD",
      "id": "ccvcd-59e4c1",
      "locationSet": {"include": ["fx"]},
      "tags": {
        "amenity": "recycling",
        "operator": "CCVCD"
      }
    },
    {
      "displayName": "CenterParcs",
      "id": "centerparcs-6ff6f4",
      "locationSet": {
        "include": ["be", "de", "fx", "nl"]
      },
      "tags": {
        "amenity": "recycling",
        "operator": "CenterParcs",
        "operator:wikidata": "Q448083"
      }
    },
    {
      "displayName": "Charlieu-Belmont Communauté",
      "id": "charlieubelmontcommunaute-59e4c1",
      "locationSet": {"include": ["fx"]},
      "tags": {
        "amenity": "recycling",
        "operator": "Charlieu-Belmont Communauté"
      }
    },
    {
      "displayName": "Chrysalide Ressourcerie",
      "id": "chrysalideressourcerie-59e4c1",
      "locationSet": {"include": ["fx"]},
      "tags": {
        "amenity": "recycling",
        "operator": "Chrysalide Ressourcerie"
      }
    },
    {
      "displayName": "Circulus",
      "id": "circulus-fcd61b",
      "locationSet": {"include": ["nl"]},
      "tags": {
        "amenity": "recycling",
        "operator": "Circulus",
        "operator:wikidata": "Q58225800"
      }
    },
    {
      "displayName": "Citeo",
      "id": "citeo-59e4c1",
      "locationSet": {"include": ["fx"]},
      "tags": {
        "amenity": "recycling",
        "operator": "Citeo",
        "operator:wikidata": "Q60846010"
      }
    },
    {
      "displayName": "City Green Point Deutschland GmbH",
      "id": "citygreenpointdeutschlandgmbh-6737d9",
      "locationSet": {"include": ["de"]},
      "tags": {
        "amenity": "recycling",
        "operator": "City Green Point Deutschland GmbH"
      }
    },
    {
      "displayName": "City of Boston Public Works",
      "id": "cityofbostonpublicworks-624e31",
      "locationSet": {"include": ["us"]},
      "tags": {
        "amenity": "recycling",
        "operator": "City of Boston Public Works"
      }
    },
    {
      "displayName": "City of Denton",
      "id": "cityofdenton-5c5465",
      "locationSet": {
        "include": ["us-tx.geojson"]
      },
      "tags": {
        "amenity": "recycling",
        "operator": "City of Denton"
      }
    },
    {
      "displayName": "City of Edinburgh Council",
      "id": "cityofedinburghcouncil-9fa0da",
      "locationSet": {"include": ["gb-sct"]},
      "tags": {
        "amenity": "recycling",
        "operator": "City of Edinburgh Council",
        "operator:wikidata": "Q28530250"
      }
    },
    {
      "displayName": "City of Lawrence",
      "id": "cityoflawrence-d780f0",
      "locationSet": {
        "include": ["us-ks.geojson"]
      },
      "tags": {
        "amenity": "recycling",
        "operator": "City of Lawrence"
      }
    },
    {
      "displayName": "City of Vaughan",
      "id": "cityofvaughan-d16161",
      "locationSet": {
        "include": ["ca-on.geojson"]
      },
      "tags": {
        "amenity": "recycling",
        "operator": "City of Vaughan"
      }
    },
    {
      "displayName": "CityGreenPoint",
      "id": "citygreenpoint-fcd61b",
      "locationSet": {"include": ["nl"]},
      "tags": {
        "amenity": "recycling",
        "operator": "CityGreenPoint"
      }
    },
    {
      "displayName": "CityGreenPoint Deutschland",
      "id": "citygreenpointdeutschland-6737d9",
      "locationSet": {"include": ["de"]},
      "matchNames": ["citygreenpoint"],
      "tags": {
        "amenity": "recycling",
        "operator": "CityGreenPoint Deutschland"
      }
    },
    {
      "displayName": "Clermont Auvergne Métropole",
      "id": "clermontauvergnemetropole-59e4c1",
      "locationSet": {"include": ["fx"]},
      "tags": {
        "amenity": "recycling",
        "operator": "Clermont Auvergne Métropole"
      }
    },
    {
      "displayName": "Clisson Sèvre et Maine Agglo",
      "id": "clissonsevreetmaineagglo-59e4c1",
      "locationSet": {"include": ["fx"]},
      "tags": {
        "amenity": "recycling",
        "operator": "Clisson Sèvre et Maine Agglo"
      }
    },
    {
      "displayName": "Club de Huella Ecológica",
      "id": "clubdehuellaecologica-d0f14c",
      "locationSet": {"include": ["ar"]},
      "tags": {
        "amenity": "recycling",
        "operator": "Club de Huella Ecológica"
      }
    },
    {
      "displayName": "Cogersa",
      "id": "cogersa-49dabd",
      "locationSet": {"include": ["es"]},
      "tags": {
        "amenity": "recycling",
        "operator": "Cogersa"
      }
    },
    {
      "displayName": "Coliba",
      "id": "coliba-435f0b",
      "locationSet": {"include": ["gh"]},
      "tags": {
        "amenity": "recycling",
        "operator": "Coliba"
      }
    },
    {
      "displayName": "COLLECTIVITE TERRITORIALE DE SAINT MARTIN - CORBEILLES DE TRI SELECTIF",
      "id": "collectiviteterritorialedesaintmartincorbeillesdetriselectif-ce9522",
      "locationSet": {"include": ["mf"]},
      "tags": {
        "amenity": "recycling",
        "operator": "COLLECTIVITE TERRITORIALE DE SAINT MARTIN - CORBEILLES DE TRI SELECTIF"
      }
    },
    {
      "displayName": "COLLECTIVITE TERRITORIALE DE SAINT MARTIN - CORBEILLES DE TRI SELECTIF DCV",
      "id": "collectiviteterritorialedesaintmartincorbeillesdetriselectifdcv-ce9522",
      "locationSet": {"include": ["mf"]},
      "tags": {
        "amenity": "recycling",
        "operator": "COLLECTIVITE TERRITORIALE DE SAINT MARTIN - CORBEILLES DE TRI SELECTIF DCV"
      }
    },
    {
      "displayName": "Communauté d'Agglomération du Cotentin",
      "id": "communautedagglomerationducotentin-59e4c1",
      "locationSet": {"include": ["fx"]},
      "tags": {
        "amenity": "recycling",
        "operator": "Communauté d'Agglomération du Cotentin"
      }
    },
    {
      "displayName": "Communauté d'agglomération Pays Basque",
      "id": "communautedagglomerationpaysbasque-91c985",
      "locationSet": {"include": ["001"]},
      "tags": {
        "amenity": "recycling",
        "operator": "Communauté d'agglomération Pays Basque"
      }
    },
    {
      "displayName": "Communauté de Communes Alpes Provence Verdon, Sources de Lumières",
      "id": "communautedecommunesalpesprovenceverdonsourcesdelumieres-59e4c1",
      "locationSet": {"include": ["fx"]},
      "tags": {
        "amenity": "recycling",
        "operator": "Communauté de Communes Alpes Provence Verdon, Sources de Lumières"
      }
    },
    {
      "displayName": "Communauté de communes des Pays du Sel et du Vermois",
      "id": "communautedecommunesdespaysduseletduvermois-59e4c1",
      "locationSet": {"include": ["fx"]},
      "tags": {
        "amenity": "recycling",
        "operator": "Communauté de communes des Pays du Sel et du Vermois"
      }
    },
    {
      "displayName": "Communauté de communes du Grand Pontarlier",
      "id": "communautedecommunesdugrandpontarlier-59e4c1",
      "locationSet": {"include": ["fx"]},
      "tags": {
        "amenity": "recycling",
        "operator": "Communauté de communes du Grand Pontarlier"
      }
    },
    {
      "displayName": "Communauté de communes du Pays de Colombey et du Sud Toulois",
      "id": "communautedecommunesdupaysdecolombeyetdusudtoulois-59e4c1",
      "locationSet": {"include": ["fx"]},
      "tags": {
        "amenity": "recycling",
        "operator": "Communauté de communes du Pays de Colombey et du Sud Toulois"
      }
    },
    {
      "displayName": "Communauté de Communes du Pays de L'Arbresle",
      "id": "communautedecommunesdupaysdelarbresle-59e4c1",
      "locationSet": {"include": ["fx"]},
      "matchNames": [
        "communauté de communes du pays de l'arbresle (ccpa)"
      ],
      "tags": {
        "amenity": "recycling",
        "operator": "Communauté de Communes du Pays de L'Arbresle",
        "operator:short": "CCPA"
      }
    },
    {
      "displayName": "Communauté de Communes du Pays de Redon",
      "id": "communautedecommunesdupaysderedon-59e4c1",
      "locationSet": {"include": ["fx"]},
      "tags": {
        "amenity": "recycling",
        "operator": "Communauté de Communes du Pays de Redon"
      }
    },
    {
      "displayName": "Communauté de communes du Pays du Saintois",
      "id": "communautedecommunesdupaysdusaintois-59e4c1",
      "locationSet": {"include": ["fx"]},
      "tags": {
        "amenity": "recycling",
        "operator": "Communauté de communes du Pays du Saintois"
      }
    },
    {
      "displayName": "Communauté de communes Moselle et Madon",
      "id": "communautedecommunesmoselleetmadon-59e4c1",
      "locationSet": {"include": ["fx"]},
      "tags": {
        "amenity": "recycling",
        "operator": "Communauté de communes Moselle et Madon"
      }
    },
    {
      "displayName": "Communauté de communes Pévèle Carembault",
      "id": "communautedecommunespevelecarembault-59e4c1",
      "locationSet": {"include": ["fx"]},
      "tags": {
        "amenity": "recycling",
        "operator": "Communauté de communes Pévèle Carembault"
      }
    },
    {
      "displayName": "Communauté de communes Terres Touloises",
      "id": "communautedecommunesterrestouloises-59e4c1",
      "locationSet": {"include": ["fx"]},
      "tags": {
        "amenity": "recycling",
        "operator": "Communauté de communes Terres Touloises"
      }
    },
    {
      "displayName": "Compostri",
      "id": "compostri-91c985",
      "locationSet": {"include": ["001"]},
      "tags": {
        "amenity": "recycling",
        "operator": "Compostri"
      }
    },
    {
      "displayName": "Concello de Mugardos",
      "id": "concellodemugardos-49dabd",
      "locationSet": {"include": ["es"]},
      "tags": {
        "amenity": "recycling",
        "operator": "Concello de Mugardos"
      }
    },
    {
      "displayName": "Contex",
      "id": "contex-c59bef",
      "locationSet": {"include": ["ch"]},
      "tags": {
        "amenity": "recycling",
        "operator": "Contex"
      }
    },
    {
      "displayName": "Coop",
      "id": "coop-c59bef",
      "locationSet": {"include": ["ch"]},
      "tags": {
        "amenity": "recycling",
        "operator": "Coop"
      }
    },
    {
      "displayName": "Cooperativa Sociale Centro di Lavoro San Giovanni Calabria",
      "id": "cooperativasocialecentrodilavorosangiovannicalabria-94eaae",
      "locationSet": {"include": ["it"]},
      "tags": {
        "amenity": "recycling",
        "operator": "Cooperativa Sociale Centro di Lavoro San Giovanni Calabria"
      }
    },
    {
      "displayName": "COPAVO",
      "id": "copavo-59e4c1",
      "locationSet": {"include": ["fx"]},
      "tags": {
        "amenity": "recycling",
        "operator": "COPAVO"
      }
    },
    {
      "displayName": "Cork County Council",
      "id": "corkcountycouncil-ec2a21",
      "locationSet": {"include": ["ie"]},
      "tags": {
        "amenity": "recycling",
        "operator": "Cork County Council",
        "operator:ga": "Comhairle Contae Chorcia",
        "operator:wikidata": "Q5170774"
      }
    },
    {
      "displayName": "Cumbria Waste Management Ltd",
      "id": "cumbriawastemanagementltd-79fa96",
      "locationSet": {"include": ["gb"]},
      "tags": {
        "amenity": "recycling",
        "operator": "Cumbria Waste Management Ltd"
      }
    },
    {
      "displayName": "Curitas België",
      "id": "curitasbelgie-980be7",
      "locationSet": {"include": ["be"]},
      "matchNames": ["curitas", "curitas n.v."],
      "tags": {
        "amenity": "recycling",
        "operator": "Curitas België"
      }
    },
    {
      "displayName": "Curitas Nederland",
      "id": "curitasnederland-fcd61b",
      "locationSet": {"include": ["nl"]},
      "matchNames": ["curitas", "curitas n.v."],
      "tags": {
        "amenity": "recycling",
        "operator": "Curitas Nederland"
      }
    },
    {
      "displayName": "Dansk Røde Kors",
      "id": "danskrodekors-67373b",
      "locationSet": {"include": ["dk"]},
      "matchNames": ["røde kors"],
      "tags": {
        "amenity": "recycling",
        "operator": "Dansk Røde Kors",
        "operator:wikidata": "Q12307527"
      }
    },
    {
      "displayName": "Darbo Recycling",
      "id": "darborecycling-6737d9",
      "locationSet": {"include": ["de"]},
      "tags": {
        "amenity": "recycling",
        "operator": "Darbo Recycling"
      }
    },
    {
      "displayName": "Däsa Wiederverwertungs GmbH",
      "id": "dasawiederverwertungsgmbh-6737d9",
      "locationSet": {"include": ["de"]},
      "tags": {
        "amenity": "recycling",
        "operator": "Däsa Wiederverwertungs GmbH"
      }
    },
    {
      "displayName": "De Kringwinkel",
      "id": "dekringwinkel-980be7",
      "locationSet": {"include": ["be"]},
      "tags": {
        "amenity": "recycling",
        "operator": "De Kringwinkel"
      }
    },
    {
      "displayName": "des Jardins et des Hommes",
      "id": "desjardinsetdeshommes-59e4c1",
      "locationSet": {"include": ["fx"]},
      "tags": {
        "amenity": "recycling",
        "operator": "des Jardins et des Hommes"
      }
    },
    {
      "displayName": "DESWOS",
      "id": "deswos-6737d9",
      "locationSet": {"include": ["de"]},
      "tags": {
        "amenity": "recycling",
        "operator": "DESWOS",
        "operator:wikidata": "Q1202386"
      }
    },
    {
      "displayName": "Deutsche Lebens-Rettungs-Gesellschaft",
      "id": "deutschelebensrettungsgesellschaft-6737d9",
      "locationSet": {"include": ["de"]},
      "tags": {
        "amenity": "recycling",
        "operator": "Deutsche Lebens-Rettungs-Gesellschaft",
        "operator:short": "DLRG",
        "operator:wikidata": "Q871679"
      }
    },
    {
      "displayName": "Devon County Council",
      "id": "devoncountycouncil-ad06a1",
      "locationSet": {
        "include": ["gb-dev.geojson"]
      },
      "tags": {
        "amenity": "recycling",
        "operator": "Devon County Council",
        "operator:wikidata": "Q6385990"
      }
    },
    {
      "displayName": "Diakoniewerk Essen",
      "id": "diakoniewerkessen-15b788",
      "locationSet": {
        "include": ["de-nw.geojson"]
      },
      "tags": {
        "amenity": "recycling",
        "operator": "Diakoniewerk Essen"
      }
    },
    {
      "displayName": "DRK Kreisverband Bonn e.V.",
      "id": "drkkreisverbandbonnev-15b788",
      "locationSet": {
        "include": ["de-nw.geojson"]
      },
      "tags": {
        "amenity": "recycling",
        "operator": "DRK Kreisverband Bonn e.V."
      }
    },
    {
      "displayName": "Dürener Service Betrieb",
      "id": "durenerservicebetrieb-15b788",
      "locationSet": {
        "include": ["de-nw.geojson"]
      },
      "tags": {
        "amenity": "recycling",
        "operator": "Dürener Service Betrieb"
      }
    },
    {
      "displayName": "EAD (Darmstadt)",
      "id": "ead-95f31a",
      "locationSet": {
        "include": ["de-he.geojson"]
      },
      "tags": {
        "amenity": "recycling",
        "operator": "EAD"
      }
    },
    {
      "displayName": "East-West Textilrecycling Kursun",
      "id": "eastwesttextilrecyclingkursun-6737d9",
      "locationSet": {"include": ["de"]},
      "tags": {
        "amenity": "recycling",
        "operator": "East-West Textilrecycling Kursun"
      }
    },
    {
      "displayName": "Eco-Emballages",
      "id": "ecoemballages-59e4c1",
      "locationSet": {"include": ["fx"]},
      "tags": {
        "amenity": "recycling",
        "operator": "Eco-Emballages"
      }
    },
    {
      "displayName": "Ecotextile",
      "id": "ecotextile-59e4c1",
      "locationSet": {"include": ["fx"]},
      "tags": {
        "amenity": "recycling",
        "operator": "Ecotextile"
      }
    },
    {
      "displayName": "Eesti Taaskasutusorganisatsioon MTÜ",
      "id": "eestitaaskasutusorganisatsioonmtu-964b6d",
      "locationSet": {"include": ["ee"]},
      "tags": {
        "amenity": "recycling",
        "operator": "Eesti Taaskasutusorganisatsioon MTÜ"
      }
    },
    {
      "displayName": "Ekocharita",
      "id": "ekocharita-d6ea52",
      "locationSet": {"include": ["sk"]},
      "tags": {
        "amenity": "recycling",
        "operator": "Ekocharita",
        "operator:wikidata": "Q116681206",
        "recycling_type": "container",
        "recycling:clothes": "yes",
        "recycling:shoes": "yes"
      }
    },
    {
      "displayName": "Ekokymppi",
      "id": "ekokymppi-3e65e0",
      "locationSet": {"include": ["fi"]},
      "tags": {
        "amenity": "recycling",
        "operator": "Ekokymppi"
      }
    },
    {
      "displayName": "Ekorosk Oy",
      "id": "ekoroskoy-3e65e0",
      "locationSet": {"include": ["fi"]},
      "tags": {
        "amenity": "recycling",
        "operator": "Ekorosk Oy"
      }
    },
    {
      "displayName": "Emmaüs",
      "id": "emmaus-59e4c1",
      "locationSet": {"include": ["fx"]},
      "tags": {
        "amenity": "recycling",
        "operator": "Emmaüs"
      }
    },
    {
      "displayName": "Empresa Municipal de Servicios de Aseo",
      "id": "empresamunicipaldeserviciosdeaseo-fd1de5",
      "locationSet": {"include": ["bo"]},
      "tags": {
        "amenity": "recycling",
        "operator": "Empresa Municipal de Servicios de Aseo"
      }
    },
    {
      "displayName": "Entsorgung Dortmund GmbH",
      "id": "entsorgungdortmundgmbh-15b788",
      "locationSet": {
        "include": ["de-nw.geojson"]
      },
      "tags": {
        "amenity": "recycling",
        "operator": "Entsorgung Dortmund GmbH",
        "operator:short": "EDG",
        "operator:wikidata": "Q1345450"
      }
    },
    {
      "displayName": "Entsorgungs- und Servicebetrieb Bocholt",
      "id": "entsorgungsundservicebetriebbocholt-15b788",
      "locationSet": {
        "include": ["de-nw.geojson"]
      },
      "tags": {
        "amenity": "recycling",
        "operator": "Entsorgungs- und Servicebetrieb Bocholt",
        "operator:short": "ESB"
      }
    },
    {
      "displayName": "Entsorgungsbetriebe Essen",
      "id": "entsorgungsbetriebeessen-15b788",
      "locationSet": {
        "include": ["de-nw.geojson"]
      },
      "matchNames": [
        "essener entsorgungsbetriebe"
      ],
      "tags": {
        "amenity": "recycling",
        "operator": "Entsorgungsbetriebe Essen",
        "operator:short": "EBE",
        "operator:wikidata": "Q1345453"
      }
    },
    {
      "displayName": "Entsorgungsbetriebe Stadt Ulm (EBU)",
      "id": "entsorgungsbetriebestadtulmebu-6737d9",
      "locationSet": {"include": ["de"]},
      "tags": {
        "amenity": "recycling",
        "operator": "Entsorgungsbetriebe Stadt Ulm (EBU)"
      }
    },
    {
      "displayName": "ERZ",
      "id": "erz-c59bef",
      "locationSet": {"include": ["ch"]},
      "tags": {
        "amenity": "recycling",
        "operator": "ERZ"
      }
    },
    {
      "displayName": "ETO",
      "id": "eto-964b6d",
      "locationSet": {"include": ["ee"]},
      "tags": {
        "amenity": "recycling",
        "operator": "ETO"
      }
    },
    {
      "displayName": "Eurocycle GmbH",
      "id": "eurocyclegmbh-6737d9",
      "locationSet": {"include": ["de"]},
      "tags": {
        "amenity": "recycling",
        "operator": "Eurocycle GmbH"
      }
    },
    {
      "displayName": "Fa. A. Hahn",
      "id": "faahahn-4fb837",
      "locationSet": {
        "include": ["de-by.geojson"]
      },
      "tags": {
        "amenity": "recycling",
        "operator": "Fa. A. Hahn"
      }
    },
    {
      "displayName": "Fa. Rhenus, im Auftrag der Stadt Heidelberg",
      "id": "farhenusimauftragderstadtheidelberg-fd14c2",
      "locationSet": {
        "include": ["de-bw.geojson"]
      },
      "tags": {
        "amenity": "recycling",
        "operator": "Fa. Rhenus, im Auftrag der Stadt Heidelberg"
      }
    },
    {
      "displayName": "Faircollect",
      "id": "faircollect-6737d9",
      "locationSet": {"include": ["de"]},
      "tags": {
        "amenity": "recycling",
        "operator": "Faircollect"
      }
    },
    {
      "displayName": "FBH-NP Nonprofit Kft.",
      "id": "fbhnpnonprofitkft-b316be",
      "locationSet": {"include": ["hu"]},
      "tags": {
        "amenity": "recycling",
        "operator": "FBH-NP Nonprofit Kft."
      }
    },
    {
      "displayName": "FCC",
      "id": "fcc-49dabd",
      "locationSet": {"include": ["es"]},
      "tags": {
        "amenity": "recycling",
        "operator": "FCC"
      }
    },
    {
      "displayName": "Fehr",
      "id": "fehr-6737d9",
      "locationSet": {"include": ["de"]},
      "tags": {
        "amenity": "recycling",
        "operator": "Fehr"
      }
    },
    {
      "displayName": "Fife Council",
      "id": "fifecouncil-9fa0da",
      "locationSet": {"include": ["gb-sct"]},
      "tags": {
        "amenity": "recycling",
        "operator": "Fife Council",
        "operator:wikidata": "Q28530258"
      }
    },
    {
      "displayName": "Förpacknings & Tidningsinsamlingen",
      "id": "forpackningsandtidningsinsamlingen-43c9f4",
      "locationSet": {"include": ["se"]},
      "tags": {
        "amenity": "recycling",
        "operator": "Förpacknings & Tidningsinsamlingen"
      }
    },
    {
      "displayName": "Frankfurter Entsorgungs- und Service GmbH",
      "id": "frankfurterentsorgungsundservicegmbh-95f31a",
      "locationSet": {
        "include": ["de-he.geojson"]
      },
      "tags": {
        "amenity": "recycling",
        "operator": "Frankfurter Entsorgungs- und Service GmbH",
        "operator:short": "FES",
        "operator:wikidata": "Q1444944"
      }
    },
    {
      "displayName": "Fretex",
      "id": "fretex-3e1966",
      "locationSet": {"include": ["no"]},
      "tags": {
        "amenity": "recycling",
        "operator": "Fretex"
      }
    },
    {
      "displayName": "FTI",
      "id": "fti-43c9f4",
      "locationSet": {"include": ["se"]},
      "tags": {
        "amenity": "recycling",
        "operator": "FTI"
      }
    },
    {
      "displayName": "Fundacja Eco Textil",
      "id": "fundacjaecotextil-f1a5a5",
      "locationSet": {"include": ["pl"]},
      "tags": {
        "amenity": "recycling",
        "operator": "Fundacja Eco Textil"
      }
    },
    {
      "displayName": "Fundacja Uśmiechu",
      "id": "fundacjausmiechu-f1a5a5",
      "locationSet": {"include": ["pl"]},
      "tags": {
        "amenity": "recycling",
        "operator": "Fundacja Uśmiechu"
      }
    },
    {
      "displayName": "Fundacja z Sercem",
      "id": "fundacjazsercem-f1a5a5",
      "locationSet": {"include": ["pl"]},
      "tags": {
        "amenity": "recycling",
        "operator": "Fundacja z Sercem"
      }
    },
    {
      "displayName": "FWS",
      "id": "fws-6737d9",
      "locationSet": {"include": ["de"]},
      "tags": {
        "amenity": "recycling",
        "operator": "FWS"
      }
    },
    {
      "displayName": "FWS Altkleider Container Service",
      "id": "fwsaltkleidercontainerservice-6737d9",
      "locationSet": {"include": ["de"]},
      "tags": {
        "amenity": "recycling",
        "operator": "FWS Altkleider Container Service"
      }
    },
    {
      "displayName": "GAK Textilrecycling GmbH",
      "id": "gaktextilrecyclinggmbh-10028e",
      "locationSet": {
        "include": ["de-be.geojson"]
      },
      "tags": {
        "amenity": "recycling",
        "operator": "GAK Textilrecycling GmbH"
      }
    },
    {
      "displayName": "Gemeente Amsterdam",
      "id": "gemeenteamsterdam-fcd61b",
      "locationSet": {"include": ["nl"]},
      "tags": {
        "amenity": "recycling",
        "operator": "Gemeente Amsterdam"
      }
    },
    {
      "displayName": "Gemeente Assen",
      "id": "gemeenteassen-fcd61b",
      "locationSet": {"include": ["nl"]},
      "tags": {
        "amenity": "recycling",
        "operator": "Gemeente Assen"
      }
    },
    {
      "displayName": "Gemeente Groningen",
      "id": "gemeentegroningen-91c985",
      "locationSet": {"include": ["001"]},
      "tags": {
        "amenity": "recycling",
        "operator": "Gemeente Groningen"
      }
    },
    {
      "displayName": "Gemeente Utrechtseheuvelrug",
      "id": "gemeenteutrechtseheuvelrug-fcd61b",
      "locationSet": {"include": ["nl"]},
      "tags": {
        "amenity": "recycling",
        "operator": "Gemeente Utrechtseheuvelrug"
      }
    },
    {
      "displayName": "Gemeente Zaanstad",
      "id": "gemeentezaanstad-fcd61b",
      "locationSet": {"include": ["nl"]},
      "tags": {
        "amenity": "recycling",
        "operator": "Gemeente Zaanstad"
      }
    },
    {
      "displayName": "Gemeinde Bedburg-Hau",
      "id": "gemeindebedburghau-15b788",
      "locationSet": {
        "include": ["de-nw.geojson"]
      },
      "tags": {
        "amenity": "recycling",
        "operator": "Gemeinde Bedburg-Hau"
      }
    },
    {
      "displayName": "Geofor",
      "id": "geofor-94eaae",
      "locationSet": {"include": ["it"]},
      "tags": {
        "amenity": "recycling",
        "operator": "Geofor"
      }
    },
    {
      "displayName": "Gesamb",
      "id": "gesamb-416028",
      "locationSet": {"include": ["pt"]},
      "tags": {
        "amenity": "recycling",
        "operator": "Gesamb"
      }
    },
    {
      "displayName": "Gesellschaft im Ostalbkreis für Abfallbewirtschaftung mbH",
      "id": "gesellschaftimostalbkreisfurabfallbewirtschaftungmbh-fd14c2",
      "locationSet": {
        "include": ["de-bw.geojson"]
      },
      "tags": {
        "amenity": "recycling",
        "operator": "Gesellschaft im Ostalbkreis für Abfallbewirtschaftung mbH",
        "operator:short": "GOA"
      }
    },
    {
      "displayName": "Gew. Fa. Mettex",
      "id": "gewfamettex-10028e",
      "locationSet": {
        "include": ["de-be.geojson"]
      },
      "tags": {
        "amenity": "recycling",
        "operator": "Gew. Fa. Mettex"
      }
    },
    {
      "displayName": "GIWOG",
      "id": "giwog-2e00cf",
      "locationSet": {"include": ["at"]},
      "tags": {
        "amenity": "recycling",
        "operator": "GIWOG"
      }
    },
    {
      "displayName": "Glasgow City Council",
      "id": "glasgowcitycouncil-9fa0da",
      "locationSet": {"include": ["gb-sct"]},
      "tags": {
        "amenity": "recycling",
        "operator": "Glasgow City Council",
        "operator:wikidata": "Q130637"
      }
    },
    {
      "displayName": "GLØR",
      "id": "glor-3e1966",
      "locationSet": {"include": ["no"]},
      "tags": {
        "amenity": "recycling",
        "operator": "GLØR"
      }
    },
    {
      "displayName": "Göttinger Entsorgungsbetriebe",
      "id": "gottingerentsorgungsbetriebe-7d4127",
      "locationSet": {
        "include": ["de-ni.geojson"]
      },
      "tags": {
        "amenity": "recycling",
        "operator": "Göttinger Entsorgungsbetriebe",
        "operator:short": "GEB"
      }
    },
    {
      "displayName": "Grand Lyon",
      "id": "grandlyon-59e4c1",
      "locationSet": {"include": ["fx"]},
      "tags": {
        "amenity": "recycling",
        "operator": "Grand Lyon"
      }
    },
    {
      "displayName": "Grenoble Alpes Métropole",
      "id": "grenoblealpesmetropole-59e4c1",
      "locationSet": {"include": ["fx"]},
      "tags": {
        "amenity": "recycling",
        "operator": "Grenoble Alpes Métropole"
      }
    },
    {
      "displayName": "Gruppo HERA",
      "id": "gruppohera-94eaae",
      "locationSet": {"include": ["it"]},
      "tags": {
        "amenity": "recycling",
        "operator": "Gruppo HERA"
      }
    },
    {
      "displayName": "GSAK",
      "id": "gsak-91c985",
      "locationSet": {"include": ["001"]},
      "tags": {
        "amenity": "recycling",
        "operator": "GSAK"
      }
    },
    {
      "displayName": "GVA Baden",
      "id": "gvabaden-2e00cf",
      "locationSet": {"include": ["at"]},
      "tags": {
        "amenity": "recycling",
        "operator": "GVA Baden"
      }
    },
    {
      "displayName": "H W Martin Waste Limited",
      "id": "hwmartinwastelimited-79fa96",
      "locationSet": {"include": ["gb"]},
      "tags": {
        "amenity": "recycling",
        "operator": "H W Martin Waste Limited"
      }
    },
    {
      "displayName": "Hackney Council",
      "id": "hackneycouncil-c49ed3",
      "locationSet": {
        "include": ["gb-lon.geojson"]
      },
      "tags": {
        "amenity": "recycling",
        "operator": "Hackney Council",
        "operator:type": "government",
        "operator:wikidata": "Q5637369"
      }
    },
    {
      "displayName": "HeDi",
      "id": "hedi-fd14c2",
      "locationSet": {
        "include": ["de-bw.geojson"]
      },
      "tags": {
        "amenity": "recycling",
        "operator": "HeDi"
      }
    },
    {
      "displayName": "HERA",
      "id": "hera-94eaae",
      "locationSet": {"include": ["it"]},
      "tags": {
        "amenity": "recycling",
        "operator": "HERA"
      }
    },
    {
      "displayName": "hoelp",
      "id": "hoelp-079fb7",
      "locationSet": {
        "include": ["de-sh.geojson"]
      },
      "tags": {
        "amenity": "recycling",
        "operator": "hoelp"
      }
    },
    {
      "displayName": "Holding Graz",
      "id": "holdinggraz-2e00cf",
      "locationSet": {"include": ["at"]},
      "tags": {
        "amenity": "recycling",
        "operator": "Holding Graz"
      }
    },
    {
      "displayName": "HSY",
      "id": "hsy-3e65e0",
      "locationSet": {"include": ["fi"]},
      "tags": {
        "amenity": "recycling",
        "operator": "HSY"
      }
    },
    {
      "displayName": "Human Bridge",
      "id": "humanbridge-91c985",
      "locationSet": {"include": ["001"]},
      "tags": {
        "amenity": "recycling",
        "operator": "Human Bridge"
      }
    },
    {
      "displayName": "Humana",
      "id": "humana-86f169",
      "locationSet": {
        "include": ["001"],
        "exclude": ["de"]
      },
      "tags": {
        "amenity": "recycling",
        "operator": "Humana"
      }
    },
    {
      "displayName": "HUMANA Kleidersammlung GmbH",
      "id": "humanakleidersammlunggmbh-6737d9",
      "locationSet": {"include": ["de"]},
      "matchNames": ["humana"],
      "tags": {
        "amenity": "recycling",
        "operator": "HUMANA Kleidersammlung GmbH"
      }
    },
    {
      "displayName": "HVC",
      "id": "hvc-fcd61b",
      "locationSet": {"include": ["nl"]},
      "matchNames": ["hvc groep"],
      "tags": {
        "amenity": "recycling",
        "operator": "HVC",
        "operator:wikidata": "Q57956733"
      }
    },
    {
      "displayName": "Hygea",
      "id": "hygea-980be7",
      "locationSet": {"include": ["be"]},
      "tags": {
        "amenity": "recycling",
        "operator": "Hygea"
      }
    },
    {
      "displayName": "IDELUX-Environnement",
      "id": "ideluxenvironnement-980be7",
      "locationSet": {"include": ["be"]},
      "tags": {
        "amenity": "recycling",
        "operator": "IDELUX-Environnement"
      }
    },
    {
      "displayName": "IMOG",
      "id": "imog-980be7",
      "locationSet": {"include": ["be"]},
      "tags": {
        "amenity": "recycling",
        "operator": "IMOG"
      }
    },
    {
      "displayName": "Inagra",
      "id": "inagra-49dabd",
      "locationSet": {"include": ["es"]},
      "tags": {
        "amenity": "recycling",
        "operator": "Inagra"
      }
    },
    {
      "displayName": "Interco Normandie Sud Eure",
      "id": "interconormandiesudeure-59e4c1",
      "locationSet": {"include": ["fx"]},
      "tags": {
        "amenity": "recycling",
        "operator": "Interco Normandie Sud Eure"
      }
    },
    {
      "displayName": "Intradel",
      "id": "intradel-980be7",
      "locationSet": {"include": ["be"]},
      "tags": {
        "amenity": "recycling",
        "operator": "Intradel"
      }
    },
    {
      "displayName": "IOK Afvalbeheer",
      "id": "iokafvalbeheer-980be7",
      "locationSet": {"include": ["be"]},
      "tags": {
        "amenity": "recycling",
        "operator": "IOK Afvalbeheer",
        "operator:short": "IOK"
      }
    },
    {
      "displayName": "IPALE",
      "id": "ipale-980be7",
      "locationSet": {"include": ["be"]},
      "tags": {
        "amenity": "recycling",
        "operator": "IPALE"
      }
    },
    {
      "displayName": "Irado",
      "id": "irado-fcd61b",
      "locationSet": {"include": ["nl"]},
      "tags": {
        "amenity": "recycling",
        "operator": "Irado",
        "operator:wikidata": "Q57699708"
      }
    },
    {
      "displayName": "Iridex",
      "id": "iridex-4abcbd",
      "locationSet": {"include": ["ro"]},
      "tags": {
        "amenity": "recycling",
        "operator": "Iridex"
      }
    },
    {
      "displayName": "Isevtex",
      "id": "isevtex-fd14c2",
      "locationSet": {
        "include": ["de-bw.geojson"]
      },
      "tags": {
        "amenity": "recycling",
        "operator": "Isevtex"
      }
    },
    {
      "displayName": "Isle of Wight Council",
      "id": "isleofwightcouncil-4fb1e4",
      "locationSet": {
        "include": ["gb-iow.geojson"]
      },
      "tags": {
        "amenity": "recycling",
        "operator": "Isle of Wight Council",
        "operator:wikidata": "Q6084095"
      }
    },
    {
      "displayName": "Isontina Ambiente",
      "id": "isontinaambiente-94eaae",
      "locationSet": {"include": ["it"]},
      "matchNames": ["isa isontina ambiente"],
      "tags": {
        "amenity": "recycling",
        "operator": "Isontina Ambiente",
        "operator:short": "ISA"
      }
    },
    {
      "displayName": "IVAREM",
      "id": "ivarem-980be7",
      "locationSet": {"include": ["be"]},
      "tags": {
        "amenity": "recycling",
        "operator": "IVAREM",
        "operator:wikidata": "Q104502898"
      }
    },
    {
      "displayName": "IVIO",
      "id": "ivio-980be7",
      "locationSet": {"include": ["be"]},
      "tags": {
        "amenity": "recycling",
        "operator": "IVIO"
      }
    },
    {
      "displayName": "Jakob Becker",
      "id": "jakobbecker-91c985",
      "locationSet": {"include": ["001"]},
      "tags": {
        "amenity": "recycling",
        "operator": "Jakob Becker"
      }
    },
    {
      "displayName": "Jakob Becker Entsorgungs-GmbH",
      "id": "jakobbeckerentsorgungsgmbh-6737d9",
      "locationSet": {"include": ["de"]},
      "tags": {
        "amenity": "recycling",
        "operator": "Jakob Becker Entsorgungs-GmbH",
        "operator:wikidata": "Q1678910"
      }
    },
    {
      "displayName": "Jätekukko Oy",
      "id": "jatekukkooy-3e65e0",
      "locationSet": {"include": ["fi"]},
      "tags": {
        "amenity": "recycling",
        "operator": "Jätekukko Oy"
      }
    },
    {
      "displayName": "Johannes Fehr GmbH & Co. KG",
      "id": "johannesfehrgmbhandcokg-7d4127",
      "locationSet": {
        "include": ["de-ni.geojson"]
      },
      "tags": {
        "amenity": "recycling",
        "operator": "Johannes Fehr GmbH & Co. KG"
      }
    },
    {
      "displayName": "Johanniter-Unfall-Hilfe",
      "id": "johanniterunfallhilfe-6737d9",
      "locationSet": {"include": ["de"]},
      "matchNames": ["johanniter"],
      "tags": {
        "amenity": "recycling",
        "operator": "Johanniter-Unfall-Hilfe",
        "operator:short": "JUH",
        "operator:wikidata": "Q14751117"
      }
    },
    {
      "displayName": "Jura Nature Environnement",
      "id": "juranatureenvironnement-59e4c1",
      "locationSet": {"include": ["fx"]},
      "tags": {
        "amenity": "recycling",
        "operator": "Jura Nature Environnement"
      }
    },
    {
      "displayName": "Kapaklı Belediyesi",
      "id": "kapaklibelediyesi-65a8bd",
      "locationSet": {"include": ["tr"]},
      "tags": {
        "amenity": "recycling",
        "operator": "Kapaklı Belediyesi"
      }
    },
    {
      "displayName": "Karl Meyer AG",
      "id": "karlmeyerag-91c985",
      "locationSet": {"include": ["001"]},
      "tags": {
        "amenity": "recycling",
        "operator": "Karl Meyer AG"
      }
    },
    {
      "displayName": "Karl Meyer Rohstoffverwertung",
      "id": "karlmeyerrohstoffverwertung-6737d9",
      "locationSet": {"include": ["de"]},
      "tags": {
        "amenity": "recycling",
        "operator": "Karl Meyer Rohstoffverwertung"
      }
    },
    {
      "displayName": "Keep Athens Limestone Beautiful",
      "id": "keepathenslimestonebeautiful-624e31",
      "locationSet": {"include": ["us"]},
      "tags": {
        "amenity": "recycling",
        "operator": "Keep Athens Limestone Beautiful"
      }
    },
    {
      "displayName": "Kent State University",
      "id": "kentstateuniversity-624e31",
      "locationSet": {"include": ["us"]},
      "tags": {
        "amenity": "recycling",
        "operator": "Kent State University"
      }
    },
    {
      "displayName": "Kleine Patienten in Not e.V.",
      "id": "kleinepatienteninnotev-6737d9",
      "locationSet": {"include": ["de"]},
      "tags": {
        "amenity": "recycling",
        "operator": "Kleine Patienten in Not e.V."
      }
    },
    {
      "displayName": "Kloktex",
      "id": "kloktex-778b5b",
      "locationSet": {"include": ["cz"]},
      "tags": {
        "amenity": "recycling",
        "operator": "Kloktex"
      }
    },
    {
      "displayName": "Knettenbrech + Gurdulic Rhein-Neckar GmbH",
      "id": "knettenbrechgurdulicrheinneckargmbh-6737d9",
      "locationSet": {"include": ["de"]},
      "tags": {
        "amenity": "recycling",
        "operator": "Knettenbrech + Gurdulic Rhein-Neckar GmbH"
      }
    },
    {
      "displayName": "Knettenbrech+Gurdulic",
      "id": "knettenbrechgurdulic-6737d9",
      "locationSet": {"include": ["de"]},
      "tags": {
        "amenity": "recycling",
        "operator": "Knettenbrech+Gurdulic"
      }
    },
    {
      "displayName": "Komunala Idrija",
      "id": "komunalaidrija-db74f6",
      "locationSet": {"include": ["si"]},
      "tags": {
        "amenity": "recycling",
        "operator": "Komunala Idrija"
      }
    },
    {
      "displayName": "KOSIT, a.s.",
      "id": "kositas-d6ea52",
      "locationSet": {"include": ["sk"]},
      "tags": {
        "amenity": "recycling",
        "operator": "KOSIT, a.s.",
        "operator:wikidata": "Q96129857"
      }
    },
    {
      "displayName": "Kreiswerke Cochem-Zell (Abfallwirtschaft)",
      "id": "kreiswerkecochemzellabfallwirtschaft-886dbb",
      "locationSet": {
        "include": ["de-rp.geojson"]
      },
      "tags": {
        "amenity": "recycling",
        "operator": "Kreiswerke Cochem-Zell (Abfallwirtschaft)"
      }
    },
    {
      "displayName": "KuB GmbH",
      "id": "kubgmbh-180c3d",
      "locationSet": {
        "include": ["de-sn.geojson"]
      },
      "tags": {
        "amenity": "recycling",
        "operator": "KuB GmbH"
      }
    },
    {
      "displayName": "La Bouquinerie du Sart",
      "id": "labouquineriedusart-59e4c1",
      "locationSet": {"include": ["fx"]},
      "tags": {
        "amenity": "recycling",
        "operator": "La Bouquinerie du Sart"
      }
    },
    {
      "displayName": "Lancashire County Council",
      "id": "lancashirecountycouncil-7c7e43",
      "locationSet": {"include": ["gb-eng"]},
      "tags": {
        "amenity": "recycling",
        "operator": "Lancashire County Council",
        "operator:wikidata": "Q6386149"
      }
    },
    {
      "displayName": "Landkreis Kaiserslautern",
      "id": "landkreiskaiserslautern-886dbb",
      "locationSet": {
        "include": ["de-rp.geojson"]
      },
      "tags": {
        "amenity": "recycling",
        "operator": "Landkreis Kaiserslautern"
      }
    },
    {
      "displayName": "Landkreis Prignitz",
      "id": "landkreisprignitz-5a52cc",
      "locationSet": {
        "include": ["de-bb.geojson"]
      },
      "tags": {
        "amenity": "recycling",
        "operator": "Landkreis Prignitz"
      }
    },
    {
      "displayName": "Lane County Waste Management",
      "id": "lanecountywastemanagement-624e31",
      "locationSet": {"include": ["us"]},
      "tags": {
        "amenity": "recycling",
        "operator": "Lane County Waste Management"
      }
    },
    {
      "displayName": "Laval Agglomération",
      "id": "lavalagglomeration-59e4c1",
      "locationSet": {"include": ["fx"]},
      "tags": {
        "amenity": "recycling",
        "operator": "Laval Agglomération"
      }
    },
    {
      "displayName": "Le Foyer",
      "id": "lefoyer-59e4c1",
      "locationSet": {"include": ["fx"]},
      "tags": {
        "amenity": "recycling",
        "operator": "Le Foyer"
      }
    },
    {
      "displayName": "Le Foyer Notre-Dame des sans-abri",
      "id": "lefoyernotredamedessansabri-59e4c1",
      "locationSet": {"include": ["fx"]},
      "tags": {
        "amenity": "recycling",
        "operator": "Le Foyer Notre-Dame des sans-abri"
      }
    },
    {
      "displayName": "Le Grand Narbonne ca",
      "id": "legrandnarbonneca-59e4c1",
      "locationSet": {"include": ["fx"]},
      "tags": {
        "amenity": "recycling",
        "operator": "Le Grand Narbonne ca"
      }
    },
    {
      "displayName": "Le Relais",
      "id": "lerelais-59e4c1",
      "locationSet": {"include": ["fx"]},
      "tags": {
        "amenity": "recycling",
        "operator": "Le Relais"
      }
    },
    {
      "displayName": "Le Relais 75",
      "id": "lerelais75-59e4c1",
      "locationSet": {"include": ["fx"]},
      "tags": {
        "amenity": "recycling",
        "operator": "Le Relais 75"
      }
    },
    {
      "displayName": "Le Relais Atlantique",
      "id": "lerelaisatlantique-59e4c1",
      "locationSet": {"include": ["fx"]},
      "tags": {
        "amenity": "recycling",
        "operator": "Le Relais Atlantique"
      }
    },
    {
      "displayName": "Leger des Heils",
      "id": "legerdesheils-fcd61b",
      "locationSet": {"include": ["nl"]},
      "tags": {
        "amenity": "recycling",
        "operator": "Leger des Heils"
      }
    },
    {
      "displayName": "Les Alchimistes",
      "id": "lesalchimistes-59e4c1",
      "locationSet": {"include": ["fx"]},
      "tags": {
        "amenity": "recycling",
        "operator": "Les Alchimistes"
      }
    },
    {
      "displayName": "Les Petits Riens - Spullenhulp",
      "id": "lespetitsriensspullenhulp-980be7",
      "locationSet": {"include": ["be"]},
      "tags": {
        "amenity": "recycling",
        "operator": "Les Petits Riens - Spullenhulp"
      }
    },
    {
      "displayName": "Limasam",
      "id": "limasam-49dabd",
      "locationSet": {"include": ["es"]},
      "tags": {
        "amenity": "recycling",
        "operator": "Limasam"
      }
    },
    {
      "displayName": "Limburg.net",
      "id": "limburgnet-980be7",
      "locationSet": {"include": ["be"]},
      "tags": {
        "amenity": "recycling",
        "operator": "Limburg.net"
      }
    },
    {
      "displayName": "Limoges Métropole",
      "id": "limogesmetropole-59e4c1",
      "locationSet": {"include": ["fx"]},
      "tags": {
        "amenity": "recycling",
        "operator": "Limoges Métropole"
      }
    },
    {
      "displayName": "Linz AG Abfall",
      "id": "linzagabfall-2e00cf",
      "locationSet": {"include": ["at"]},
      "tags": {
        "amenity": "recycling",
        "operator": "Linz AG Abfall"
      }
    },
    {
      "displayName": "Loop",
      "id": "loop-6737d9",
      "locationSet": {"include": ["de"]},
      "tags": {
        "amenity": "recycling",
        "operator": "Loop"
      }
    },
    {
      "displayName": "Lorenz Wittmann GmbH",
      "id": "lorenzwittmanngmbh-6737d9",
      "locationSet": {"include": ["de"]},
      "tags": {
        "amenity": "recycling",
        "operator": "Lorenz Wittmann GmbH"
      }
    },
    {
      "displayName": "LTC",
      "id": "ltc-59e4c1",
      "locationSet": {"include": ["fx"]},
      "tags": {
        "amenity": "recycling",
        "operator": "LTC"
      }
    },
    {
      "displayName": "Lüleburgaz Belediyesi",
      "id": "luleburgazbelediyesi-65a8bd",
      "locationSet": {"include": ["tr"]},
      "tags": {
        "amenity": "recycling",
        "operator": "Lüleburgaz Belediyesi"
      }
    },
    {
      "displayName": "MA48",
      "id": "ma48-2e00cf",
      "locationSet": {"include": ["at"]},
      "tags": {
        "amenity": "recycling",
        "operator": "MA48"
      }
    },
    {
      "displayName": "Madre Coraje",
      "id": "madrecoraje-49dabd",
      "locationSet": {"include": ["es"]},
      "tags": {
        "amenity": "recycling",
        "operator": "Madre Coraje"
      }
    },
    {
      "displayName": "Mairie d'Evry",
      "id": "mairiedevry-59e4c1",
      "locationSet": {"include": ["fx"]},
      "tags": {
        "amenity": "recycling",
        "operator": "Mairie d'Evry"
      }
    },
    {
      "displayName": "Mairie de Paris",
      "id": "mairiedeparis-59e4c1",
      "locationSet": {"include": ["fx"]},
      "tags": {
        "amenity": "recycling",
        "operator": "Mairie de Paris"
      }
    },
    {
      "displayName": "Marius Pedersen,a.s.",
      "id": "mariuspedersenas-d6ea52",
      "locationSet": {"include": ["sk"]},
      "tags": {
        "amenity": "recycling",
        "operator": "Marius Pedersen,a.s."
      }
    },
    {
      "displayName": "MB Recycling",
      "id": "mbrecycling-f1a5a5",
      "locationSet": {"include": ["pl"]},
      "tags": {
        "amenity": "recycling",
        "operator": "MB Recycling"
      }
    },
    {
      "displayName": "MEBRA Märkische Entsorgungsgesellschaft Brandenburg mbH",
      "id": "mebramarkischeentsorgungsgesellschaftbrandenburgmbh-5a52cc",
      "locationSet": {
        "include": ["de-bb.geojson"]
      },
      "tags": {
        "amenity": "recycling",
        "operator": "MEBRA Märkische Entsorgungsgesellschaft Brandenburg mbH"
      }
    },
    {
      "displayName": "Meerlanden",
      "id": "meerlanden-fcd61b",
      "locationSet": {"include": ["nl"]},
      "tags": {
        "amenity": "recycling",
        "operator": "Meerlanden",
        "operator:wikidata": "Q58477556"
      }
    },
    {
      "displayName": "Město Sokolov",
      "id": "mestosokolov-778b5b",
      "locationSet": {"include": ["cz"]},
      "tags": {
        "amenity": "recycling",
        "operator": "Město Sokolov"
      }
    },
    {
      "displayName": "Métropole d'Aix-Marseille-Provence",
      "id": "metropoledaixmarseilleprovence-59e4c1",
      "locationSet": {"include": ["fx"]},
      "tags": {
        "amenity": "recycling",
        "operator": "Métropole d'Aix-Marseille-Provence"
      }
    },
    {
      "displayName": "Métropole de Lyon",
      "id": "metropoledelyon-59e4c1",
      "locationSet": {"include": ["fx"]},
      "tags": {
        "amenity": "recycling",
        "operator": "Métropole de Lyon"
      }
    },
    {
      "displayName": "Miejski Zakład Zieleni, Dróg i Ochrony Środowiska w Kołobrzegu Sp. z o.o.",
      "id": "miejskizakladzielenidrogiochronysrodowiskawkolobrzeguspzoo-f1a5a5",
      "locationSet": {"include": ["pl"]},
      "tags": {
        "amenity": "recycling",
        "operator": "Miejski Zakład Zieleni, Dróg i Ochrony Środowiska w Kołobrzegu Sp. z o.o."
      }
    },
    {
      "displayName": "Migros",
      "id": "migros-c59bef",
      "locationSet": {"include": ["ch"]},
      "tags": {
        "amenity": "recycling",
        "operator": "Migros"
      }
    },
    {
      "displayName": "Ministerio de Ambiente y Espacio Público",
      "id": "ministeriodeambienteyespaciopublico-d0f14c",
      "locationSet": {"include": ["ar"]},
      "tags": {
        "amenity": "recycling",
        "operator": "Ministerio de Ambiente y Espacio Público"
      }
    },
    {
      "displayName": "Morlaix Communauté",
      "id": "morlaixcommunaute-59e4c1",
      "locationSet": {"include": ["fx"]},
      "tags": {
        "amenity": "recycling",
        "operator": "Morlaix Communauté"
      }
    },
    {
      "displayName": "Movar",
      "id": "movar-43c9f4",
      "locationSet": {"include": ["se"]},
      "tags": {
        "amenity": "recycling",
        "operator": "Movar"
      }
    },
    {
      "displayName": "Municipalidad de Quilmes",
      "id": "municipalidaddequilmes-d0f14c",
      "locationSet": {"include": ["ar"]},
      "tags": {
        "amenity": "recycling",
        "operator": "Municipalidad de Quilmes"
      }
    },
    {
      "displayName": "Municipalidad de Roldán",
      "id": "municipalidadderoldan-d0f14c",
      "locationSet": {"include": ["ar"]},
      "tags": {
        "amenity": "recycling",
        "operator": "Municipalidad de Roldán"
      }
    },
    {
      "displayName": "Nausicaa",
      "id": "nausicaa-94eaae",
      "locationSet": {"include": ["it"]},
      "tags": {
        "amenity": "recycling",
        "operator": "Nausicaa"
      }
    },
    {
      "displayName": "Next Textiles Association",
      "id": "nexttextilesassociation-59e4c1",
      "locationSet": {"include": ["fx"]},
      "tags": {
        "amenity": "recycling",
        "operator": "Next Textiles Association"
      }
    },
    {
      "displayName": "Norfolk County Council",
      "id": "norfolkcountycouncil-7c7e43",
      "locationSet": {"include": ["gb-eng"]},
      "tags": {
        "amenity": "recycling",
        "operator": "Norfolk County Council",
        "operator:wikidata": "Q6386227"
      }
    },
    {
      "displayName": "Norges Røde Kors",
      "id": "norgesrodekors-3e1966",
      "locationSet": {"include": ["no"]},
      "matchNames": ["røde kors"],
      "tags": {
        "amenity": "recycling",
        "operator": "Norges Røde Kors",
        "operator:wikidata": "Q927391"
      }
    },
    {
      "displayName": "Nottingham City Council",
      "id": "nottinghamcitycouncil-7c7e43",
      "locationSet": {"include": ["gb-eng"]},
      "tags": {
        "amenity": "recycling",
        "operator": "Nottingham City Council",
        "operator:wikidata": "Q7063612"
      }
    },
    {
      "displayName": "ODEBRECHT",
      "id": "odebrecht-ade6e6",
      "locationSet": {"include": ["br"]},
      "tags": {
        "amenity": "recycling",
        "operator": "ODEBRECHT"
      }
    },
    {
      "displayName": "Oliobox",
      "id": "oliobox-980be7",
      "locationSet": {"include": ["be"]},
      "tags": {
        "amenity": "recycling",
        "operator": "Oliobox"
      }
    },
    {
      "displayName": "OOO \"Прозрачный источник\"",
      "id": "fd4155-91c985",
      "locationSet": {"include": ["001"]},
      "tags": {
        "amenity": "recycling",
        "operator": "OOO \"Прозрачный источник\""
      }
    },
    {
      "displayName": "Orléans Métropole",
      "id": "orleansmetropole-59e4c1",
      "locationSet": {"include": ["fx"]},
      "tags": {
        "amenity": "recycling",
        "operator": "Orléans Métropole"
      }
    },
    {
      "displayName": "Parish of St. Helier",
      "id": "parishofsthelier-ca1d6d",
      "locationSet": {"include": ["je"]},
      "tags": {
        "amenity": "recycling",
        "operator": "Parish of St. Helier"
      }
    },
    {
      "displayName": "Plaine Commune",
      "id": "plainecommune-59e4c1",
      "locationSet": {"include": ["fx"]},
      "tags": {
        "amenity": "recycling",
        "operator": "Plaine Commune"
      }
    },
    {
      "displayName": "Polski Czerwony Krzyż",
      "id": "polskiczerwonykrzyz-f1a5a5",
      "locationSet": {"include": ["pl"]},
      "tags": {
        "amenity": "recycling",
        "operator": "Polski Czerwony Krzyż",
        "operator:short": "PCK",
        "operator:wikidata": "Q6127600"
      }
    },
    {
      "displayName": "Porsiete",
      "id": "porsiete-49dabd",
      "locationSet": {"include": ["es"]},
      "tags": {
        "amenity": "recycling",
        "operator": "Porsiete"
      }
    },
    {
      "displayName": "Pranta de Reciclaxe da Mancomunidade de Concellos do Barbanza",
      "id": "prantadereciclaxedamancomunidadedeconcellosdobarbanza-49dabd",
      "locationSet": {"include": ["es"]},
      "tags": {
        "amenity": "recycling",
        "operator": "Pranta de Reciclaxe da Mancomunidade de Concellos do Barbanza"
      }
    },
    {
      "displayName": "Pražské služby a.s.",
      "id": "prazskesluzbyas-778b5b",
      "locationSet": {"include": ["cz"]},
      "tags": {
        "amenity": "recycling",
        "operator": "Pražské služby a.s."
      }
    },
    {
      "displayName": "PreZero",
      "id": "prezero-6737d9",
      "locationSet": {"include": ["de"]},
      "tags": {
        "amenity": "recycling",
        "operator": "PreZero",
        "operator:wikidata": "Q2464062"
      }
    },
    {
      "displayName": "Profittex GmbH",
      "id": "profittexgmbh-6737d9",
      "locationSet": {"include": ["de"]},
      "tags": {
        "amenity": "recycling",
        "operator": "Profittex GmbH"
      }
    },
    {
      "displayName": "Punto Seguro",
      "id": "puntoseguro-f39190",
      "locationSet": {"include": ["cr"]},
      "tags": {
        "amenity": "recycling",
        "operator": "Punto Seguro"
      }
    },
    {
      "displayName": "RAD",
      "id": "rad-fcd61b",
      "locationSet": {"include": ["nl"]},
      "matchNames": ["rad hw b.v."],
      "tags": {
        "amenity": "recycling",
        "operator": "RAD",
        "operator:wikidata": "Q3925124"
      }
    },
    {
      "displayName": "RCM-CORBEILLES2022-COM-ENV",
      "id": "rcmcorbeilles2022comenv-ce9522",
      "locationSet": {"include": ["mf"]},
      "tags": {
        "amenity": "recycling",
        "operator": "RCM-CORBEILLES2022-COM-ENV"
      }
    },
    {
      "displayName": "RD4",
      "id": "rd4-fcd61b",
      "locationSet": {"include": ["nl"]},
      "tags": {
        "amenity": "recycling",
        "operator": "RD4"
      }
    },
    {
      "displayName": "Récylum",
      "id": "recylum-59e4c1",
      "locationSet": {"include": ["fx"]},
      "tags": {
        "amenity": "recycling",
        "operator": "Récylum"
      }
    },
    {
      "displayName": "Reinis",
      "id": "reinis-fcd61b",
      "locationSet": {"include": ["nl"]},
      "tags": {
        "amenity": "recycling",
        "operator": "Reinis"
      }
    },
    {
      "displayName": "reloga",
      "id": "reloga-15b788",
      "locationSet": {
        "include": ["de-nw.geojson"]
      },
      "tags": {
        "amenity": "recycling",
        "operator": "reloga"
      }
    },
    {
      "displayName": "REMONDIS",
      "id": "remondis-6737d9",
      "locationSet": {"include": ["de"]},
      "tags": {
        "amenity": "recycling",
        "operator": "REMONDIS",
        "operator:wikidata": "Q884975"
      }
    },
    {
      "displayName": "Rennes Métropole",
      "id": "rennesmetropole-59e4c1",
      "locationSet": {"include": ["fx"]},
      "tags": {
        "amenity": "recycling",
        "operator": "Rennes Métropole"
      }
    },
    {
      "displayName": "RER Group Romania",
      "id": "rergroupromania-4abcbd",
      "locationSet": {"include": ["ro"]},
      "tags": {
        "amenity": "recycling",
        "operator": "RER Group Romania"
      }
    },
    {
      "displayName": "Retextil Recycling International",
      "id": "retextilrecyclinginternational-6737d9",
      "locationSet": {"include": ["de"]},
      "tags": {
        "amenity": "recycling",
        "operator": "Retextil Recycling International"
      }
    },
    {
      "displayName": "Rhenus",
      "id": "rhenus-6737d9",
      "locationSet": {"include": ["de"]},
      "tags": {
        "amenity": "recycling",
        "operator": "Rhenus"
      }
    },
    {
      "displayName": "Rhenus Logistic",
      "id": "rhenuslogistic-91c985",
      "locationSet": {"include": ["001"]},
      "tags": {
        "amenity": "recycling",
        "operator": "Rhenus Logistic"
      }
    },
    {
      "displayName": "Rhenus Logistics",
      "id": "rhenuslogistics-6737d9",
      "locationSet": {"include": ["de"]},
      "matchNames": ["rhenus logostics"],
      "tags": {
        "amenity": "recycling",
        "operator": "Rhenus Logistics"
      }
    },
    {
      "displayName": "Rinki",
      "id": "rinki-3e65e0",
      "locationSet": {"include": ["fi"]},
      "tags": {
        "amenity": "recycling",
        "operator": "Rinki"
      }
    },
    {
      "displayName": "Rodez Agglomération",
      "id": "rodezagglomeration-59e4c1",
      "locationSet": {"include": ["fx"]},
      "tags": {
        "amenity": "recycling",
        "operator": "Rodez Agglomération"
      }
    },
    {
      "displayName": "Roteb",
      "id": "roteb-fcd61b",
      "locationSet": {"include": ["nl"]},
      "tags": {
        "amenity": "recycling",
        "operator": "Roteb"
      }
    },
    {
      "displayName": "ROVA",
      "id": "rova-fcd61b",
      "locationSet": {"include": ["nl"]},
      "tags": {
        "amenity": "recycling",
        "operator": "ROVA"
      }
    },
    {
      "displayName": "RSAG",
      "id": "rsag-15b788",
      "locationSet": {
        "include": ["de-nw.geojson"]
      },
      "tags": {
        "amenity": "recycling",
        "operator": "RSAG"
      }
    },
    {
      "displayName": "S.K.C",
      "id": "skc-91c985",
      "locationSet": {"include": ["001"]},
      "tags": {
        "amenity": "recycling",
        "operator": "S.K.C"
      }
    },
    {
      "displayName": "S.K.C. Textilrecycling KG",
      "id": "skctextilrecyclingkg-91c985",
      "locationSet": {"include": ["001"]},
      "tags": {
        "amenity": "recycling",
        "operator": "S.K.C. Textilrecycling KG"
      }
    },
    {
      "displayName": "Saint-Étienne Métropole",
      "id": "saintetiennemetropole-59e4c1",
      "locationSet": {"include": ["fx"]},
      "tags": {
        "amenity": "recycling",
        "operator": "Saint-Étienne Métropole"
      }
    },
    {
      "displayName": "SAKO",
      "id": "sako-778b5b",
      "locationSet": {"include": ["cz"]},
      "tags": {
        "amenity": "recycling",
        "operator": "SAKO"
      }
    },
    {
      "displayName": "SBA",
      "id": "sba-59e4c1",
      "locationSet": {"include": ["fx"]},
      "tags": {
        "amenity": "recycling",
        "operator": "SBA"
      }
    },
    {
      "displayName": "Schönmackers Umweltdienste GmbH & Co. KG",
      "id": "schonmackersumweltdienstegmbhandcokg-15b788",
      "locationSet": {
        "include": ["de-nw.geojson"]
      },
      "matchNames": ["schönmackers"],
      "tags": {
        "amenity": "recycling",
        "operator": "Schönmackers Umweltdienste GmbH & Co. KG"
      }
    },
    {
      "displayName": "Scope",
      "id": "scope-79fa96",
      "locationSet": {"include": ["gb"]},
      "tags": {
        "amenity": "recycling",
        "operator": "Scope"
      }
    },
    {
      "displayName": "SEA",
      "id": "sea-94eaae",
      "locationSet": {"include": ["it"]},
      "tags": {
        "amenity": "recycling",
        "operator": "SEA"
      }
    },
    {
      "displayName": "Seattle University",
      "id": "seattleuniversity-624e31",
      "locationSet": {"include": ["us"]},
      "tags": {
        "amenity": "recycling",
        "operator": "Seattle University"
      }
    },
    {
      "displayName": "Secretaria de Serviços Públicos",
      "id": "secretariadeservicospublicos-ade6e6",
      "locationSet": {"include": ["br"]},
      "tags": {
        "amenity": "recycling",
        "operator": "Secretaria de Serviços Públicos"
      }
    },
    {
      "displayName": "SEMOCTOM",
      "id": "semoctom-59e4c1",
      "locationSet": {"include": ["fx"]},
      "tags": {
        "amenity": "recycling",
        "operator": "SEMOCTOM"
      }
    },
    {
      "displayName": "Serviços Intermunicipalizados de Águas e Resíduos",
      "id": "servicosintermunicipalizadosdeaguaseresiduos-416028",
      "locationSet": {"include": ["pt"]},
      "tags": {
        "amenity": "recycling",
        "operator": "Serviços Intermunicipalizados de Águas e Resíduos"
      }
    },
    {
      "displayName": "Šiaulių regiono atliekų tvarkymo centras",
      "id": "siauliuregionoatliekutvarkymocentras-cf4ebd",
      "locationSet": {"include": ["lt"]},
      "tags": {
        "amenity": "recycling",
        "operator": "Šiaulių regiono atliekų tvarkymo centras"
      }
    },
    {
      "displayName": "SICTOM",
      "id": "sictom-59e4c1",
      "locationSet": {"include": ["fx"]},
      "tags": {
        "amenity": "recycling",
        "operator": "SICTOM"
      }
    },
    {
      "displayName": "Sictom du Marsan",
      "id": "sictomdumarsan-59e4c1",
      "locationSet": {"include": ["fx"]},
      "tags": {
        "amenity": "recycling",
        "operator": "Sictom du Marsan"
      }
    },
    {
      "displayName": "Sictom Pézenas Agde",
      "id": "sictompezenasagde-91c985",
      "locationSet": {"include": ["001"]},
      "tags": {
        "amenity": "recycling",
        "operator": "Sictom Pézenas Agde"
      }
    },
    {
      "displayName": "Sidefage",
      "id": "sidefage-59e4c1",
      "locationSet": {"include": ["fx"]},
      "tags": {
        "amenity": "recycling",
        "operator": "Sidefage"
      }
    },
    {
      "displayName": "SIEEOM Sud-Quercy",
      "id": "sieeomsudquercy-59e4c1",
      "locationSet": {"include": ["fx"]},
      "tags": {
        "amenity": "recycling",
        "operator": "SIEEOM Sud-Quercy"
      }
    },
    {
      "displayName": "SIETOM",
      "id": "sietom-91c985",
      "locationSet": {"include": ["001"]},
      "tags": {
        "amenity": "recycling",
        "operator": "SIETOM"
      }
    },
    {
      "displayName": "SIETOM de Chalosse",
      "id": "sietomdechalosse-59e4c1",
      "locationSet": {"include": ["fx"]},
      "tags": {
        "amenity": "recycling",
        "operator": "SIETOM de Chalosse"
      }
    },
    {
      "displayName": "Silim Environnement",
      "id": "silimenvironnement-59e4c1",
      "locationSet": {"include": ["fx"]},
      "tags": {
        "amenity": "recycling",
        "operator": "Silim Environnement"
      }
    },
    {
      "displayName": "SIMAR",
      "id": "simar-416028",
      "locationSet": {"include": ["pt"]},
      "tags": {
        "amenity": "recycling",
        "operator": "SIMAR"
      }
    },
    {
      "displayName": "SIRCTOM",
      "id": "sirctom-59e4c1",
      "locationSet": {"include": ["fx"]},
      "tags": {
        "amenity": "recycling",
        "operator": "SIRCTOM"
      }
    },
    {
      "displayName": "SISTO",
      "id": "sisto-59e4c1",
      "locationSet": {"include": ["fx"]},
      "tags": {
        "amenity": "recycling",
        "operator": "SISTO"
      }
    },
    {
      "displayName": "SITCOM - Côte sud des Landes",
      "id": "sitcomcotesuddeslandes-59e4c1",
      "locationSet": {"include": ["fx"]},
      "tags": {
        "amenity": "recycling",
        "operator": "SITCOM - Côte sud des Landes"
      }
    },
    {
      "displayName": "Sitcom du Marsan",
      "id": "sitcomdumarsan-59e4c1",
      "locationSet": {"include": ["fx"]},
      "tags": {
        "amenity": "recycling",
        "operator": "Sitcom du Marsan"
      }
    },
    {
      "displayName": "Sivalor",
      "id": "sivalor-91c985",
      "locationSet": {"include": ["001"]},
      "tags": {
        "amenity": "recycling",
        "operator": "Sivalor"
      }
    },
    {
      "displayName": "SIVOM",
      "id": "sivom-59e4c1",
      "locationSet": {"include": ["fx"]},
      "tags": {
        "amenity": "recycling",
        "operator": "SIVOM"
      }
    },
    {
      "displayName": "Služby města Český Krumlov s.r.o.",
      "id": "sluzbymestaceskykrumlovsro-778b5b",
      "locationSet": {"include": ["cz"]},
      "tags": {
        "amenity": "recycling",
        "operator": "Služby města Český Krumlov s.r.o."
      }
    },
    {
      "displayName": "SMAV",
      "id": "smav-59e4c1",
      "locationSet": {"include": ["fx"]},
      "tags": {
        "amenity": "recycling",
        "operator": "SMAV"
      }
    },
    {
      "displayName": "SMD3",
      "id": "smd3-59e4c1",
      "locationSet": {"include": ["fx"]},
      "tags": {
        "amenity": "recycling",
        "operator": "SMD3"
      }
    },
    {
      "displayName": "SMICOTOM",
      "id": "smicotom-59e4c1",
      "locationSet": {"include": ["fx"]},
      "tags": {
        "amenity": "recycling",
        "operator": "SMICOTOM"
      }
    },
    {
      "displayName": "Smictom",
      "id": "smictom-59e4c1",
      "locationSet": {"include": ["fx"]},
      "tags": {
        "amenity": "recycling",
        "operator": "Smictom"
      }
    },
    {
      "displayName": "SMICVAL",
      "id": "smicval-59e4c1",
      "locationSet": {"include": ["fx"]},
      "tags": {
        "amenity": "recycling",
        "operator": "SMICVAL"
      }
    },
    {
      "displayName": "SMIRCTOM",
      "id": "smirctom-59e4c1",
      "locationSet": {"include": ["fx"]},
      "tags": {
        "amenity": "recycling",
        "operator": "SMIRCTOM"
      }
    },
    {
      "displayName": "Smitom-Lombric",
      "id": "smitomlombric-91c985",
      "locationSet": {"include": ["001"]},
      "tags": {
        "amenity": "recycling",
        "operator": "Smitom-Lombric"
      }
    },
    {
      "displayName": "SMND",
      "id": "smnd-59e4c1",
      "locationSet": {"include": ["fx"]},
      "tags": {
        "amenity": "recycling",
        "operator": "SMND"
      }
    },
    {
      "displayName": "Société Méditerranéenne de Nettoiement",
      "id": "societemediterraneennedenettoiement-91c985",
      "locationSet": {"include": ["001"]},
      "tags": {
        "amenity": "recycling",
        "operator": "Société Méditerranéenne de Nettoiement"
      }
    },
    {
      "displayName": "SOEX",
      "id": "soex-a3d9bb",
      "locationSet": {
        "include": [
          "ae",
          "de",
          "es",
          "fx",
          "gb",
          "ru"
        ]
      },
      "tags": {
        "amenity": "recycling",
        "operator": "SOEX",
        "operator:wikidata": "Q1497749"
      }
    },
    {
      "displayName": "Solidarité Textiles",
      "id": "solidaritetextiles-59e4c1",
      "locationSet": {"include": ["fx"]},
      "tags": {
        "amenity": "recycling",
        "operator": "Solidarité Textiles"
      }
    },
    {
      "displayName": "Somerset Waste Partnership",
      "id": "somersetwastepartnership-934ccf",
      "locationSet": {
        "include": ["gb-som.geojson"]
      },
      "matchNames": ["swp"],
      "tags": {
        "amenity": "recycling",
        "operator": "Somerset Waste Partnership",
        "operator:wikidata": "Q110962928"
      }
    },
    {
      "displayName": "Sorpa",
      "id": "sorpa-270303",
      "locationSet": {"include": ["is"]},
      "tags": {
        "amenity": "recycling",
        "operator": "Sorpa"
      }
    },
    {
      "displayName": "SP Textilverwertung",
      "id": "sptextilverwertung-6737d9",
      "locationSet": {"include": ["de"]},
      "tags": {
        "amenity": "recycling",
        "operator": "SP Textilverwertung"
      }
    },
    {
      "displayName": "Stad Halle",
      "id": "stadhalle-91c985",
      "locationSet": {"include": ["001"]},
      "tags": {
        "amenity": "recycling",
        "operator": "Stad Halle"
      }
    },
    {
      "displayName": "Stadswerk 072",
      "id": "stadswerk072-fcd61b",
      "locationSet": {"include": ["nl"]},
      "tags": {
        "amenity": "recycling",
        "operator": "Stadswerk 072"
      }
    },
    {
      "displayName": "Stadt Augsburg (AWS)",
      "id": "stadtaugsburgaws-4fb837",
      "locationSet": {
        "include": ["de-by.geojson"]
      },
      "tags": {
        "amenity": "recycling",
        "operator": "Stadt Augsburg (AWS)"
      }
    },
    {
      "displayName": "Stadt Bern",
      "id": "stadtbern-c59bef",
      "locationSet": {"include": ["ch"]},
      "tags": {
        "amenity": "recycling",
        "operator": "Stadt Bern"
      }
    },
    {
      "displayName": "Stadt Hamm",
      "id": "stadthamm-15b788",
      "locationSet": {
        "include": ["de-nw.geojson"]
      },
      "tags": {
        "amenity": "recycling",
        "operator": "Stadt Hamm"
      }
    },
    {
      "displayName": "Stadt Heidelberg",
      "id": "stadtheidelberg-fd14c2",
      "locationSet": {
        "include": ["de-bw.geojson"]
      },
      "tags": {
        "amenity": "recycling",
        "operator": "Stadt Heidelberg"
      }
    },
    {
      "displayName": "Stadt Kamp-Lintfort",
      "id": "stadtkamplintfort-15b788",
      "locationSet": {
        "include": ["de-nw.geojson"]
      },
      "tags": {
        "amenity": "recycling",
        "operator": "Stadt Kamp-Lintfort"
      }
    },
    {
      "displayName": "Stadt Karlsruhe",
      "id": "stadtkarlsruhe-fd14c2",
      "locationSet": {
        "include": ["de-bw.geojson"]
      },
      "tags": {
        "amenity": "recycling",
        "operator": "Stadt Karlsruhe"
      }
    },
    {
      "displayName": "Stadt Karlsruhe Amt für Abfallwirtschaft",
      "id": "stadtkarlsruheamtfurabfallwirtschaft-fd14c2",
      "locationSet": {
        "include": ["de-bw.geojson"]
      },
      "tags": {
        "amenity": "recycling",
        "operator": "Stadt Karlsruhe Amt für Abfallwirtschaft"
      }
    },
    {
      "displayName": "Stadt Krems",
      "id": "stadtkrems-2e00cf",
      "locationSet": {"include": ["at"]},
      "tags": {
        "amenity": "recycling",
        "operator": "Stadt Krems"
      }
    },
    {
      "displayName": "Stadt Landshut",
      "id": "stadtlandshut-4fb837",
      "locationSet": {
        "include": ["de-by.geojson"]
      },
      "tags": {
        "amenity": "recycling",
        "operator": "Stadt Landshut"
      }
    },
    {
      "displayName": "Stadt Stuttgart",
      "id": "stadtstuttgart-fd14c2",
      "locationSet": {
        "include": ["de-bw.geojson"]
      },
      "tags": {
        "amenity": "recycling",
        "operator": "Stadt Stuttgart"
      }
    },
    {
      "displayName": "Stadt Willich",
      "id": "stadtwillich-15b788",
      "locationSet": {
        "include": ["de-nw.geojson"]
      },
      "tags": {
        "amenity": "recycling",
        "operator": "Stadt Willich"
      }
    },
    {
      "displayName": "Stadtentsorgung Potsdam",
      "id": "stadtentsorgungpotsdam-5a52cc",
      "locationSet": {
        "include": ["de-bb.geojson"]
      },
      "tags": {
        "amenity": "recycling",
        "operator": "Stadtentsorgung Potsdam",
        "operator:short": "STEP"
      }
    },
    {
      "displayName": "Stadtfriedhof Göttingen",
      "id": "stadtfriedhofgottingen-7d4127",
      "locationSet": {
        "include": ["de-ni.geojson"]
      },
      "tags": {
        "amenity": "recycling",
        "operator": "Stadtfriedhof Göttingen"
      }
    },
    {
      "displayName": "Stadtreiniger Kassel",
      "id": "stadtreinigerkassel-95f31a",
      "locationSet": {
        "include": ["de-he.geojson"]
      },
      "tags": {
        "amenity": "recycling",
        "operator": "Stadtreiniger Kassel"
      }
    },
    {
      "displayName": "Stadtreinigung Hamburg",
      "id": "stadtreinigunghamburg-d0aa76",
      "locationSet": {
        "include": ["de-hh.geojson"]
      },
      "tags": {
        "amenity": "recycling",
        "operator": "Stadtreinigung Hamburg",
        "operator:wikidata": "Q1532474"
      }
    },
    {
      "displayName": "Stadtreinigung Leipzig",
      "id": "stadtreinigungleipzig-180c3d",
      "locationSet": {
        "include": ["de-sn.geojson"]
      },
      "tags": {
        "amenity": "recycling",
        "operator": "Stadtreinigung Leipzig"
      }
    },
    {
      "displayName": "Stadtreinigungs-, Transport- und Baubetrieb Lüdenscheid",
      "id": "stadtreinigungstransportundbaubetriebludenscheid-15b788",
      "locationSet": {
        "include": ["de-nw.geojson"]
      },
      "tags": {
        "amenity": "recycling",
        "operator": "Stadtreinigungs-, Transport- und Baubetrieb Lüdenscheid"
      }
    },
    {
      "displayName": "Subsecretaria de ambiente y espacio público",
      "id": "subsecretariadeambienteyespaciopublico-d0f14c",
      "locationSet": {"include": ["ar"]},
      "tags": {
        "amenity": "recycling",
        "operator": "Subsecretaria de ambiente y espacio público"
      }
    },
    {
      "displayName": "Suez",
      "id": "suez-b5f2f0",
      "locationSet": {"include": ["fx", "gb"]},
      "tags": {
        "amenity": "recycling",
        "operator": "Suez",
        "operator:wikidata": "Q177814"
      }
    },
    {
      "displayName": "Suez Süd GmbH",
      "id": "suezsudgmbh-6737d9",
      "locationSet": {"include": ["de"]},
      "tags": {
        "amenity": "recycling",
        "operator": "Suez Süd GmbH"
      }
    },
    {
      "displayName": "Suma",
      "id": "suma-416028",
      "locationSet": {"include": ["pt"]},
      "tags": {
        "amenity": "recycling",
        "operator": "Suma"
      }
    },
    {
      "displayName": "Suomen Pakkauskierrätys RINKI Oy",
      "id": "suomenpakkauskierratysrinkioy-91c985",
      "locationSet": {"include": ["001"]},
      "tags": {
        "amenity": "recycling",
        "operator": "Suomen Pakkauskierrätys RINKI Oy"
      }
    },
    {
      "displayName": "SYBERT",
      "id": "sybert-59e4c1",
      "locationSet": {"include": ["fx"]},
      "tags": {
        "amenity": "recycling",
        "operator": "SYBERT"
      }
    },
    {
      "displayName": "SYDED",
      "id": "syded-59e4c1",
      "locationSet": {"include": ["fx"]},
      "tags": {
        "amenity": "recycling",
        "operator": "SYDED"
      }
    },
    {
      "displayName": "Syded du Lot",
      "id": "sydeddulot-59e4c1",
      "locationSet": {"include": ["fx"]},
      "tags": {
        "amenity": "recycling",
        "operator": "Syded du Lot"
      }
    },
    {
      "displayName": "Sympany",
      "id": "sympany-fcd61b",
      "locationSet": {"include": ["nl"]},
      "tags": {
        "amenity": "recycling",
        "operator": "Sympany",
        "operator:wikidata": "Q2646891",
        "recycling_type": "container",
        "recycling:clothes": "yes",
        "recycling:shoes": "yes"
      }
    },
    {
      "displayName": "Syndicat d'Elimination des Déchets de la Haute Lande",
      "id": "syndicatdeliminationdesdechetsdelahautelande-59e4c1",
      "locationSet": {"include": ["fx"]},
      "tags": {
        "amenity": "recycling",
        "operator": "Syndicat d'Elimination des Déchets de la Haute Lande"
      }
    },
    {
      "displayName": "Syndicat de traitement des déchets du sud-est du Morbihan",
      "id": "syndicatdetraitementdesdechetsdusudestdumorbihan-59e4c1",
      "locationSet": {"include": ["fx"]},
      "tags": {
        "amenity": "recycling",
        "operator": "Syndicat de traitement des déchets du sud-est du Morbihan"
      }
    },
    {
      "displayName": "Syndicat de traitement des déchets du Sud-Est Morbihan",
      "id": "syndicatdetraitementdesdechetsdusudestmorbihan-59e4c1",
      "locationSet": {"include": ["fx"]},
      "tags": {
        "amenity": "recycling",
        "operator": "Syndicat de traitement des déchets du Sud-Est Morbihan"
      }
    },
    {
      "displayName": "Syndicat mixte d’élimination des déchets de l’arrondissement de Rouen",
      "id": "syndicatmixtedeliminationdesdechetsdelarrondissementderouen-59e4c1",
      "locationSet": {"include": ["fx"]},
      "tags": {
        "amenity": "recycling",
        "operator": "Syndicat mixte d’élimination des déchets de l’arrondissement de Rouen"
      }
    },
    {
      "displayName": "Syndicat Mixte du Point Fort",
      "id": "syndicatmixtedupointfort-59e4c1",
      "locationSet": {"include": ["fx"]},
      "tags": {
        "amenity": "recycling",
        "operator": "Syndicat Mixte du Point Fort"
      }
    },
    {
      "displayName": "Syndicat mixte intercommunal de collecte et de traitement des ordures ménagères des Pays de Vilaine",
      "id": "syndicatmixteintercommunaldecollecteetdetraitementdesorduresmenageresdespaysdevilaine-59e4c1",
      "locationSet": {"include": ["fx"]},
      "tags": {
        "amenity": "recycling",
        "operator": "Syndicat mixte intercommunal de collecte et de traitement des ordures ménagères des Pays de Vilaine"
      }
    },
    {
      "displayName": "Syndicat mixte intercommunal pour la collecte et le traitement des ordures ménagères Sud-Est 35",
      "id": "syndicatmixteintercommunalpourlacollecteetletraitementdesorduresmenageressudest35-59e4c1",
      "locationSet": {"include": ["fx"]},
      "tags": {
        "amenity": "recycling",
        "operator": "Syndicat mixte intercommunal pour la collecte et le traitement des ordures ménagères Sud-Est 35"
      }
    },
    {
      "displayName": "Szegedi Hulladékgazdálkodási Nonprofit Kft.",
      "id": "szegedihulladekgazdalkodasinonprofitkft-b316be",
      "locationSet": {"include": ["hu"]},
      "tags": {
        "amenity": "recycling",
        "operator": "Szegedi Hulladékgazdálkodási Nonprofit Kft."
      }
    },
    {
      "displayName": "TBS",
      "id": "tbs-15b788",
      "locationSet": {
        "include": ["de-nw.geojson"]
      },
      "tags": {
        "amenity": "recycling",
        "operator": "TBS"
      }
    },
    {
      "displayName": "team orange",
      "id": "teamorange-4fb837",
      "locationSet": {
        "include": ["de-by.geojson"]
      },
      "tags": {
        "amenity": "recycling",
        "operator": "team orange"
      }
    },
    {
      "displayName": "Technische Betriebe Remscheid",
      "id": "technischebetrieberemscheid-15b788",
      "locationSet": {
        "include": ["de-nw.geojson"]
      },
      "tags": {
        "amenity": "recycling",
        "operator": "Technische Betriebe Remscheid"
      }
    },
    {
      "displayName": "Technische Betriebe Velbert AöR",
      "id": "technischebetriebevelbertaor-15b788",
      "locationSet": {
        "include": ["de-nw.geojson"]
      },
      "tags": {
        "amenity": "recycling",
        "operator": "Technische Betriebe Velbert AöR"
      }
    },
    {
      "displayName": "Tekniska verken",
      "id": "tekniskaverken-43c9f4",
      "locationSet": {"include": ["se"]},
      "tags": {
        "amenity": "recycling",
        "operator": "Tekniska verken"
      }
    },
    {
      "displayName": "Terre",
      "id": "terre-980be7",
      "locationSet": {"include": ["be"]},
      "matchNames": ["terre asbl"],
      "tags": {
        "amenity": "recycling",
        "operator": "Terre"
      }
    },
    {
      "displayName": "Tesco",
      "id": "tesco-91c985",
      "locationSet": {"include": ["001"]},
      "tags": {
        "amenity": "recycling",
        "operator": "Tesco",
        "operator:wikidata": "Q487494"
      }
    },
    {
      "displayName": "TEXAID",
      "id": "texaid-488a54",
      "locationSet": {"include": ["ch", "us"]},
      "tags": {
        "amenity": "recycling",
        "operator": "Texaid",
        "operator:wikidata": "Q1395183"
      }
    },
    {
      "displayName": "TEXAID Austria",
      "id": "texaidaustria-2e00cf",
      "locationSet": {"include": ["at"]},
      "matchNames": ["texaid"],
      "tags": {
        "amenity": "recycling",
        "operator": "TEXAID Austria",
        "operator:wikidata": "Q1395183",
        "recycling:clothes": "yes",
        "recycling:shoes": "yes"
      }
    },
    {
      "displayName": "TEXAID Bulgaria",
      "id": "texaidbulgaria-f11175",
      "locationSet": {"include": ["bg"]},
      "matchNames": ["texaid"],
      "tags": {
        "amenity": "recycling",
        "operator": "TEXAID Bulgaria",
        "operator:wikidata": "Q1395183",
        "recycling:clothes": "yes",
        "recycling:shoes": "yes"
      }
    },
    {
      "displayName": "TEXAID Collection GmbH",
      "id": "texaidcollectiongmbh-6737d9",
      "locationSet": {"include": ["de"]},
      "tags": {
        "amenity": "recycling",
        "operator": "TEXAID Collection GmbH",
        "operator:wikidata": "Q1395183",
        "recycling:clothes": "yes",
        "recycling:shoes": "yes"
      }
    },
    {
      "displayName": "TEXAID Deutschland",
      "id": "texaiddeutschland-6737d9",
      "locationSet": {"include": ["de"]},
      "matchNames": [
        "texaid",
        "texaid deutschland gmbh"
      ],
      "tags": {
        "amenity": "recycling",
        "operator": "TEXAID Deutschland",
        "operator:wikidata": "Q1395183",
        "recycling:clothes": "yes",
        "recycling:shoes": "yes"
      }
    },
    {
      "displayName": "TEXAID Hungaria",
      "id": "texaidhungaria-b316be",
      "locationSet": {"include": ["hu"]},
      "matchNames": ["texaid"],
      "tags": {
        "amenity": "recycling",
        "operator": "TEXAID Hungaria",
        "operator:wikidata": "Q1395183",
        "recycling:clothes": "yes",
        "recycling:shoes": "yes"
      }
    },
    {
      "displayName": "TexCycle",
      "id": "texcycle-f11175",
      "locationSet": {"include": ["bg"]},
      "tags": {
        "amenity": "recycling",
        "operator": "TexCycle",
        "operator:wikidata": "Q85614408",
        "recycling:clothes": "yes",
        "recycling:shoes": "yes"
      }
    },
    {
      "displayName": "The Fire Fighters Charity",
      "id": "thefirefighterscharity-79fa96",
      "locationSet": {"include": ["gb"]},
      "tags": {
        "amenity": "recycling",
        "operator": "The Fire Fighters Charity",
        "operator:wikidata": "Q104563371"
      }
    },
    {
      "displayName": "Tibi",
      "id": "tibi-980be7",
      "locationSet": {"include": ["be"]},
      "tags": {
        "amenity": "recycling",
        "operator": "Tibi"
      }
    },
    {
      "displayName": "Toulouse Métropole",
      "id": "toulousemetropole-59e4c1",
      "locationSet": {"include": ["fx"]},
      "tags": {
        "amenity": "recycling",
        "operator": "Toulouse Métropole"
      }
    },
    {
      "displayName": "Tours Métropole Val de Loire",
      "id": "toursmetropolevaldeloire-59e4c1",
      "locationSet": {"include": ["fx"]},
      "tags": {
        "amenity": "recycling",
        "operator": "Tours Métropole Val de Loire"
      }
    },
    {
      "displayName": "Tremplin",
      "id": "tremplin-91c985",
      "locationSet": {"include": ["001"]},
      "tags": {
        "amenity": "recycling",
        "operator": "Tremplin"
      }
    },
    {
      "displayName": "TVO",
      "id": "tvo-964b6d",
      "locationSet": {"include": ["ee"]},
      "tags": {
        "amenity": "recycling",
        "operator": "TVO"
      }
    },
    {
      "displayName": "Twente Milieu",
      "id": "twentemilieu-fcd61b",
      "locationSet": {"include": ["nl"]},
      "tags": {
        "amenity": "recycling",
        "operator": "Twente Milieu"
      }
    },
    {
      "displayName": "UFF",
      "id": "uff-2c67eb",
      "locationSet": {
        "include": ["dk", "fi", "no"]
      },
      "tags": {
        "amenity": "recycling",
        "operator": "UFF"
      }
    },
    {
      "displayName": "UIC",
      "id": "uic-94eaae",
      "locationSet": {"include": ["it"]},
      "tags": {
        "amenity": "recycling",
        "operator": "UIC"
      }
    },
    {
      "displayName": "Umweltservice Bochum",
      "id": "umweltservicebochum-15b788",
      "locationSet": {
        "include": ["de-nw.geojson"]
      },
      "tags": {
        "amenity": "recycling",
        "operator": "Umweltservice Bochum"
      }
    },
    {
      "displayName": "University of Cambridge",
      "id": "universityofcambridge-0288c7",
      "locationSet": {
        "include": ["gb-east-england.geojson"]
      },
      "tags": {
        "amenity": "recycling",
        "operator": "University of Cambridge",
        "operator:wikidata": "Q35794"
      }
    },
    {
      "displayName": "Urbarser",
      "id": "urbarser-49dabd",
      "locationSet": {"include": ["es"]},
      "tags": {
        "amenity": "recycling",
        "operator": "Urbarser"
      }
    },
    {
      "displayName": "UROLA ERDIKO MANKOMUNITATEA",
      "id": "urolaerdikomankomunitatea-49dabd",
      "locationSet": {"include": ["es"]},
      "tags": {
        "amenity": "recycling",
        "operator": "UROLA ERDIKO MANKOMUNITATEA"
      }
    },
    {
      "displayName": "Urząd Miasta Opola",
      "id": "urzadmiastaopola-f1a5a5",
      "locationSet": {"include": ["pl"]},
      "tags": {
        "amenity": "recycling",
        "operator": "Urząd Miasta Opola"
      }
    },
    {
      "displayName": "USB Bochum",
      "id": "usbbochum-15b788",
      "locationSet": {
        "include": ["de-nw.geojson"]
      },
      "matchNames": [
        "usb",
        "usb umweltservice bochum"
      ],
      "tags": {
        "amenity": "recycling",
        "operator": "USB Bochum",
        "operator:wikidata": "Q2468091"
      }
    },
    {
      "displayName": "UW Facilities",
      "id": "uwfacilities-624e31",
      "locationSet": {"include": ["us"]},
      "tags": {
        "amenity": "recycling",
        "operator": "UW Facilities"
      }
    },
    {
      "displayName": "V.H.S. Europ",
      "id": "vhseurop-980be7",
      "locationSet": {"include": ["be"]},
      "tags": {
        "amenity": "recycling",
        "operator": "V.H.S. Europ"
      }
    },
    {
      "displayName": "Valorlis",
      "id": "valorlis-416028",
      "locationSet": {"include": ["pt"]},
      "tags": {
        "amenity": "recycling",
        "operator": "Valorlis"
      }
    },
    {
      "displayName": "Veolia",
      "id": "veolia-91c985",
      "locationSet": {"include": ["001"]},
      "tags": {
        "amenity": "recycling",
        "operator": "Veolia",
        "operator:wikidata": "Q1632461"
      }
    },
    {
      "displayName": "Veolia Environmental Services ( U K ) Plc",
      "id": "veoliaenvironmentalservicesukplc-79fa96",
      "locationSet": {"include": ["gb"]},
      "tags": {
        "amenity": "recycling",
        "operator": "Veolia Environmental Services ( U K ) Plc"
      }
    },
    {
      "displayName": "Veolia Umweltservice",
      "id": "veoliaumweltservice-6737d9",
      "locationSet": {"include": ["de"]},
      "tags": {
        "amenity": "recycling",
        "operator": "Veolia Umweltservice"
      }
    },
    {
      "displayName": "Vichy Communauté",
      "id": "vichycommunaute-59e4c1",
      "locationSet": {"include": ["fx"]},
      "tags": {
        "amenity": "recycling",
        "operator": "Vichy Communauté"
      }
    },
    {
      "displayName": "Ville de Geneve",
      "id": "villedegeneve-c59bef",
      "locationSet": {"include": ["ch"]},
      "tags": {
        "amenity": "recycling",
        "operator": "Ville de Geneve"
      }
    },
    {
      "displayName": "Ville de Paris",
      "id": "villedeparis-91c985",
      "locationSet": {"include": ["001"]},
      "tags": {
        "amenity": "recycling",
        "operator": "Ville de Paris"
      }
    },
    {
      "displayName": "Ville de Sevran",
      "id": "villedesevran-59e4c1",
      "locationSet": {"include": ["fx"]},
      "tags": {
        "amenity": "recycling",
        "operator": "Ville de Sevran"
      }
    },
    {
      "displayName": "Vlaams Internationaal Centrum",
      "id": "vlaamsinternationaalcentrum-980be7",
      "locationSet": {"include": ["be"]},
      "tags": {
        "amenity": "recycling",
        "operator": "Vlaams Internationaal Centrum"
      }
    },
    {
      "displayName": "Vlaams Inzamel Centrum Textiel",
      "id": "vlaamsinzamelcentrumtextiel-980be7",
      "locationSet": {"include": ["be"]},
      "tags": {
        "amenity": "recycling",
        "operator": "Vlaams Inzamel Centrum Textiel"
      }
    },
    {
      "displayName": "Vorwerker Diakonie",
      "id": "vorwerkerdiakonie-6737d9",
      "locationSet": {"include": ["de"]},
      "tags": {
        "amenity": "recycling",
        "operator": "Vorwerker Diakonie"
      }
    },
    {
      "displayName": "Waste4Think",
      "id": "waste4think-e380cc",
      "locationSet": {"include": ["gr"]},
      "tags": {
        "amenity": "recycling",
        "operator": "Waste4Think"
      }
    },
    {
      "displayName": "Weisgerber Umweltservice",
      "id": "weisgerberumweltservice-91c985",
      "locationSet": {"include": ["001"]},
      "tags": {
        "amenity": "recycling",
        "operator": "Weisgerber Umweltservice"
      }
    },
    {
      "displayName": "Wereld Missie Hulp",
      "id": "wereldmissiehulp-980be7",
      "locationSet": {"include": ["be"]},
      "tags": {
        "amenity": "recycling",
        "operator": "Wereld Missie Hulp"
      }
    },
    {
      "displayName": "Wirtschaftsbetriebe Duisburg",
      "id": "wirtschaftsbetriebeduisburg-15b788",
      "locationSet": {
        "include": ["de-nw.geojson"]
      },
      "tags": {
        "amenity": "recycling",
        "operator": "Wirtschaftsbetriebe Duisburg",
        "operator:wikidata": "Q1264552"
      }
    },
    {
      "displayName": "Wittmann",
      "id": "wittmann-6737d9",
      "locationSet": {"include": ["de"]},
      "tags": {
        "amenity": "recycling",
        "operator": "Wittmann"
      }
    },
    {
      "displayName": "www.lerelais.org",
      "id": "wwwlerelaisorg-59e4c1",
      "locationSet": {"include": ["fx"]},
      "tags": {
        "amenity": "recycling",
        "operator": "www.lerelais.org"
      }
    },
    {
      "displayName": "YouthMappersUMSA",
      "id": "youthmappersumsa-91c985",
      "locationSet": {"include": ["001"]},
      "tags": {
        "amenity": "recycling",
        "operator": "YouthMappersUMSA"
      }
    },
    {
      "displayName": "ZAW",
      "id": "zaw-6737d9",
      "locationSet": {"include": ["de"]},
      "tags": {
        "amenity": "recycling",
        "operator": "ZAW"
      }
    },
    {
      "displayName": "Zeeuwse ReinigingsDienst B.V.",
      "id": "zeeuwsereinigingsdienstbv-fcd61b",
      "locationSet": {"include": ["nl"]},
      "tags": {
        "amenity": "recycling",
        "operator": "Zeeuwse ReinigingsDienst B.V."
      }
    },
    {
      "displayName": "ZKE",
      "id": "zke-a97253",
      "locationSet": {
        "include": ["de-sl.geojson"]
      },
      "tags": {
        "amenity": "recycling",
        "operator": "ZKE"
      }
    },
    {
      "displayName": "Zweckverband Abfallwirtschaft Region Hannover",
      "id": "zweckverbandabfallwirtschaftregionhannover-7d4127",
      "locationSet": {
        "include": ["de-ni.geojson"]
      },
      "matchNames": [
        "aha zweckverband abfallwirtschaft region hannover"
      ],
      "tags": {
        "amenity": "recycling",
        "operator": "Zweckverband Abfallwirtschaft Region Hannover",
        "operator:short": "aha",
        "operator:wikidata": "Q231836"
      }
    },
    {
      "displayName": "Zweckverband Abfallwirtschaft Region Trier",
      "id": "zweckverbandabfallwirtschaftregiontrier-886dbb",
      "locationSet": {
        "include": ["de-rp.geojson"]
      },
      "matchNames": [
        "zweckverband abfallwirtschaft region trier (a.r.t.)"
      ],
      "tags": {
        "amenity": "recycling",
        "operator": "Zweckverband Abfallwirtschaft Region Trier",
        "operator:wikidata": "Q82980882"
      }
    },
    {
      "displayName": "Zweckverband Abfallwirtschaft Straubing Stadt und Land",
      "id": "zweckverbandabfallwirtschaftstraubingstadtundland-4fb837",
      "locationSet": {
        "include": ["de-by.geojson"]
      },
      "tags": {
        "amenity": "recycling",
        "operator": "Zweckverband Abfallwirtschaft Straubing Stadt und Land"
      }
    },
    {
      "displayName": "Zweckverband für Abfallbeseitigung Iserlohn",
      "id": "zweckverbandfurabfallbeseitigungiserlohn-15b788",
      "locationSet": {
        "include": ["de-nw.geojson"]
      },
      "tags": {
        "amenity": "recycling",
        "operator": "Zweckverband für Abfallbeseitigung Iserlohn"
      }
    },
    {
      "displayName": "Zweckverband für Abfallwirtschaft Kempten",
      "id": "zweckverbandfurabfallwirtschaftkempten-4fb837",
      "locationSet": {
        "include": ["de-by.geojson"]
      },
      "tags": {
        "amenity": "recycling",
        "operator": "Zweckverband für Abfallwirtschaft Kempten",
        "operator:wikidata": "Q55192476"
      }
    },
    {
      "displayName": "АРТИКА СИТИ",
      "id": "48cffe-7bdc35",
      "locationSet": {"include": ["ru"]},
      "tags": {
        "amenity": "recycling",
        "operator": "АРТИКА СИТИ"
      }
    },
    {
      "displayName": "БЕЛВТИ",
      "id": "274478-8e4ebb",
      "locationSet": {"include": ["by"]},
      "tags": {
        "amenity": "recycling",
        "operator": "БЕЛВТИ"
      }
    },
    {
      "displayName": "БЕЛГИПС-ЭКО",
      "id": "6265fe-8e4ebb",
      "locationSet": {"include": ["by"]},
      "tags": {
        "amenity": "recycling",
        "operator": "БЕЛГИПС-ЭКО"
      }
    },
    {
      "displayName": "Булекопак",
      "id": "c51e34-f11175",
      "locationSet": {"include": ["bg"]},
      "matchNames": [
        "bulecopack",
        "bulecopak",
        "bulekopack",
        "bulekopak"
      ],
      "tags": {
        "amenity": "recycling",
        "operator": "Булекопак",
        "operator:wikidata": "Q116687113"
      }
    },
    {
      "displayName": "БЧК",
      "id": "9906a9-f11175",
      "locationSet": {"include": ["bg"]},
      "matchNames": ["български червен кръст"],
      "tags": {
        "amenity": "recycling",
        "operator": "БЧК",
        "operator:wikidata": "Q4996223"
      }
    },
    {
      "displayName": "Втормет",
      "id": "b8aefb-7bdc35",
      "locationSet": {"include": ["ru"]},
      "tags": {
        "amenity": "recycling",
        "operator": "Втормет"
      }
    },
    {
      "displayName": "Еко Партнърс",
      "id": "bd1461-f11175",
      "locationSet": {"include": ["bg"]},
      "matchNames": [
        "eco partners",
        "eko partners"
      ],
      "tags": {
        "amenity": "recycling",
        "operator": "Еко Партнърс",
        "operator:wikidata": "Q116687227"
      }
    },
    {
      "displayName": "Екобулпак",
      "id": "9f09a5-f11175",
      "locationSet": {"include": ["bg"]},
      "matchNames": [
        "ecobulpack",
        "ecobulpak",
        "ekobulpack",
        "ekobulpak",
        "екобулпак българия"
      ],
      "tags": {
        "amenity": "recycling",
        "operator": "Екобулпак",
        "operator:wikidata": "Q116687156"
      }
    },
    {
      "displayName": "Екопак",
      "id": "aa0e2d-f11175",
      "locationSet": {"include": ["bg"]},
      "matchNames": [
        "ecopack",
        "ekopak",
        "екопак българия"
      ],
      "tags": {
        "amenity": "recycling",
        "operator": "Екопак",
        "operator:wikidata": "Q116687081"
      }
    },
    {
      "displayName": "Екопак България",
      "id": "1f055f-f11175",
      "locationSet": {"include": ["bg"]},
      "tags": {
        "amenity": "recycling",
        "operator": "Екопак България"
      }
    },
    {
      "displayName": "Емаус-Оселя",
      "id": "811117-c13e89",
      "locationSet": {"include": ["ua"]},
      "matchNames": ["emaus", "emmaus"],
      "tags": {
        "amenity": "recycling",
        "operator": "Емаус-Оселя",
        "operator:wikidata": "Q116964445",
        "recycling_type": "container",
        "recycling:books": "yes",
        "recycling:clothes": "yes",
        "recycling:magazines": "yes",
        "recycling:paper": "yes",
        "recycling:shoes": "yes",
        "recycling:small_appliances": "yes"
      }
    },
    {
      "displayName": "Зелений промінь",
      "id": "77a2a5-c13e89",
      "locationSet": {"include": ["ua"]},
      "tags": {
        "amenity": "recycling",
        "operator": "Зелений промінь",
        "operator:wikidata": "Q118153823",
        "recycling_type": "container",
        "recycling:clothes": "yes",
        "recycling:shoes": "yes"
      }
    },
    {
      "displayName": "Київкомунсервіс",
      "id": "56168c-c13e89",
      "locationSet": {"include": ["ua"]},
      "tags": {
        "amenity": "recycling",
        "operator": "Київкомунсервіс"
      }
    },
    {
      "displayName": "КП \"Одескомунтранс\"",
      "id": "0bba09-c13e89",
      "locationSet": {"include": ["ua"]},
      "tags": {
        "amenity": "recycling",
        "operator": "КП \"Одескомунтранс\""
      }
    },
    {
      "displayName": "Мегаполисресурс",
      "id": "d92cd2-7bdc35",
      "locationSet": {"include": ["ru"]},
      "tags": {
        "amenity": "recycling",
        "operator": "Мегаполисресурс"
      }
    },
    {
      "displayName": "МКМ Логистика",
      "id": "7a158b-7bdc35",
      "locationSet": {"include": ["ru"]},
      "tags": {
        "amenity": "recycling",
        "operator": "МКМ Логистика"
      }
    },
    {
      "displayName": "МЭБОО \"Зелёный полюс\"",
      "id": "a14179-91c985",
      "locationSet": {"include": ["001"]},
      "tags": {
        "amenity": "recycling",
        "operator": "МЭБОО \"Зелёный полюс\""
      }
    },
    {
      "displayName": "ОАО \"Белвторресурсы\"",
      "id": "44a1a7-91c985",
      "locationSet": {"include": ["001"]},
      "tags": {
        "amenity": "recycling",
        "operator": "ОАО \"Белвторресурсы\""
      }
    },
    {
      "displayName": "ООО \"АМПК\"",
      "id": "7e78eb-91c985",
      "locationSet": {"include": ["001"]},
      "tags": {
        "amenity": "recycling",
        "operator": "ООО \"АМПК\""
      }
    },
    {
      "displayName": "ООО \"Архангельский мусороперерабатывающий комбинат\"",
      "id": "8f7652-91c985",
      "locationSet": {"include": ["001"]},
      "tags": {
        "amenity": "recycling",
        "operator": "ООО \"Архангельский мусороперерабатывающий комбинат\""
      }
    },
    {
      "displayName": "ООО \"Созвездие\"",
      "id": "6f963b-91c985",
      "locationSet": {"include": ["001"]},
      "tags": {
        "amenity": "recycling",
        "operator": "ООО \"Созвездие\""
      }
    },
    {
      "displayName": "ООО «Спецтранс»",
      "id": "7d01b8-7bdc35",
      "locationSet": {"include": ["ru"]},
      "tags": {
        "amenity": "recycling",
        "operator": "ООО «Спецтранс»"
      }
    },
    {
      "displayName": "ООО «Уралтелеком-С»",
      "id": "473d2f-7bdc35",
      "locationSet": {"include": ["ru"]},
      "tags": {
        "amenity": "recycling",
        "operator": "ООО «Уралтелеком-С»"
      }
    },
    {
      "displayName": "ПП «Экогород»",
      "id": "783f33-c13e89",
      "locationSet": {"include": ["ua"]},
      "tags": {
        "amenity": "recycling",
        "operator": "ПП «Экогород»"
      }
    },
    {
      "displayName": "Сбербанк",
      "id": "fdcab6-7bdc35",
      "locationSet": {"include": ["ru"]},
      "tags": {
        "amenity": "recycling",
        "operator": "Сбербанк"
      }
    },
    {
      "displayName": "Спецтранс",
      "id": "88f812-7bdc35",
      "locationSet": {"include": ["ru"]},
      "tags": {
        "amenity": "recycling",
        "operator": "Спецтранс"
      }
    },
    {
      "displayName": "Чистое дело",
      "id": "110c7f-7bdc35",
      "locationSet": {"include": ["ru"]},
      "tags": {
        "amenity": "recycling",
        "operator": "Чистое дело"
      }
    },
    {
      "displayName": "Экобокс",
      "id": "89a4e1-7bdc35",
      "locationSet": {"include": ["ru"]},
      "tags": {
        "amenity": "recycling",
        "operator": "Экобокс"
      }
    },
    {
      "displayName": "Экотехпром",
      "id": "41e993-7bdc35",
      "locationSet": {"include": ["ru"]},
      "tags": {
        "amenity": "recycling",
        "operator": "Экотехпром"
      }
    }
  ]
}
