{
  "properties": {
    "path": "operators/amenity/social_facility",
    "exclude": {"generic": ["^social facility$"]}
  },
  "items": [
    {
      "displayName": "Abbeyfield",
      "id": "abbeyfield-01cce6",
      "locationSet": {"include": ["001"]},
      "tags": {
        "amenity": "social_facility",
        "operator": "Abbeyfield"
      }
    },
    {
      "displayName": "Abrapa",
      "id": "abrapa-01cce6",
      "locationSet": {"include": ["001"]},
      "tags": {
        "amenity": "social_facility",
        "operator": "Abrapa"
      }
    },
    {
      "displayName": "ADAPEI",
      "id": "adapei-704240",
      "locationSet": {"include": ["fx"]},
      "tags": {
        "amenity": "social_facility",
        "operator": "ADAPEI",
        "operator:wikidata": "Q2824082",
        "operator:wikipedia": "fr:Adapei"
      }
    },
    {
      "displayName": "Adoma",
      "id": "adoma-704240",
      "locationSet": {"include": ["fx"]},
      "tags": {
        "amenity": "social_facility",
        "operator": "Adoma",
        "operator:wikidata": "Q366026",
        "operator:wikipedia": "fr:Adoma"
      }
    },
    {
      "displayName": "AEIM",
      "id": "aeim-01cce6",
      "locationSet": {"include": ["001"]},
      "tags": {
        "amenity": "social_facility",
        "operator": "AEIM"
      }
    },
    {
      "displayName": "Ajuntament de Barcelona",
      "id": "ajuntamentdebarcelona-01cce6",
      "locationSet": {"include": ["001"]},
      "tags": {
        "amenity": "social_facility",
        "operator": "Ajuntament de Barcelona"
      }
    },
    {
      "displayName": "Alloheim Senioren-Residenzen",
      "id": "alloheimseniorenresidenzen-9a82eb",
      "locationSet": {"include": ["de"]},
      "matchNames": [
        "alloheim",
        "alloheim senioren-residenzen se"
      ],
      "tags": {
        "amenity": "social_facility",
        "operator": "Alloheim Senioren-Residenzen",
        "operator:wikidata": "Q15782485",
        "operator:wikipedia": "de:Alloheim"
      }
    },
    {
      "displayName": "Amica",
      "id": "amica-4dbadb",
      "locationSet": {"include": ["ca"]},
      "tags": {
        "amenity": "social_facility",
        "operator": "Amica"
      }
    },
    {
      "displayName": "Anchor",
      "id": "anchor-c79a8f",
      "locationSet": {"include": ["gb-eng"]},
      "matchNames": ["anchor hanover"],
      "tags": {
        "amenity": "social_facility",
        "operator": "Anchor",
        "operator:wikidata": "Q65091469",
        "operator:wikipedia": "en:Anchor Hanover Group",
        "social_facility": "group_home",
        "social_facility:for": "senior"
      }
    },
    {
      "displayName": "Armonea",
      "id": "armonea-5c0b3d",
      "locationSet": {"include": ["be"]},
      "tags": {
        "amenity": "social_facility",
        "operator": "Armonea"
      }
    },
    {
      "displayName": "Arpavie",
      "id": "arpavie-704240",
      "locationSet": {"include": ["fx"]},
      "tags": {
        "amenity": "social_facility",
        "operator": "Arpavie"
      }
    },
    {
      "displayName": "Attendo",
      "id": "attendo-01cce6",
      "locationSet": {"include": ["001"]},
      "tags": {
        "amenity": "social_facility",
        "operator": "Attendo"
      }
    },
    {
      "displayName": "Azienda Socio Sanitaria Territoriale della Brianza",
      "id": "aziendasociosanitariaterritorialedellabrianza-01cce6",
      "locationSet": {"include": ["001"]},
      "tags": {
        "amenity": "social_facility",
        "operator": "Azienda Socio Sanitaria Territoriale della Brianza"
      }
    },
    {
      "displayName": "Barchester Healthcare",
      "id": "barchesterhealthcare-01cce6",
      "locationSet": {"include": ["001"]},
      "tags": {
        "amenity": "social_facility",
        "operator": "Barchester Healthcare"
      }
    },
    {
      "displayName": "BSZ Stiftung",
      "id": "bszstiftung-5de282",
      "locationSet": {"include": ["ch"]},
      "tags": {
        "amenity": "social_facility",
        "operator": "BSZ Stiftung"
      }
    },
    {
      "displayName": "Bupa",
      "id": "bupa-bdda3a",
      "locationSet": {"include": ["gb"]},
      "tags": {
        "amenity": "social_facility",
        "operator": "Bupa",
        "operator:wikidata": "Q931628",
        "operator:wikipedia": "en:Bupa"
      }
    },
    {
      "displayName": "Care UK",
      "id": "careuk-bdda3a",
      "locationSet": {"include": ["gb"]},
      "tags": {
        "amenity": "social_facility",
        "operator": "Care UK",
        "operator:wikidata": "Q5038862",
        "operator:wikipedia": "en:Care UK"
      }
    },
    {
      "displayName": "CCAS",
      "id": "ccas-01cce6",
      "locationSet": {"include": ["001"]},
      "tags": {
        "amenity": "social_facility",
        "operator": "CCAS"
      }
    },
    {
      "displayName": "CG91",
      "id": "cg91-01cce6",
      "locationSet": {"include": ["001"]},
      "tags": {
        "amenity": "social_facility",
        "operator": "CG91"
      }
    },
    {
      "displayName": "Chartwell",
      "id": "chartwell-01cce6",
      "locationSet": {"include": ["001"]},
      "tags": {
        "amenity": "social_facility",
        "operator": "Chartwell"
      }
    },
    {
      "displayName": "Coallia",
      "id": "coallia-01cce6",
      "locationSet": {"include": ["001"]},
      "tags": {
        "amenity": "social_facility",
        "operator": "Coallia",
        "operator:wikidata": "Q56312228",
        "operator:wikipedia": "fr:Coallia"
      }
    },
    {
      "displayName": "Comune di Genova",
      "id": "comunedigenova-feb2f4",
      "locationSet": {"include": ["it"]},
      "tags": {
        "amenity": "social_facility",
        "operator": "Comune di Genova"
      }
    },
    {
      "displayName": "Comunidad de Madrid",
      "id": "comunidaddemadrid-a8af6f",
      "locationSet": {"include": ["es"]},
      "tags": {
        "amenity": "social_facility",
        "operator": "Comunidad de Madrid"
      }
    },
    {
      "displayName": "Croix Rouge",
      "id": "croixrouge-01cce6",
      "locationSet": {"include": ["001"]},
      "tags": {
        "amenity": "social_facility",
        "operator": "Croix Rouge"
      }
    },
    {
      "displayName": "Croix-Rouge Française",
      "id": "croixrougefrancaise-d425ed",
      "locationSet": {"include": ["fr"]},
      "tags": {
        "amenity": "social_facility",
        "operator": "Croix-Rouge Française",
        "operator:short": "CRF",
        "operator:wikidata": "Q3003244",
        "operator:wikipedia": "fr:Croix-Rouge française"
      }
    },
    {
      "displayName": "Département de Maine-et-Loire",
      "id": "departementdemaineetloire-01cce6",
      "locationSet": {"include": ["001"]},
      "tags": {
        "amenity": "social_facility",
        "operator": "Département de Maine-et-Loire"
      }
    },
    {
      "displayName": "Department of Health",
      "id": "departmentofhealth-01cce6",
      "locationSet": {"include": ["001"]},
      "tags": {
        "amenity": "social_facility",
        "operator": "Department of Health"
      }
    },
    {
      "displayName": "Department of Interior and Local Government",
      "id": "departmentofinteriorandlocalgovernment-01cce6",
      "locationSet": {"include": ["001"]},
      "tags": {
        "amenity": "social_facility",
        "operator": "Department of Interior and Local Government"
      }
    },
    {
      "displayName": "Department of Social Welfare and Development",
      "id": "departmentofsocialwelfareanddevelopment-01cce6",
      "locationSet": {"include": ["001"]},
      "tags": {
        "amenity": "social_facility",
        "operator": "Department of Social Welfare and Development"
      }
    },
    {
      "displayName": "Diakoniewerk Essen",
      "id": "diakoniewerkessen-01cce6",
      "locationSet": {"include": ["001"]},
      "tags": {
        "amenity": "social_facility",
        "operator": "Diakoniewerk Essen"
      }
    },
    {
      "displayName": "Domicil Bern AG",
      "id": "domicilbernag-5de282",
      "locationSet": {"include": ["ch"]},
      "tags": {
        "amenity": "social_facility",
        "operator": "Domicil Bern AG"
      }
    },
    {
      "displayName": "Domitys",
      "id": "domitys-01cce6",
      "locationSet": {"include": ["001"]},
      "tags": {
        "amenity": "social_facility",
        "operator": "Domitys"
      }
    },
    {
      "displayName": "DomusVi",
      "id": "domusvi-01cce6",
      "locationSet": {"include": ["001"]},
      "tags": {
        "amenity": "social_facility",
        "operator": "DomusVi"
      }
    },
    {
      "displayName": "Edenis",
      "id": "edenis-01cce6",
      "locationSet": {"include": ["001"]},
      "tags": {
        "amenity": "social_facility",
        "operator": "Edenis"
      }
    },
    {
      "displayName": "Evangelische Heimstiftung",
      "id": "evangelischeheimstiftung-86cc42",
      "locationSet": {
        "include": ["de-bw.geojson"]
      },
      "tags": {
        "amenity": "social_facility",
        "operator": "Evangelische Heimstiftung",
        "operator:short": "EHS",
        "operator:wikidata": "Q1380202",
        "operator:wikipedia": "de:Evangelische Heimstiftung"
      }
    },
    {
      "displayName": "Evangelische Stiftung Neinstedt",
      "id": "evangelischestiftungneinstedt-b42b1a",
      "locationSet": {
        "include": ["de-st.geojson"]
      },
      "matchNames": [
        "ev. stiftung neinstedt",
        "neinstedter anstalten"
      ],
      "tags": {
        "amenity": "social_facility",
        "operator": "Evangelische Stiftung Neinstedt",
        "operator:short": "ESN",
        "operator:wikidata": "Q1974948",
        "operator:wikipedia": "de:Evangelische Stiftung Neinstedt"
      }
    },
    {
      "displayName": "Evangelische Stiftung Neuerkerode",
      "id": "evangelischestiftungneuerkerode-3c1636",
      "locationSet": {
        "include": ["de-ni.geojson"]
      },
      "tags": {
        "amenity": "social_facility",
        "operator": "Evangelische Stiftung Neuerkerode",
        "operator:short": "ESN",
        "operator:wikidata": "Q1381175",
        "operator:wikipedia": "de:Evangelische Stiftung Neuerkerode"
      }
    },
    {
      "displayName": "Extendicare",
      "id": "extendicare-4dbadb",
      "locationSet": {"include": ["ca"]},
      "tags": {
        "amenity": "social_facility",
        "operator": "Extendicare",
        "operator:wikidata": "Q5421912",
        "operator:wikipedia": "en:Extendicare"
      }
    },
    {
      "displayName": "f & w fördern und wohnen AöR",
      "id": "fandwfordernundwohnenaor-9a82eb",
      "locationSet": {"include": ["de"]},
      "tags": {
        "amenity": "social_facility",
        "operator": "f & w fördern und wohnen AöR"
      }
    },
    {
      "displayName": "Fondation Léopold Bellan",
      "id": "fondationleopoldbellan-01cce6",
      "locationSet": {"include": ["001"]},
      "tags": {
        "amenity": "social_facility",
        "operator": "Fondation Léopold Bellan"
      }
    },
    {
      "displayName": "Fondation Partage et Vie",
      "id": "fondationpartageetvie-d425ed",
      "locationSet": {"include": ["fr"]},
      "tags": {
        "amenity": "social_facility",
        "operator": "Fondation Partage et Vie",
        "operator:wikidata": "Q65156773",
        "operator:wikipedia": "fr:Fondation Partage et Vie"
      }
    },
    {
      "displayName": "Four Seasons Health Care",
      "id": "fourseasonshealthcare-bdda3a",
      "locationSet": {"include": ["gb"]},
      "tags": {
        "amenity": "social_facility",
        "operator": "Four Seasons Health Care",
        "operator:wikidata": "Q5475480",
        "operator:wikipedia": "en:Four Seasons Health Care"
      }
    },
    {
      "displayName": "Generalitat de Catalunya",
      "id": "generalitatdecatalunya-a8af6f",
      "locationSet": {"include": ["es"]},
      "tags": {
        "amenity": "social_facility",
        "operator": "Generalitat de Catalunya"
      }
    },
    {
      "displayName": "Genesis HealthCare",
      "id": "genesishealthcare-04bb0a",
      "locationSet": {"include": ["us"]},
      "tags": {
        "amenity": "social_facility",
        "operator": "Genesis HealthCare",
        "operator:wikidata": "Q5532813",
        "operator:wikipedia": "en:Genesis HealthCare"
      }
    },
    {
      "displayName": "GSE gGmbH",
      "id": "gseggmbh-1c7727",
      "locationSet": {
        "include": ["de-be.geojson"]
      },
      "tags": {
        "amenity": "social_facility",
        "operator": "GSE gGmbH"
      }
    },
    {
      "displayName": "Haderslev Kommune",
      "id": "haderslevkommune-01cce6",
      "locationSet": {"include": ["001"]},
      "tags": {
        "amenity": "social_facility",
        "operator": "Haderslev Kommune"
      }
    },
    {
      "displayName": "HC One",
      "id": "hcone-bdda3a",
      "locationSet": {"include": ["gb"]},
      "tags": {
        "amenity": "social_facility",
        "operator": "HC One",
        "operator:wikidata": "Q5629072",
        "operator:wikipedia": "en:HC-One"
      }
    },
    {
      "displayName": "Health Service Executive",
      "id": "healthserviceexecutive-b5f0b6",
      "locationSet": {"include": ["ie"]},
      "tags": {
        "amenity": "social_facility",
        "operator": "Health Service Executive",
        "operator:short": "HSE",
        "operator:wikidata": "Q5690681",
        "operator:wikipedia": "en:Health Service Executive"
      }
    },
    {
      "displayName": "Heiliggeistspitalstiftung Freiburg",
      "id": "heiliggeistspitalstiftungfreiburg-86cc42",
      "locationSet": {
        "include": ["de-bw.geojson"]
      },
      "tags": {
        "amenity": "social_facility",
        "operator": "Heiliggeistspitalstiftung Freiburg",
        "operator:wikidata": "Q98684447",
        "operator:wikipedia": "de:Heiliggeistspitalstiftung Freiburg"
      }
    },
    {
      "displayName": "Helsingin kaupunki",
      "id": "helsinginkaupunki-01cce6",
      "locationSet": {"include": ["001"]},
      "tags": {
        "amenity": "social_facility",
        "operator": "Helsingin kaupunki"
      }
    },
    {
      "displayName": "Inabif",
      "id": "inabif-01cce6",
      "locationSet": {"include": ["001"]},
      "tags": {
        "amenity": "social_facility",
        "operator": "Inabif"
      }
    },
    {
      "displayName": "Innsbrucker Soziale Dienste GmbH",
      "id": "innsbruckersozialedienstegmbh-01cce6",
      "locationSet": {"include": ["001"]},
      "tags": {
        "amenity": "social_facility",
        "operator": "Innsbrucker Soziale Dienste GmbH"
      }
    },
    {
      "displayName": "Integrationsmodell Ortsverband Essen e.V.",
      "id": "integrationsmodellortsverbandessenev-01cce6",
      "locationSet": {"include": ["001"]},
      "tags": {
        "amenity": "social_facility",
        "operator": "Integrationsmodell Ortsverband Essen e.V."
      }
    },
    {
      "displayName": "Ipse de Bruggen",
      "id": "ipsedebruggen-01cce6",
      "locationSet": {"include": ["001"]},
      "tags": {
        "amenity": "social_facility",
        "operator": "Ipse de Bruggen"
      }
    },
    {
      "displayName": "Junta de Castilla y León",
      "id": "juntadecastillayleon-01cce6",
      "locationSet": {"include": ["001"]},
      "tags": {
        "amenity": "social_facility",
        "operator": "Junta de Castilla y León"
      }
    },
    {
      "displayName": "Kleeblatt Pflegeheime gGmbH",
      "id": "kleeblattpflegeheimeggmbh-01cce6",
      "locationSet": {"include": ["001"]},
      "tags": {
        "amenity": "social_facility",
        "operator": "Kleeblatt Pflegeheime gGmbH"
      }
    },
    {
      "displayName": "Korian",
      "id": "korian-08d104",
      "locationSet": {
        "include": [
          "be",
          "de",
          "es",
          "fx",
          "it",
          "nl"
        ]
      },
      "tags": {
        "amenity": "social_facility",
        "operator": "Korian",
        "operator:wikidata": "Q3198944",
        "operator:wikipedia": "fr:Korian"
      }
    },
    {
      "displayName": "Kursana",
      "id": "kursana-9a82eb",
      "locationSet": {"include": ["de"]},
      "tags": {
        "amenity": "social_facility",
        "operator": "Kursana",
        "operator:wikidata": "Q1793215",
        "operator:wikipedia": "de:Kursana"
      }
    },
    {
      "displayName": "Leger des Heils",
      "id": "legerdesheils-627b49",
      "locationSet": {"include": ["nl"]},
      "tags": {
        "amenity": "social_facility",
        "operator": "Leger des Heils",
        "operator:wikidata": "Q11688635",
        "operator:wikipedia": "en:Leger des Heils"
      }
    },
    {
      "displayName": "Magyar Máltai Szeretetszolgálat",
      "id": "magyarmaltaiszeretetszolgalat-bb8da1",
      "locationSet": {"include": ["hu"]},
      "tags": {
        "amenity": "social_facility",
        "operator": "Magyar Máltai Szeretetszolgálat",
        "operator:wikidata": "Q1162102",
        "operator:wikipedia": "hu:Magyar Máltai Szeretetszolgálat"
      }
    },
    {
      "displayName": "Mairie de Paris",
      "id": "mairiedeparis-704240",
      "locationSet": {"include": ["fx"]},
      "tags": {
        "amenity": "social_facility",
        "operator": "Mairie de Paris"
      }
    },
    {
      "displayName": "McCarthy & Stone",
      "id": "mccarthyandstone-bdda3a",
      "locationSet": {"include": ["gb"]},
      "tags": {
        "amenity": "social_facility",
        "operator": "McCarthy & Stone",
        "operator:wikidata": "Q16997473",
        "operator:wikipedia": "en:McCarthy Stone"
      }
    },
    {
      "displayName": "Melikgazi Belediyesi",
      "id": "melikgazibelediyesi-01cce6",
      "locationSet": {"include": ["001"]},
      "tags": {
        "amenity": "social_facility",
        "operator": "Melikgazi Belediyesi"
      }
    },
    {
      "displayName": "Metropolitan Regional Housing Authority",
      "id": "metropolitanregionalhousingauthority-01cce6",
      "locationSet": {"include": ["001"]},
      "tags": {
        "amenity": "social_facility",
        "operator": "Metropolitan Regional Housing Authority"
      }
    },
    {
      "displayName": "NHS",
      "id": "nhs-01cce6",
      "locationSet": {"include": ["001"]},
      "tags": {
        "amenity": "social_facility",
        "operator": "NHS"
      }
    },
    {
      "displayName": "Norrköpings kommun",
      "id": "norrkopingskommun-01cce6",
      "locationSet": {"include": ["001"]},
      "tags": {
        "amenity": "social_facility",
        "operator": "Norrköpings kommun"
      }
    },
    {
      "displayName": "NRC",
      "id": "nrc-01cce6",
      "locationSet": {"include": ["001"]},
      "tags": {
        "amenity": "social_facility",
        "operator": "NRC"
      }
    },
    {
      "displayName": "OCMW",
      "id": "ocmw-5c0b3d",
      "locationSet": {"include": ["be"]},
      "tags": {
        "amenity": "social_facility",
        "operator": "OCMW",
        "operator:wikidata": "Q2679662",
        "operator:wikipedia": "fr:Centre public d'action sociale"
      }
    },
    {
      "displayName": "Orpéa",
      "id": "orpea-01cce6",
      "locationSet": {"include": ["001"]},
      "matchNames": ["sa orpea"],
      "tags": {
        "amenity": "social_facility",
        "operator": "Orpéa",
        "operator:wikidata": "Q3347694",
        "operator:wikipedia": "de:Orpea-Gruppe"
      }
    },
    {
      "displayName": "Palang Merah Indonesia",
      "id": "palangmerahindonesia-01cce6",
      "locationSet": {"include": ["001"]},
      "tags": {
        "amenity": "social_facility",
        "operator": "Palang Merah Indonesia"
      }
    },
    {
      "displayName": "PMRO",
      "id": "pmro-01cce6",
      "locationSet": {"include": ["001"]},
      "tags": {
        "amenity": "social_facility",
        "operator": "PMRO"
      }
    },
    {
      "displayName": "Revera",
      "id": "revera-01cce6",
      "locationSet": {"include": ["001"]},
      "tags": {
        "amenity": "social_facility",
        "operator": "Revera"
      }
    },
    {
      "displayName": "Save The Children International",
      "id": "savethechildreninternational-01cce6",
      "locationSet": {"include": ["001"]},
      "tags": {
        "amenity": "social_facility",
        "operator": "Save The Children International",
        "operator:wikidata": "Q215934",
        "operator:wikipedia": "en:Save the Children"
      }
    },
    {
      "displayName": "Sozialwerk der Freien Christengemeinde Bremen e.V.",
      "id": "sozialwerkderfreienchristengemeindebremenev-01cce6",
      "locationSet": {"include": ["001"]},
      "tags": {
        "amenity": "social_facility",
        "operator": "Sozialwerk der Freien Christengemeinde Bremen e.V."
      }
    },
    {
      "displayName": "Stadt Köln",
      "id": "stadtkoln-f38aef",
      "locationSet": {
        "include": ["de-nw.geojson"]
      },
      "tags": {
        "amenity": "social_facility",
        "operator": "Stadt Köln"
      }
    },
    {
      "displayName": "Stadt Zürich, GUD",
      "id": "stadtzurichgud-5de282",
      "locationSet": {"include": ["ch"]},
      "tags": {
        "amenity": "social_facility",
        "operator": "Stadt Zürich, GUD"
      }
    },
    {
      "displayName": "Stiftung Alterswohnungen der Stadt Zürich",
      "id": "stiftungalterswohnungenderstadtzurich-5de282",
      "locationSet": {"include": ["ch"]},
      "matchNames": [
        "stiftung alterswohnungen der stadt zürich (saw)"
      ],
      "tags": {
        "amenity": "social_facility",
        "operator": "Stiftung Alterswohnungen der Stadt Zürich",
        "operator:short": "SAW",
        "operator:wikidata": "Q2348865",
        "operator:wikipedia": "de:Stiftung Alterswohnungen der Stadt Zürich"
      }
    },
    {
      "displayName": "Stiftung Brändi",
      "id": "stiftungbrandi-01cce6",
      "locationSet": {"include": ["001"]},
      "tags": {
        "amenity": "social_facility",
        "operator": "Stiftung Brändi"
      }
    },
    {
      "displayName": "Stiftung Eben-Ezer",
      "id": "stiftungebenezer-f38aef",
      "locationSet": {
        "include": ["de-nw.geojson"]
      },
      "tags": {
        "amenity": "social_facility",
        "operator": "Stiftung Eben-Ezer",
        "operator:wikidata": "Q1761856",
        "operator:wikipedia": "de:Stiftung Eben-Ezer"
      }
    },
    {
      "displayName": "Stiftung für Schwerbehinderte Luzern - SSBL",
      "id": "stiftungfurschwerbehinderteluzernssbl-01cce6",
      "locationSet": {"include": ["001"]},
      "tags": {
        "amenity": "social_facility",
        "operator": "Stiftung für Schwerbehinderte Luzern - SSBL"
      }
    },
    {
      "displayName": "Stiftung Rütimattli",
      "id": "stiftungrutimattli-01cce6",
      "locationSet": {"include": ["001"]},
      "tags": {
        "amenity": "social_facility",
        "operator": "Stiftung Rütimattli"
      }
    },
    {
      "displayName": "Stiftung Zürcher Kinder- und Jugendheime",
      "id": "stiftungzurcherkinderundjugendheime-5de282",
      "locationSet": {"include": ["ch"]},
      "tags": {
        "amenity": "social_facility",
        "operator": "Stiftung Zürcher Kinder- und Jugendheime"
      }
    },
    {
      "displayName": "Sunrise Senior Living",
      "id": "sunriseseniorliving-01cce6",
      "locationSet": {"include": ["001"]},
      "tags": {
        "amenity": "social_facility",
        "operator": "Sunrise Senior Living",
        "operator:wikidata": "Q612714",
        "operator:wikipedia": "en:Sunrise Senior Living"
      }
    },
    {
      "displayName": "Suomen Punainen Risti SPR",
      "id": "suomenpunainenristispr-01cce6",
      "locationSet": {"include": ["001"]},
      "tags": {
        "amenity": "social_facility",
        "operator": "Suomen Punainen Risti SPR"
      }
    },
    {
      "displayName": "SVRZ",
      "id": "svrz-627b49",
      "locationSet": {"include": ["nl"]},
      "tags": {
        "amenity": "social_facility",
        "operator": "SVRZ"
      }
    },
    {
      "displayName": "The Salvation Army",
      "id": "thesalvationarmy-01cce6",
      "locationSet": {"include": ["001"]},
      "matchNames": ["salvation army"],
      "tags": {
        "amenity": "social_facility",
        "operator": "The Salvation Army",
        "operator:short": "TSA",
        "operator:wikidata": "Q188307",
        "operator:wikipedia": "en:The Salvation Army"
      }
    },
    {
      "displayName": "ULSS 7 Pedemontana",
      "id": "ulss7pedemontana-01cce6",
      "locationSet": {"include": ["001"]},
      "tags": {
        "amenity": "social_facility",
        "operator": "ULSS 7 Pedemontana"
      }
    },
    {
      "displayName": "Umeå kommun",
      "id": "umeakommun-01cce6",
      "locationSet": {"include": ["001"]},
      "tags": {
        "amenity": "social_facility",
        "operator": "Umeå kommun"
      }
    },
    {
      "displayName": "UNHCR",
      "id": "unhcr-01cce6",
      "locationSet": {"include": ["001"]},
      "tags": {
        "amenity": "social_facility",
        "operator": "UNHCR",
        "operator:wikidata": "Q132551",
        "operator:wikipedia": "en:United Nations High Commissioner for Refugees"
      }
    },
    {
      "displayName": "Viva Luzern AG",
      "id": "vivaluzernag-01cce6",
      "locationSet": {"include": ["001"]},
      "tags": {
        "amenity": "social_facility",
        "operator": "Viva Luzern AG"
      }
    },
    {
      "displayName": "World Food Programme",
      "id": "wfp-01cce6",
      "locationSet": {"include": ["001"]},
      "tags": {
        "amenity": "social_facility",
        "operator": "WFP",
        "operator:short": "WFP",
        "operator:wikidata": "Q204344",
        "operator:wikipedia": "en:World Food Programme"
      }
    },
    {
      "displayName": "World Vision",
      "id": "worldvision-01cce6",
      "locationSet": {"include": ["001"]},
      "tags": {
        "amenity": "social_facility",
        "operator": "World Vision",
        "operator:wikidata": "Q2594001",
        "operator:wikipedia": "en:World Vision International"
      }
    },
    {
      "displayName": "WVO Zorg",
      "id": "wvozorg-01cce6",
      "locationSet": {"include": ["001"]},
      "tags": {
        "amenity": "social_facility",
        "operator": "WVO Zorg"
      }
    },
    {
      "displayName": "公益財団法人ドナルド・マクドナルド・ハウス・チャリティーズ・ジャパン",
      "id": "30bf1a-01cce6",
      "locationSet": {"include": ["001"]},
      "tags": {
        "amenity": "social_facility",
        "operator": "公益財団法人ドナルド・マクドナルド・ハウス・チャリティーズ・ジャパン",
        "operator:ja": "公益財団法人ドナルド・マクドナルド・ハウス・チャリティーズ・ジャパン"
      }
    }
  ]
}
