{
  "properties": {
    "path": "operators/amenity/telephone",
    "preserveTags": ["^name"],
    "exclude": {
      "generic": ["^-$", "^(tele)?phone$"]
    }
  },
  "items": [
    {
      "displayName": "A1",
      "id": "a1-2be02b",
      "locationSet": {"include": ["001"]},
      "tags": {
        "amenity": "telephone",
        "operator": "A1"
      }
    },
    {
      "displayName": "Altice",
      "id": "altice-2be02b",
      "locationSet": {"include": ["001"]},
      "tags": {
        "amenity": "telephone",
        "operator": "Altice"
      }
    },
    {
      "displayName": "Antel",
      "id": "antel-2be02b",
      "locationSet": {"include": ["001"]},
      "tags": {
        "amenity": "telephone",
        "operator": "Antel"
      }
    },
    {
      "displayName": "Arqiva",
      "id": "arqiva-2be02b",
      "locationSet": {"include": ["001"]},
      "tags": {
        "amenity": "telephone",
        "operator": "Arqiva"
      }
    },
    {
      "displayName": "Bell Canada",
      "id": "bellcanada-25374a",
      "locationSet": {"include": ["ca"]},
      "matchNames": ["bell"],
      "tags": {
        "amenity": "telephone",
        "operator": "Bell Canada",
        "operator:wikidata": "Q815694"
      }
    },
    {
      "displayName": "Bezeq",
      "id": "bezeq-2be02b",
      "locationSet": {"include": ["001"]},
      "tags": {
        "amenity": "telephone",
        "operator": "Bezeq"
      }
    },
    {
      "displayName": "Brasil Telecom",
      "id": "brasiltelecom-2be02b",
      "locationSet": {"include": ["001"]},
      "tags": {
        "amenity": "telephone",
        "operator": "Brasil Telecom"
      }
    },
    {
      "displayName": "BSNL",
      "id": "bsnl-2be02b",
      "locationSet": {"include": ["001"]},
      "tags": {
        "amenity": "telephone",
        "operator": "BSNL"
      }
    },
    {
      "displayName": "BT (British Telecom)",
      "id": "bt-2be02b",
      "locationSet": {"include": ["001"]},
      "matchNames": [
        "british telecom",
        "british telecommunications plc",
        "bt plc"
      ],
      "tags": {
        "amenity": "telephone",
        "operator": "BT",
        "operator:wikidata": "Q593786"
      }
    },
    {
      "displayName": "CANTV",
      "id": "cantv-2be02b",
      "locationSet": {"include": ["001"]},
      "tags": {
        "amenity": "telephone",
        "operator": "CANTV"
      }
    },
    {
      "displayName": "Claro",
      "id": "claro-2be02b",
      "locationSet": {"include": ["001"]},
      "tags": {
        "amenity": "telephone",
        "operator": "Claro"
      }
    },
    {
      "displayName": "CRT/Brasil Telecom",
      "id": "crtbrasiltelecom-2be02b",
      "locationSet": {"include": ["001"]},
      "tags": {
        "amenity": "telephone",
        "operator": "CRT/Brasil Telecom"
      }
    },
    {
      "displayName": "Cyta",
      "id": "cyta-2be02b",
      "locationSet": {"include": ["001"]},
      "tags": {
        "amenity": "telephone",
        "operator": "Cyta"
      }
    },
    {
      "displayName": "Deutsche Telekom",
      "id": "deutschetelekomag-fe847d",
      "locationSet": {"include": ["de"]},
      "matchNames": [
        "deutsche post",
        "deutsche post ag",
        "t-com",
        "telekom",
        "telekom ag",
        "telekom deutschland",
        "telekom deutschland gmbh"
      ],
      "tags": {
        "amenity": "telephone",
        "brand": "Deutsche Telekom",
        "brand:wikidata": "Q9396",
        "operator": "Deutsche Telekom AG",
        "operator:wikidata": "Q9396"
      }
    },
    {
      "displayName": "Eir",
      "id": "eir-2be02b",
      "locationSet": {"include": ["001"]},
      "tags": {
        "amenity": "telephone",
        "operator": "Eir"
      }
    },
    {
      "displayName": "ETC",
      "id": "etc-2be02b",
      "locationSet": {"include": ["001"]},
      "tags": {
        "amenity": "telephone",
        "operator": "ETC"
      }
    },
    {
      "displayName": "ETECSA",
      "id": "etecsa-2be02b",
      "locationSet": {"include": ["001"]},
      "tags": {
        "amenity": "telephone",
        "operator": "ETECSA"
      }
    },
    {
      "displayName": "Futel",
      "id": "futel-2be02b",
      "locationSet": {"include": ["001"]},
      "tags": {
        "amenity": "telephone",
        "operator": "Futel"
      }
    },
    {
      "displayName": "Infocus Public Networks Ltd",
      "id": "infocuspublicnetworksltd-2be02b",
      "locationSet": {"include": ["001"]},
      "tags": {
        "amenity": "telephone",
        "operator": "Infocus Public Networks Ltd"
      }
    },
    {
      "displayName": "Invitel",
      "id": "invitel-2be02b",
      "locationSet": {"include": ["001"]},
      "tags": {
        "amenity": "telephone",
        "operator": "Invitel"
      }
    },
    {
      "displayName": "KCom",
      "id": "kcom-2be02b",
      "locationSet": {"include": ["001"]},
      "tags": {
        "amenity": "telephone",
        "operator": "KCom"
      }
    },
    {
      "displayName": "kt링커스",
      "id": "80505e-2be02b",
      "locationSet": {"include": ["001"]},
      "tags": {
        "amenity": "telephone",
        "operator": "kt링커스",
        "operator:ko": "kt링커스"
      }
    },
    {
      "displayName": "Locutorio",
      "id": "locutorio-2be02b",
      "locationSet": {"include": ["001"]},
      "tags": {
        "amenity": "telephone",
        "operator": "Locutorio"
      }
    },
    {
      "displayName": "Logitel",
      "id": "logitel-2be02b",
      "locationSet": {"include": ["001"]},
      "tags": {
        "amenity": "telephone",
        "operator": "Logitel"
      }
    },
    {
      "displayName": "Magyar Telekom",
      "id": "magyartelekom-2be02b",
      "locationSet": {"include": ["001"]},
      "tags": {
        "amenity": "telephone",
        "operator": "Magyar Telekom"
      }
    },
    {
      "displayName": "Magyar Telekom Nyrt.",
      "id": "magyartelekomnyrt-2be02b",
      "locationSet": {"include": ["001"]},
      "tags": {
        "amenity": "telephone",
        "operator": "Magyar Telekom Nyrt."
      }
    },
    {
      "displayName": "Movistar",
      "id": "movistar-2be02b",
      "locationSet": {"include": ["001"]},
      "tags": {
        "amenity": "telephone",
        "operator": "Movistar"
      }
    },
    {
      "displayName": "MTS",
      "id": "mts-2be02b",
      "locationSet": {"include": ["001"]},
      "tags": {
        "amenity": "telephone",
        "operator": "MTS"
      }
    },
    {
      "displayName": "MTS Allstream",
      "id": "mtsallstream-2be02b",
      "locationSet": {"include": ["001"]},
      "tags": {
        "amenity": "telephone",
        "operator": "MTS Allstream"
      }
    },
    {
      "displayName": "New World Payphones",
      "id": "newworldpayphones-2be02b",
      "locationSet": {"include": ["001"]},
      "tags": {
        "amenity": "telephone",
        "operator": "New World Payphones"
      }
    },
    {
      "displayName": "NTT東日本",
      "id": "nippontelegraphandtelephoneeast-a6a893",
      "locationSet": {
        "include": ["jp-ntt-east.geojson"]
      },
      "matchNames": ["東日本電信電話"],
      "tags": {
        "amenity": "telephone",
        "operator": "東日本電信電話株式会社",
        "operator:en": "Nippon Telegraph and Telephone East",
        "operator:ja": "東日本電信電話株式会社",
        "operator:short": "NTT東日本",
        "operator:wikidata": "Q11527212"
      }
    },
    {
      "displayName": "NTT西日本",
      "id": "nippontelegraphandtelephonewest-ff8e1b",
      "locationSet": {
        "include": ["jp-ntt-west.geojson"]
      },
      "matchNames": ["ntt西日本 (ntt east)"],
      "tags": {
        "amenity": "telephone",
        "operator": "西日本電信電話株式会社",
        "operator:en": "Nippon Telegraph and Telephone West",
        "operator:ja": "西日本電信電話株式会社",
        "operator:short": "NTT西日本",
        "operator:wikidata": "Q11628418"
      }
    },
    {
      "displayName": "O2",
      "id": "o2-2be02b",
      "locationSet": {"include": ["001"]},
      "tags": {
        "amenity": "telephone",
        "operator": "O2"
      }
    },
    {
      "displayName": "Oi",
      "id": "oi-2be02b",
      "locationSet": {"include": ["001"]},
      "tags": {
        "amenity": "telephone",
        "operator": "Oi"
      }
    },
    {
      "displayName": "OPT",
      "id": "opt-2be02b",
      "locationSet": {"include": ["001"]},
      "tags": {
        "amenity": "telephone",
        "operator": "OPT"
      }
    },
    {
      "displayName": "Orange",
      "id": "orange-2be02b",
      "locationSet": {"include": ["001"]},
      "tags": {
        "amenity": "telephone",
        "operator": "Orange"
      }
    },
    {
      "displayName": "OTE",
      "id": "ote-2be02b",
      "locationSet": {"include": ["001"]},
      "tags": {
        "amenity": "telephone",
        "operator": "OTE"
      }
    },
    {
      "displayName": "P&T",
      "id": "pandt-2be02b",
      "locationSet": {"include": ["001"]},
      "tags": {
        "amenity": "telephone",
        "operator": "P&T"
      }
    },
    {
      "displayName": "Pacific Telemanagement Services",
      "id": "pacifictelemanagementservices-2be02b",
      "locationSet": {"include": ["001"]},
      "tags": {
        "amenity": "telephone",
        "operator": "Pacific Telemanagement Services"
      }
    },
    {
      "displayName": "PLDT",
      "id": "pldt-2be02b",
      "locationSet": {"include": ["001"]},
      "tags": {
        "amenity": "telephone",
        "operator": "PLDT"
      }
    },
    {
      "displayName": "Portugal Telecom",
      "id": "portugaltelecom-2be02b",
      "locationSet": {"include": ["001"]},
      "tags": {
        "amenity": "telephone",
        "operator": "Portugal Telecom"
      }
    },
    {
      "displayName": "Post",
      "id": "post-2be02b",
      "locationSet": {"include": ["001"]},
      "tags": {
        "amenity": "telephone",
        "operator": "Post"
      }
    },
    {
      "displayName": "PT",
      "id": "pt-2be02b",
      "locationSet": {"include": ["001"]},
      "tags": {
        "amenity": "telephone",
        "operator": "PT"
      }
    },
    {
      "displayName": "Qtel",
      "id": "qtel-2be02b",
      "locationSet": {"include": ["001"]},
      "tags": {
        "amenity": "telephone",
        "operator": "Qtel"
      }
    },
    {
      "displayName": "R",
      "id": "r-2be02b",
      "locationSet": {"include": ["001"]},
      "tags": {
        "amenity": "telephone",
        "operator": "R"
      }
    },
    {
      "displayName": "RBL Telecom",
      "id": "rbltelecom-2be02b",
      "locationSet": {"include": ["001"]},
      "tags": {
        "amenity": "telephone",
        "operator": "RBL Telecom"
      }
    },
    {
      "displayName": "Romtelecom",
      "id": "romtelecom-2be02b",
      "locationSet": {"include": ["001"]},
      "tags": {
        "amenity": "telephone",
        "operator": "Romtelecom"
      }
    },
    {
      "displayName": "Spark",
      "id": "spark-2be02b",
      "locationSet": {"include": ["001"]},
      "tags": {
        "amenity": "telephone",
        "operator": "Spark"
      }
    },
    {
      "displayName": "Spark New Zealand",
      "id": "sparknewzealand-2be02b",
      "locationSet": {"include": ["001"]},
      "tags": {
        "amenity": "telephone",
        "operator": "Spark New Zealand"
      }
    },
    {
      "displayName": "Spectrum Interactive",
      "id": "spectruminteractive-2be02b",
      "locationSet": {"include": ["001"]},
      "tags": {
        "amenity": "telephone",
        "operator": "Spectrum Interactive"
      }
    },
    {
      "displayName": "Swisscom",
      "id": "swisscom-2be02b",
      "locationSet": {"include": ["001"]},
      "tags": {
        "amenity": "telephone",
        "operator": "Swisscom"
      }
    },
    {
      "displayName": "Swisscom (Schweiz) AG",
      "id": "swisscomschweizag-2be02b",
      "locationSet": {"include": ["001"]},
      "tags": {
        "amenity": "telephone",
        "operator": "Swisscom (Schweiz) AG"
      }
    },
    {
      "displayName": "Telecom",
      "id": "telecom-2be02b",
      "locationSet": {"include": ["001"]},
      "tags": {
        "amenity": "telephone",
        "operator": "Telecom"
      }
    },
    {
      "displayName": "Telecom Italia",
      "id": "telecomitalia-2be02b",
      "locationSet": {"include": ["001"]},
      "tags": {
        "amenity": "telephone",
        "operator": "Telecom Italia"
      }
    },
    {
      "displayName": "Telefónica",
      "id": "telefonica-2be02b",
      "locationSet": {"include": ["001"]},
      "tags": {
        "amenity": "telephone",
        "operator": "Telefónica"
      }
    },
    {
      "displayName": "Telefónica de Argentina S.A.",
      "id": "telefonicadeargentinasa-2be02b",
      "locationSet": {"include": ["001"]},
      "tags": {
        "amenity": "telephone",
        "operator": "Telefónica de Argentina S.A."
      }
    },
    {
      "displayName": "Telefónica de España, SAU",
      "id": "telefonicadeespanasau-2be02b",
      "locationSet": {"include": ["001"]},
      "tags": {
        "amenity": "telephone",
        "operator": "Telefónica de España, SAU"
      }
    },
    {
      "displayName": "Telefónica España",
      "id": "telefonicaespana-2be02b",
      "locationSet": {"include": ["001"]},
      "tags": {
        "amenity": "telephone",
        "operator": "Telefónica España"
      }
    },
    {
      "displayName": "Telefónica O2",
      "id": "telefonicao2-2be02b",
      "locationSet": {"include": ["001"]},
      "tags": {
        "amenity": "telephone",
        "operator": "Telefónica O2"
      }
    },
    {
      "displayName": "Telefónica S. A.",
      "id": "telefonicasa-2be02b",
      "locationSet": {"include": ["001"]},
      "tags": {
        "amenity": "telephone",
        "operator": "Telefónica S. A."
      }
    },
    {
      "displayName": "Telekom",
      "id": "telekom-2be02b",
      "locationSet": {"include": ["001"]},
      "tags": {
        "amenity": "telephone",
        "operator": "Telekom"
      }
    },
    {
      "displayName": "Telekom AG",
      "id": "telekomag-2be02b",
      "locationSet": {"include": ["001"]},
      "tags": {
        "amenity": "telephone",
        "operator": "Telekom AG"
      }
    },
    {
      "displayName": "Telekom Austria",
      "id": "telekomaustria-2be02b",
      "locationSet": {"include": ["001"]},
      "tags": {
        "amenity": "telephone",
        "operator": "Telekom Austria"
      }
    },
    {
      "displayName": "Telemar",
      "id": "telemar-2be02b",
      "locationSet": {"include": ["001"]},
      "tags": {
        "amenity": "telephone",
        "operator": "Telemar"
      }
    },
    {
      "displayName": "Telenor",
      "id": "telenor-2be02b",
      "locationSet": {"include": ["001"]},
      "tags": {
        "amenity": "telephone",
        "operator": "Telenor"
      }
    },
    {
      "displayName": "Telkom",
      "id": "telkom-2be02b",
      "locationSet": {"include": ["001"]},
      "tags": {
        "amenity": "telephone",
        "operator": "Telkom"
      }
    },
    {
      "displayName": "Telmex",
      "id": "telmex-2be02b",
      "locationSet": {"include": ["001"]},
      "tags": {
        "amenity": "telephone",
        "operator": "Telmex"
      }
    },
    {
      "displayName": "Telstra",
      "id": "telstra-2be02b",
      "locationSet": {"include": ["001"]},
      "tags": {
        "amenity": "telephone",
        "operator": "Telstra"
      }
    },
    {
      "displayName": "Telus",
      "id": "telus-25374a",
      "locationSet": {"include": ["ca"]},
      "tags": {
        "amenity": "telephone",
        "operator": "Telus",
        "operator:wikidata": "Q165858"
      }
    },
    {
      "displayName": "TIM",
      "id": "tim-2be02b",
      "locationSet": {"include": ["001"]},
      "tags": {
        "amenity": "telephone",
        "operator": "TIM"
      }
    },
    {
      "displayName": "TIM S.p.A.",
      "id": "timspa-2be02b",
      "locationSet": {"include": ["001"]},
      "tags": {
        "amenity": "telephone",
        "operator": "TIM S.p.A."
      }
    },
    {
      "displayName": "TM",
      "id": "tm-2be02b",
      "locationSet": {"include": ["001"]},
      "tags": {
        "amenity": "telephone",
        "operator": "TM"
      }
    },
    {
      "displayName": "TOT",
      "id": "tot-2be02b",
      "locationSet": {"include": ["001"]},
      "tags": {
        "amenity": "telephone",
        "operator": "TOT"
      }
    },
    {
      "displayName": "Türk Telekom",
      "id": "turktelekom-2be02b",
      "locationSet": {"include": ["001"]},
      "tags": {
        "amenity": "telephone",
        "operator": "Türk Telekom"
      }
    },
    {
      "displayName": "UNE",
      "id": "une-2be02b",
      "locationSet": {"include": ["001"]},
      "tags": {
        "amenity": "telephone",
        "operator": "UNE"
      }
    },
    {
      "displayName": "Uni Stuttgart",
      "id": "unistuttgart-2be02b",
      "locationSet": {"include": ["001"]},
      "tags": {
        "amenity": "telephone",
        "operator": "Uni Stuttgart"
      }
    },
    {
      "displayName": "Vivo",
      "id": "vivo-2be02b",
      "locationSet": {"include": ["001"]},
      "tags": {
        "amenity": "telephone",
        "operator": "Vivo"
      }
    },
    {
      "displayName": "ΟΤΕ",
      "id": "387537-2be02b",
      "locationSet": {"include": ["001"]},
      "tags": {
        "amenity": "telephone",
        "operator": "ΟΤΕ"
      }
    },
    {
      "displayName": "АТС",
      "id": "534afc-2be02b",
      "locationSet": {"include": ["001"]},
      "tags": {
        "amenity": "telephone",
        "operator": "АТС"
      }
    },
    {
      "displayName": "Башинформсвязь",
      "id": "137ef4-2be02b",
      "locationSet": {"include": ["001"]},
      "tags": {
        "amenity": "telephone",
        "operator": "Башинформсвязь"
      }
    },
    {
      "displayName": "Белтелеком",
      "id": "672155-2be02b",
      "locationSet": {"include": ["001"]},
      "tags": {
        "amenity": "telephone",
        "operator": "Белтелеком"
      }
    },
    {
      "displayName": "ОАО \"Ростелеком\"",
      "id": "489110-2be02b",
      "locationSet": {"include": ["001"]},
      "tags": {
        "amenity": "telephone",
        "operator": "ОАО \"Ростелеком\""
      }
    },
    {
      "displayName": "ПАО «Ростелеком»",
      "id": "a9dd80-2be02b",
      "locationSet": {"include": ["001"]},
      "tags": {
        "amenity": "telephone",
        "operator": "ПАО «Ростелеком»"
      }
    },
    {
      "displayName": "Россвязь",
      "id": "9c761b-2be02b",
      "locationSet": {"include": ["001"]},
      "tags": {
        "amenity": "telephone",
        "operator": "Россвязь"
      }
    },
    {
      "displayName": "Ростелеком",
      "id": "b6fed5-2be02b",
      "locationSet": {"include": ["001"]},
      "tags": {
        "amenity": "telephone",
        "operator": "Ростелеком"
      }
    },
    {
      "displayName": "РУП «Белтелеком»",
      "id": "f04d42-2be02b",
      "locationSet": {"include": ["001"]},
      "tags": {
        "amenity": "telephone",
        "operator": "РУП «Белтелеком»"
      }
    },
    {
      "displayName": "Центртелеком",
      "id": "e264c1-2be02b",
      "locationSet": {"include": ["001"]},
      "tags": {
        "amenity": "telephone",
        "operator": "Центртелеком"
      }
    },
    {
      "displayName": "בזק",
      "id": "4272eb-2be02b",
      "locationSet": {"include": ["001"]},
      "tags": {
        "amenity": "telephone",
        "operator": "בזק",
        "operator:he": "בזק"
      }
    },
    {
      "displayName": "中華電信",
      "id": "chunghwatelecom-ac3b33",
      "locationSet": {"include": ["tw"]},
      "tags": {
        "amenity": "telephone",
        "operator": "中華電信",
        "operator:en": "Chunghwa Telecom",
        "operator:wikidata": "Q717531",
        "operator:zh": "中華電信"
      }
    }
  ]
}
