{
  "properties": {
    "path": "operators/amenity/ticket_validator",
    "exclude": {"generic": ["^ticket_validator$"]}
  },
  "items": [
    {
      "displayName": "Arriva",
      "id": "arriva-766524",
      "locationSet": {
        "include": ["de-nw.geojson", "nl"]
      },
      "tags": {
        "amenity": "ticket_validator",
        "operator": "Arriva",
        "operator:wikidata": "Q680991"
      }
    },
    {
      "displayName": "AT HOP Validator",
      "id": "at-0b3968",
      "locationSet": {
        "include": [
          "nz-auk.geojson",
          "nz-wko.geojson"
        ]
      },
      "matchNames": ["auckland transport"],
      "tags": {
        "amenity": "ticket_validator",
        "operator": "AT",
        "operator:wikidata": "Q4819567"
      }
    },
    {
      "displayName": "Auvergne-Rhône-Alpes",
      "id": "auvergnerhonealpes-c94544",
      "locationSet": {
        "include": ["fr-ara.geojson"]
      },
      "tags": {
        "amenity": "ticket_validator",
        "operator": "Auvergne-Rhône-Alpes",
        "operator:wikidata": "Q18338206"
      }
    },
    {
      "displayName": "Berliner Verkehrsbetriebe",
      "id": "berlinerverkehrsbetriebe-e86cd8",
      "locationSet": {
        "include": ["de-be.geojson"]
      },
      "tags": {
        "amenity": "ticket_validator",
        "operator": "Berliner Verkehrsbetriebe",
        "operator:short": "BVG",
        "operator:wikidata": "Q99633"
      }
    },
    {
      "displayName": "Caltrain",
      "id": "caltrain-883676",
      "locationSet": {
        "include": [[-122.4, 37.1, 80]]
      },
      "tags": {
        "amenity": "ticket_validator",
        "operator": "Caltrain",
        "operator:wikidata": "Q166817"
      }
    },
    {
      "displayName": "CasaTramway",
      "id": "casatramway-93358b",
      "locationSet": {"include": ["mo"]},
      "tags": {
        "amenity": "ticket_validator",
        "operator": "CasaTramway"
      }
    },
    {
      "displayName": "CTS (Strasbourg)",
      "id": "compagniedestransportsstrasbourgeois-b6a498",
      "locationSet": {"include": [[7.75, 48.58]]},
      "tags": {
        "amenity": "ticket_validator",
        "operator": "Compagnie des Transports Strasbourgeois",
        "operator:short": "CTS",
        "operator:wikidata": "Q2990068"
      }
    },
    {
      "displayName": "DB Vertrieb GmbH",
      "id": "dbvertriebgmbh-f980d0",
      "locationSet": {"include": ["de"]},
      "tags": {
        "amenity": "ticket_validator",
        "operator": "DB Vertrieb GmbH",
        "operator:wikidata": "Q1152124"
      }
    },
    {
      "displayName": "Deutsche Bahn",
      "id": "deutschebahn-f980d0",
      "locationSet": {"include": ["de"]},
      "tags": {
        "amenity": "ticket_validator",
        "operator": "Deutsche Bahn",
        "operator:wikidata": "Q9322"
      }
    },
    {
      "displayName": "IDS JMK",
      "id": "idsjmk-abb2e4",
      "locationSet": {"include": ["cz"]},
      "tags": {
        "amenity": "ticket_validator",
        "operator": "IDS JMK",
        "operator:wikidata": "Q12020731"
      }
    },
    {
      "displayName": "Keolis Rennes",
      "id": "keolisrennes-8fe767",
      "locationSet": {
        "include": ["fr-bre.geojson"]
      },
      "tags": {
        "amenity": "ticket_validator",
        "operator": "Keolis Rennes",
        "operator:wikidata": "Q3195353"
      }
    },
    {
      "displayName": "Metlink (Wellington)",
      "id": "metlink-3eb661",
      "locationSet": {
        "include": [
          "nz-mwt.geojson",
          "nz-wgn.geojson"
        ]
      },
      "tags": {
        "amenity": "ticket_validator",
        "operator": "Metlink",
        "operator:wikidata": "Q7258026"
      }
    },
    {
      "displayName": "Nederlandse Spoorwegen",
      "id": "nederlandsespoorwegen-23194f",
      "locationSet": {"include": ["nl"]},
      "matchNames": ["ns"],
      "tags": {
        "amenity": "ticket_validator",
        "operator": "Nederlandse Spoorwegen",
        "operator:wikidata": "Q23076"
      }
    },
    {
      "displayName": "RATP",
      "id": "ratp-0bced1",
      "locationSet": {"include": ["fx"]},
      "tags": {
        "amenity": "ticket_validator",
        "operator": "RATP"
      }
    },
    {
      "displayName": "Regional Transportation District",
      "id": "regionaltransportationdistrict-4cc7a7",
      "locationSet": {
        "include": ["us-co.geojson"]
      },
      "tags": {
        "amenity": "ticket_validator",
        "operator": "Regional Transportation District",
        "operator:short": "RTD",
        "operator:wikidata": "Q7309183"
      }
    },
    {
      "displayName": "S-Bahn Berlin GmbH",
      "id": "sbahnberlingmbh-666711",
      "locationSet": {
        "include": [
          "de-bb.geojson",
          "de-be.geojson"
        ]
      },
      "tags": {
        "amenity": "ticket_validator",
        "operator": "S-Bahn Berlin GmbH",
        "operator:wikidata": "Q12374454"
      }
    },
    {
      "displayName": "SBB - CFF - FFS",
      "id": "sbbcffffs-ac77cd",
      "locationSet": {
        "include": [
          "ch",
          "fr-ara.geojson",
          "fr-bfc.geojson"
        ]
      },
      "matchNames": [
        "schweizerische bundesbahnen ag",
        "swiss federal railways"
      ],
      "tags": {
        "amenity": "ticket_validator",
        "operator": "SBB - CFF - FFS",
        "operator:de": "SBB",
        "operator:fr": "CFF",
        "operator:it": "FFS",
        "operator:wikidata": "Q83835"
      }
    },
    {
      "displayName": "SNCF",
      "id": "sncf-0bced1",
      "locationSet": {"include": ["fx"]},
      "tags": {
        "amenity": "ticket_validator",
        "operator": "SNCF"
      }
    },
    {
      "displayName": "SNCF Gares & Connexions",
      "id": "sncfgaresandconnexions-9fdb02",
      "locationSet": {"include": ["001"]},
      "tags": {
        "amenity": "ticket_validator",
        "operator": "SNCF Gares & Connexions"
      }
    },
    {
      "displayName": "SNCF TER Bretagne",
      "id": "sncfterbretagne-0bced1",
      "locationSet": {"include": ["fx"]},
      "tags": {
        "amenity": "ticket_validator",
        "operator": "SNCF TER Bretagne"
      }
    },
    {
      "displayName": "TER Hauts-de-France",
      "id": "terhautsdefrance-258336",
      "locationSet": {
        "include": ["fr-hdf.geojson"]
      },
      "tags": {
        "amenity": "ticket_validator",
        "operator": "TER Hauts-de-France",
        "operator:wikidata": "Q38223166"
      }
    },
    {
      "displayName": "Transdev Vertrieb GmbH",
      "id": "transdevvertriebgmbh-f980d0",
      "locationSet": {"include": ["de"]},
      "tags": {
        "amenity": "ticket_validator",
        "operator": "Transdev Vertrieb GmbH",
        "operator:wikidata": "Q129520185"
      }
    },
    {
      "displayName": "Translink (Queensland)",
      "id": "translink-2260c1",
      "locationSet": {
        "include": ["au-qld.geojson"]
      },
      "tags": {
        "amenity": "ticket_validator",
        "operator": "Translink",
        "operator:wikidata": "Q7833625"
      }
    },
    {
      "displayName": "Transport for London",
      "id": "transportforlondon-73d484",
      "locationSet": {"include": ["gb-eng"]},
      "tags": {
        "amenity": "ticket_validator",
        "operator": "Transport for London",
        "operator:short": "TfL",
        "operator:wikidata": "Q682520"
      }
    },
    {
      "displayName": "Transport for NSW",
      "id": "transportfornsw-832030",
      "locationSet": {
        "include": ["au-nsw.geojson"]
      },
      "matchNames": ["tfnsw"],
      "tags": {
        "amenity": "ticket_validator",
        "operator": "Transport for NSW",
        "operator:wikidata": "Q7834923"
      }
    },
    {
      "displayName": "Transport for West Midlands",
      "id": "transportforwestmidlands-1d1aee",
      "locationSet": {
        "include": ["gb-west-midlands.geojson"]
      },
      "tags": {
        "amenity": "ticket_validator",
        "operator": "Transport for West Midlands",
        "operator:wikidata": "Q7985947"
      }
    },
    {
      "displayName": "Trenes Argentinos",
      "id": "trenesargentinos-7afe5b",
      "locationSet": {"include": ["ar"]},
      "tags": {
        "amenity": "ticket_validator",
        "operator": "Trenes Argentinos"
      }
    },
    {
      "displayName": "Trenitalia",
      "id": "trenitalia-73a324",
      "locationSet": {"include": ["it"]},
      "tags": {
        "amenity": "ticket_validator",
        "operator": "Trenitalia",
        "operator:short": "TI",
        "operator:wikidata": "Q286650"
      }
    },
    {
      "displayName": "Trenord",
      "id": "trenord-73a324",
      "locationSet": {"include": ["it"]},
      "tags": {
        "amenity": "ticket_validator",
        "operator": "Trenord"
      }
    },
    {
      "displayName": "Verkehrsverbund Rhein-Neckar",
      "id": "verkehrsverbundrheinneckar-4f3d84",
      "locationSet": {
        "include": ["de-bw.geojson"]
      },
      "tags": {
        "amenity": "ticket_validator",
        "operator": "Verkehrsverbund Rhein-Neckar",
        "operator:short": "VRN",
        "operator:wikidata": "Q1553051"
      }
    },
    {
      "displayName": "VVS",
      "id": "vvs-9fdb02",
      "locationSet": {"include": ["001"]},
      "tags": {
        "amenity": "ticket_validator",
        "operator": "VVS"
      }
    },
    {
      "displayName": "WSW mobil GmbH",
      "id": "wswmobilgmbh-f980d0",
      "locationSet": {"include": ["de"]},
      "matchNames": ["wsw", "wsw mobil"],
      "tags": {
        "amenity": "ticket_validator",
        "operator": "WSW mobil GmbH",
        "operator:wikidata": "Q44880072"
      }
    },
    {
      "displayName": "Würzburger Versorgungs- und Verkehrs-GmbH",
      "id": "wurzburgerversorgungsundverkehrsgmbh-1c8b87",
      "locationSet": {
        "include": ["de-by.geojson"]
      },
      "tags": {
        "amenity": "ticket_validator",
        "operator": "Würzburger Versorgungs- und Verkehrs-GmbH",
        "operator:short": "WVV",
        "operator:wikidata": "Q1291006"
      }
    },
    {
      "displayName": "Київпастранс",
      "id": "kyivpastrans-86a43e",
      "locationSet": {"include": ["ua"]},
      "tags": {
        "amenity": "ticket_validator",
        "operator": "Київпастранс",
        "operator:en": "Kyivpastrans",
        "operator:uk": "Київпастранс",
        "operator:wikidata": "Q12110155"
      }
    },
    {
      "displayName": "Київський метрополітен",
      "id": "cee87d-86a43e",
      "locationSet": {"include": ["ua"]},
      "tags": {
        "amenity": "ticket_validator",
        "operator": "Київський метрополітен",
        "operator:wikidata": "Q215871"
      }
    },
    {
      "displayName": "中国铁路",
      "id": "chinarailway-fa74de",
      "locationSet": {"include": ["cn"]},
      "tags": {
        "amenity": "ticket_validator",
        "operator": "中国铁路",
        "operator:en": "China Railway",
        "operator:wikidata": "Q1073489",
        "operator:zh": "中国铁路"
      }
    }
  ]
}
