{
  "properties": {
    "path": "operators/amenity/toilets",
    "exclude": {
      "generic": [
        "^bar$",
        "^camping(platz)?$",
        "^community$",
        "^council$",
        "^gemeinde$",
        "^mairie$",
        "^mosque toilet$",
        "^municipal$",
        "^ngo$",
        "^pu[bp]lic\\s?(toilet)?(s)?$",
        "^school$",
        "^toilet(s)?$",
        "^toilettes publiques$",
        "^wc$",
        "^туалет$"
      ]
    }
  },
  "items": [
    {
      "displayName": "\"Red Cross\"",
      "id": "redcross-50622e",
      "locationSet": {"include": ["zw"]},
      "tags": {
        "amenity": "toilets",
        "operator": "\"Red Cross\""
      }
    },
    {
      "displayName": "2theloo",
      "id": "2theloo-48c608",
      "locationSet": {"include": ["001"]},
      "tags": {
        "amenity": "toilets",
        "operator": "2theloo",
        "operator:wikidata": "Q124769436"
      }
    },
    {
      "displayName": "Action contre la Faim",
      "id": "acf-48c608",
      "locationSet": {"include": ["001"]},
      "tags": {
        "amenity": "toilets",
        "operator": "Action contre la Faim",
        "operator:en": "Action Against Hunger",
        "operator:fr": "Action contre la Faim",
        "operator:short": "ACF",
        "operator:wikidata": "Q343624"
      }
    },
    {
      "displayName": "AFCD",
      "id": "afcd-70c95d",
      "locationSet": {"include": ["hk"]},
      "tags": {
        "amenity": "toilets",
        "operator": "AFCD"
      }
    },
    {
      "displayName": "Africa Humanitarian Action",
      "id": "aha-48c608",
      "locationSet": {"include": ["001"]},
      "tags": {
        "amenity": "toilets",
        "operator": "Africa Humanitarian Action",
        "operator:short": "AHA",
        "operator:wikidata": "Q4689566"
      }
    },
    {
      "displayName": "Asda",
      "id": "asda-4f5d70",
      "locationSet": {"include": ["gb"]},
      "tags": {
        "amenity": "toilets",
        "operator": "Asda"
      }
    },
    {
      "displayName": "ASFINAG",
      "id": "asfinag-48c608",
      "locationSet": {"include": ["at"]},
      "tags": {
        "amenity": "toilets",
        "operator": "ASFINAG"
      }
    },
    {
      "displayName": "Association de l’Accueil à Taizé",
      "id": "associationdelaccueilataize-48c608",
      "locationSet": {"include": ["fx"]},
      "tags": {
        "amenity": "toilets",
        "operator": "Association de l’Accueil à Taizé"
      }
    },
    {
      "displayName": "Ayuntamiento de Madrid",
      "id": "ayuntamientodemadrid-4984c1",
      "locationSet": {"include": ["es"]},
      "tags": {
        "amenity": "toilets",
        "operator": "Ayuntamiento de Madrid"
      }
    },
    {
      "displayName": "Ayuntamiento de Pamplona",
      "id": "ayuntamientodepamplona-48c608",
      "locationSet": {"include": ["es"]},
      "tags": {
        "amenity": "toilets",
        "operator": "Ayuntamiento de Pamplona"
      }
    },
    {
      "displayName": "BBMP",
      "id": "bbmp-5a8295",
      "locationSet": {"include": ["in"]},
      "tags": {
        "amenity": "toilets",
        "operator": "BBMP"
      }
    },
    {
      "displayName": "BC Parks",
      "id": "bcparks-af8860",
      "locationSet": {
        "include": ["ca-bc.geojson"]
      },
      "tags": {
        "amenity": "toilets",
        "operator": "BC Parks",
        "operator:wikidata": "Q2876928"
      }
    },
    {
      "displayName": "BCC",
      "id": "bcc-8c19f6",
      "locationSet": {"include": ["au"]},
      "tags": {
        "amenity": "toilets",
        "operator": "BCC"
      }
    },
    {
      "displayName": "Belfast City Council",
      "id": "belfastcitycouncil-93a25a",
      "locationSet": {"include": ["gb-nir"]},
      "tags": {
        "amenity": "toilets",
        "operator": "Belfast City Council",
        "operator:type": "government",
        "operator:wikidata": "Q55934837"
      }
    },
    {
      "displayName": "Bowling Green State University",
      "id": "bowlinggreenstateuniversity-ee33ef",
      "locationSet": {
        "include": ["us-oh.geojson"]
      },
      "tags": {
        "amenity": "toilets",
        "operator": "Bowling Green State University",
        "operator:wikidata": "Q895457"
      }
    },
    {
      "displayName": "BP",
      "id": "bp-48c608",
      "locationSet": {"include": ["001"]},
      "tags": {
        "amenity": "toilets",
        "operator": "BP",
        "operator:wikidata": "Q152057"
      }
    },
    {
      "displayName": "British Red Cross",
      "id": "britishredcross-48c608",
      "locationSet": {"include": ["001"]},
      "tags": {
        "amenity": "toilets",
        "operator": "British Red Cross",
        "operator:wikidata": "Q4970966"
      }
    },
    {
      "displayName": "Bureau of Land Management",
      "id": "bureauoflandmanagement-48c608",
      "locationSet": {"include": ["us"]},
      "tags": {
        "amenity": "toilets",
        "operator": "Bureau of Land Management",
        "operator:short": "BLM",
        "operator:wikidata": "Q1010556"
      }
    },
    {
      "displayName": "Burger King toilets",
      "id": "burgerking-b9c42e",
      "locationSet": {
        "include": ["001"],
        "exclude": [[-88.3726, 39.4818, 32], "au"]
      },
      "note": "There is a non-branded Burger King in Mattoon, Illinois, USA, which is excluded. The chain is called 'Hungry Jacks' in Australia.",
      "tags": {
        "amenity": "toilets",
        "operator": "Burger King",
        "operator:wikidata": "Q177054"
      }
    },
    {
      "displayName": "Câmara Municipal de Lisboa",
      "id": "camaramunicipaldelisboa-c356a7",
      "locationSet": {"include": ["pt"]},
      "tags": {
        "amenity": "toilets",
        "operator": "Câmara Municipal de Lisboa"
      }
    },
    {
      "displayName": "Camp Lowden",
      "id": "camplowden-40be46",
      "locationSet": {
        "include": ["us-il.geojson"]
      },
      "tags": {
        "amenity": "toilets",
        "operator": "Camp Lowden"
      }
    },
    {
      "displayName": "Camping municipal Le Pont de l'Étang",
      "id": "campingmunicipallepontdeletang-73fc0c",
      "locationSet": {"include": ["fx"]},
      "tags": {
        "amenity": "toilets",
        "operator": "Camping municipal Le Pont de l'Étang"
      }
    },
    {
      "displayName": "Camping Village il Sole",
      "id": "campingvillageilsole-1fde80",
      "locationSet": {"include": ["it"]},
      "tags": {
        "amenity": "toilets",
        "operator": "Camping Village il Sole"
      }
    },
    {
      "displayName": "Canal and River Trust",
      "id": "canalandrivertrust-4f5d70",
      "locationSet": {"include": ["gb"]},
      "tags": {
        "amenity": "toilets",
        "operator": "Canal and River Trust"
      }
    },
    {
      "displayName": "CARE/HCR",
      "id": "carehcr-bee1ef",
      "locationSet": {"include": ["td"]},
      "tags": {
        "amenity": "toilets",
        "operator": "CARE/HCR"
      }
    },
    {
      "displayName": "Carrefour",
      "id": "carrefour-48c608",
      "locationSet": {"include": ["001"]},
      "tags": {
        "amenity": "toilets",
        "operator": "Carrefour",
        "operator:wikidata": "Q217599"
      }
    },
    {
      "displayName": "Central Coast Council",
      "id": "centralcoastcouncil-48c608",
      "locationSet": {"include": ["au"]},
      "tags": {
        "amenity": "toilets",
        "operator": "Central Coast Council"
      }
    },
    {
      "displayName": "Centro Comercial Vasco da Gama",
      "id": "centrocomercialvascodagama-c356a7",
      "locationSet": {"include": ["pt"]},
      "tags": {
        "amenity": "toilets",
        "operator": "Centro Comercial Vasco da Gama"
      }
    },
    {
      "displayName": "Circle K",
      "id": "circlek-48c608",
      "locationSet": {"include": ["001"]},
      "tags": {
        "amenity": "toilets",
        "operator": "Circle K",
        "operator:wikidata": "Q3268010"
      }
    },
    {
      "displayName": "City of Calgary",
      "id": "cityofcalgary-fa5474",
      "locationSet": {
        "include": ["ca-ab.geojson"]
      },
      "tags": {
        "amenity": "toilets",
        "operator": "City of Calgary",
        "operator:type": "public",
        "operator:wikidata": "Q36312"
      }
    },
    {
      "displayName": "City of Cape Town",
      "id": "cityofcapetown-48ee64",
      "locationSet": {"include": ["za"]},
      "tags": {
        "amenity": "toilets",
        "operator": "City of Cape Town",
        "operator:af": "Stad Kaapstad",
        "operator:en": "City of Cape Town",
        "operator:type": "government",
        "operator:wikidata": "Q1185115",
        "operator:xh": "IsiXeko saseKapa"
      }
    },
    {
      "displayName": "City of Ottawa",
      "id": "cityofottawa-7c1906",
      "locationSet": {
        "include": ["ca-on.geojson"]
      },
      "matchNames": ["ottawa"],
      "tags": {
        "amenity": "toilets",
        "operator": "City of Ottawa",
        "operator:type": "public",
        "operator:wikidata": "Q1930"
      }
    },
    {
      "displayName": "City of Windhoek",
      "id": "cityofwindhoek-1c76ba",
      "locationSet": {"include": ["na"]},
      "tags": {
        "amenity": "toilets",
        "operator": "City of Windhoek",
        "operator:wikidata": "Q3935"
      }
    },
    {
      "displayName": "Commune d'Anglet",
      "id": "communedanglet-73fc0c",
      "locationSet": {"include": ["fx"]},
      "tags": {
        "amenity": "toilets",
        "operator": "Commune d'Anglet"
      }
    },
    {
      "displayName": "Commune de Lons-le-Saunier",
      "id": "communedelonslesaunier-48c608",
      "locationSet": {"include": ["fx"]},
      "tags": {
        "amenity": "toilets",
        "operator": "Commune de Lons-le-Saunier"
      }
    },
    {
      "displayName": "Croix-rouge Britanique",
      "id": "croixrougebritanique-48c608",
      "locationSet": {"include": ["001"]},
      "tags": {
        "amenity": "toilets",
        "operator": "Croix-rouge Britanique",
        "operator:wikidata": "Q4970966"
      }
    },
    {
      "displayName": "Croix-rouge Francaise",
      "id": "croixrougefrancaise-48c608",
      "locationSet": {"include": ["001"]},
      "tags": {
        "amenity": "toilets",
        "operator": "Croix-rouge Francaise",
        "operator:wikidata": "Q3003244"
      }
    },
    {
      "displayName": "CRS",
      "id": "crs-4a7536",
      "locationSet": {"include": ["ug"]},
      "tags": {
        "amenity": "toilets",
        "operator": "CRS"
      }
    },
    {
      "displayName": "Curtin University",
      "id": "curtinuniversity-8c19f6",
      "locationSet": {"include": ["au"]},
      "tags": {
        "amenity": "toilets",
        "operator": "Curtin University",
        "operator:wikidata": "Q1145497"
      }
    },
    {
      "displayName": "Department of Conservation (New Zealand)",
      "id": "departmentofconservation-7e943b",
      "locationSet": {"include": ["nz"]},
      "matchNames": ["doc"],
      "tags": {
        "amenity": "toilets",
        "operator": "Department of Conservation",
        "operator:wikidata": "Q1191417"
      }
    },
    {
      "displayName": "Department of Conservation and Recreation (Massachusetts)",
      "id": "departmentofconservationandrecreation-536e2b",
      "locationSet": {
        "include": ["us-ma.geojson"]
      },
      "tags": {
        "amenity": "toilets",
        "operator": "Department of Conservation and Recreation",
        "operator:short": "DCR",
        "operator:wikidata": "Q2543589"
      }
    },
    {
      "displayName": "DRC",
      "id": "drc-4a7536",
      "locationSet": {"include": ["ug"]},
      "tags": {
        "amenity": "toilets",
        "operator": "DRC"
      }
    },
    {
      "displayName": "Durham Technical Community College",
      "id": "durhamtechnicalcommunitycollege-a5c9d1",
      "locationSet": {
        "include": ["us-nc.geojson"]
      },
      "tags": {
        "amenity": "toilets",
        "operator": "Durham Technical Community College",
        "operator:wikidata": "Q5316567"
      }
    },
    {
      "displayName": "Eastbourne Borough Council",
      "id": "eastbourneboroughcouncil-94d3cf",
      "locationSet": {
        "include": [[0.27, 50.77, 7]]
      },
      "tags": {
        "amenity": "toilets",
        "operator": "Eastbourne Borough Council",
        "operator:type": "government",
        "operator:wikidata": "Q30588396"
      }
    },
    {
      "displayName": "EcoToiletten GmbH",
      "id": "ecotoilettengmbh-a4f70c",
      "locationSet": {"include": ["de"]},
      "tags": {
        "amenity": "toilets",
        "operator": "EcoToiletten GmbH",
        "operator:wikidata": "Q111795639"
      }
    },
    {
      "displayName": "Edeka",
      "id": "edeka-a4f70c",
      "locationSet": {"include": ["de"]},
      "tags": {
        "amenity": "toilets",
        "operator": "Edeka"
      }
    },
    {
      "displayName": "Einwohnergemeinde Baar",
      "id": "einwohnergemeindebaar-cb9186",
      "locationSet": {"include": ["ch"]},
      "tags": {
        "amenity": "toilets",
        "operator": "Einwohnergemeinde Baar"
      }
    },
    {
      "displayName": "Elbauenpark",
      "id": "elbauenpark-a4f70c",
      "locationSet": {"include": ["de"]},
      "tags": {
        "amenity": "toilets",
        "operator": "Elbauenpark"
      }
    },
    {
      "displayName": "EuroMétropole de Strasbourg",
      "id": "eurometropoledestrasbourg-73fc0c",
      "locationSet": {"include": ["fx"]},
      "tags": {
        "amenity": "toilets",
        "operator": "EuroMétropole de Strasbourg"
      }
    },
    {
      "displayName": "FCSM Zrt.",
      "id": "fcsmzrt-48c608",
      "locationSet": {"include": ["hu"]},
      "tags": {
        "amenity": "toilets",
        "operator": "FCSM Zrt."
      }
    },
    {
      "displayName": "Flughafen Zürich AG",
      "id": "flughafenzurichag-cb9186",
      "locationSet": {"include": ["ch"]},
      "tags": {
        "amenity": "toilets",
        "operator": "Flughafen Zürich AG"
      }
    },
    {
      "displayName": "Fort Cobb State Park",
      "id": "fortcobbstatepark-c3f3e2",
      "locationSet": {
        "include": ["us-ok.geojson"]
      },
      "matchNames": ["ft cobb state park"],
      "tags": {
        "amenity": "toilets",
        "operator": "Fort Cobb State Park",
        "operator:wikidata": "Q5470940"
      }
    },
    {
      "displayName": "Fővárosi Csatornázási Művek",
      "id": "fovarosicsatornazasimuvek-c8692e",
      "locationSet": {"include": ["hu"]},
      "tags": {
        "amenity": "toilets",
        "operator": "Fővárosi Csatornázási Művek"
      }
    },
    {
      "displayName": "FUTAKO TAMAGAWA RISE",
      "id": "futakotamagawarise-efac16",
      "locationSet": {"include": ["jp"]},
      "tags": {
        "amenity": "toilets",
        "operator": "FUTAKO TAMAGAWA RISE"
      }
    },
    {
      "displayName": "Gitzenweiler Hof",
      "id": "gitzenweilerhof-a4f70c",
      "locationSet": {"include": ["de"]},
      "tags": {
        "amenity": "toilets",
        "operator": "Gitzenweiler Hof"
      }
    },
    {
      "displayName": "Government of Jersey",
      "id": "governmentofjersey-057698",
      "locationSet": {"include": ["je"]},
      "tags": {
        "amenity": "toilets",
        "operator": "Government of Jersey"
      }
    },
    {
      "displayName": "Grand-Lyon",
      "id": "grandlyon-73fc0c",
      "locationSet": {"include": ["fx"]},
      "tags": {
        "amenity": "toilets",
        "operator": "Grand-Lyon"
      }
    },
    {
      "displayName": "Haderslev Kommune",
      "id": "haderslevkommune-ab6dd3",
      "locationSet": {"include": ["dk"]},
      "tags": {
        "amenity": "toilets",
        "operator": "Haderslev Kommune"
      }
    },
    {
      "displayName": "Halifax Regional Municipality",
      "id": "halifaxregionalmunicipality-59976c",
      "locationSet": {
        "include": ["ca-ns.geojson"]
      },
      "tags": {
        "amenity": "toilets",
        "operator": "Halifax Regional Municipality"
      }
    },
    {
      "displayName": "Helsingin kaupunki",
      "id": "helsinginkaupunki-086043",
      "locationSet": {"include": ["fi"]},
      "tags": {
        "amenity": "toilets",
        "operator": "Helsingin kaupunki"
      }
    },
    {
      "displayName": "Hering",
      "id": "hering-a4f70c",
      "locationSet": {"include": ["de"]},
      "matchNames": ["hering sanikonzept gmbh"],
      "tags": {
        "amenity": "toilets",
        "operator": "Hering"
      }
    },
    {
      "displayName": "IOM",
      "id": "iom-48c608",
      "locationSet": {"include": ["001"]},
      "tags": {
        "amenity": "toilets",
        "operator": "IOM",
        "operator:wikidata": "Q472311"
      }
    },
    {
      "displayName": "JCDecaux",
      "id": "jcdecaux-48c608",
      "locationSet": {"include": ["001"]},
      "tags": {
        "amenity": "toilets",
        "operator": "JCDecaux",
        "operator:wikidata": "Q74877"
      }
    },
    {
      "displayName": "Kaufland",
      "id": "kaufland-48c608",
      "locationSet": {"include": ["001"]},
      "tags": {
        "amenity": "toilets",
        "operator": "Kaufland",
        "operator:wikidata": "Q685967"
      }
    },
    {
      "displayName": "Kawartha Highlands Provincial Park",
      "id": "kawarthahighlandsprovincialpark-7c1906",
      "locationSet": {
        "include": ["ca-on.geojson"]
      },
      "tags": {
        "amenity": "toilets",
        "operator": "Kawartha Highlands Provincial Park"
      }
    },
    {
      "displayName": "Kent State University",
      "id": "kentstateuniversity-ee33ef",
      "locationSet": {
        "include": ["us-oh.geojson"]
      },
      "tags": {
        "amenity": "toilets",
        "operator": "Kent State University",
        "operator:wikidata": "Q1473615"
      }
    },
    {
      "displayName": "KFC",
      "id": "kfc-48c608",
      "locationSet": {"include": ["001"]},
      "tags": {
        "amenity": "toilets",
        "operator": "KFC",
        "operator:wikidata": "Q524757"
      }
    },
    {
      "displayName": "Kymenlaakson virkistysalueyhdistys ry",
      "id": "kymenlaaksonvirkistysalueyhdistysry-086043",
      "locationSet": {"include": ["fi"]},
      "tags": {
        "amenity": "toilets",
        "operator": "Kymenlaakson virkistysalueyhdistys ry"
      }
    },
    {
      "displayName": "LCSD",
      "id": "lcsd-70c95d",
      "locationSet": {"include": ["hk"]},
      "tags": {
        "amenity": "toilets",
        "operator": "LCSD"
      }
    },
    {
      "displayName": "Lower Kearsley Recreation Site",
      "id": "lowerkearsleyrecreationsite-af8860",
      "locationSet": {
        "include": ["ca-bc.geojson"]
      },
      "tags": {
        "amenity": "toilets",
        "operator": "Lower Kearsley Recreation Site"
      }
    },
    {
      "displayName": "Lutheran World Federation",
      "id": "lwf-48c608",
      "locationSet": {"include": ["001"]},
      "tags": {
        "amenity": "toilets",
        "operator": "Lutheran World Federation",
        "operator:short": "LWF",
        "operator:wikidata": "Q942284"
      }
    },
    {
      "displayName": "Mairie de Bidart",
      "id": "mairiedebidart-73fc0c",
      "locationSet": {"include": ["fx"]},
      "tags": {
        "amenity": "toilets",
        "operator": "Mairie de Bidart"
      }
    },
    {
      "displayName": "MÁV",
      "id": "mav-c8692e",
      "locationSet": {"include": ["hu"]},
      "tags": {
        "amenity": "toilets",
        "operator": "MÁV"
      }
    },
    {
      "displayName": "McDonald's",
      "id": "mcdonalds-70db25",
      "locationSet": {
        "include": ["001"],
        "exclude": [
          "ae",
          "bh",
          "by",
          "cn",
          "eg",
          "fr",
          "hk",
          "iq",
          "jo",
          "jp",
          "kr",
          "kw",
          "kz",
          "lb",
          "ma",
          "mo",
          "no",
          "om",
          "qa",
          "ru",
          "sa",
          "sy",
          "tn",
          "tw"
        ]
      },
      "tags": {
        "amenity": "toilets",
        "operator": "McDonald's",
        "operator:wikidata": "Q38076"
      }
    },
    {
      "displayName": "MCK",
      "id": "mck-5e6ea6",
      "locationSet": {"include": ["id"]},
      "tags": {
        "amenity": "toilets",
        "operator": "MCK"
      }
    },
    {
      "displayName": "Melbourne City Council",
      "id": "melbournecitycouncil-1f48c5",
      "locationSet": {
        "include": ["au-vic.geojson"]
      },
      "tags": {
        "amenity": "toilets",
        "operator": "Melbourne City Council",
        "operator:wikidata": "Q56477763"
      }
    },
    {
      "displayName": "Metro Warszawskie Sp. z o.o.",
      "id": "metrowarszawskiespzoo-48c608",
      "locationSet": {"include": ["pl"]},
      "tags": {
        "amenity": "toilets",
        "operator": "Metro Warszawskie Sp. z o.o."
      }
    },
    {
      "displayName": "Metsähallitus",
      "id": "metsahallitus-086043",
      "locationSet": {"include": ["fi"]},
      "tags": {
        "amenity": "toilets",
        "operator": "Metsähallitus"
      }
    },
    {
      "displayName": "Miami Dade College",
      "id": "miamidadecollege-67f563",
      "locationSet": {
        "include": ["us-fl.geojson"]
      },
      "tags": {
        "amenity": "toilets",
        "operator": "Miami Dade College",
        "operator:wikidata": "Q3027788"
      }
    },
    {
      "displayName": "Michigan Department of Natural Resources",
      "id": "michigandepartmentofnaturalresources-4d3dc8",
      "locationSet": {
        "include": ["us-mi.geojson"]
      },
      "matchNames": ["michigan dnr"],
      "tags": {
        "amenity": "toilets",
        "operator": "Michigan Department of Natural Resources",
        "operator:wikidata": "Q6837532"
      }
    },
    {
      "displayName": "Morrisons",
      "id": "morrisons-4f5d70",
      "locationSet": {"include": ["gb"]},
      "tags": {
        "amenity": "toilets",
        "operator": "Morrisons"
      }
    },
    {
      "displayName": "Mosman Council",
      "id": "mosmancouncil-3fb4b7",
      "locationSet": {
        "include": ["au-nsw.geojson"]
      },
      "tags": {
        "amenity": "toilets",
        "operator": "Mosman Council",
        "operator:wikidata": "Q56477569"
      }
    },
    {
      "displayName": "National Park Service",
      "id": "nationalparkservice-a5d9f0",
      "locationSet": {"include": ["us"]},
      "tags": {
        "amenity": "toilets",
        "operator": "National Park Service",
        "operator:short": "NPS",
        "operator:wikidata": "Q308439"
      }
    },
    {
      "displayName": "National Trust",
      "id": "nationaltrust-c8175c",
      "locationSet": {
        "include": ["gb-eng", "gb-nir", "gb-wls"]
      },
      "tags": {
        "amenity": "toilets",
        "operator": "National Trust",
        "operator:type": "charitable",
        "operator:wikidata": "Q333515"
      }
    },
    {
      "displayName": "National Trust for Scotland",
      "id": "nationaltrustforscotland-cd0adc",
      "locationSet": {"include": ["gb-sct"]},
      "tags": {
        "amenity": "toilets",
        "operator": "National Trust for Scotland",
        "operator:short": "NTS",
        "operator:type": "charitable",
        "operator:wikidata": "Q599997"
      }
    },
    {
      "displayName": "National Capital Commission",
      "id": "ncc-48c608",
      "locationSet": {"include": ["ca"]},
      "tags": {
        "amenity": "toilets",
        "operator": "National Capital Commission",
        "operator:short": "NCC",
        "operator:wikidata": "Q613449"
      }
    },
    {
      "displayName": "Neste",
      "id": "neste-48c608",
      "locationSet": {"include": ["001"]},
      "tags": {
        "amenity": "toilets",
        "operator": "Neste",
        "operator:wikidata": "Q616376"
      }
    },
    {
      "displayName": "Newry, Mourne & Down District Council",
      "id": "newrymourneanddowndistrictcouncil-48c608",
      "locationSet": {"include": ["gb"]},
      "tags": {
        "amenity": "toilets",
        "operator": "Newry, Mourne & Down District Council"
      }
    },
    {
      "displayName": "Nordseeheilbad Cuxhaven GmbH",
      "id": "nordseeheilbadcuxhavengmbh-a4f70c",
      "locationSet": {"include": ["de"]},
      "tags": {
        "amenity": "toilets",
        "operator": "Nordseeheilbad Cuxhaven GmbH"
      }
    },
    {
      "displayName": "North Sydney Council",
      "id": "northsydneycouncil-48c608",
      "locationSet": {"include": ["au"]},
      "tags": {
        "amenity": "toilets",
        "operator": "North Sydney Council"
      }
    },
    {
      "displayName": "Northern Beaches Council",
      "id": "northernbeachescouncil-48c608",
      "locationSet": {"include": ["au"]},
      "tags": {
        "amenity": "toilets",
        "operator": "Northern Beaches Council"
      }
    },
    {
      "displayName": "NRC",
      "id": "nrc-48c608",
      "locationSet": {"include": ["001"]},
      "tags": {
        "amenity": "toilets",
        "operator": "NRC",
        "operator:wikidata": "Q1247077"
      }
    },
    {
      "displayName": "NSW National Parks and Wildlife Service",
      "id": "nswnationalparksandwildlifeservice-8c19f6",
      "locationSet": {"include": ["au"]},
      "tags": {
        "amenity": "toilets",
        "operator": "NSW National Parks and Wildlife Service"
      }
    },
    {
      "displayName": "O.Z.O.R.A.",
      "id": "ozora-c8692e",
      "locationSet": {"include": ["hu"]},
      "tags": {
        "amenity": "toilets",
        "operator": "O.Z.O.R.A."
      }
    },
    {
      "displayName": "ÖBB",
      "id": "obb-dd4146",
      "locationSet": {"include": ["at"]},
      "tags": {
        "amenity": "toilets",
        "operator": "ÖBB",
        "operator:wikidata": "Q83822"
      }
    },
    {
      "displayName": "Öklo",
      "id": "oklo-dd4146",
      "locationSet": {"include": ["at"]},
      "tags": {
        "amenity": "toilets",
        "operator": "Öklo"
      }
    },
    {
      "displayName": "Oxfam",
      "id": "oxfam-48c608",
      "locationSet": {"include": ["001"]},
      "tags": {
        "amenity": "toilets",
        "operator": "Oxfam",
        "operator:wikidata": "Q267941"
      }
    },
    {
      "displayName": "Parks and Wildlife",
      "id": "parksandwildlife-8c19f6",
      "locationSet": {"include": ["au"]},
      "tags": {
        "amenity": "toilets",
        "operator": "Parks and Wildlife"
      }
    },
    {
      "displayName": "Parks Canada",
      "id": "parkscanada-ab7656",
      "locationSet": {"include": ["ca"]},
      "tags": {
        "amenity": "toilets",
        "operator": "Parks Canada"
      }
    },
    {
      "displayName": "Parks Victoria",
      "id": "parksvictoria-8c19f6",
      "locationSet": {"include": ["au"]},
      "tags": {
        "amenity": "toilets",
        "operator": "Parks Victoria"
      }
    },
    {
      "displayName": "Petron",
      "id": "petron-d85df6",
      "locationSet": {"include": ["my", "ph"]},
      "tags": {
        "amenity": "toilets",
        "operator": "Petron"
      }
    },
    {
      "displayName": "Philmont Scout Ranch",
      "id": "philmontscoutranch-6e5f60",
      "locationSet": {
        "include": ["us-nm.geojson"]
      },
      "tags": {
        "amenity": "toilets",
        "operator": "Philmont Scout Ranch",
        "operator:wikidata": "Q7185999"
      }
    },
    {
      "displayName": "Rewe",
      "id": "rewe-a4f70c",
      "locationSet": {"include": ["de"]},
      "tags": {
        "amenity": "toilets",
        "operator": "Rewe"
      }
    },
    {
      "displayName": "RMK",
      "id": "rmk-fcb0e7",
      "locationSet": {"include": ["ee"]},
      "tags": {
        "amenity": "toilets",
        "operator": "RMK"
      }
    },
    {
      "displayName": "Rother District Council",
      "id": "rotherdistrictcouncil-a7de47",
      "locationSet": {
        "include": ["gb-south-east-coast.geojson"]
      },
      "tags": {
        "amenity": "toilets",
        "operator": "Rother District Council",
        "operator:wikidata": "Q73072720"
      }
    },
    {
      "displayName": "rouge haitienne",
      "id": "rougehaitienne-481bb7",
      "locationSet": {"include": ["ht"]},
      "tags": {
        "amenity": "toilets",
        "operator": "rouge haitienne"
      }
    },
    {
      "displayName": "Sainsbury's",
      "id": "sainsburys-48c608",
      "locationSet": {"include": ["gb"]},
      "tags": {
        "amenity": "toilets",
        "operator": "Sainsbury's"
      }
    },
    {
      "displayName": "Saint-Nazaire",
      "id": "saintnazaire-73fc0c",
      "locationSet": {"include": ["fx"]},
      "tags": {
        "amenity": "toilets",
        "operator": "Saint-Nazaire"
      }
    },
    {
      "displayName": "SANIFAIR",
      "id": "sanifairgmbh-99935b",
      "locationSet": {
        "include": ["at", "cz", "de", "nl", "pl"]
      },
      "tags": {
        "access": "yes",
        "amenity": "toilets",
        "brand": "SANIFAIR",
        "brand:wikidata": "Q104814416",
        "operator": "SANIFAIR GmbH",
        "operator:wikidata": "Q104814416"
      }
    },
    {
      "displayName": "Save The Children",
      "id": "savethechildren-48c608",
      "locationSet": {"include": ["001"]},
      "tags": {
        "amenity": "toilets",
        "operator": "Save The Children",
        "operator:wikidata": "Q215934"
      }
    },
    {
      "displayName": "SBB",
      "id": "sbb-cb9186",
      "locationSet": {"include": ["ch"]},
      "tags": {
        "amenity": "toilets",
        "operator": "SBB"
      }
    },
    {
      "displayName": "SBM Toilets",
      "id": "swachhbharatmission-5a8295",
      "locationSet": {"include": ["in"]},
      "tags": {
        "amenity": "toilets",
        "operator": "Swachh Bharat Mission",
        "operator:type": "government",
        "operator:wikidata": "Q18175130"
      }
    },
    {
      "displayName": "Serways",
      "id": "serways-a4f70c",
      "locationSet": {"include": ["de"]},
      "tags": {
        "amenity": "toilets",
        "operator": "Serways"
      }
    },
    {
      "displayName": "Shell",
      "id": "shell-48c608",
      "locationSet": {"include": ["001"]},
      "tags": {
        "amenity": "toilets",
        "operator": "Shell",
        "operator:wikidata": "Q154950"
      }
    },
    {
      "displayName": "Skärgårdsstiftelsen",
      "id": "skargardsstiftelsen-05ca0b",
      "locationSet": {"include": ["se"]},
      "tags": {
        "amenity": "toilets",
        "operator": "Skärgårdsstiftelsen"
      }
    },
    {
      "displayName": "SNCF",
      "id": "sncf-73fc0c",
      "locationSet": {"include": ["fx"]},
      "tags": {
        "amenity": "toilets",
        "operator": "SNCF"
      }
    },
    {
      "displayName": "Somerset Council",
      "id": "somersetcouncil-8471a3",
      "locationSet": {
        "include": ["gb-som.geojson"]
      },
      "matchNames": [
        "mendip district council",
        "sedgemoor district council",
        "somerset county council",
        "somerset west and taunton council",
        "south somerset district council"
      ],
      "tags": {
        "amenity": "toilets",
        "operator": "Somerset Council",
        "operator:type": "government",
        "operator:wikidata": "Q6386270"
      }
    },
    {
      "displayName": "sonstiger Betreiber",
      "id": "sonstigerbetreiber-48c608",
      "locationSet": {"include": ["de"]},
      "tags": {
        "amenity": "toilets",
        "operator": "sonstiger Betreiber"
      }
    },
    {
      "displayName": "South African National Parks",
      "id": "southafricannationalparks-48ee64",
      "locationSet": {"include": ["za"]},
      "tags": {
        "amenity": "toilets",
        "operator": "South African National Parks"
      }
    },
    {
      "displayName": "southern grampians shire council",
      "id": "southerngrampiansshirecouncil-1f48c5",
      "locationSet": {
        "include": ["au-vic.geojson"]
      },
      "tags": {
        "amenity": "toilets",
        "operator": "southern grampians shire council"
      }
    },
    {
      "displayName": "Stad Gent",
      "id": "stadgent-d606a5",
      "locationSet": {"include": ["be"]},
      "tags": {
        "amenity": "toilets",
        "operator": "Stad Gent"
      }
    },
    {
      "displayName": "Stadt Graz",
      "id": "stadtgraz-dd4146",
      "locationSet": {"include": ["at"]},
      "tags": {
        "amenity": "toilets",
        "operator": "Stadt Graz"
      }
    },
    {
      "displayName": "Stadt Karlsruhe",
      "id": "stadtkarlsruhe-48c608",
      "locationSet": {"include": ["de"]},
      "tags": {
        "amenity": "toilets",
        "operator": "Stadt Karlsruhe"
      }
    },
    {
      "displayName": "Stadt Wien",
      "id": "stadtwien-dd4146",
      "locationSet": {"include": ["at"]},
      "tags": {
        "amenity": "toilets",
        "operator": "Stadt Wien"
      }
    },
    {
      "displayName": "Städtischer Abfallwirtschaftsbetrieb Magdeburg",
      "id": "stadtischerabfallwirtschaftsbetriebmagdeburg-a4f70c",
      "locationSet": {"include": ["de"]},
      "tags": {
        "amenity": "toilets",
        "operator": "Städtischer Abfallwirtschaftsbetrieb Magdeburg"
      }
    },
    {
      "displayName": "Stadtreinigung Hamburg",
      "id": "stadtreinigunghamburg-48c608",
      "locationSet": {"include": ["de"]},
      "tags": {
        "amenity": "toilets",
        "operator": "Stadtreinigung Hamburg"
      }
    },
    {
      "displayName": "Sulabh",
      "id": "sulabh-5a8295",
      "locationSet": {"include": ["in"]},
      "tags": {
        "amenity": "toilets",
        "operator": "Sulabh"
      }
    },
    {
      "displayName": "Sulabh International Social Service Organisation",
      "id": "sulabhinternationalsocialserviceorganisation-48c608",
      "locationSet": {"include": ["in"]},
      "tags": {
        "amenity": "toilets",
        "operator": "Sulabh International Social Service Organisation"
      }
    },
    {
      "displayName": "Sulabh Shauchalaya",
      "id": "sulabhinternational-5a8295",
      "locationSet": {"include": ["in"]},
      "tags": {
        "amenity": "toilets",
        "operator": "Sulabh International",
        "operator:wikidata": "Q3064151"
      }
    },
    {
      "displayName": "Sydney Trains",
      "id": "sydneytrains-48c608",
      "locationSet": {"include": ["au"]},
      "tags": {
        "amenity": "toilets",
        "operator": "Sydney Trains"
      }
    },
    {
      "displayName": "Tank ONO s.r.o.",
      "id": "tankonosro-48c608",
      "locationSet": {"include": ["cz"]},
      "tags": {
        "amenity": "toilets",
        "operator": "Tank ONO s.r.o."
      }
    },
    {
      "displayName": "Teboil",
      "id": "teboil-cadadd",
      "locationSet": {"include": ["fi", "ru"]},
      "tags": {
        "amenity": "toilets",
        "operator": "Teboil",
        "operator:wikidata": "Q7692079"
      }
    },
    {
      "displayName": "Technische Universität Dresden",
      "id": "technischeuniversitatdresden-a4f70c",
      "locationSet": {"include": ["de"]},
      "tags": {
        "amenity": "toilets",
        "operator": "Technische Universität Dresden"
      }
    },
    {
      "displayName": "Technische Universität Ilmenau",
      "id": "technischeuniversitatilmenau-a4f70c",
      "locationSet": {"include": ["de"]},
      "tags": {
        "amenity": "toilets",
        "operator": "Technische Universität Ilmenau"
      }
    },
    {
      "displayName": "The Highland Council",
      "id": "thehighlandcouncil-cd0adc",
      "locationSet": {"include": ["gb-sct"]},
      "matchNames": ["highland council"],
      "tags": {
        "amenity": "toilets",
        "operator": "The Highland Council",
        "operator:wikidata": "Q28530249"
      }
    },
    {
      "displayName": "The Portland Loo",
      "id": "cityofportland-346746",
      "locationSet": {
        "include": [[-122.65, 45.55, 15]],
        "exclude": ["us-wa.geojson"]
      },
      "tags": {
        "access": "yes",
        "amenity": "toilets",
        "brand": "The Portland Loo",
        "brand:wikidata": "Q48797419",
        "operator": "City of Portland",
        "operator:type": "government",
        "operator:wikidata": "Q6106",
        "toilets:disposal": "flush"
      }
    },
    {
      "displayName": "The Salvation Army",
      "id": "thesalvationarmy-48c608",
      "locationSet": {"include": ["001"]},
      "tags": {
        "amenity": "toilets",
        "operator": "The Salvation Army",
        "operator:wikidata": "Q188307"
      }
    },
    {
      "displayName": "Technisches Hilfswerk",
      "id": "thw-48c608",
      "locationSet": {"include": ["001"]},
      "tags": {
        "amenity": "toilets",
        "operator": "Technisches Hilfswerk",
        "operator:short": "THW",
        "operator:wikidata": "Q697698"
      }
    },
    {
      "displayName": "Toi Toi",
      "id": "toitoi-48c608",
      "locationSet": {"include": ["001"]},
      "tags": {
        "amenity": "toilets",
        "operator": "Toi Toi",
        "operator:wikidata": "Q2384640"
      }
    },
    {
      "displayName": "Trafikverket",
      "id": "trafikverket-05ca0b",
      "locationSet": {"include": ["se"]},
      "tags": {
        "amenity": "toilets",
        "operator": "Trafikverket"
      }
    },
    {
      "displayName": "Trenes Argentinos",
      "id": "trenesargentinos-3cb239",
      "locationSet": {"include": ["ar"]},
      "tags": {
        "amenity": "toilets",
        "operator": "Trenes Argentinos"
      }
    },
    {
      "displayName": "UNHCR",
      "id": "unhcr-48c608",
      "locationSet": {"include": ["001"]},
      "tags": {
        "amenity": "toilets",
        "operator": "UNHCR",
        "operator:wikidata": "Q132551"
      }
    },
    {
      "displayName": "Unicamp",
      "id": "unicamp-235d5c",
      "locationSet": {"include": ["br"]},
      "tags": {
        "amenity": "toilets",
        "operator": "Unicamp"
      }
    },
    {
      "displayName": "UNICEF",
      "id": "unicef-48c608",
      "locationSet": {"include": ["001"]},
      "tags": {
        "amenity": "toilets",
        "operator": "UNICEF",
        "operator:wikidata": "Q740308"
      }
    },
    {
      "displayName": "Union Lido",
      "id": "unionlido-1fde80",
      "locationSet": {"include": ["it"]},
      "tags": {
        "amenity": "toilets",
        "operator": "Union Lido"
      }
    },
    {
      "displayName": "United States Forest Service",
      "id": "unitedstatesforestservice-a5d9f0",
      "locationSet": {"include": ["us"]},
      "matchNames": ["us forest service"],
      "tags": {
        "amenity": "toilets",
        "operator": "United States Forest Service",
        "operator:short": "USFS",
        "operator:wikidata": "Q1891156"
      }
    },
    {
      "displayName": "Usługi Komunalne Miasta Poznań",
      "id": "uslugikomunalnemiastapoznan-dbab0a",
      "locationSet": {"include": ["pl"]},
      "tags": {
        "amenity": "toilets",
        "operator": "Usługi Komunalne Miasta Poznań"
      }
    },
    {
      "displayName": "UTP",
      "id": "utp-48c608",
      "locationSet": {"include": ["co"]},
      "tags": {
        "amenity": "toilets",
        "operator": "UTP"
      }
    },
    {
      "displayName": "Vanuatu Red Cross Society",
      "id": "vanuaturedcrosssociety-ad746b",
      "locationSet": {"include": ["vu"]},
      "matchNames": ["red cross society"],
      "tags": {
        "amenity": "toilets",
        "operator": "Vanuatu Red Cross Society",
        "operator:wikidata": "Q7915237"
      }
    },
    {
      "displayName": "Ville de Besançon",
      "id": "villedebesancon-48c608",
      "locationSet": {"include": ["fx"]},
      "tags": {
        "amenity": "toilets",
        "operator": "Ville de Besançon"
      }
    },
    {
      "displayName": "Ville de Bruxelles - Stad Brussel",
      "id": "villedebruxellesstadbrussel-d606a5",
      "locationSet": {"include": ["be"]},
      "tags": {
        "amenity": "toilets",
        "operator": "Ville de Bruxelles - Stad Brussel"
      }
    },
    {
      "displayName": "Ville de Lyon",
      "id": "villedelyon-73fc0c",
      "locationSet": {"include": ["fx"]},
      "tags": {
        "amenity": "toilets",
        "operator": "Ville de Lyon"
      }
    },
    {
      "displayName": "Ville de Saint Jean de Luz",
      "id": "villedesaintjeandeluz-73fc0c",
      "locationSet": {"include": ["fx"]},
      "tags": {
        "amenity": "toilets",
        "operator": "Ville de Saint Jean de Luz"
      }
    },
    {
      "displayName": "Ville de Vevey",
      "id": "villedevevey-cb9186",
      "locationSet": {"include": ["ch"]},
      "tags": {
        "amenity": "toilets",
        "operator": "Ville de Vevey"
      }
    },
    {
      "displayName": "Villenave-d'Ornon",
      "id": "villenavedornon-73fc0c",
      "locationSet": {"include": ["fx"]},
      "tags": {
        "amenity": "toilets",
        "operator": "Villenave-d'Ornon"
      }
    },
    {
      "displayName": "Wall",
      "id": "wall-a4f70c",
      "locationSet": {"include": ["de"]},
      "matchNames": ["wall ag", "wall gmbh"],
      "tags": {
        "amenity": "toilets",
        "operator": "Wall",
        "operator:wikidata": "Q1310189"
      }
    },
    {
      "displayName": "Washington Department of Fish and Wildlife",
      "id": "washingtondepartmentoffishandwildlife-6e9e2e",
      "locationSet": {
        "include": ["us-wa.geojson"]
      },
      "tags": {
        "amenity": "toilets",
        "operator": "Washington Department of Fish and Wildlife",
        "operator:wikidata": "Q28373915"
      }
    },
    {
      "displayName": "WC Pribadi",
      "id": "wcpribadi-5e6ea6",
      "locationSet": {"include": ["id"]},
      "tags": {
        "amenity": "toilets",
        "operator": "WC Pribadi"
      }
    },
    {
      "displayName": "WC Umum",
      "id": "wcumum-5e6ea6",
      "locationSet": {"include": ["id"]},
      "tags": {
        "amenity": "toilets",
        "operator": "WC Umum"
      }
    },
    {
      "displayName": "WFP",
      "id": "wfp-48c608",
      "locationSet": {"include": ["001"]},
      "tags": {
        "amenity": "toilets",
        "operator": "WFP",
        "operator:wikidata": "Q204344"
      }
    },
    {
      "displayName": "Windle International Uganda",
      "id": "windleinternationaluganda-4a7536",
      "locationSet": {"include": ["ug"]},
      "tags": {
        "amenity": "toilets",
        "operator": "Windle International Uganda"
      }
    },
    {
      "displayName": "Wirtschaftsbetrieb Mainz",
      "id": "wirtschaftsbetriebmainz-48c608",
      "locationSet": {"include": ["de"]},
      "tags": {
        "amenity": "toilets",
        "operator": "Wirtschaftsbetrieb Mainz"
      }
    },
    {
      "displayName": "Wollongong City Council",
      "id": "wollongongcitycouncil-8c19f6",
      "locationSet": {"include": ["au"]},
      "tags": {
        "amenity": "toilets",
        "operator": "Wollongong City Council"
      }
    },
    {
      "displayName": "World Vision",
      "id": "worldvision-48c608",
      "locationSet": {"include": ["001"]},
      "tags": {
        "amenity": "toilets",
        "operator": "World Vision",
        "operator:wikidata": "Q2594001"
      }
    },
    {
      "displayName": "Xrouge haitienne",
      "id": "xrougehaitienne-481bb7",
      "locationSet": {"include": ["ht"]},
      "tags": {
        "amenity": "toilets",
        "operator": "Xrouge haitienne"
      }
    },
    {
      "displayName": "Yayasan Al-Fath Bina Insan Sakinah",
      "id": "yayasanalfathbinainsansakinah-5e6ea6",
      "locationSet": {"include": ["id"]},
      "tags": {
        "amenity": "toilets",
        "operator": "Yayasan Al-Fath Bina Insan Sakinah"
      }
    },
    {
      "displayName": "ZüriWC",
      "id": "zuriwc-cb9186",
      "locationSet": {"include": ["ch"]},
      "tags": {
        "amenity": "toilets",
        "operator": "ZüriWC"
      }
    },
    {
      "displayName": "Zwembad De Wisselslag",
      "id": "zwembaddewisselslag-48c608",
      "locationSet": {"include": ["nl"]},
      "tags": {
        "amenity": "toilets",
        "operator": "Zwembad De Wisselslag"
      }
    },
    {
      "displayName": "Автодор",
      "id": "1994ef-48c608",
      "locationSet": {"include": ["001"]},
      "tags": {
        "amenity": "toilets",
        "operator": "Автодор"
      }
    },
    {
      "displayName": "Газпромнефть",
      "id": "0b910f-48c608",
      "locationSet": {"include": ["001"]},
      "tags": {
        "amenity": "toilets",
        "operator": "Газпромнефть"
      }
    },
    {
      "displayName": "ГУП «Водоканал Санкт-Петербурга»",
      "id": "edaa6f-48c608",
      "locationSet": {"include": ["001"]},
      "tags": {
        "amenity": "toilets",
        "operator": "ГУП «Водоканал Санкт-Петербурга»"
      }
    },
    {
      "displayName": "Киришиавтосервис",
      "id": "801ec2-48c608",
      "locationSet": {"include": ["001"]},
      "tags": {
        "amenity": "toilets",
        "operator": "Киришиавтосервис"
      }
    },
    {
      "displayName": "Лукойл",
      "id": "1dd7ca-48c608",
      "locationSet": {"include": ["001"]},
      "tags": {
        "amenity": "toilets",
        "operator": "Лукойл"
      }
    },
    {
      "displayName": "ОАО \"РЖД\"",
      "id": "5ea107-48c608",
      "locationSet": {"include": ["001"]},
      "tags": {
        "amenity": "toilets",
        "operator": "ОАО \"РЖД\""
      }
    },
    {
      "displayName": "ООО «Комхоз-Сервис»",
      "id": "0da572-48c608",
      "locationSet": {"include": ["001"]},
      "tags": {
        "amenity": "toilets",
        "operator": "ООО «Комхоз-Сервис»"
      }
    },
    {
      "displayName": "Роснефть",
      "id": "cb7fa1-48c608",
      "locationSet": {"include": ["001"]},
      "tags": {
        "amenity": "toilets",
        "operator": "Роснефть"
      }
    },
    {
      "displayName": "Татнефть",
      "id": "44db9c-48c608",
      "locationSet": {"include": ["001"]},
      "tags": {
        "amenity": "toilets",
        "operator": "Татнефть"
      }
    },
    {
      "displayName": "سرویس بهداشتی",
      "id": "5d59e2-48c608",
      "locationSet": {"include": ["001"]},
      "tags": {
        "amenity": "toilets",
        "operator": "سرویس بهداشتی"
      }
    },
    {
      "displayName": "경제일자리과",
      "id": "0421fd-d43b8d",
      "locationSet": {"include": ["kr"]},
      "tags": {
        "amenity": "toilets",
        "operator": "경제일자리과",
        "operator:ko": "경제일자리과"
      }
    },
    {
      "displayName": "공원녹지과",
      "id": "e4fbfe-d43b8d",
      "locationSet": {"include": ["kr"]},
      "tags": {
        "amenity": "toilets",
        "operator": "공원녹지과",
        "operator:ko": "공원녹지과"
      }
    },
    {
      "displayName": "구좌읍",
      "id": "72d089-d43b8d",
      "locationSet": {"include": ["kr"]},
      "tags": {
        "amenity": "toilets",
        "operator": "구좌읍",
        "operator:ko": "구좌읍",
        "operator:wikidata": "Q12585543"
      }
    },
    {
      "displayName": "세계유산본부 한라산국립공원관리소",
      "id": "3615dc-d43b8d",
      "locationSet": {"include": ["kr"]},
      "tags": {
        "amenity": "toilets",
        "operator": "세계유산본부 한라산국립공원관리소",
        "operator:ko": "세계유산본부 한라산국립공원관리소"
      }
    },
    {
      "displayName": "애월읍",
      "id": "2c6530-d43b8d",
      "locationSet": {"include": ["kr"]},
      "tags": {
        "amenity": "toilets",
        "operator": "애월읍",
        "operator:ko": "애월읍",
        "operator:wikidata": "Q16171330"
      }
    },
    {
      "displayName": "우도면",
      "id": "809621-d43b8d",
      "locationSet": {"include": ["kr"]},
      "tags": {
        "amenity": "toilets",
        "operator": "우도면",
        "operator:ko": "우도면",
        "operator:wikidata": "Q16219660"
      }
    },
    {
      "displayName": "제주4.3평화재단",
      "id": "62d12e-d43b8d",
      "locationSet": {"include": ["kr"]},
      "tags": {
        "amenity": "toilets",
        "operator": "제주4.3평화재단",
        "operator:ko": "제주4.3평화재단",
        "operator:wikidata": "Q12616401"
      }
    },
    {
      "displayName": "제주시 체육회",
      "id": "3d38b7-d43b8d",
      "locationSet": {"include": ["kr"]},
      "tags": {
        "amenity": "toilets",
        "operator": "제주시 체육회",
        "operator:ko": "제주시 체육회"
      }
    },
    {
      "displayName": "조천읍",
      "id": "6890f0-d43b8d",
      "locationSet": {"include": ["kr"]},
      "tags": {
        "amenity": "toilets",
        "operator": "조천읍",
        "operator:ko": "조천읍",
        "operator:wikidata": "Q12617105"
      }
    },
    {
      "displayName": "차량관리과",
      "id": "36c28a-d43b8d",
      "locationSet": {"include": ["kr"]},
      "tags": {
        "amenity": "toilets",
        "operator": "차량관리과",
        "operator:ko": "차량관리과"
      }
    },
    {
      "displayName": "추자면",
      "id": "f76442-d43b8d",
      "locationSet": {"include": ["kr"]},
      "tags": {
        "amenity": "toilets",
        "operator": "추자면",
        "operator:ko": "추자면",
        "operator:wikidata": "Q12620000"
      }
    },
    {
      "displayName": "한경면",
      "id": "cffeab-d43b8d",
      "locationSet": {"include": ["kr"]},
      "tags": {
        "amenity": "toilets",
        "operator": "한경면",
        "operator:ko": "한경면",
        "operator:wikidata": "Q12622689"
      }
    },
    {
      "displayName": "한림읍",
      "id": "e90e2a-d43b8d",
      "locationSet": {"include": ["kr"]},
      "tags": {
        "amenity": "toilets",
        "operator": "한림읍",
        "operator:ko": "한림읍",
        "operator:wikidata": "Q12623979"
      }
    },
    {
      "displayName": "会津若松市 花と緑の課",
      "id": "aabdcb-efac16",
      "locationSet": {"include": ["jp"]},
      "tags": {
        "amenity": "toilets",
        "operator": "会津若松市 花と緑の課",
        "operator:ja": "会津若松市 花と緑の課"
      }
    },
    {
      "displayName": "公益財団法人 浜名湖総合環境財団",
      "id": "c1803f-efac16",
      "locationSet": {"include": ["jp"]},
      "tags": {
        "amenity": "toilets",
        "operator": "公益財団法人 浜名湖総合環境財団"
      }
    },
    {
      "displayName": "北京市西城区环境卫生服务中心",
      "id": "4c9df5-a53701",
      "locationSet": {
        "include": ["cn"],
        "exclude": ["hk", "mo"]
      },
      "tags": {
        "amenity": "toilets",
        "operator": "北京市西城区环境卫生服务中心"
      }
    },
    {
      "displayName": "北京海淀生态环保有限公司",
      "id": "31079a-a53701",
      "locationSet": {
        "include": ["cn"],
        "exclude": ["hk", "mo"]
      },
      "tags": {
        "amenity": "toilets",
        "operator": "北京海淀生态环保有限公司"
      }
    },
    {
      "displayName": "北京石油化工学院",
      "id": "ce603a-a53701",
      "locationSet": {
        "include": ["cn"],
        "exclude": ["hk", "mo"]
      },
      "tags": {
        "amenity": "toilets",
        "operator": "北京石油化工学院"
      }
    },
    {
      "displayName": "品川区",
      "id": "9b71a0-efac16",
      "locationSet": {"include": ["jp"]},
      "tags": {
        "amenity": "toilets",
        "operator": "品川区"
      }
    },
    {
      "displayName": "大田区",
      "id": "431e24-efac16",
      "locationSet": {"include": ["jp"]},
      "tags": {
        "amenity": "toilets",
        "operator": "大田区"
      }
    },
    {
      "displayName": "天水湖公厕",
      "id": "1d24df-a53701",
      "locationSet": {
        "include": ["cn"],
        "exclude": ["hk", "mo"]
      },
      "tags": {
        "amenity": "toilets",
        "operator": "天水湖公厕"
      }
    },
    {
      "displayName": "独立行政法人国立高等専門学校機構",
      "id": "40c6ae-efac16",
      "locationSet": {"include": ["jp"]},
      "tags": {
        "amenity": "toilets",
        "operator": "独立行政法人国立高等専門学校機構"
      }
    },
    {
      "displayName": "食物環境衞生署 Food and Environmental Hygiene Department",
      "id": "foodandenvironmentalhygienedepartment-70c95d",
      "locationSet": {"include": ["hk"]},
      "matchNames": ["fehd", "食物環境衛生署", "食環署"],
      "tags": {
        "amenity": "toilets",
        "operator": "食物環境衞生署 Food and Environmental Hygiene Department",
        "operator:en": "Food and Environmental Hygiene Department",
        "operator:short": "食環署 FEHD",
        "operator:short:en": "FEHD",
        "operator:short:zh": "食環署",
        "operator:short:zh-Hans": "食环署",
        "operator:short:zh-Hant": "食環署",
        "operator:wikidata": "Q2355063",
        "operator:zh": "食物環境衞生署",
        "operator:zh-Hans": "食物环境卫生署",
        "operator:zh-Hant": "食物環境衞生署"
      }
    }
  ]
}
