{
  "properties": {
    "path": "operators/landuse/industrial",
    "exclude": {"generic": ["^industrial$"]}
  },
  "items": [
    {
      "displayName": "Dopravný podnik mesta Košice",
      "id": "dopravnypodnikmestakosice-538cb3",
      "locationSet": {"include": ["sk"]},
      "tags": {
        "industrial": "depot",
        "landuse": "industrial",
        "operator": "Dopravný podnik mesta Košice",
        "operator:short": "DPMK",
        "operator:wikidata": "Q2265496"
      }
    },
    {
      "displayName": "Skanska Transbeton",
      "id": "skanskatransbetonsro-63d3fe",
      "locationSet": {"include": ["cz"]},
      "tags": {
        "industrial": "concrete_plant",
        "landuse": "industrial",
        "name": "Skanska Transbeton",
        "operator": "Skanska Transbeton s.r.o.",
        "operator:wikidata": "Q30259033"
      }
    },
    {
      "displayName": "Zakład Mięsny Lenarcik",
      "id": "zakladmiesnylenarcik-9ff3f0",
      "locationSet": {"include": ["pl"]},
      "tags": {
        "industrial": "meat_processing",
        "landuse": "industrial",
        "operator": "Zakład Mięsny Lenarcik",
        "operator:short": "Lenarcik",
        "operator:wikidata": "Q125542457"
      }
    },
    {
      "displayName": "Метрополитен",
      "id": "184e0b-4a2e40",
      "locationSet": {"include": ["bg"]},
      "matchNames": ["метрополитен еад"],
      "tags": {
        "industrial": "depot",
        "landuse": "industrial",
        "operator": "Метрополитен",
        "operator:wikidata": "Q112957870"
      }
    },
    {
      "displayName": "Столичен автотранспорт",
      "id": "d3caae-4a2e40",
      "locationSet": {"include": ["bg"]},
      "matchNames": [
        "столичен автотранспорт еад"
      ],
      "tags": {
        "industrial": "depot",
        "landuse": "industrial",
        "operator": "Столичен автотранспорт",
        "operator:wikidata": "Q112957887"
      }
    },
    {
      "displayName": "Столичен електротранспорт",
      "id": "28c7ea-4a2e40",
      "locationSet": {"include": ["bg"]},
      "matchNames": [
        "столичен електротранспорт еад"
      ],
      "tags": {
        "industrial": "depot",
        "landuse": "industrial",
        "operator": "Столичен електротранспорт",
        "operator:wikidata": "Q112263409"
      }
    }
  ]
}
