{
  "properties": {
    "path": "operators/landuse/military",
    "exclude": {"generic": ["^military$"]}
  },
  "items": [
    {
      "displayName": "Arma dei Carabinieri",
      "id": "armadeicarabinieri-3b94d5",
      "locationSet": {"include": ["it"]},
      "matchNames": ["carabinieri"],
      "tags": {
        "landuse": "military",
        "military_service": "gendarmerie",
        "operator": "Arma dei Carabinieri",
        "operator:wikidata": "Q54852"
      }
    },
    {
      "displayName": "Australian Army",
      "id": "australianarmy-72f793",
      "locationSet": {"include": ["au"]},
      "tags": {
        "landuse": "military",
        "military_service": "army",
        "operator": "Australian Army",
        "operator:wikidata": "Q781360"
      }
    },
    {
      "displayName": "British Army",
      "id": "britisharmy-f4fcd0",
      "locationSet": {"include": ["gb"]},
      "tags": {
        "landuse": "military",
        "military_service": "army",
        "operator": "British Army",
        "operator:wikidata": "Q222595"
      }
    },
    {
      "displayName": "Bundesnachrichtendienst",
      "id": "bundesnachrichtendienst-80714f",
      "locationSet": {"include": ["de"]},
      "matchNames": ["bnd"],
      "tags": {
        "landuse": "military",
        "military_service": "intelligence",
        "operator": "Bundesnachrichtendienst",
        "operator:wikidata": "Q272969"
      }
    },
    {
      "displayName": "Bundeswehr",
      "id": "bundeswehr-80714f",
      "locationSet": {"include": ["de"]},
      "tags": {
        "landuse": "military",
        "military_service": "army",
        "operator": "Bundeswehr",
        "operator:wikidata": "Q56010"
      }
    },
    {
      "displayName": "Central Intelligence Agency",
      "id": "centralintelligenceagency-f0722b",
      "locationSet": {"include": ["us"]},
      "matchNames": ["cia"],
      "tags": {
        "landuse": "military",
        "military_service": "intelligence",
        "operator": "Central Intelligence Agency",
        "operator:wikidata": "Q37230"
      }
    },
    {
      "displayName": "Corpo delle Capitanerie di porto - Guardia costiera",
      "id": "corpodellecapitaneriediportoguardiacostiera-3b94d5",
      "locationSet": {"include": ["it"]},
      "matchNames": [
        "capitanerie di porto",
        "guardia costiera"
      ],
      "tags": {
        "landuse": "military",
        "military_service": "coast_guard",
        "operator": "Corpo delle Capitanerie di porto - Guardia costiera",
        "operator:wikidata": "Q1552839"
      }
    },
    {
      "displayName": "Ejercito de Bolivia",
      "id": "ejercitodebolivia-0a4312",
      "locationSet": {"include": ["bo"]},
      "matchNames": ["ejercito boliviano"],
      "tags": {
        "landuse": "military",
        "military_service": "army",
        "operator": "Ejercito de Bolivia",
        "operator:wikidata": "Q4939559"
      }
    },
    {
      "displayName": "Ejército del Aire y del Espacio",
      "id": "ejercitodelaireydelespacio-e4da8b",
      "locationSet": {"include": ["es"]},
      "matchNames": [
        "ejército del aire",
        "ejército del espacio"
      ],
      "tags": {
        "landuse": "military",
        "military_service": "air_force;space_force",
        "operator": "Ejército del Aire y del Espacio",
        "operator:wikidata": "Q833218"
      }
    },
    {
      "displayName": "Esercito Italiano",
      "id": "esercitoitaliano-3b94d5",
      "locationSet": {"include": ["it"]},
      "tags": {
        "landuse": "military",
        "military_service": "army",
        "operator": "Esercito Italiano",
        "operator:wikidata": "Q796411"
      }
    },
    {
      "displayName": "Força Aérea Brasileira",
      "id": "forcaaereabrasileira-4e2796",
      "locationSet": {"include": ["br"]},
      "matchNames": ["fab"],
      "tags": {
        "landuse": "military",
        "military_service": "air_force",
        "operator": "Força Aérea Brasileira",
        "operator:wikidata": "Q634542"
      }
    },
    {
      "displayName": "Gendarmerie nationale",
      "id": "gendarmerienationale-993370",
      "locationSet": {"include": ["fr"]},
      "matchNames": ["gendarmerie"],
      "tags": {
        "landuse": "military",
        "military_service": "gendarmerie",
        "operator": "Gendarmerie nationale",
        "operator:wikidata": "Q1422336"
      }
    },
    {
      "displayName": "Guardia Civil",
      "id": "guardiacivil-e4da8b",
      "locationSet": {"include": ["es"]},
      "matchNames": ["benemérita"],
      "tags": {
        "landuse": "military",
        "military_service": "gendarmerie",
        "operator": "Guardia Civil",
        "operator:wikidata": "Q932821"
      }
    },
    {
      "displayName": "Guardia di Finanza",
      "id": "guardiadifinanza-3b94d5",
      "locationSet": {"include": ["it"]},
      "matchNames": ["gdf"],
      "tags": {
        "landuse": "military",
        "military_service": "gendarmerie",
        "operator": "Guardia di Finanza",
        "operator:wikidata": "Q1552861"
      }
    },
    {
      "displayName": "Illinois National Guard",
      "id": "illinoisnationalguard-f0722b",
      "locationSet": {"include": ["us"]},
      "matchNames": ["il national guard"],
      "tags": {
        "landuse": "military",
        "military_service": "national_guard",
        "operator": "Illinois National Guard",
        "operator:wikidata": "Q5999581"
      }
    },
    {
      "displayName": "Indian Air Force",
      "id": "indianairforce-d4e9a7",
      "locationSet": {"include": ["in"]},
      "matchNames": [
        "bharatiya vayu sena",
        "iaf",
        "भारतीय वायु सेना"
      ],
      "tags": {
        "landuse": "military",
        "military_service": "air_force",
        "operator": "Indian Air Force",
        "operator:wikidata": "Q330658"
      }
    },
    {
      "displayName": "Indian Army",
      "id": "indianarmy-d4e9a7",
      "locationSet": {"include": ["in"]},
      "matchNames": [
        "bhāratīya thalsēnā",
        "ia",
        "भारतीय थल सेना"
      ],
      "tags": {
        "landuse": "military",
        "military_service": "army",
        "operator": "Indian Army",
        "operator:wikidata": "Q355771"
      }
    },
    {
      "displayName": "Indian Navy",
      "id": "indiannavy-d4e9a7",
      "locationSet": {"include": ["in"]},
      "matchNames": [
        "bhāratīya nau senā",
        "in",
        "ਭਾਰਤੀ ਜਲ ਸੈਨਾ"
      ],
      "tags": {
        "landuse": "military",
        "military_service": "navy",
        "operator": "Indian Navy",
        "operator:wikidata": "Q356359"
      }
    },
    {
      "displayName": "Japan Air Self-Defense Force",
      "id": "japanairselfdefenseforce-7f7664",
      "locationSet": {"include": ["jp"]},
      "matchNames": ["jasdf"],
      "tags": {
        "landuse": "military",
        "military_service": "air_force",
        "operator": "航空自衛隊",
        "operator:en": "Japan Air Self-Defense Force",
        "operator:wikidata": "Q830305"
      }
    },
    {
      "displayName": "Japan Ground Self-Defense Force",
      "id": "japangroundselfdefenseforce-7f7664",
      "locationSet": {"include": ["jp"]},
      "matchNames": ["jgsdf"],
      "tags": {
        "landuse": "military",
        "military_service": "army",
        "operator": "陸上自衛隊",
        "operator:en": "Japan Ground Self-Defense Force",
        "operator:wikidata": "Q889751"
      }
    },
    {
      "displayName": "Japan Maritime Self-Defense Force",
      "id": "japanmaritimeselfdefenseforce-7f7664",
      "locationSet": {"include": ["jp"]},
      "matchNames": ["jmsdf"],
      "tags": {
        "landuse": "military",
        "military_service": "navy",
        "operator": "海上自衛隊",
        "operator:en": "Japan Maritime Self-Defense Force",
        "operator:wikidata": "Q731647"
      }
    },
    {
      "displayName": "Magyar Honvédség",
      "id": "magyarhonvedseg-6772d9",
      "locationSet": {"include": ["hu"]},
      "tags": {
        "landuse": "military",
        "military_service": "army",
        "operator": "Magyar Honvédség",
        "operator:wikidata": "Q1161970"
      }
    },
    {
      "displayName": "Marinha do Brasil",
      "id": "marinhadobrasil-4e2796",
      "locationSet": {"include": ["br"]},
      "matchNames": ["marinha brasileira"],
      "tags": {
        "landuse": "military",
        "military_service": "navy",
        "operator": "Marinha do Brasil",
        "operator:wikidata": "Q1750688"
      }
    },
    {
      "displayName": "National Security Agency",
      "id": "nationalsecurityagency-f0722b",
      "locationSet": {"include": ["us"]},
      "matchNames": ["nsa"],
      "tags": {
        "landuse": "military",
        "military_service": "intelligence",
        "operator": "National Security Agency",
        "operator:wikidata": "Q121194"
      }
    },
    {
      "displayName": "Polícia Militar do Estado de São Paulo",
      "id": "policiamilitardoestadodesaopaulo-4e2796",
      "locationSet": {"include": ["br"]},
      "matchNames": [
        "pmesp",
        "pmsp",
        "polícia militar de são paulo"
      ],
      "tags": {
        "landuse": "military",
        "military_service": "gendarmerie",
        "operator": "Polícia Militar do Estado de São Paulo",
        "operator:wikidata": "Q10351025"
      }
    },
    {
      "displayName": "Polícia Militar do Estado do Rio de Janeiro",
      "id": "policiamilitardoestadodoriodejaneiro-4e2796",
      "locationSet": {"include": ["br"]},
      "matchNames": [
        "pmerj",
        "pmrj",
        "polícia militar do rio de janeiro"
      ],
      "tags": {
        "landuse": "military",
        "military_service": "gendarmerie",
        "operator": "Polícia Militar do Estado do Rio de Janeiro",
        "operator:wikidata": "Q6852137"
      }
    },
    {
      "displayName": "Royal Air Force",
      "id": "royalairforce-f4fcd0",
      "locationSet": {"include": ["gb"]},
      "matchNames": ["raf"],
      "tags": {
        "landuse": "military",
        "military_service": "air_force",
        "operator": "Royal Air Force",
        "operator:wikidata": "Q165862"
      }
    },
    {
      "displayName": "Royal Australian Air Force",
      "id": "royalaustralianairforce-72f793",
      "locationSet": {"include": ["au"]},
      "matchNames": ["raaf"],
      "tags": {
        "landuse": "military",
        "military_service": "air_force",
        "operator": "Royal Australian Air Force",
        "operator:wikidata": "Q823635"
      }
    },
    {
      "displayName": "Royal Australian Navy",
      "id": "royalaustraliannavy-72f793",
      "locationSet": {"include": ["au"]},
      "matchNames": ["ran"],
      "tags": {
        "landuse": "military",
        "military_service": "navy",
        "operator": "Royal Australian Navy",
        "operator:wikidata": "Q741691"
      }
    },
    {
      "displayName": "Slovenska vojska",
      "id": "slovenskavojska-39d0ef",
      "locationSet": {"include": ["si"]},
      "matchNames": ["sv"],
      "tags": {
        "landuse": "military",
        "military_service": "army",
        "operator": "Slovenska vojska",
        "operator:wikidata": "Q921208"
      }
    },
    {
      "displayName": "United States Air Force",
      "id": "unitedstatesairforce-bdd4b2",
      "locationSet": {"include": ["001"]},
      "matchNames": ["us air force", "usaf"],
      "tags": {
        "landuse": "military",
        "military_service": "air_force",
        "operator": "United States Air Force",
        "operator:wikidata": "Q11223"
      }
    },
    {
      "displayName": "United States Army",
      "id": "unitedstatesarmy-bdd4b2",
      "locationSet": {"include": ["001"]},
      "matchNames": ["us army"],
      "tags": {
        "landuse": "military",
        "military_service": "army",
        "operator": "United States Army",
        "operator:wikidata": "Q9212"
      }
    },
    {
      "displayName": "United States Army Corps of Engineers",
      "id": "unitedstatesarmycorpsofengineers-bdd4b2",
      "locationSet": {"include": ["001"]},
      "matchNames": [
        "us army corps of engineers",
        "usace"
      ],
      "tags": {
        "landuse": "military",
        "operator": "United States Army Corps of Engineers",
        "operator:wikidata": "Q1049334"
      }
    },
    {
      "displayName": "United States Coast Guard",
      "id": "unitedstatescoastguard-bdd4b2",
      "locationSet": {"include": ["001"]},
      "matchNames": ["u.s. coast guard", "uscg"],
      "tags": {
        "landuse": "military",
        "military_service": "coast_guard",
        "operator": "United States Coast Guard",
        "operator:wikidata": "Q11224"
      }
    },
    {
      "displayName": "United States Marine Corps",
      "id": "unitedstatesmarinecorps-bdd4b2",
      "locationSet": {"include": ["001"]},
      "matchNames": [
        "u.s. marines",
        "us marine corps",
        "usmc"
      ],
      "tags": {
        "landuse": "military",
        "military_service": "marines",
        "operator": "United States Marine Corps",
        "operator:wikidata": "Q11218"
      }
    },
    {
      "displayName": "United States Navy",
      "id": "unitedstatesnavy-bdd4b2",
      "locationSet": {"include": ["001"]},
      "matchNames": ["us navy", "usn"],
      "tags": {
        "landuse": "military",
        "military_service": "navy",
        "operator": "United States Navy",
        "operator:wikidata": "Q11220"
      }
    },
    {
      "displayName": "United States Space Force",
      "id": "unitedstatesspaceforce-bdd4b2",
      "locationSet": {"include": ["001"]},
      "matchNames": ["us space force", "ussf"],
      "tags": {
        "landuse": "military",
        "military_service": "space_force",
        "operator": "United States Space Force",
        "operator:wikidata": "Q55088961"
      }
    },
    {
      "displayName": "Министерство обороны Российской Федерации",
      "id": "ministryofdefenceoftherussianfederation-62787d",
      "locationSet": {"include": ["ru"]},
      "matchNames": ["министерство обороны рф"],
      "tags": {
        "landuse": "military",
        "operator": "Министерство обороны Российской Федерации",
        "operator:en": "Ministry of Defence of the Russian Federation",
        "operator:wikidata": "Q1146492"
      }
    },
    {
      "displayName": "الحَرَس الوَطنيّ",
      "id": "saudiarabiannationalguard-089368",
      "locationSet": {"include": ["sa"]},
      "matchNames": [
        "sang",
        "saudi national guard"
      ],
      "tags": {
        "landuse": "military",
        "military_service": "national_guard",
        "operator": "الحَرَس الوَطنيّ",
        "operator:en": "Saudi Arabian National Guard",
        "operator:wikidata": "Q4120549"
      }
    }
  ]
}
