{
  "properties": {
    "path": "operators/landuse/residential",
    "exclude": {"generic": ["^residential$"]}
  },
  "items": [
    {
      "displayName": "Equity Residential",
      "id": "equityresidential-12539e",
      "locationSet": {"include": ["us"]},
      "tags": {
        "landuse": "residential",
        "operator": "Equity Residential",
        "operator:wikidata": "Q187740",
        "residential": "apartments"
      }
    },
    {
      "displayName": "Essex",
      "id": "essex-3b3972",
      "locationSet": {
        "include": [
          "us-ca.geojson",
          "us-wa.geojson"
        ]
      },
      "tags": {
        "landuse": "residential",
        "operator": "Essex",
        "operator:wikidata": "Q134703255",
        "residential": "apartments"
      }
    },
    {
      "displayName": "Greystar",
      "id": "greystar-12539e",
      "locationSet": {"include": ["us"]},
      "matchNames": [
        "greystar real estate partners"
      ],
      "tags": {
        "landuse": "residential",
        "operator": "Greystar",
        "operator:wikidata": "Q60749135",
        "residential": "apartments"
      }
    },
    {
      "displayName": "Housing Authority of Tulare County",
      "id": "housingauthorityoftularecounty-01020c",
      "locationSet": {
        "include": ["us-ca.geojson"]
      },
      "tags": {
        "landuse": "residential",
        "operator": "Housing Authority of Tulare County",
        "operator:short": "HATC",
        "operator:wikidata": "Q113507051",
        "residential": "apartments"
      }
    },
    {
      "displayName": "Quarterra",
      "id": "quarterra-12539e",
      "locationSet": {"include": ["us"]},
      "tags": {
        "landuse": "residential",
        "operator": "Quarterra",
        "operator:wikidata": "Q134723073",
        "residential": "apartments"
      }
    },
    {
      "displayName": "UDR",
      "id": "udr-12539e",
      "locationSet": {"include": ["us"]},
      "tags": {
        "landuse": "residential",
        "operator": "UDR",
        "operator:wikidata": "Q27988153",
        "residential": "apartments"
      }
    },
    {
      "displayName": "香港房屋委員會 Hong Kong Housing Authority",
      "id": "hongkonghousingauthority-c7b8ae",
      "locationSet": {"include": ["hk"]},
      "matchNames": ["房委會"],
      "tags": {
        "landuse": "residential",
        "operator": "香港房屋委員會 Hong Kong Housing Authority",
        "operator:en": "Hong Kong Housing Authority",
        "operator:wikidata": "Q5894701",
        "operator:zh": "香港房屋委員會",
        "residential": "apartments"
      }
    }
  ]
}
