{
  "properties": {
    "path": "brands/leisure/amusement_arcade",
    "exclude": {"generic": ["^amusement arcade$"]}
  },
  "items": [
    {
      "displayName": "Timezone",
      "id": "timezone-bbc11e",
      "locationSet": {
        "include": [
          "au",
          "id",
          "in",
          "nz",
          "ph",
          "sg",
          "vn"
        ]
      },
      "matchTags": ["shop/video_games"],
      "tags": {
        "brand": "Timezone",
        "brand:wikidata": "Q12521502",
        "leisure": "amusement_arcade",
        "name": "Timezone"
      }
    },
    {
      "displayName": "Tom's World",
      "locationSet": {"include": ["ph"],},
      "tags": {
        "brand": "Tom's World",
        "brand:en": "Tom's World",
        "brand:wikidata": "Q15952961",
        "brand:zh": "湯姆熊歡樂世界",
        "leisure": "amusement_arcade",
        "name": "Tom's World",
        "name:en": "Tom's World",
        "name:zh": "湯姆熊歡樂世界"
      }
    },
    {
      "displayName": "Warpoint",
      "id": "warpoint-dd2442",
      "locationSet": {"include": ["001"]},
      "tags": {
        "brand": "Warpoint",
        "leisure": "amusement_arcade",
        "name": "Warpoint"
      }
    },
    {
      "displayName": "湯姆熊歡樂世界",
      "locationSet": {"include": ["tw"]},
      "tags": {
        "brand": "湯姆熊歡樂世界",
        "brand:en": "Tom's World",
        "brand:wikidata": "Q15952961",
        "brand:zh": "湯姆熊歡樂世界",
        "leisure": "amusement_arcade",
        "name": "湯姆熊歡樂世界",
        "name:en": "Tom's World",
        "name:zh": "湯姆熊歡樂世界"
      }
    },
    {
      "displayName": "アドアーズ",
      "id": "adores-c3bbfb",
      "locationSet": {"include": ["jp"]},
      "tags": {
        "brand": "アドアーズ",
        "brand:en": "Adores",
        "brand:ja": "アドアーズ",
        "brand:wikidata": "Q54843532",
        "leisure": "amusement_arcade",
        "name": "アドアーズ",
        "name:en": "Adores",
        "name:ja": "アドアーズ"
      }
    },
    {
      "displayName": "アピナ",
      "id": "apina-c3bbfb",
      "locationSet": {"include": ["jp"]},
      "tags": {
        "brand": "アピナ",
        "brand:en": "Apina",
        "brand:ja": "アピナ",
        "brand:wikidata": "Q55385192",
        "leisure": "amusement_arcade",
        "name": "アピナ",
        "name:en": "Apina",
        "name:ja": "アピナ"
      }
    },
    {
      "displayName": "クラブセガ",
      "id": "clubsega-c3bbfb",
      "locationSet": {"include": ["jp"]},
      "matchNames": ["クラブsega", "セガ"],
      "tags": {
        "alt_name": "セガワールド",
        "alt_name:en": "Sega World",
        "brand": "クラブセガ",
        "brand:en": "Club Sega",
        "brand:ja": "クラブセガ",
        "brand:wikidata": "Q7446141",
        "leisure": "amusement_arcade",
        "name": "クラブセガ",
        "name:en": "Club Sega",
        "name:ja": "クラブセガ"
      }
    },
    {
      "displayName": "タイトーステーション",
      "id": "taitostation-c3bbfb",
      "locationSet": {"include": ["jp"]},
      "matchNames": ["タイトー"],
      "tags": {
        "brand": "タイトーステーション",
        "brand:en": "Taito Station",
        "brand:ja": "タイトーステーション",
        "brand:wikidata": "Q1054844",
        "leisure": "amusement_arcade",
        "name": "タイトーステーション",
        "name:en": "Taito Station",
        "name:ja": "タイトーステーション"
      }
    },
    {
      "displayName": "ナムコ",
      "id": "namco-c3bbfb",
      "locationSet": {"include": ["jp"]},
      "tags": {
        "brand": "ナムコ",
        "brand:en": "NAMCO",
        "brand:ja": "ナムコ",
        "brand:wikidata": "Q309996",
        "leisure": "amusement_arcade",
        "name": "ナムコ",
        "name:en": "NAMCO",
        "name:ja": "ナムコ"
      }
    }
  ]
}
