{
  "properties": {
    "path": "brands/highway/services",
    "exclude": {"generic": ["^services$"]}
  },
  "items": [
    {
      "displayName": "Flying J Travel Center",
      "id": "flyingjtravelcenter-35c0ca",
      "locationSet": {"include": ["us"]},
      "tags": {
        "brand": "Flying J",
        "brand:wikidata": "Q64130592",
        "highway": "services",
        "name": "Flying J Travel Center"
      }
    },
    {
      "displayName": "Love's Travel Stop",
      "id": "lovestravelstop-35c0ca",
      "locationSet": {"include": ["us"]},
      "tags": {
        "brand": "Love's",
        "brand:wikidata": "Q1872496",
        "highway": "services",
        "name": "Love's Travel Stop"
      }
    },
    {
      "displayName": "Onvo Travel Plaza",
      "id": "onvotravelplaza-35c0ca",
      "locationSet": {"include": ["us"]},
      "tags": {
        "brand": "Onvo",
        "brand:wikidata": "Q112457014",
        "highway": "services",
        "name": "Onvo Travel Plaza"
      }
    },
    {
      "displayName": "Petro Stopping Centers",
      "id": "petrostoppingcenters-35c0ca",
      "locationSet": {"include": ["us"]},
      "tags": {
        "brand": "Petro",
        "brand:wikidata": "Q64051305",
        "highway": "services",
        "name": "Petro Stopping Centers"
      }
    },
    {
      "displayName": "Pilot Travel Center",
      "id": "pilottravelcenter-35c0ca",
      "locationSet": {"include": ["us"]},
      "tags": {
        "brand": "Pilot",
        "brand:wikidata": "Q64128179",
        "highway": "services",
        "name": "Pilot Travel Center"
      }
    },
    {
      "displayName": "Road Ranger",
      "id": "roadranger-35c0ca",
      "locationSet": {"include": ["us"]},
      "tags": {
        "brand": "Road Ranger",
        "brand:wikidata": "Q7339377",
        "highway": "services",
        "name": "Road Ranger"
      }
    },
    {
      "displayName": "Roady's Truck Stops",
      "id": "roadystruckstops-35c0ca",
      "locationSet": {"include": ["us"]},
      "tags": {
        "brand": "Roady's",
        "brand:wikidata": "Q7339701",
        "highway": "services",
        "name": "Roady's Truck Stops"
      }
    },
    {
      "displayName": "Serways",
      "id": "serways-86c4b3",
      "locationSet": {"include": ["de"]},
      "tags": {
        "brand": "Serways",
        "brand:wikidata": "Q111372965",
        "highway": "services",
        "operator": "Autobahn Tank & Rast Gruppe GmbH & Co. KG"
      }
    },
    {
      "displayName": "TA",
      "id": "ta-35c0ca",
      "locationSet": {"include": ["us"]},
      "tags": {
        "brand": "TA",
        "brand:wikidata": "Q7835892",
        "highway": "services",
        "name": "TA",
        "official_name": "TravelCenters of America"
      }
    },
    {
      "displayName": "Tank & Rast",
      "id": "tankandrast-86c4b3",
      "locationSet": {"include": ["de"]},
      "tags": {
        "brand": "Tank & Rast",
        "brand:wikidata": "Q2392800",
        "highway": "services",
        "operator": "Autobahn Tank & Rast Gruppe GmbH & Co. KG"
      }
    },
    {
      "displayName": "Town Pump",
      "id": "townpump-35c0ca",
      "locationSet": {"include": ["us"]},
      "tags": {
        "brand": "Town Pump",
        "brand:wikidata": "Q7830004",
        "highway": "services",
        "name": "Town Pump"
      }
    }
  ]
}
