{
  "properties": {
    "path": "brands/shop/alcohol",
    "exclude": {
      "generic": [
        "^((разливное|живое) )?пиво$",
        "^(alcohol|beer|liquor)( store)?$",
        "^(botiller|licorer)[ií]a$"
      ],
      "named": ["^abc store$"]
    }
  },
  "items": [
    {
      "displayName": "1. day",
      "id": "1day-41aec7",
      "locationSet": {"include": ["sk"]},
      "matchNames": ["first day"],
      "tags": {
        "brand": "1. day",
        "brand:wikidata": "Q108149927",
        "name": "1. day",
        "shop": "alcohol"
      }
    },
    {
      "displayName": "Alcohol & Tabakoff",
      "id": "alcoholandtabakoff-059946",
      "locationSet": {"include": ["bg"]},
      "tags": {
        "brand": "Alcohol & Tabakoff",
        "name": "Alcohol & Tabakoff",
        "shop": "alcohol"
      }
    },
    {
      "displayName": "Alko",
      "id": "alko-d1a8a4",
      "locationSet": {"include": ["fi"]},
      "tags": {
        "brand": "Alko",
        "brand:wikidata": "Q1849187",
        "brand:wikipedia": "en:Alko",
        "name": "Alko",
        "shop": "alcohol"
      }
    },
    {
      "displayName": "Bargain Booze",
      "id": "bargainbooze-30632a",
      "locationSet": {"include": ["gb"]},
      "tags": {
        "brand": "Bargain Booze",
        "brand:wikidata": "Q16971315",
        "brand:wikipedia": "en:Bargain Booze",
        "name": "Bargain Booze",
        "shop": "alcohol"
      }
    },
    {
      "displayName": "BC Liquor Store",
      "id": "bcliquorstore-0c8640",
      "locationSet": {
        "include": ["ca-bc.geojson"]
      },
      "tags": {
        "brand": "BC Liquor Store",
        "brand:wikidata": "Q43079557",
        "brand:wikipedia": "en:BC Liquor Stores",
        "name": "BC Liquor Store",
        "shop": "alcohol"
      }
    },
    {
      "displayName": "Bevco",
      "id": "bevco-289791",
      "locationSet": {"include": ["in"]},
      "tags": {
        "brand": "Bevco",
        "brand:wikidata": "Q6393413",
        "brand:wikipedia": "en:Kerala State Beverages Corporation",
        "name": "Bevco",
        "official_name": "Kerala State Beverages Corporation Ltd",
        "shop": "alcohol"
      }
    },
    {
      "displayName": "BevMo!",
      "id": "bevmo-2740a5",
      "locationSet": {"include": ["us"]},
      "tags": {
        "brand": "BevMo!",
        "brand:wikidata": "Q4899308",
        "brand:wikipedia": "en:BevMo!",
        "name": "BevMo!",
        "shop": "alcohol"
      }
    },
    {
      "displayName": "Binny's Beverage Depot",
      "id": "binnysbeveragedepot-b97ce0",
      "locationSet": {
        "include": ["us-il.geojson"]
      },
      "tags": {
        "brand": "Binny's Beverage Depot",
        "brand:wikidata": "Q30687714",
        "brand:wikipedia": "en:Binny's Beverage Depot",
        "name": "Binny's Beverage Depot",
        "shop": "alcohol"
      }
    },
    {
      "displayName": "Bottlemart",
      "id": "bottlemart-cb3c62",
      "locationSet": {"include": ["au"]},
      "tags": {
        "brand": "Bottlemart",
        "name": "Bottlemart",
        "shop": "alcohol"
      }
    },
    {
      "displayName": "BWS",
      "id": "bws-cb3c62",
      "locationSet": {"include": ["au"]},
      "tags": {
        "brand": "BWS",
        "brand:wikidata": "Q4836848",
        "brand:wikipedia": "en:BWS (liquor retailer)",
        "name": "BWS",
        "shop": "alcohol"
      }
    },
    {
      "displayName": "Cellarbrations",
      "id": "cellarbrations-cb3c62",
      "locationSet": {"include": ["au"]},
      "tags": {
        "brand": "Cellarbrations",
        "name": "Cellarbrations",
        "shop": "alcohol"
      }
    },
    {
      "displayName": "Dan Murphy's",
      "id": "danmurphys-cb3c62",
      "locationSet": {"include": ["au"]},
      "tags": {
        "brand": "Dan Murphy's",
        "brand:wikidata": "Q5214075",
        "brand:wikipedia": "en:Dan Murphy's",
        "name": "Dan Murphy's",
        "shop": "alcohol"
      }
    },
    {
      "displayName": "Dirck III",
      "id": "dirckiii-e09280",
      "locationSet": {"include": ["nl"]},
      "matchNames": ["dirck 3"],
      "tags": {
        "brand": "Dirck III",
        "brand:wikidata": "Q109188079",
        "name": "Dirck III",
        "shop": "alcohol"
      }
    },
    {
      "displayName": "Duncan's",
      "id": "duncans-cb3c62",
      "locationSet": {"include": ["au"]},
      "tags": {
        "brand": "Duncan's",
        "name": "Duncan's",
        "shop": "alcohol"
      }
    },
    {
      "displayName": "Duży Ben",
      "id": "duzyben-48eb32",
      "locationSet": {"include": ["pl"]},
      "tags": {
        "brand": "Duży Ben",
        "name": "Duży Ben",
        "shop": "alcohol"
      }
    },
    {
      "displayName": "Fine Wine & Good Spirits",
      "id": "finewineandgoodspirits-76c257",
      "locationSet": {
        "include": ["us-pa.geojson"]
      },
      "tags": {
        "brand": "Fine Wine & Good Spirits",
        "brand:wikidata": "Q64514776",
        "name": "Fine Wine & Good Spirits",
        "shop": "alcohol"
      }
    },
    {
      "displayName": "First Choice Liquor",
      "id": "firstchoiceliquor-cb3c62",
      "locationSet": {"include": ["au"]},
      "tags": {
        "brand": "First Choice Liquor",
        "brand:wikidata": "Q4596269",
        "brand:wikipedia": "en:First Choice Liquor",
        "name": "First Choice Liquor",
        "shop": "alcohol"
      }
    },
    {
      "displayName": "Gall & Gall",
      "id": "gallandgall-e09280",
      "locationSet": {"include": ["nl"]},
      "tags": {
        "brand": "Gall & Gall",
        "brand:wikidata": "Q13639185",
        "brand:wikipedia": "nl:Gall & Gall",
        "name": "Gall & Gall",
        "shop": "alcohol"
      }
    },
    {
      "displayName": "La Cervoiserie",
      "id": "lacervoiserie-99d8dc",
      "locationSet": {"include": ["fr"]},
      "tags": {
        "brand": "La Cervoiserie",
        "brand:wikidata": "Q101788539",
        "name": "La Cervoiserie",
        "shop": "alcohol"
      }
    },
    {
      "displayName": "LCBO",
      "id": "lcbo-19c622",
      "locationSet": {
        "include": ["ca-on.geojson"]
      },
      "matchNames": [
        "liquor control board of ontario"
      ],
      "tags": {
        "brand": "LCBO",
        "brand:wikidata": "Q845263",
        "brand:wikipedia": "en:Liquor Control Board of Ontario",
        "name": "LCBO",
        "shop": "alcohol"
      }
    },
    {
      "displayName": "Liquor Depot",
      "id": "liquordepot-ca0076",
      "locationSet": {
        "include": [
          "ca-ab.geojson",
          "ca-bc.geojson"
        ]
      },
      "tags": {
        "brand": "Liquor Depot",
        "name": "Liquor Depot",
        "shop": "alcohol"
      }
    },
    {
      "displayName": "Liquorland",
      "id": "liquorland-cb3c62",
      "locationSet": {"include": ["au"]},
      "tags": {
        "brand": "Liquorland",
        "brand:wikidata": "Q2283837",
        "brand:wikipedia": "en:Liquorland",
        "name": "Liquorland",
        "shop": "alcohol"
      }
    },
    {
      "displayName": "Majestic",
      "id": "majestic-30632a",
      "locationSet": {"include": ["gb"]},
      "matchNames": [
        "majestic wine",
        "majestic wine warehouse"
      ],
      "tags": {
        "brand": "Majestic",
        "brand:wikidata": "Q6737725",
        "brand:wikipedia": "en:Majestic Wine",
        "name": "Majestic",
        "shop": "alcohol"
      }
    },
    {
      "displayName": "Mitra",
      "id": "mitra-e09280",
      "locationSet": {"include": ["nl"]},
      "tags": {
        "brand": "Mitra",
        "brand:wikidata": "Q109186241",
        "name": "Mitra",
        "shop": "alcohol"
      }
    },
    {
      "displayName": "New Hampshire Liquor & Wine Outlet",
      "id": "newhampshireliquorandwineoutlet-05db77",
      "locationSet": {
        "include": ["us-nh.geojson"]
      },
      "matchNames": ["nh liquor & wine outlet"],
      "tags": {
        "brand": "New Hampshire Liquor & Wine Outlets",
        "brand:wikidata": "Q98400557",
        "name": "New Hampshire Liquor & Wine Outlet",
        "operator": "New Hampshire Liquor Commission",
        "shop": "alcohol"
      }
    },
    {
      "displayName": "Nicolas",
      "id": "nicolas-699bfb",
      "locationSet": {
        "include": ["be", "fr", "gb"]
      },
      "tags": {
        "brand": "Nicolas",
        "brand:wikidata": "Q3340012",
        "brand:wikipedia": "en:Nicolas (wine retailer)",
        "name": "Nicolas",
        "shop": "alcohol"
      }
    },
    {
      "displayName": "NSLC",
      "id": "nslc-7529e3",
      "locationSet": {
        "include": ["ca-ns.geojson"]
      },
      "matchNames": [
        "nova scotia liquor corporation"
      ],
      "tags": {
        "brand": "NSLC",
        "brand:wikidata": "Q17018587",
        "brand:wikipedia": "en:Nova Scotia Liquor Corporation",
        "name": "NSLC",
        "shop": "alcohol"
      }
    },
    {
      "displayName": "Oddbins",
      "id": "oddbins-30632a",
      "locationSet": {"include": ["gb"]},
      "tags": {
        "brand": "Oddbins",
        "brand:wikidata": "Q7077472",
        "brand:wikipedia": "en:Oddbins",
        "name": "Oddbins",
        "shop": "alcohol"
      }
    },
    {
      "displayName": "Prolicor",
      "id": "prolicor-ed57fa",
      "locationSet": {"include": ["ve"]},
      "tags": {
        "brand": "Prolicor",
        "name": "Prolicor",
        "shop": "alcohol"
      }
    },
    {
      "displayName": "SAQ",
      "id": "saq-c2c781",
      "locationSet": {"include": ["ca"]},
      "tags": {
        "brand": "SAQ",
        "brand:wikidata": "Q3488077",
        "brand:wikipedia": "en:Société des alcools du Québec",
        "name": "SAQ",
        "shop": "alcohol"
      }
    },
    {
      "displayName": "SAQ Express",
      "id": "saqexpress-ebcba4",
      "locationSet": {
        "include": ["ca-qc.geojson"]
      },
      "tags": {
        "brand": "SAQ Express",
        "brand:wikidata": "Q3488077",
        "brand:wikipedia": "en:Société des alcools du Québec",
        "name": "SAQ Express",
        "shop": "alcohol"
      }
    },
    {
      "displayName": "SAQ Sélection",
      "id": "saqselection-ebcba4",
      "locationSet": {
        "include": ["ca-qc.geojson"]
      },
      "tags": {
        "brand": "SAQ Sélection",
        "brand:wikidata": "Q3488077",
        "brand:wikipedia": "en:Société des alcools du Québec",
        "name": "SAQ Sélection",
        "shop": "alcohol"
      }
    },
    {
      "displayName": "Spec's",
      "id": "specs-a9ed82",
      "locationSet": {
        "include": ["us-tx.geojson"]
      },
      "tags": {
        "brand": "Spec's",
        "brand:wikidata": "Q7574415",
        "brand:wikipedia": "en:Spec's Wine, Spirits & Finer Foods",
        "name": "Spec's",
        "shop": "alcohol"
      }
    },
    {
      "displayName": "Super Liquor",
      "id": "superliquor-a2b828",
      "locationSet": {"include": ["nz"]},
      "tags": {
        "brand": "Super Liquor",
        "name": "Super Liquor",
        "shop": "alcohol"
      }
    },
    {
      "displayName": "Systembolaget",
      "id": "systembolaget-9afe69",
      "locationSet": {"include": ["se"]},
      "tags": {
        "brand": "Systembolaget",
        "brand:wikidata": "Q1476113",
        "brand:wikipedia": "en:Systembolaget",
        "name": "Systembolaget",
        "shop": "alcohol"
      }
    },
    {
      "displayName": "The Beer Store",
      "id": "thebeerstore-19c622",
      "locationSet": {
        "include": ["ca-on.geojson"]
      },
      "tags": {
        "brand": "The Beer Store",
        "brand:wikidata": "Q16243674",
        "brand:wikipedia": "en:The Beer Store",
        "name": "The Beer Store",
        "shop": "alcohol"
      }
    },
    {
      "displayName": "Thirsty Camel",
      "id": "thirstycamel-cb3c62",
      "locationSet": {"include": ["au"]},
      "tags": {
        "brand": "Thirsty Camel",
        "name": "Thirsty Camel",
        "shop": "alcohol"
      }
    },
    {
      "displayName": "Tops",
      "id": "tops-cebc42",
      "locationSet": {"include": ["za"]},
      "tags": {
        "brand": "Tops",
        "name": "Tops",
        "shop": "alcohol"
      }
    },
    {
      "displayName": "Total Wine",
      "id": "totalwine-2740a5",
      "locationSet": {"include": ["us"]},
      "tags": {
        "brand": "Total Wine",
        "brand:wikidata": "Q7828084",
        "brand:wikipedia": "en:Total Wine & More",
        "name": "Total Wine",
        "official_name": "Total Wine & More",
        "shop": "alcohol"
      }
    },
    {
      "displayName": "V and B",
      "id": "vandb-99d8dc",
      "locationSet": {"include": ["fr"]},
      "matchNames": ["vins et bières"],
      "tags": {
        "brand": "V and B",
        "brand:wikidata": "Q100706329",
        "name": "V and B",
        "shop": "alcohol"
      }
    },
    {
      "displayName": "Vinmonopolet",
      "id": "vinmonopolet-af24f5",
      "locationSet": {"include": ["no"]},
      "note": "https://github.com/osmlab/name-suggestion-index/issues/5500",
      "preserveTags": ["^name"],
      "tags": {
        "brand": "Vinmonopolet",
        "brand:wikidata": "Q1740534",
        "brand:wikipedia": "no:Vinmonopolet",
        "name": "Vinmonopolet",
        "shop": "alcohol"
      }
    },
    {
      "displayName": "Virginia ABC",
      "id": "virginiaabc-85cc28",
      "locationSet": {
        "include": ["us-va.geojson"]
      },
      "tags": {
        "brand": "Virginia ABC",
        "brand:wikidata": "Q7934236",
        "brand:wikipedia": "en:Virginia Alcoholic Beverage Control Authority",
        "name": "Virginia ABC",
        "shop": "alcohol"
      }
    },
    {
      "displayName": "Аванти",
      "id": "avanti-059946",
      "locationSet": {"include": ["bg"]},
      "tags": {
        "brand": "Аванти",
        "name": "Аванти",
        "name:en": "Avanti",
        "shop": "alcohol"
      }
    },
    {
      "displayName": "Алкомаркет",
      "id": "4b1e16-1b6876",
      "locationSet": {"include": ["kz"]},
      "tags": {
        "brand": "Алкомаркет",
        "name": "Алкомаркет",
        "shop": "alcohol"
      }
    },
    {
      "displayName": "Ароматный мир",
      "id": "5a713f-b9f2fe",
      "locationSet": {"include": ["ru"]},
      "tags": {
        "brand": "Ароматный мир",
        "name": "Ароматный мир",
        "shop": "alcohol"
      }
    },
    {
      "displayName": "Бристоль",
      "id": "69bf4f-b9f2fe",
      "locationSet": {"include": ["ru"]},
      "matchTags": ["shop/convenience"],
      "tags": {
        "brand": "Бристоль",
        "brand:wikidata": "Q59155583",
        "brand:wikipedia": "ru:Бристоль (сеть магазинов)",
        "name": "Бристоль",
        "shop": "alcohol"
      }
    },
    {
      "displayName": "Винлаб",
      "id": "41aea9-b9f2fe",
      "locationSet": {"include": ["ru"]},
      "tags": {
        "brand": "Винлаб",
        "name": "Винлаб",
        "shop": "alcohol"
      }
    },
    {
      "displayName": "Горилка",
      "id": "94e163-892b0a",
      "locationSet": {"include": ["kz", "ru"]},
      "tags": {
        "brand": "Горилка",
        "name": "Горилка",
        "shop": "alcohol"
      }
    },
    {
      "displayName": "Градус",
      "id": "1238a0-b9f2fe",
      "locationSet": {"include": ["ru"]},
      "tags": {
        "brand": "Градус",
        "name": "Градус",
        "shop": "alcohol"
      }
    },
    {
      "displayName": "Градусы",
      "id": "3b4761-b9f2fe",
      "locationSet": {"include": ["ru"]},
      "tags": {
        "brand": "Градусы",
        "name": "Градусы",
        "shop": "alcohol"
      }
    },
    {
      "displayName": "Красное & Белое",
      "id": "redandwhite-b9f2fe",
      "locationSet": {"include": ["ru"]},
      "matchNames": ["красное и белое"],
      "tags": {
        "brand": "Красное & Белое",
        "brand:en": "Red&White",
        "brand:wikidata": "Q24933790",
        "brand:wikipedia": "en:Krasnoe & Beloe",
        "name": "Красное & Белое",
        "name:en": "Red&White",
        "shop": "alcohol"
      }
    },
    {
      "displayName": "Кристалл",
      "id": "a1e123-837fe2",
      "locationSet": {"include": ["by", "ru"]},
      "matchTags": ["shop/convenience"],
      "tags": {
        "brand": "Кристалл",
        "name": "Кристалл",
        "shop": "alcohol"
      }
    },
    {
      "displayName": "Лион",
      "id": "f36ff3-b9f2fe",
      "locationSet": {"include": ["ru"]},
      "tags": {
        "brand": "Лион",
        "name": "Лион",
        "shop": "alcohol"
      }
    },
    {
      "displayName": "Море пива",
      "id": "d94189-345467",
      "locationSet": {"include": ["ua"]},
      "tags": {
        "brand": "Море пива",
        "name": "Море пива",
        "shop": "alcohol"
      }
    },
    {
      "displayName": "Норман",
      "id": "63e04d-b9f2fe",
      "locationSet": {"include": ["ru"]},
      "tags": {
        "brand": "Норман",
        "name": "Норман",
        "shop": "alcohol"
      }
    },
    {
      "displayName": "Отдохни",
      "id": "ce98a7-b9f2fe",
      "locationSet": {"include": ["ru"]},
      "tags": {
        "brand": "Отдохни",
        "name": "Отдохни",
        "shop": "alcohol"
      }
    },
    {
      "displayName": "Пив&ко",
      "id": "c40606-b9f2fe",
      "locationSet": {"include": ["ru"]},
      "tags": {
        "brand": "Пив&ко",
        "name": "Пив&ко",
        "shop": "alcohol"
      }
    },
    {
      "displayName": "Пивоман",
      "id": "b56713-b9f2fe",
      "locationSet": {"include": ["ru"]},
      "tags": {
        "brand": "Пивоман",
        "name": "Пивоман",
        "shop": "alcohol"
      }
    },
    {
      "displayName": "РосАл",
      "id": "e0b675-b9f2fe",
      "locationSet": {"include": ["ru"]},
      "tags": {
        "brand": "РосАл",
        "name": "РосАл",
        "shop": "alcohol"
      }
    },
    {
      "displayName": "Чарка до свята",
      "id": "1898a0-345467",
      "locationSet": {"include": ["ua"]},
      "tags": {
        "brand": "Чарка до свята",
        "name": "Чарка до свята",
        "shop": "alcohol"
      }
    },
    {
      "displayName": "カクヤス",
      "id": "kakuyasu-42f62c",
      "locationSet": {"include": ["jp"]},
      "tags": {
        "brand": "カクヤス",
        "brand:en": "Kakuyasu",
        "brand:ja": "カクヤス",
        "brand:wikidata": "Q11293990",
        "brand:wikipedia": "ja:カクヤス",
        "name": "カクヤス",
        "name:en": "Kakuyasu",
        "name:ja": "カクヤス",
        "shop": "alcohol"
      }
    },
    {
      "displayName": "やまや",
      "id": "yamaya-42f62c",
      "locationSet": {"include": ["jp"]},
      "tags": {
        "brand": "やまや",
        "brand:en": "Yamaya",
        "brand:ja": "やまや",
        "brand:wikidata": "Q17224765",
        "brand:wikipedia": "ja:やまや",
        "name": "やまや",
        "name:en": "YaMaYa",
        "name:ja": "やまや",
        "shop": "alcohol"
      }
    },
    {
      "displayName": "リカーマウンテン",
      "id": "liquormountain-42f62c",
      "locationSet": {"include": ["jp"]},
      "tags": {
        "brand": "リカーマウンテン",
        "brand:en": "Liquor Mountain",
        "brand:ja": "リカーマウンテン",
        "brand:wikidata": "Q11347883",
        "brand:wikipedia": "ja:リカーマウンテン",
        "name": "リカーマウンテン",
        "name:en": "Liquor Mountain",
        "name:ja": "リカーマウンテン",
        "shop": "alcohol"
      }
    }
  ]
}
