{
  "properties": {
    "path": "brands/shop/anime",
    "exclude": {"generic": ["^anime$"]}
  },
  "items": [
    {
      "displayName": "アニメイト",
      "id": "animate-12d6d6",
      "locationSet": {"include": ["jp"]},
      "tags": {
        "brand": "アニメイト",
        "brand:en": "Animate",
        "brand:ja": "アニメイト",
        "brand:wikidata": "Q1041890",
        "name": "アニメイト",
        "name:en": "Animate",
        "name:ja": "アニメイト",
        "shop": "anime"
      }
    },
    {
      "displayName": "ケイ・ブックス",
      "id": "kbooks-12d6d6",
      "locationSet": {"include": ["jp"]},
      "tags": {
        "brand": "ケイ・ブックス",
        "brand:en": "K-BOOKS",
        "brand:ja": "ケイ・ブックス",
        "brand:wikidata": "Q11227310",
        "name": "ケイ・ブックス",
        "name:en": "K-BOOKS",
        "name:ja": "ケイ・ブックス",
        "shop": "anime"
      }
    },
    {
      "displayName": "ジャンプショップ",
      "id": "jumpshop-12d6d6",
      "locationSet": {"include": ["jp"]},
      "matchNames": ["ジャンプ"],
      "tags": {
        "brand": "ジャンプショップ",
        "brand:en": "Jump Shop",
        "brand:ja": "ジャンプショップ",
        "brand:wikidata": "Q11310200",
        "name": "ジャンプショップ",
        "name:en": "Jump Shop",
        "name:ja": "ジャンプショップ",
        "shop": "anime"
      }
    },
    {
      "displayName": "ポケモンセンター",
      "id": "pokemoncenter-12d6d6",
      "locationSet": {"include": ["jp"]},
      "tags": {
        "brand": "ポケモンセンター",
        "brand:en": "Pokémon Center",
        "brand:ja": "ポケモンセンター",
        "brand:wikidata": "Q89673816",
        "name": "ポケモンセンター",
        "name:en": "Pokémon Center",
        "name:ja": "ポケモンセンター",
        "shop": "anime"
      }
    },
    {
      "displayName": "まんだらけ",
      "id": "mandarake-12d6d6",
      "locationSet": {"include": ["jp"]},
      "tags": {
        "brand": "まんだらけ",
        "brand:en": "Mandarake",
        "brand:ja": "まんだらけ",
        "brand:wikidata": "Q6747833",
        "name": "まんだらけ",
        "name:en": "Mandarake",
        "name:ja": "まんだらけ",
        "shop": "anime"
      }
    },
    {
      "displayName": "らしんばん",
      "id": "lashinbang-12d6d6",
      "locationSet": {"include": ["jp"]},
      "tags": {
        "brand": "らしんばん",
        "brand:en": "Lashinbang",
        "brand:ja": "らしんばん",
        "brand:wikidata": "Q11281322",
        "name": "らしんばん",
        "name:en": "Lashinbang",
        "name:ja": "らしんばん",
        "shop": "anime"
      }
    }
  ]
}
