{
  "properties": {
    "path": "brands/shop/baby_goods",
    "exclude": {"generic": ["^baby goods$"]}
  },
  "items": [
    {
      "displayName": "Aubert",
      "id": "aubert-e7ec7f",
      "locationSet": {"include": ["fr"]},
      "tags": {
        "brand": "Aubert",
        "brand:wikidata": "Q62964657",
        "name": "Aubert",
        "shop": "baby_goods"
      }
    },
    {
      "displayName": "Babies R Us",
      "id": "babiesrus-a2ffc9",
      "locationSet": {"include": ["ca", "us"]},
      "tags": {
        "brand": "Babies R Us",
        "brand:wikidata": "Q17232036",
        "name": "Babies R Us",
        "shop": "baby_goods"
      }
    },
    {
      "displayName": "Baby Bunting",
      "id": "babybunting-124709",
      "locationSet": {"include": ["au", "nz"]},
      "tags": {
        "brand": "Baby Bunting",
        "brand:wikidata": "Q109626935",
        "name": "Baby Bunting",
        "shop": "baby_goods"
      }
    },
    {
      "displayName": "baby-walz",
      "id": "babywalz-162756",
      "locationSet": {"include": ["de"]},
      "tags": {
        "brand": "baby-walz",
        "brand:wikidata": "Q108004413",
        "name": "baby-walz",
        "shop": "baby_goods"
      }
    },
    {
      "displayName": "BabyOne",
      "id": "babyone-162756",
      "locationSet": {"include": ["de"]},
      "tags": {
        "brand": "BabyOne",
        "brand:wikidata": "Q57540408",
        "name": "BabyOne",
        "shop": "baby_goods"
      }
    },
    {
      "displayName": "Buy Buy Baby",
      "id": "buybuybaby-a2ffc9",
      "locationSet": {"include": ["ca", "us"]},
      "tags": {
        "brand": "Buy Buy Baby",
        "brand:wikidata": "Q5003352",
        "name": "Buy Buy Baby",
        "shop": "baby_goods"
      }
    },
    {
      "displayName": "Chicco",
      "locationSet": {"include": ["001"]},
      "tags": {
        "brand": "Chicco",
        "brand:wikidata": "Q27897515",
        "name": "Chicco",
        "shop": "baby_goods"
      }
    },
    {
      "displayName": "ebebek",
      "id": "ebebek-ec78ad",
      "locationSet": {"include": ["tr"]},
      "tags": {
        "brand": "ebebek",
        "brand:wikidata": "Q106803057",
        "name": "ebebek",
        "shop": "baby_goods"
      }
    },
    {
      "displayName": "Mamas & Papas",
      "id": "mamasandpapas-9c51ce",
      "locationSet": {"include": ["gb"]},
      "tags": {
        "brand": "Mamas & Papas",
        "brand:wikidata": "Q6745447",
        "name": "Mamas & Papas",
        "shop": "baby_goods"
      }
    },
    {
      "displayName": "Mothercare",
      "id": "mothercare-0b3f29",
      "locationSet": {"include": ["001"]},
      "matchTags": ["shop/clothes"],
      "tags": {
        "brand": "Mothercare",
        "brand:wikidata": "Q136738",
        "name": "Mothercare",
        "shop": "baby_goods"
      }
    },
    {
      "displayName": "Natalys",
      "id": "natalys-e7ec7f",
      "locationSet": {"include": ["fr"]},
      "matchTags": ["shop/clothes"],
      "tags": {
        "brand": "Natalys",
        "brand:wikidata": "Q3336439",
        "name": "Natalys",
        "shop": "baby_goods"
      }
    },
    {
      "displayName": "Prénatal",
      "id": "prenatal-5eb52b",
      "locationSet": {
        "include": [
          "es",
          "fr",
          "gr",
          "it",
          "nl",
          "pt"
        ]
      },
      "tags": {
        "brand": "Prénatal",
        "brand:wikidata": "Q105961413",
        "name": "Prénatal",
        "shop": "baby_goods"
      }
    },
    {
      "displayName": "The Baby Factory",
      "id": "thebabyfactory-42c98b",
      "locationSet": {"include": ["nz"]},
      "matchNames": ["baby factory"],
      "tags": {
        "brand": "The Baby Factory",
        "brand:wikidata": "Q110298660",
        "name": "The Baby Factory",
        "shop": "baby_goods"
      }
    },
    {
      "displayName": "Zippy",
      "id": "zippy-e93d5f",
      "locationSet": {"include": ["es", "pt"]},
      "tags": {
        "brand": "Zippy",
        "brand:wikidata": "Q10395161",
        "name": "Zippy",
        "shop": "baby_goods"
      }
    },
    {
      "displayName": "Детки",
      "id": "d8a277-94eb10",
      "locationSet": {"include": ["ru"]},
      "tags": {
        "brand": "Детки",
        "brand:wikidata": "Q110290787",
        "name": "Детки",
        "shop": "baby_goods"
      }
    },
    {
      "displayName": "Детский мир",
      "id": "detskiymir-7b1c28",
      "locationSet": {
        "include": ["by", "kz", "ru"]
      },
      "matchTags": ["shop/clothes", "shop/toys"],
      "tags": {
        "brand": "Детский мир",
        "brand:en": "Detskiy Mir",
        "brand:wikidata": "Q16643324",
        "name": "Детский мир",
        "name:en": "Detskiy Mir",
        "shop": "baby_goods"
      }
    },
    {
      "displayName": "Дочки-сыночки",
      "id": "462766-2eddbc",
      "locationSet": {"include": ["by", "ru"]},
      "tags": {
        "brand": "Дочки-сыночки",
        "brand:wikidata": "Q110290698",
        "name": "Дочки-сыночки",
        "shop": "baby_goods"
      }
    },
    {
      "displayName": "西松屋",
      "id": "nishimatsuyachain-60a866",
      "locationSet": {"include": ["jp"]},
      "matchTags": ["shop/clothes"],
      "tags": {
        "brand": "西松屋",
        "brand:en": "Nishimatsuya Chain",
        "brand:ja": "西松屋",
        "brand:wikidata": "Q11628761",
        "name": "西松屋",
        "name:en": "Nishimatsuya Chain",
        "name:ja": "西松屋",
        "shop": "baby_goods"
      }
    },
    {
      "displayName": "赤ちゃん本舗",
      "id": "akachanhonpo-60a866",
      "locationSet": {"include": ["jp"]},
      "tags": {
        "brand": "赤ちゃん本舗",
        "brand:en": "Akachan Honpo",
        "brand:ja": "赤ちゃん本舗",
        "brand:wikidata": "Q11257015",
        "name": "赤ちゃん本舗",
        "name:en": "Akachan Honpo",
        "name:ja": "赤ちゃん本舗",
        "shop": "baby_goods"
      }
    }
  ]
}
