{
  "properties": {
    "path": "brands/shop/beverages",
    "exclude": {
      "generic": ["^(beverages|getränkemarkt)$"]
    }
  },
  "items": [
    {
      "displayName": "50嵐",
      "id": "e97346-447d41",
      "locationSet": {"include": ["cn", "tw"]},
      "tags": {
        "brand": "50嵐",
        "name": "50嵐",
        "shop": "beverages"
      }
    },
    {
      "displayName": "CoCo都可",
      "id": "874e5c-d2c341",
      "locationSet": {"include": ["001"]},
      "tags": {
        "brand": "CoCo都可",
        "name": "CoCo都可",
        "shop": "beverages"
      }
    },
    {
      "displayName": "Dursty",
      "id": "dursty-c4cb62",
      "locationSet": {"include": ["de"]},
      "tags": {
        "brand": "Dursty",
        "brand:wikidata": "Q1267518",
        "brand:wikipedia": "de:Dursty Getränkemärkte",
        "name": "Dursty",
        "shop": "beverages"
      }
    },
    {
      "displayName": "Edeka Getränkemarkt",
      "id": "edekagetrankemarkt-c4cb62",
      "locationSet": {"include": ["de"]},
      "tags": {
        "brand": "Edeka Getränkemarkt",
        "brand:wikidata": "Q57450576",
        "name": "Edeka Getränkemarkt",
        "shop": "beverages"
      }
    },
    {
      "displayName": "Fränky Getränkemarkt",
      "id": "frankygetrankemarkt-c4cb62",
      "locationSet": {"include": ["de"]},
      "tags": {
        "brand": "Fränky Getränkemarkt",
        "brand:wikidata": "Q107356988",
        "name": "Fränky Getränkemarkt",
        "shop": "beverages"
      }
    },
    {
      "displayName": "Fristo",
      "id": "fristo-650acc",
      "locationSet": {"include": ["at", "de"]},
      "matchNames": ["fristo getränkemarkt"],
      "tags": {
        "brand": "Fristo",
        "brand:wikidata": "Q1465151",
        "brand:wikipedia": "de:Fristo",
        "name": "Fristo",
        "shop": "beverages"
      }
    },
    {
      "displayName": "Getränke Arena",
      "id": "getrankearena-c4cb62",
      "locationSet": {"include": ["de"]},
      "tags": {
        "brand": "Getränke Arena",
        "brand:wikidata": "Q107116272",
        "name": "Getränke Arena",
        "shop": "beverages"
      }
    },
    {
      "displayName": "Getränke City",
      "id": "getrankecity-c4cb62",
      "locationSet": {"include": ["de"]},
      "tags": {
        "brand": "Getränke City",
        "brand:wikidata": "Q101480351",
        "name": "Getränke City",
        "shop": "beverages"
      }
    },
    {
      "displayName": "Getränke Hoffmann",
      "id": "getrankehoffmann-c4cb62",
      "locationSet": {"include": ["de"]},
      "tags": {
        "brand": "Getränke Hoffmann",
        "brand:wikidata": "Q19284021",
        "brand:wikipedia": "de:Getränke Hoffmann",
        "name": "Getränke Hoffmann",
        "shop": "beverages"
      }
    },
    {
      "displayName": "Getränke Quelle",
      "id": "getrankequelle-c4cb62",
      "locationSet": {"include": ["de"]},
      "tags": {
        "brand": "Getränke Quelle",
        "name": "Getränke Quelle",
        "shop": "beverages"
      }
    },
    {
      "displayName": "Getränkeland",
      "id": "getrankeland-c4cb62",
      "locationSet": {"include": ["de"]},
      "tags": {
        "brand": "Getränkeland",
        "brand:wikidata": "Q62594849",
        "name": "Getränkeland",
        "shop": "beverages"
      }
    },
    {
      "displayName": "Hol'ab",
      "id": "holab-c4cb62",
      "locationSet": {"include": ["de"]},
      "tags": {
        "brand": "Hol'ab",
        "brand:wikidata": "Q57557270",
        "name": "Hol'ab",
        "shop": "beverages"
      }
    },
    {
      "displayName": "Logo",
      "id": "logo-c4cb62",
      "locationSet": {"include": ["de"]},
      "tags": {
        "brand": "Logo",
        "brand:wikidata": "Q28777575",
        "brand:wikipedia": "de:Logo (Getränkemarkt)",
        "name": "Logo",
        "shop": "beverages"
      }
    },
    {
      "displayName": "Markgrafen Getränkemarkt",
      "id": "markgrafengetrankemarkt-c4cb62",
      "locationSet": {"include": ["de"]},
      "tags": {
        "brand": "Markgrafen Getränkemarkt",
        "brand:wikidata": "Q100324493",
        "name": "Markgrafen Getränkemarkt",
        "shop": "beverages"
      }
    },
    {
      "displayName": "Orterer Getränkemarkt",
      "id": "orterergetrankemarkt-c4cb62",
      "locationSet": {"include": ["de"]},
      "tags": {
        "brand": "Orterer Getränkemarkt",
        "brand:wikidata": "Q23787118",
        "brand:wikipedia": "de:Orterer Gruppe",
        "name": "Orterer Getränkemarkt",
        "shop": "beverages"
      }
    },
    {
      "displayName": "Rewe Getränkemarkt",
      "id": "rewegetrankemarkt-c4cb62",
      "locationSet": {"include": ["de"]},
      "tags": {
        "brand": "Rewe Getränkemarkt",
        "brand:wikidata": "Q57519344",
        "name": "Rewe Getränkemarkt",
        "shop": "beverages"
      }
    },
    {
      "displayName": "Sagasser",
      "id": "sagasser-c4cb62",
      "locationSet": {"include": ["de"]},
      "tags": {
        "brand": "Sagasser",
        "brand:wikidata": "Q30838417",
        "brand:wikipedia": "de:Sagasser",
        "name": "Sagasser",
        "shop": "beverages"
      }
    },
    {
      "displayName": "Sobi",
      "id": "sobi-c4cb62",
      "locationSet": {"include": ["de"]},
      "tags": {
        "brand": "Sobi",
        "brand:wikidata": "Q98509159",
        "name": "Sobi",
        "shop": "beverages"
      }
    },
    {
      "displayName": "Trink & Spare",
      "id": "trinkandspare-c4cb62",
      "locationSet": {"include": ["de"]},
      "tags": {
        "brand": "Trink & Spare",
        "brand:wikidata": "Q99284521",
        "name": "Trink & Spare",
        "shop": "beverages"
      }
    },
    {
      "displayName": "Trinkgut",
      "id": "trinkgut-c4cb62",
      "locationSet": {"include": ["de"]},
      "tags": {
        "brand": "Trinkgut",
        "brand:wikidata": "Q2453627",
        "brand:wikipedia": "de:Trinkgut",
        "name": "Trinkgut",
        "shop": "beverages"
      }
    },
    {
      "displayName": "大苑子",
      "id": "dayungs-55bc47",
      "locationSet": {"include": ["tw"]},
      "tags": {
        "brand": "大苑子",
        "brand:en": "DaYung's",
        "brand:wikidata": "Q67934123",
        "brand:wikipedia": "zh:大苑子",
        "brand:zh": "大苑子",
        "name": "大苑子",
        "name:en": "DaYung's",
        "name:zh": "大苑子",
        "shop": "beverages"
      }
    },
    {
      "displayName": "清心福全",
      "id": "chingshin-55bc47",
      "locationSet": {"include": ["tw"]},
      "tags": {
        "brand": "清心福全",
        "brand:en": "Ching Shin",
        "brand:wikidata": "Q10391229",
        "brand:wikipedia": "zh:清心福全冷飲站",
        "brand:zh": "清心福全",
        "name": "清心福全",
        "name:en": "Ching Shin",
        "name:zh": "清心福全",
        "shop": "beverages"
      }
    },
    {
      "displayName": "茶湯會",
      "id": "818e65-55bc47",
      "locationSet": {"include": ["tw"]},
      "tags": {
        "brand": "茶湯會",
        "name": "茶湯會",
        "shop": "beverages"
      }
    },
    {
      "displayName": "茶的魔手",
      "id": "6716bb-55bc47",
      "locationSet": {"include": ["tw"]},
      "tags": {
        "brand": "茶的魔手",
        "name": "茶的魔手",
        "shop": "beverages"
      }
    },
    {
      "displayName": "迷客夏",
      "id": "milkshop-55bc47",
      "locationSet": {"include": ["tw"]},
      "tags": {
        "brand": "迷客夏",
        "brand:en": "Milkshop",
        "brand:wikidata": "Q67934215",
        "brand:wikipedia": "zh:迷客夏",
        "brand:zh": "迷客夏",
        "name": "迷客夏",
        "name:en": "Milkshop",
        "name:zh": "迷客夏",
        "shop": "beverages"
      }
    },
    {
      "displayName": "鮮茶道",
      "id": "e7db71-55bc47",
      "locationSet": {"include": ["tw"]},
      "tags": {
        "brand": "鮮茶道",
        "name": "鮮茶道",
        "shop": "beverages"
      }
    }
  ]
}
