{
  "properties": {
    "path": "brands/shop/bicycle",
    "exclude": {"generic": ["^bicycle$"]}
  },
  "items": [
    {
      "displayName": "99 Bikes",
      "id": "99bikes-0d00fa",
      "locationSet": {"include": ["au", "nz"]},
      "matchNames": ["bike barn"],
      "tags": {
        "brand": "99 Bikes",
        "brand:wikidata": "Q110288298",
        "name": "99 Bikes",
        "shop": "bicycle"
      }
    },
    {
      "displayName": "B.O.C.",
      "id": "boc-b51da6",
      "locationSet": {"include": ["de"]},
      "tags": {
        "brand": "B.O.C.",
        "brand:wikidata": "Q107103852",
        "name": "B.O.C.",
        "shop": "bicycle"
      }
    },
    {
      "displayName": "Balfe's Bikes",
      "id": "balfesbikes-e982e5",
      "locationSet": {"include": ["gb-eng"]},
      "tags": {
        "brand": "Balfe's Bikes",
        "brand:wikidata": "Q113483414",
        "name": "Balfe's Bikes",
        "shop": "bicycle"
      }
    },
    {
      "displayName": "Evans Cycles",
      "id": "evanscycles-3697a8",
      "locationSet": {"include": ["gb"]},
      "tags": {
        "brand": "Evans Cycles",
        "brand:wikidata": "Q5415901",
        "name": "Evans Cycles",
        "shop": "bicycle"
      }
    },
    {
      "displayName": "Fahrrad XXL",
      "id": "fahrradxxl-b51da6",
      "locationSet": {"include": ["de"]},
      "tags": {
        "brand": "Fahrrad XXL",
        "brand:wikidata": "Q99976386",
        "name": "Fahrrad XXL",
        "shop": "bicycle"
      }
    },
    {
      "displayName": "Fri BikeShop",
      "id": "fribikeshop-ff17d0",
      "locationSet": {"include": ["dk"]},
      "tags": {
        "brand": "Fri BikeShop",
        "brand:wikidata": "Q26721030",
        "name": "Fri BikeShop",
        "shop": "bicycle"
      }
    },
    {
      "displayName": "Giant",
      "id": "giant-3628a9",
      "locationSet": {"include": ["001"]},
      "tags": {
        "brand": "Giant",
        "brand:wikidata": "Q703557",
        "name": "Giant",
        "shop": "bicycle"
      }
    },
    {
      "displayName": "Little John Bikes",
      "id": "littlejohnbikes-b51da6",
      "locationSet": {"include": ["de"]},
      "tags": {
        "brand": "Little John Bikes",
        "brand:wikidata": "Q99976320",
        "name": "Little John Bikes",
        "shop": "bicycle"
      }
    },
    {
      "displayName": "Pure Electric",
      "id": "pureelectric-3697a8",
      "locationSet": {"include": ["gb"]},
      "tags": {
        "brand": "Pure Electric",
        "brand:wikidata": "Q100998855",
        "name": "Pure Electric",
        "shop": "bicycle"
      }
    },
    {
      "displayName": "Stella",
      "id": "stella-75e76c",
      "locationSet": {
        "include": ["be", "de", "nl"]
      },
      "preserveTags": ["^name"],
      "tags": {
        "brand": "Stella",
        "brand:wikidata": "Q98299138",
        "name": "Stella",
        "shop": "bicycle"
      }
    },
    {
      "displayName": "tokyobike",
      "id": "tokyobike-1c47bc",
      "locationSet": {
        "include": [
          "de",
          "gb-lon.geojson",
          "jp",
          "mx",
          "th"
        ]
      },
      "tags": {
        "brand": "tokyobike",
        "brand:wikidata": "Q113486193",
        "name": "tokyobike",
        "shop": "bicycle"
      }
    },
    {
      "displayName": "Trek",
      "id": "trek-3628a9",
      "locationSet": {"include": ["001"]},
      "matchNames": [
        "bike gallery",
        "treck",
        "trek bicycle"
      ],
      "tags": {
        "alt_name": "Trek Bicycle Store",
        "brand": "Trek",
        "brand:wikidata": "Q1067617",
        "name": "Trek",
        "shop": "bicycle"
      }
    },
    {
      "displayName": "Wim",
      "id": "wim-ae2479",
      "locationSet": {"include": ["id"]},
      "tags": {
        "brand": "Wim",
        "name": "Wim",
        "shop": "bicycle"
      }
    },
    {
      "displayName": "Zweirad-Center Stadler",
      "id": "zweiradcenterstadler-d06ca0",
      "locationSet": {"include": ["at", "de"]},
      "matchNames": ["stadler"],
      "tags": {
        "brand": "Zweirad-Center Stadler",
        "brand:wikidata": "Q27225809",
        "name": "Zweirad-Center Stadler",
        "shop": "bicycle"
      }
    },
    {
      "displayName": "イオンバイク",
      "id": "aeonbike-1d9d0f",
      "locationSet": {"include": ["jp"]},
      "tags": {
        "brand": "イオンバイク",
        "brand:en": "Aeon Bike",
        "brand:ja": "イオンバイク",
        "brand:wikidata": "Q11286054",
        "name": "イオンバイク",
        "name:en": "Aeon Bike",
        "name:ja": "イオンバイク",
        "official_name": "イオンサイクルショップ",
        "official_name:en": "Aeon Bike Shop",
        "official_name:ja": "イオンサイクルショップ",
        "shop": "bicycle"
      }
    },
    {
      "displayName": "サイクルスポット",
      "id": "cyclespot-1d9d0f",
      "locationSet": {"include": ["jp"]},
      "tags": {
        "brand": "サイクルスポット",
        "brand:en": "Cycle Spot",
        "brand:ja": "サイクルスポット",
        "brand:wikidata": "Q93620124",
        "name": "サイクルスポット",
        "name:en": "Cycle Spot",
        "name:ja": "サイクルスポット",
        "shop": "bicycle"
      }
    },
    {
      "displayName": "サイクルベースあさひ",
      "id": "cyclebaseasahi-1d9d0f",
      "locationSet": {"include": ["jp"]},
      "tags": {
        "brand": "サイクルベースあさひ",
        "brand:en": "Cycle Base Asahi",
        "brand:ja": "サイクルベースあさひ",
        "brand:wikidata": "Q11257202",
        "name": "サイクルベースあさひ",
        "name:en": "Cycle Base Asahi",
        "name:ja": "サイクルベースあさひ",
        "shop": "bicycle"
      }
    },
    {
      "displayName": "上海永久",
      "id": "forever-88c22b",
      "locationSet": {
        "include": ["cn"],
        "exclude": ["hk", "mo"]
      },
      "tags": {
        "brand": "上海永久",
        "brand:en": "Forever",
        "brand:wikidata": "Q19851515",
        "brand:zh": "上海永久",
        "name": "上海永久",
        "name:en": "Forever",
        "name:zh": "上海永久",
        "shop": "bicycle"
      }
    },
    {
      "displayName": "捷安特",
      "id": "giant-88c22b",
      "locationSet": {
        "include": ["cn"],
        "exclude": ["hk", "mo"]
      },
      "tags": {
        "brand": "捷安特",
        "brand:en": "Giant",
        "brand:wikidata": "Q703557",
        "brand:zh": "捷安特",
        "name": "捷安特",
        "name:en": "Giant",
        "name:zh": "捷安特",
        "shop": "bicycle"
      }
    },
    {
      "displayName": "美利达",
      "id": "merida-88c22b",
      "locationSet": {
        "include": ["cn"],
        "exclude": ["hk", "mo"]
      },
      "tags": {
        "brand": "美利达",
        "brand:en": "Merida",
        "brand:wikidata": "Q619230",
        "brand:zh": "美利达",
        "name": "美利达",
        "name:en": "Merida",
        "name:zh": "美利达",
        "shop": "bicycle"
      }
    }
  ]
}
