{
  "properties": {
    "path": "brands/shop/car",
    "preserveTags": ["^name"],
    "exclude": {
      "generic": [
        "^(car|mécanique)$",
        "^авто(рынок|запчасти)?$",
        "^автома(г|газин|стерская)?$"
      ]
    }
  },
  "items": [
    {
      "displayName": "Acura",
      "id": "acura-13eeb7",
      "locationSet": {"include": ["001"]},
      "tags": {
        "brand": "Acura",
        "brand:wikidata": "Q53097",
        "brand:wikipedia": "en:Acura",
        "name": "Acura",
        "shop": "car"
      }
    },
    {
      "displayName": "Alfa Romeo",
      "id": "alfaromeo-13eeb7",
      "locationSet": {"include": ["001"]},
      "tags": {
        "brand": "Alfa Romeo",
        "brand:wikidata": "Q26921",
        "brand:wikipedia": "en:Alfa Romeo",
        "name": "Alfa Romeo",
        "shop": "car"
      }
    },
    {
      "displayName": "Aston Martin",
      "id": "astonmartin-13eeb7",
      "locationSet": {"include": ["001"]},
      "tags": {
        "brand": "Aston Martin",
        "brand:wikidata": "Q27074",
        "brand:wikipedia": "en:Aston Martin",
        "name": "Aston Martin",
        "shop": "car"
      }
    },
    {
      "displayName": "Audi",
      "id": "audi-13eeb7",
      "locationSet": {"include": ["001"]},
      "tags": {
        "brand": "Audi",
        "brand:wikidata": "Q23317",
        "brand:wikipedia": "en:Audi",
        "name": "Audi",
        "shop": "car"
      }
    },
    {
      "displayName": "Bentley",
      "id": "bentley-13eeb7",
      "locationSet": {"include": ["001"]},
      "tags": {
        "brand": "Bentley",
        "brand:wikidata": "Q27224",
        "brand:wikipedia": "en:Bentley",
        "name": "Bentley",
        "shop": "car"
      }
    },
    {
      "displayName": "BMW",
      "id": "bmw-13eeb7",
      "locationSet": {"include": ["001"]},
      "tags": {
        "brand": "BMW",
        "brand:wikidata": "Q26678",
        "brand:wikipedia": "en:BMW",
        "name": "BMW",
        "shop": "car"
      }
    },
    {
      "displayName": "Buick",
      "id": "buick-738dde",
      "locationSet": {
        "include": ["ca", "cn", "mx", "us"]
      },
      "tags": {
        "brand": "Buick",
        "brand:wikidata": "Q27415",
        "brand:wikipedia": "en:Buick",
        "name": "Buick",
        "shop": "car"
      }
    },
    {
      "displayName": "Cadillac",
      "id": "cadillac-13eeb7",
      "locationSet": {"include": ["001"]},
      "tags": {
        "brand": "Cadillac",
        "brand:wikidata": "Q27436",
        "brand:wikipedia": "en:Cadillac",
        "name": "Cadillac",
        "shop": "car"
      }
    },
    {
      "displayName": "CarMax",
      "id": "carmax-71ab24",
      "locationSet": {"include": ["us"]},
      "tags": {
        "brand": "CarMax",
        "brand:wikidata": "Q5037190",
        "brand:wikipedia": "en:CarMax",
        "name": "CarMax",
        "second_hand": "only",
        "shop": "car"
      }
    },
    {
      "displayName": "Chevrolet",
      "id": "chevrolet-13eeb7",
      "locationSet": {"include": ["001"]},
      "tags": {
        "brand": "Chevrolet",
        "brand:wikidata": "Q29570",
        "brand:wikipedia": "en:Chevrolet",
        "name": "Chevrolet",
        "shop": "car"
      }
    },
    {
      "displayName": "Chrysler",
      "id": "chrysler-13eeb7",
      "locationSet": {"include": ["001"]},
      "tags": {
        "brand": "Chrysler",
        "brand:wikidata": "Q181114",
        "brand:wikipedia": "en:Chrysler",
        "name": "Chrysler",
        "shop": "car"
      }
    },
    {
      "displayName": "Citroën",
      "id": "citroen-13eeb7",
      "locationSet": {"include": ["001"]},
      "tags": {
        "brand": "Citroën",
        "brand:wikidata": "Q6746",
        "brand:wikipedia": "fr:Citroën",
        "name": "Citroën",
        "shop": "car"
      }
    },
    {
      "displayName": "Dacia",
      "id": "dacia-13eeb7",
      "locationSet": {"include": ["001"]},
      "tags": {
        "brand": "Dacia",
        "brand:wikidata": "Q27460",
        "brand:wikipedia": "en:Automobile Dacia",
        "name": "Dacia",
        "shop": "car"
      }
    },
    {
      "displayName": "Dodge",
      "id": "dodge-13eeb7",
      "locationSet": {"include": ["001"]},
      "tags": {
        "brand": "Dodge",
        "brand:wikidata": "Q27564",
        "brand:wikipedia": "en:Dodge",
        "name": "Dodge",
        "shop": "car"
      }
    },
    {
      "displayName": "DriveTime",
      "id": "drivetime-71ab24",
      "locationSet": {"include": ["us"]},
      "tags": {
        "brand": "DriveTime",
        "brand:wikidata": "Q5307879",
        "brand:wikipedia": "en:DriveTime",
        "name": "DriveTime",
        "second_hand": "only",
        "shop": "car"
      }
    },
    {
      "displayName": "Fiat",
      "id": "fiat-13eeb7",
      "locationSet": {"include": ["001"]},
      "tags": {
        "brand": "Fiat",
        "brand:wikidata": "Q27597",
        "brand:wikipedia": "en:Fiat",
        "name": "Fiat",
        "shop": "car"
      }
    },
    {
      "displayName": "Ford",
      "id": "ford-13eeb7",
      "locationSet": {"include": ["001"]},
      "tags": {
        "brand": "Ford",
        "brand:wikidata": "Q44294",
        "brand:wikipedia": "en:Ford Motor Company",
        "name": "Ford",
        "shop": "car"
      }
    },
    {
      "displayName": "Freightliner",
      "id": "freightliner-13eeb7",
      "locationSet": {"include": ["001"]},
      "tags": {
        "brand": "Freightliner",
        "brand:wikidata": "Q1420724",
        "brand:wikipedia": "en:Freightliner Trucks",
        "name": "Freightliner",
        "shop": "car"
      }
    },
    {
      "displayName": "Geely",
      "id": "geely-13eeb7",
      "locationSet": {"include": ["001"]},
      "tags": {
        "brand": "Geely",
        "brand:wikidata": "Q739000",
        "brand:wikipedia": "en:Geely",
        "name": "Geely",
        "shop": "car"
      }
    },
    {
      "displayName": "GMC",
      "id": "gmc-13eeb7",
      "locationSet": {"include": ["001"]},
      "tags": {
        "brand": "GMC",
        "brand:wikidata": "Q28993",
        "brand:wikipedia": "en:GMC (automobile)",
        "name": "GMC",
        "shop": "car"
      }
    },
    {
      "displayName": "Holden",
      "id": "holden-e02034",
      "locationSet": {"include": ["au", "nz"]},
      "tags": {
        "brand": "Holden",
        "brand:wikidata": "Q29281",
        "brand:wikipedia": "en:Holden",
        "name": "Holden",
        "shop": "car"
      }
    },
    {
      "displayName": "Honda",
      "id": "honda-13eeb7",
      "locationSet": {"include": ["001"]},
      "matchNames": ["honda cars"],
      "tags": {
        "brand": "Honda",
        "brand:wikidata": "Q9584",
        "brand:wikipedia": "en:Honda",
        "name": "Honda",
        "shop": "car"
      }
    },
    {
      "displayName": "Hyundai",
      "id": "hyundai-13eeb7",
      "locationSet": {"include": ["001"]},
      "tags": {
        "brand": "Hyundai",
        "brand:wikidata": "Q55931",
        "brand:wikipedia": "en:Hyundai Motor Company",
        "name": "Hyundai",
        "shop": "car"
      }
    },
    {
      "displayName": "Infiniti",
      "id": "infiniti-13eeb7",
      "locationSet": {"include": ["001"]},
      "tags": {
        "brand": "Infiniti",
        "brand:wikidata": "Q29714",
        "brand:wikipedia": "en:Infiniti",
        "name": "Infiniti",
        "shop": "car"
      }
    },
    {
      "displayName": "Isuzu",
      "id": "isuzu-13eeb7",
      "locationSet": {"include": ["001"]},
      "tags": {
        "brand": "Isuzu",
        "brand:wikidata": "Q29803",
        "brand:wikipedia": "en:Isuzu",
        "name": "Isuzu",
        "shop": "car"
      }
    },
    {
      "displayName": "Jaguar",
      "id": "jaguar-13eeb7",
      "locationSet": {"include": ["001"]},
      "tags": {
        "brand": "Jaguar",
        "brand:wikidata": "Q26742231",
        "brand:wikipedia": "en:Jaguar (marque)",
        "name": "Jaguar",
        "shop": "car"
      }
    },
    {
      "displayName": "Jeep",
      "id": "jeep-13eeb7",
      "locationSet": {"include": ["001"]},
      "tags": {
        "brand": "Jeep",
        "brand:wikidata": "Q30113",
        "brand:wikipedia": "en:Jeep",
        "name": "Jeep",
        "shop": "car"
      }
    },
    {
      "displayName": "Kia",
      "id": "kia-13eeb7",
      "locationSet": {"include": ["001"]},
      "matchNames": ["kia motors"],
      "tags": {
        "brand": "Kia",
        "brand:wikidata": "Q35349",
        "brand:wikipedia": "en:Kia",
        "name": "Kia",
        "shop": "car"
      }
    },
    {
      "displayName": "Lada",
      "id": "lada-13eeb7",
      "locationSet": {"include": ["001"]},
      "tags": {
        "brand": "Lada",
        "brand:en": "Lada",
        "brand:ru": "Лада",
        "brand:wikidata": "Q35676",
        "brand:wikipedia": "en:Lada",
        "name": "Lada",
        "name:en": "Lada",
        "name:ru": "Лада",
        "shop": "car"
      }
    },
    {
      "displayName": "Land Rover",
      "id": "landrover-13eeb7",
      "locationSet": {"include": ["001"]},
      "tags": {
        "brand": "Land Rover",
        "brand:wikidata": "Q26777551",
        "brand:wikipedia": "en:Land Rover (marque)",
        "name": "Land Rover",
        "shop": "car"
      }
    },
    {
      "displayName": "Lexus",
      "id": "lexus-13eeb7",
      "locationSet": {"include": ["001"]},
      "tags": {
        "brand": "Lexus",
        "brand:wikidata": "Q35919",
        "brand:wikipedia": "en:Lexus",
        "name": "Lexus",
        "shop": "car"
      }
    },
    {
      "displayName": "Lincoln",
      "id": "lincoln-13eeb7",
      "locationSet": {"include": ["001"]},
      "tags": {
        "brand": "Lincoln",
        "brand:wikidata": "Q216796",
        "brand:wikipedia": "en:Lincoln Motor Company",
        "name": "Lincoln",
        "shop": "car"
      }
    },
    {
      "displayName": "Mazda",
      "id": "mazda-13eeb7",
      "locationSet": {"include": ["001"]},
      "tags": {
        "brand": "Mazda",
        "brand:wikidata": "Q35996",
        "brand:wikipedia": "en:Mazda",
        "name": "Mazda",
        "shop": "car"
      }
    },
    {
      "displayName": "Mercedes-Benz",
      "id": "mercedesbenz-13eeb7",
      "locationSet": {"include": ["001"]},
      "matchNames": ["mercedes"],
      "tags": {
        "brand": "Mercedes-Benz",
        "brand:wikidata": "Q36008",
        "brand:wikipedia": "en:Mercedes-Benz",
        "name": "Mercedes-Benz",
        "shop": "car"
      }
    },
    {
      "displayName": "Mini",
      "id": "mini-13eeb7",
      "locationSet": {"include": ["001"]},
      "tags": {
        "brand": "Mini",
        "brand:wikidata": "Q116232",
        "brand:wikipedia": "en:Mini (marque)",
        "name": "Mini",
        "shop": "car"
      }
    },
    {
      "displayName": "Mitsubishi",
      "id": "mitsubishi-13eeb7",
      "locationSet": {"include": ["001"]},
      "matchNames": ["mitsubishi motors"],
      "tags": {
        "brand": "Mitsubishi",
        "brand:wikidata": "Q36033",
        "brand:wikipedia": "en:Mitsubishi Motors",
        "name": "Mitsubishi",
        "shop": "car"
      }
    },
    {
      "displayName": "Netz",
      "id": "netz-27c9bc",
      "locationSet": {"include": ["jp"]},
      "tags": {
        "brand": "Netz",
        "brand:wikidata": "Q11325416",
        "brand:wikipedia": "ja:ネッツ店",
        "name": "Netz",
        "shop": "car"
      }
    },
    {
      "displayName": "NIO",
      "id": "nio-13eeb7",
      "locationSet": {"include": ["001"]},
      "tags": {
        "brand": "NIO",
        "brand:wikidata": "Q29921278",
        "brand:wikipedia": "en:NIO (car company)",
        "name": "NIO",
        "shop": "car"
      }
    },
    {
      "displayName": "Nissan",
      "id": "nissan-13eeb7",
      "locationSet": {"include": ["001"]},
      "tags": {
        "brand": "Nissan",
        "brand:wikidata": "Q20165",
        "brand:wikipedia": "ja:日産自動車",
        "name": "Nissan",
        "shop": "car"
      }
    },
    {
      "displayName": "Opel",
      "id": "opel-13eeb7",
      "locationSet": {"include": ["001"]},
      "tags": {
        "brand": "Opel",
        "brand:wikidata": "Q40966",
        "brand:wikipedia": "en:Opel",
        "name": "Opel",
        "shop": "car"
      }
    },
    {
      "displayName": "Perodua",
      "id": "perodua-fca759",
      "locationSet": {
        "include": ["my", "sg", "uk"]
      },
      "tags": {
        "brand": "Perodua",
        "brand:wikidata": "Q1476369",
        "brand:wikipedia": "en:Perodua",
        "name": "Perodua",
        "shop": "car"
      }
    },
    {
      "displayName": "Peterbilt",
      "id": "peterbilt-13eeb7",
      "locationSet": {"include": ["001"]},
      "tags": {
        "brand": "Peterbilt",
        "brand:wikidata": "Q944640",
        "brand:wikipedia": "en:Peterbilt",
        "name": "Peterbilt",
        "shop": "car"
      }
    },
    {
      "displayName": "Peugeot",
      "id": "peugeot-13eeb7",
      "locationSet": {"include": ["001"]},
      "tags": {
        "brand": "Peugeot",
        "brand:wikidata": "Q6742",
        "brand:wikipedia": "en:Peugeot",
        "name": "Peugeot",
        "shop": "car"
      }
    },
    {
      "displayName": "Porsche",
      "id": "porsche-13eeb7",
      "locationSet": {"include": ["001"]},
      "tags": {
        "brand": "Porsche",
        "brand:wikidata": "Q40993",
        "brand:wikipedia": "en:Porsche",
        "name": "Porsche",
        "shop": "car"
      }
    },
    {
      "displayName": "Proton",
      "id": "proton-576082",
      "locationSet": {
        "include": [
          "cl",
          "eg",
          "id",
          "my",
          "sg",
          "th"
        ]
      },
      "tags": {
        "brand": "Proton",
        "brand:wikidata": "Q827306",
        "brand:wikipedia": "en:Proton Holdings",
        "name": "Proton",
        "shop": "car"
      }
    },
    {
      "displayName": "Ram",
      "id": "ram-13eeb7",
      "locationSet": {"include": ["001"]},
      "tags": {
        "brand": "Ram",
        "brand:wikidata": "Q165708",
        "brand:wikipedia": "en:Ram Trucks",
        "name": "Ram",
        "shop": "car"
      }
    },
    {
      "displayName": "Renault",
      "id": "renault-13eeb7",
      "locationSet": {"include": ["001"]},
      "tags": {
        "brand": "Renault",
        "brand:wikidata": "Q6686",
        "brand:wikipedia": "fr:Renault",
        "name": "Renault",
        "shop": "car"
      }
    },
    {
      "displayName": "Seat",
      "id": "seat-13eeb7",
      "locationSet": {"include": ["001"]},
      "tags": {
        "brand": "Seat",
        "brand:wikidata": "Q188217",
        "brand:wikipedia": "en:SEAT",
        "name": "Seat",
        "shop": "car"
      }
    },
    {
      "displayName": "Škoda",
      "id": "skoda-13eeb7",
      "locationSet": {"include": ["001"]},
      "matchNames": ["škoda auto"],
      "tags": {
        "brand": "Škoda",
        "brand:wikidata": "Q29637",
        "brand:wikipedia": "en:Škoda Auto",
        "name": "Škoda",
        "shop": "car"
      }
    },
    {
      "displayName": "Subaru",
      "id": "subaru-13eeb7",
      "locationSet": {"include": ["001"]},
      "tags": {
        "brand": "Subaru",
        "brand:wikidata": "Q172741",
        "brand:wikipedia": "en:Subaru",
        "name": "Subaru",
        "shop": "car"
      }
    },
    {
      "displayName": "Suzuki",
      "id": "suzuki-13eeb7",
      "locationSet": {"include": ["001"]},
      "tags": {
        "brand": "Suzuki",
        "brand:wikidata": "Q181642",
        "brand:wikipedia": "en:Suzuki",
        "name": "Suzuki",
        "shop": "car"
      }
    },
    {
      "displayName": "Tata",
      "id": "tata-aa55a2",
      "locationSet": {"include": ["in"]},
      "matchNames": ["tata motors"],
      "tags": {
        "brand": "Tata",
        "brand:wikidata": "Q188514",
        "brand:wikipedia": "en:Tata Motors",
        "name": "Tata",
        "shop": "car"
      }
    },
    {
      "displayName": "Tesla",
      "id": "tesla-13eeb7",
      "locationSet": {"include": ["001"]},
      "matchNames": ["tesla motors"],
      "tags": {
        "brand": "Tesla",
        "brand:wikidata": "Q478214",
        "brand:wikipedia": "en:Tesla, Inc.",
        "name": "Tesla",
        "shop": "car"
      }
    },
    {
      "displayName": "Toyota",
      "id": "toyota-13eeb7",
      "locationSet": {"include": ["001"]},
      "tags": {
        "brand": "Toyota",
        "brand:wikidata": "Q53268",
        "brand:wikipedia": "en:Toyota",
        "name": "Toyota",
        "shop": "car"
      }
    },
    {
      "displayName": "Vauxhall",
      "id": "vauxhall-13eeb7",
      "locationSet": {"include": ["001"]},
      "tags": {
        "brand": "Vauxhall",
        "brand:wikidata": "Q59187",
        "brand:wikipedia": "en:Vauxhall Motors",
        "name": "Vauxhall",
        "shop": "car"
      }
    },
    {
      "displayName": "Volkswagen",
      "id": "volkswagen-13eeb7",
      "locationSet": {"include": ["001"]},
      "matchNames": ["vw"],
      "tags": {
        "brand": "Volkswagen",
        "brand:wikidata": "Q246",
        "brand:wikipedia": "en:Volkswagen",
        "name": "Volkswagen",
        "shop": "car"
      }
    },
    {
      "displayName": "Volvo",
      "id": "volvo-13eeb7",
      "locationSet": {"include": ["001"]},
      "tags": {
        "brand": "Volvo",
        "brand:wikidata": "Q215293",
        "brand:wikipedia": "en:Volvo Cars",
        "name": "Volvo",
        "shop": "car"
      }
    },
    {
      "displayName": "Xpeng",
      "id": "xpeng-13eeb7",
      "locationSet": {"include": ["001"]},
      "tags": {
        "brand": "Xpeng",
        "brand:wikidata": "Q63035278",
        "brand:wikipedia": "en:XPeng",
        "name": "Xpeng",
        "shop": "car"
      }
    },
    {
      "displayName": "Автомир",
      "id": "autoworld-7c9618",
      "locationSet": {"include": ["ru"]},
      "matchTags": ["shop/car_parts"],
      "tags": {
        "brand": "Автомир",
        "brand:en": "Autoworld",
        "brand:ru": "Автомир",
        "brand:wikidata": "Q4056321",
        "brand:wikipedia": "ru:Автомир (автодилер)",
        "name": "Автомир",
        "name:en": "Autoworld",
        "name:ru": "Автомир",
        "shop": "car"
      }
    },
    {
      "displayName": "سایپا",
      "id": "saipa-bd50af",
      "locationSet": {"include": ["ir"]},
      "tags": {
        "brand": "سایپا",
        "brand:en": "Saipa",
        "brand:fa": "سایپا",
        "brand:wikidata": "Q116234",
        "brand:wikipedia": "en:SAIPA",
        "name": "سایپا",
        "name:en": "Saipa",
        "name:fa": "سایپا",
        "shop": "car"
      }
    },
    {
      "displayName": "ガリバー",
      "id": "gulliver-27c9bc",
      "locationSet": {"include": ["jp"]},
      "tags": {
        "brand": "ガリバー",
        "brand:en": "Gulliver",
        "brand:ja": "ガリバー",
        "brand:wikidata": "Q11296264",
        "brand:wikipedia": "ja:IDOM",
        "name": "ガリバー",
        "name:en": "Gulliver",
        "name:ja": "ガリバー",
        "shop": "car"
      }
    },
    {
      "displayName": "ダイハツ",
      "id": "daihatsu-27c9bc",
      "locationSet": {"include": ["jp"]},
      "tags": {
        "brand": "ダイハツ",
        "brand:en": "Daihatsu",
        "brand:ja": "ダイハツ",
        "brand:wikidata": "Q27511",
        "brand:wikipedia": "ja:ダイハツ工業",
        "name": "ダイハツ",
        "name:en": "Daihatsu",
        "name:ja": "ダイハツ",
        "shop": "car"
      }
    },
    {
      "displayName": "トヨタ",
      "id": "toyota-27c9bc",
      "locationSet": {"include": ["jp"]},
      "matchNames": ["トヨタカローラ", "トヨタ自動車"],
      "tags": {
        "brand": "トヨタ",
        "brand:en": "Toyota",
        "brand:ja": "トヨタ",
        "brand:wikidata": "Q53268",
        "brand:wikipedia": "ja:トヨタ自動車",
        "name": "トヨタ",
        "name:en": "Toyota",
        "name:ja": "トヨタ",
        "shop": "car"
      }
    },
    {
      "displayName": "ホンダ",
      "id": "honda-27c9bc",
      "locationSet": {"include": ["jp"]},
      "tags": {
        "brand": "ホンダ",
        "brand:en": "Honda",
        "brand:ja": "ホンダ",
        "brand:wikidata": "Q9584",
        "brand:wikipedia": "ja:本田技研工業",
        "name": "ホンダ",
        "name:en": "Honda",
        "name:ja": "ホンダ",
        "shop": "car"
      }
    },
    {
      "displayName": "小鹏汽车",
      "id": "xpeng-115502",
      "locationSet": {"include": ["cn"]},
      "tags": {
        "brand": "小鹏汽车",
        "brand:en": "Xpeng",
        "brand:wikidata": "Q63035278",
        "brand:wikipedia": "en:XPeng",
        "name": "小鹏汽车",
        "name:en": "Xpeng",
        "shop": "car"
      }
    },
    {
      "displayName": "日産",
      "id": "nissan-27c9bc",
      "locationSet": {"include": ["jp"]},
      "tags": {
        "brand": "日産",
        "brand:en": "Nissan",
        "brand:ja": "日産",
        "brand:wikidata": "Q20165",
        "brand:wikipedia": "ja:日産自動車",
        "name": "日産",
        "name:en": "Nissan",
        "name:ja": "日産",
        "shop": "car"
      }
    },
    {
      "displayName": "理想汽车",
      "id": "liauto-115502",
      "locationSet": {"include": ["cn"]},
      "tags": {
        "brand": "理想汽车",
        "brand:en": "Li Auto",
        "brand:wikidata": "Q98139925",
        "brand:wikipedia": "en:Li Auto",
        "name": "理想汽车",
        "name:en": "Li Auto",
        "shop": "car"
      }
    },
    {
      "displayName": "蔚来汽车",
      "id": "nio-115502",
      "locationSet": {"include": ["cn"]},
      "tags": {
        "brand": "蔚来汽车",
        "brand:en": "NIO",
        "brand:wikidata": "Q29921278",
        "brand:wikipedia": "en:NIO (car company)",
        "name": "蔚来汽车",
        "name:en": "NIO",
        "shop": "car"
      }
    }
  ]
}
