{
  "brands/shop/car_parts": [
    {
      "displayName": "Advance Auto Parts",
      "id": "advanceautoparts-c59633",
      "locationSet": {
        "include": ["ca", "us", "vi"]
      },
      "matchTags": ["shop/doityourself"],
      "tags": {
        "brand": "Advance Auto Parts",
        "brand:wikidata": "Q4686051",
        "brand:wikipedia": "en:Advance Auto Parts",
        "name": "Advance Auto Parts",
        "shop": "car_parts"
      }
    },
    {
      "displayName": "Auto Plus",
      "id": "autoplus-bb9baa",
      "locationSet": {"include": ["us"]},
      "tags": {
        "brand": "Auto Plus",
        "brand:wikidata": "Q65121114",
        "name": "Auto Plus",
        "official_name": "Auto Plus Auto Parts",
        "shop": "car_parts"
      }
    },
    {
      "displayName": "Automat",
      "id": "automat-fc79b7",
      "locationSet": {"include": ["nl"]},
      "tags": {
        "brand": "Automat",
        "brand:wikidata": "Q70623238",
        "name": "Automat",
        "shop": "car_parts"
      }
    },
    {
      "displayName": "AutoZone",
      "id": "autozone-fd3e11",
      "locationSet": {
        "include": ["br", "mx", "us"]
      },
      "matchTags": ["shop/doityourself"],
      "tags": {
        "brand": "AutoZone",
        "brand:wikidata": "Q4826087",
        "brand:wikipedia": "en:AutoZone",
        "name": "AutoZone",
        "shop": "car_parts"
      }
    },
    {
      "displayName": "Bilxtra",
      "id": "bilxtra-1f0f41",
      "locationSet": {"include": ["001"]},
      "tags": {
        "brand": "Bilxtra",
        "name": "Bilxtra",
        "shop": "car_parts"
      }
    },
    {
      "displayName": "Brezan",
      "id": "brezan-585e8e",
      "locationSet": {"include": ["be", "nl"]},
      "tags": {
        "brand": "Brezan",
        "name": "Brezan",
        "shop": "car_parts"
      }
    },
    {
      "displayName": "Carquest",
      "id": "carquest-bb9baa",
      "locationSet": {"include": ["us"]},
      "tags": {
        "brand": "Carquest",
        "brand:wikidata": "Q5045948",
        "brand:wikipedia": "en:Carquest",
        "name": "Carquest",
        "official_name": "Carquest Auto Parts",
        "shop": "car_parts"
      }
    },
    {
      "displayName": "Euro Car Parts",
      "id": "eurocarparts-078f70",
      "locationSet": {"include": ["gb", "ie"]},
      "tags": {
        "brand": "Euro Car Parts",
        "brand:wikidata": "Q23782692",
        "brand:wikipedia": "en:Euro Car Parts",
        "name": "Euro Car Parts",
        "shop": "car_parts"
      }
    },
    {
      "displayName": "GSF Car Parts",
      "id": "gsfcarparts-078f70",
      "locationSet": {"include": ["gb", "ie"]},
      "tags": {
        "brand": "GSF Car Parts",
        "brand:wikidata": "Q80963064",
        "name": "GSF Car Parts",
        "shop": "car_parts"
      }
    },
    {
      "displayName": "Halfords",
      "id": "halfords-078f70",
      "locationSet": {"include": ["gb", "ie"]},
      "matchTags": ["shop/bicycle"],
      "tags": {
        "brand": "Halfords",
        "brand:wikidata": "Q3398786",
        "brand:wikipedia": "en:Halfords",
        "name": "Halfords",
        "service:bicycle:repair": "yes",
        "service:bicycle:retail": "yes",
        "shop": "car_parts"
      }
    },
    {
      "displayName": "Interstate Batteries",
      "id": "interstatebatteries-bb9baa",
      "locationSet": {"include": ["us"]},
      "matchTags": ["shop/electric"],
      "tags": {
        "brand": "Interstate Batteries",
        "brand:wikidata": "Q12060773",
        "brand:wikipedia": "en:Interstate Batteries",
        "name": "Interstate Batteries",
        "shop": "car_parts"
      }
    },
    {
      "displayName": "KOI Auto Parts",
      "id": "koiautoparts-bb9baa",
      "locationSet": {"include": ["us"]},
      "tags": {
        "brand": "KOI Auto Parts",
        "brand:wikidata": "Q6334934",
        "brand:wikipedia": "en:KOI Auto Parts",
        "name": "KOI Auto Parts",
        "shop": "car_parts",
        "short_name": "KOI"
      }
    },
    {
      "displayName": "NAPA Auto Parts",
      "id": "napaautoparts-808aac",
      "locationSet": {
        "include": ["ca", "mx", "us"]
      },
      "matchNames": ["napa"],
      "tags": {
        "brand": "NAPA Auto Parts",
        "brand:wikidata": "Q6970842",
        "brand:wikipedia": "en:National Automotive Parts Association",
        "name": "NAPA Auto Parts",
        "shop": "car_parts"
      }
    },
    {
      "displayName": "O'Reilly Auto Parts",
      "id": "oreillyautoparts-bb9baa",
      "locationSet": {"include": ["us"]},
      "matchNames": ["o'reilly"],
      "matchTags": ["shop/doityourself"],
      "tags": {
        "brand": "O'Reilly Auto Parts",
        "brand:wikidata": "Q7071951",
        "brand:wikipedia": "en:O'Reilly Auto Parts",
        "name": "O'Reilly Auto Parts",
        "shop": "car_parts"
      }
    },
    {
      "displayName": "Repco",
      "id": "repco-ff9108",
      "locationSet": {"include": ["au", "nz"]},
      "tags": {
        "brand": "Repco",
        "brand:wikidata": "Q173425",
        "brand:wikipedia": "en:Repco",
        "name": "Repco",
        "shop": "car_parts"
      }
    },
    {
      "displayName": "Supercheap Auto",
      "id": "supercheapauto-ff9108",
      "locationSet": {"include": ["au", "nz"]},
      "tags": {
        "brand": "Supercheap Auto",
        "brand:wikidata": "Q7643119",
        "brand:wikipedia": "en:Supercheap Auto",
        "name": "Supercheap Auto",
        "shop": "car_parts"
      }
    },
    {
      "displayName": "The Parts Alliance",
      "id": "thepartsalliance-5f9b90",
      "locationSet": {"include": ["gb"]},
      "tags": {
        "brand": "The Parts Alliance",
        "brand:wikidata": "Q80964997",
        "name": "The Parts Alliance",
        "shop": "car_parts"
      }
    },
    {
      "displayName": "Tokić",
      "id": "tokic-8fefca",
      "locationSet": {"include": ["ba", "hr"]},
      "tags": {
        "brand": "Tokić",
        "name": "Tokić",
        "shop": "car_parts"
      }
    },
    {
      "displayName": "Армтек",
      "id": "5a6e51-4d2c56",
      "locationSet": {
        "include": ["by", "kz", "ru"]
      },
      "tags": {
        "brand": "Армтек",
        "name": "Армтек",
        "shop": "car_parts"
      }
    },
    {
      "displayName": "Форсаж",
      "id": "1b2ead-1f0f41",
      "locationSet": {"include": ["001"]},
      "tags": {
        "brand": "Форсаж",
        "name": "Форсаж",
        "shop": "car_parts"
      }
    },
    {
      "displayName": "アップガレージ",
      "id": "upgarage-e779db",
      "locationSet": {"include": ["jp"]},
      "tags": {
        "brand": "アップガレージ",
        "brand:en": "Up Garage",
        "brand:ja": "アップガレージ",
        "brand:wikidata": "Q11283832",
        "brand:wikipedia": "ja:アップガレージ",
        "name": "アップガレージ",
        "name:en": "Up Garage",
        "name:ja": "アップガレージ",
        "shop": "car_parts"
      }
    },
    {
      "displayName": "イエローハット",
      "id": "yellowhat-e779db",
      "locationSet": {"include": ["jp"]},
      "tags": {
        "brand": "イエローハット",
        "brand:en": "Yellow Hat",
        "brand:ja": "イエローハット",
        "brand:wikidata": "Q11285915",
        "brand:wikipedia": "ja:イエローハット",
        "name": "イエローハット",
        "name:en": "Yellow Hat",
        "name:ja": "イエローハット",
        "shop": "car_parts"
      }
    },
    {
      "displayName": "オートバックス",
      "id": "autobacs-e779db",
      "locationSet": {"include": ["jp"]},
      "tags": {
        "brand": "オートバックス",
        "brand:en": "Autobacs",
        "brand:ja": "オートバックス",
        "brand:wikidata": "Q7886426",
        "brand:wikipedia": "ja:オートバックスセブン",
        "name": "オートバックス",
        "name:en": "Autobacs",
        "name:ja": "オートバックス",
        "shop": "car_parts"
      }
    },
    {
      "displayName": "ジェームス",
      "id": "jms-e779db",
      "locationSet": {"include": ["jp"]},
      "tags": {
        "brand": "ジェームス",
        "brand:en": "JMS",
        "brand:ja": "ジェームス",
        "brand:wikidata": "Q11309404",
        "brand:wikipedia": "ja:ジェームス",
        "name": "ジェームス",
        "name:en": "JMS",
        "name:ja": "ジェームス",
        "official_name:en": "Joyful Motorist Shop",
        "shop": "car_parts"
      }
    },
    {
      "displayName": "タイヤ館",
      "id": "taiyakan-e779db",
      "locationSet": {"include": ["jp"]},
      "tags": {
        "brand": "タイヤ館",
        "brand:en": "Taiyakan",
        "brand:ja": "タイヤ館",
        "brand:wikidata": "Q11315808",
        "brand:wikipedia": "ja:タイヤ館",
        "name": "タイヤ館",
        "name:en": "Taiyakan",
        "name:ja": "タイヤ館",
        "shop": "car_parts"
      }
    }
  ]
}