{
  "properties": {
    "path": "brands/shop/chemist",
    "exclude": {
      "generic": [
        "^chemist$",
        "^бытовая химия$",
        "^داروخانه( شبانه روزی)?$"
      ]
    }
  },
  "items": [
    {
      "displayName": "101 Drogerie",
      "id": "101drogerie-a99570",
      "locationSet": {"include": ["sk"]},
      "tags": {
        "brand": "101 Drogerie",
        "brand:wikidata": "Q67197464",
        "name": "101 Drogerie",
        "shop": "chemist"
      }
    },
    {
      "displayName": "7 Дней",
      "id": "023389-2141a5",
      "locationSet": {"include": ["ru"]},
      "tags": {
        "brand": "7 Дней",
        "name": "7 Дней",
        "shop": "chemist"
      }
    },
    {
      "displayName": "Acqua & Sapone",
      "id": "acquaandsapone-864e82",
      "locationSet": {"include": ["it"]},
      "matchNames": ["acqua e sapone"],
      "tags": {
        "brand": "Acqua & Sapone",
        "brand:wikidata": "Q51079044",
        "name": "Acqua & Sapone",
        "shop": "chemist"
      }
    },
    {
      "displayName": "Bipa",
      "id": "bipa-07ba5a",
      "locationSet": {"include": ["at", "hr"]},
      "tags": {
        "brand": "Bipa",
        "brand:wikidata": "Q864933",
        "name": "Bipa",
        "shop": "chemist"
      }
    },
    {
      "displayName": "Blisk",
      "id": "blisk-ea54a6",
      "locationSet": {"include": ["ua"]},
      "matchNames": [
        "шик & блиск",
        "шик і блиск",
        "шик та блиск"
      ],
      "tags": {
        "brand": "Blisk",
        "brand:wikidata": "Q124486354",
        "name": "Blisk",
        "shop": "chemist"
      }
    },
    {
      "displayName": "Bodycare",
      "id": "bodycare-b82430",
      "locationSet": {"include": ["gb"]},
      "tags": {
        "brand": "Bodycare",
        "brand:wikidata": "Q99938329",
        "name": "Bodycare",
        "shop": "chemist"
      }
    },
    {
      "displayName": "Boots",
      "id": "boots-b67e62",
      "locationSet": {"include": ["gb", "ie"]},
      "matchNames": ["boots the chemist"],
      "tags": {
        "brand": "Boots",
        "brand:wikidata": "Q6123139",
        "name": "Boots",
        "shop": "chemist"
      }
    },
    {
      "displayName": "Budni",
      "id": "budni-5f6506",
      "locationSet": {"include": ["de"]},
      "matchNames": ["budnikowsky"],
      "preserveTags": ["^name$"],
      "tags": {
        "brand": "Budni",
        "brand:wikidata": "Q1001516",
        "name": "Budni",
        "shop": "chemist"
      }
    },
    {
      "displayName": "Caddy's",
      "id": "caddys-864e82",
      "locationSet": {"include": ["it"]},
      "matchNames": ["cad"],
      "matchTags": ["shop/houseware"],
      "tags": {
        "brand": "Caddy's",
        "brand:wikidata": "Q108604630",
        "name": "Caddy's",
        "shop": "chemist"
      }
    },
    {
      "displayName": "Clarel",
      "id": "clarel-5ee006",
      "locationSet": {"include": ["es"]},
      "tags": {
        "brand": "Clarel",
        "brand:wikidata": "Q48784350",
        "name": "Clarel",
        "shop": "chemist"
      }
    },
    {
      "displayName": "Curaprox Smile Shop",
      "id": "curaproxsmileshop-419e7d",
      "locationSet": {"include": ["cz", "sk"]},
      "tags": {
        "brand": "Curaprox Smile Shop",
        "brand:wikidata": "Q116868432",
        "name": "Curaprox Smile Shop",
        "shop": "chemist",
        "short_name": "Curaprox"
      }
    },
    {
      "displayName": "CVS Pharmacy",
      "id": "cvspharmacy-437f3b",
      "locationSet": {"include": ["us"]},
      "tags": {
        "brand": "CVS Pharmacy",
        "brand:wikidata": "Q2078880",
        "name": "CVS Pharmacy",
        "shop": "chemist",
        "short_name": "CVS"
      }
    },
    {
      "displayName": "DA",
      "id": "da-994f1e",
      "locationSet": {"include": ["nl"]},
      "matchNames": [
        "da drogist",
        "da drogisterij",
        "da drogisterij & parfumerie",
        "da drogisterij en parfumerie",
        "drogisten associatie"
      ],
      "tags": {
        "brand": "DA",
        "brand:wikidata": "Q4899756",
        "name": "DA",
        "shop": "chemist"
      }
    },
    {
      "displayName": "Die Grenze",
      "id": "diegrenze-994f1e",
      "locationSet": {"include": ["nl"]},
      "tags": {
        "brand": "Die Grenze",
        "brand:wikidata": "Q100278556",
        "name": "Die Grenze",
        "shop": "chemist"
      }
    },
    {
      "displayName": "Dini",
      "id": "dini-ea54a6",
      "locationSet": {"include": ["ua"]},
      "matchNames": [
        "динь-динь",
        "діні",
        "дінь-дінь"
      ],
      "tags": {
        "brand": "Dini",
        "brand:wikidata": "Q122453919",
        "name": "Dini",
        "shop": "chemist"
      }
    },
    {
      "displayName": "dm",
      "id": "dm-1281c9",
      "locationSet": {
        "include": [
          "at",
          "ba",
          "bg",
          "cz",
          "de",
          "hr",
          "hu",
          "it",
          "mk",
          "pl",
          "ro",
          "rs",
          "si",
          "sk"
        ]
      },
      "matchNames": [
        "dm drogerie markt",
        "dm-drogerie markt deutschland"
      ],
      "tags": {
        "brand": "dm",
        "brand:wikidata": "Q266572",
        "name": "dm",
        "shop": "chemist"
      }
    },
    {
      "displayName": "Drogas",
      "id": "drogas-1a360a",
      "locationSet": {
        "include": ["ee", "lt", "lv"]
      },
      "tags": {
        "brand": "Drogas",
        "brand:wikidata": "Q15806753",
        "name": "Drogas",
        "shop": "chemist"
      }
    },
    {
      "displayName": "Drogeria Natura",
      "id": "drogerianatura-650b49",
      "locationSet": {"include": ["pl"]},
      "tags": {
        "brand": "Drogeria Natura",
        "brand:wikidata": "Q9212032",
        "name": "Drogeria Natura",
        "shop": "chemist"
      }
    },
    {
      "displayName": "Drogerie Polskie",
      "id": "drogeriepolskie-650b49",
      "locationSet": {"include": ["pl"]},
      "tags": {
        "brand": "Drogerie Polskie",
        "brand:wikidata": "Q133373948",
        "name": "Drogerie Polskie",
        "shop": "chemist"
      }
    },
    {
      "displayName": "Dropa",
      "id": "dropa-05cd60",
      "locationSet": {"include": ["ch"]},
      "tags": {
        "brand": "Dropa",
        "brand:wikidata": "Q1260273",
        "name": "Dropa",
        "shop": "chemist"
      }
    },
    {
      "displayName": "Etos",
      "id": "etos-994f1e",
      "locationSet": {"include": ["nl"]},
      "tags": {
        "brand": "Etos",
        "brand:wikidata": "Q2609459",
        "name": "Etos",
        "shop": "chemist"
      }
    },
    {
      "displayName": "Eva (Україна)",
      "id": "eva-ea54a6",
      "locationSet": {"include": ["ua"]},
      "matchNames": ["eva.ua", "ева", "єва"],
      "tags": {
        "brand": "Eva",
        "brand:wikidata": "Q56373118",
        "name": "Eva",
        "shop": "chemist"
      }
    },
    {
      "displayName": "Good Neighbor Pharmacy",
      "id": "goodneighborpharmacy-437f3b",
      "locationSet": {"include": ["us"]},
      "preserveTags": ["^name$"],
      "tags": {
        "brand": "Good Neighbor Pharmacy",
        "brand:wikidata": "Q5582813",
        "name": "Good Neighbor Pharmacy",
        "shop": "chemist"
      }
    },
    {
      "displayName": "HB1",
      "id": "hb1-23b697",
      "locationSet": {"include": ["ph"]},
      "tags": {
        "brand": "HB1",
        "brand:wikidata": "Q120350751",
        "name": "HB1",
        "shop": "chemist"
      }
    },
    {
      "displayName": "Hebe",
      "id": "hebe-b64653",
      "locationSet": {"include": ["pl", "sk"]},
      "tags": {
        "brand": "Hebe",
        "brand:wikidata": "Q110952328",
        "name": "Hebe",
        "shop": "chemist"
      }
    },
    {
      "displayName": "Isei",
      "id": "isei-ea54a6",
      "locationSet": {"include": ["ua"]},
      "tags": {
        "brand": "Isei",
        "brand:wikidata": "Q130007993",
        "name": "Isei",
        "shop": "chemist"
      }
    },
    {
      "displayName": "Jasmin",
      "id": "jasmin-650b49",
      "locationSet": {"include": ["pl"]},
      "tags": {
        "brand": "Jasmin",
        "brand:wikidata": "Q135899223",
        "name": "Jasmin",
        "shop": "chemist"
      }
    },
    {
      "displayName": "Jawa",
      "id": "jawa-650b49",
      "locationSet": {"include": ["pl"]},
      "tags": {
        "brand": "Jawa",
        "brand:wikidata": "Q132587568",
        "name": "Jawa",
        "shop": "chemist"
      }
    },
    {
      "displayName": "Kruidvat",
      "id": "kruidvat-9445a8",
      "locationSet": {
        "include": ["be", "fr", "nl"]
      },
      "tags": {
        "brand": "Kruidvat",
        "brand:wikidata": "Q2226366",
        "name": "Kruidvat",
        "shop": "chemist"
      }
    },
    {
      "displayName": "laboo",
      "id": "laboo-650b49",
      "locationSet": {"include": ["pl"]},
      "tags": {
        "brand": "laboo",
        "brand:wikidata": "Q132527571",
        "name": "laboo",
        "shop": "chemist"
      }
    },
    {
      "displayName": "Lili Drogerie (Ελλάδα)",
      "id": "lili-2bdbc0",
      "locationSet": {"include": ["gr"]},
      "tags": {
        "brand": "Lili",
        "brand:wikidata": "Q111764460",
        "name": "Lili",
        "shop": "chemist"
      }
    },
    {
      "displayName": "Lilly Drogerie (Србија)",
      "id": "lilly-2aefd6",
      "locationSet": {"include": ["rs"]},
      "tags": {
        "brand": "Lilly",
        "brand:wikidata": "Q111764460",
        "name": "Lilly",
        "name:en": "Lilly",
        "name:sr": "Лили",
        "shop": "chemist"
      }
    },
    {
      "displayName": "Liquimax",
      "id": "liquimax-a85ca8",
      "locationSet": {"include": ["cl"]},
      "tags": {
        "brand": "Liquimax",
        "name": "Liquimax",
        "shop": "chemist"
      }
    },
    {
      "displayName": "Longs Drugs",
      "id": "longsdrugs-485466",
      "locationSet": {"include": ["us-hi"]},
      "tags": {
        "brand": "Longs Drugs",
        "brand:wikidata": "Q16931196",
        "name": "Longs Drugs",
        "operator": "CVS Pharmacy",
        "operator:wikidata": "Q2078880",
        "shop": "chemist",
        "short_name": "Longs"
      }
    },
    {
      "displayName": "Matas",
      "id": "matas-9eec7a",
      "locationSet": {"include": ["dk"]},
      "tags": {
        "brand": "Matas",
        "brand:wikidata": "Q6786143",
        "name": "Matas",
        "shop": "chemist"
      }
    },
    {
      "displayName": "Müller",
      "id": "muller-4c5bf7",
      "locationSet": {
        "include": [
          "at",
          "ch",
          "de",
          "es",
          "hr",
          "hu",
          "li",
          "si",
          "sk"
        ]
      },
      "matchNames": ["drogeriemarkt müller"],
      "tags": {
        "brand": "Müller",
        "brand:wikidata": "Q1958759",
        "name": "Müller",
        "shop": "chemist"
      }
    },
    {
      "displayName": "Natura",
      "id": "natura-650b49",
      "locationSet": {"include": ["pl"]},
      "tags": {
        "brand": "Natura",
        "name": "Natura",
        "shop": "chemist"
      }
    },
    {
      "displayName": "Normal",
      "id": "normal-57f5e2",
      "locationSet": {
        "include": [
          "dk",
          "es",
          "fi",
          "fx",
          "nl",
          "no",
          "pt",
          "se"
        ]
      },
      "matchTags": ["shop/variety_store"],
      "tags": {
        "brand": "Normal",
        "brand:wikidata": "Q19562429",
        "name": "Normal",
        "shop": "chemist"
      }
    },
    {
      "displayName": "Prostor",
      "id": "prostor-ea54a6",
      "locationSet": {"include": ["ua"]},
      "matchNames": ["простор"],
      "tags": {
        "brand": "Prostor",
        "brand:wikidata": "Q116871244",
        "name": "Prostor",
        "shop": "chemist"
      }
    },
    {
      "displayName": "Rite Aid",
      "id": "riteaid-437f3b",
      "locationSet": {"include": ["us"]},
      "tags": {
        "brand": "Rite Aid",
        "brand:wikidata": "Q3433273",
        "name": "Rite Aid",
        "shop": "chemist"
      }
    },
    {
      "displayName": "Rossmann",
      "id": "rossmann-06ae64",
      "locationSet": {
        "include": [
          "cz",
          "de",
          "es",
          "hu",
          "pl",
          "tr"
        ]
      },
      "matchNames": ["rossmann polska"],
      "tags": {
        "brand": "Rossmann",
        "brand:wikidata": "Q316004",
        "name": "Rossmann",
        "shop": "chemist"
      }
    },
    {
      "displayName": "Rossmann Express",
      "id": "rossmannexpress-5f6506",
      "locationSet": {"include": ["de"]},
      "tags": {
        "brand": "Rossmann",
        "brand:wikidata": "Q316004",
        "name": "Rossmann Express",
        "shop": "chemist"
      }
    },
    {
      "displayName": "Savers",
      "id": "savers-b82430",
      "locationSet": {"include": ["gb"]},
      "matchNames": ["savers drugstores"],
      "matchTags": ["shop/variety_store"],
      "tags": {
        "brand": "Savers",
        "brand:wikidata": "Q7428189",
        "name": "Savers",
        "official_name": "Savers Health & Beauty",
        "shop": "chemist"
      }
    },
    {
      "displayName": "Semichem",
      "id": "semichem-b82430",
      "locationSet": {"include": ["gb"]},
      "tags": {
        "brand": "Semichem",
        "brand:wikidata": "Q17032096",
        "name": "Semichem",
        "shop": "chemist"
      }
    },
    {
      "displayName": "Splendidi e Splendenti",
      "id": "splendidiesplendenti-864e82",
      "locationSet": {"include": ["it"]},
      "tags": {
        "brand": "Splendidi e Splendenti",
        "brand:wikidata": "Q121745022",
        "name": "Splendidi e Splendenti",
        "shop": "chemist"
      }
    },
    {
      "displayName": "Superdrug",
      "id": "superdrug-b67e62",
      "locationSet": {"include": ["gb", "ie"]},
      "tags": {
        "brand": "Superdrug",
        "brand:wikidata": "Q7643261",
        "name": "Superdrug",
        "shop": "chemist"
      }
    },
    {
      "displayName": "Teta",
      "id": "teta-419e7d",
      "locationSet": {"include": ["cz", "sk"]},
      "tags": {
        "brand": "Teta",
        "brand:wikidata": "Q20860823",
        "name": "Teta",
        "shop": "chemist"
      }
    },
    {
      "displayName": "Tigotà",
      "id": "tigota-864e82",
      "locationSet": {"include": ["it"]},
      "tags": {
        "brand": "Tigotà",
        "brand:wikidata": "Q107464330",
        "name": "Tigotà",
        "shop": "chemist"
      }
    },
    {
      "displayName": "Top drogéria (Slovensko)",
      "id": "topdrogeria-a99570",
      "locationSet": {"include": ["sk"]},
      "tags": {
        "brand": "Top drogéria",
        "brand:wikidata": "Q93429821",
        "name": "Top drogéria",
        "shop": "chemist"
      }
    },
    {
      "displayName": "Top drogerie (Česko)",
      "id": "topdrogerie-3f7319",
      "locationSet": {"include": ["cz"]},
      "tags": {
        "brand": "Top drogerie",
        "brand:wikidata": "Q93429821",
        "name": "Top Drogerie",
        "shop": "chemist"
      }
    },
    {
      "displayName": "Trekpleister",
      "id": "trekpleister-994f1e",
      "locationSet": {"include": ["nl"]},
      "tags": {
        "brand": "Trekpleister",
        "brand:wikidata": "Q2551576",
        "name": "Trekpleister",
        "shop": "chemist"
      }
    },
    {
      "displayName": "V・ドラッグ",
      "id": "vdrug-a211ef",
      "locationSet": {"include": ["jp"]},
      "tags": {
        "brand": "V・ドラッグ",
        "brand:en": "V・Drug",
        "brand:ja": "V・ドラッグ",
        "brand:wikidata": "Q11367334",
        "name": "V・ドラッグ",
        "name:en": "V・Drug",
        "name:ja": "V・ドラッグ",
        "shop": "chemist"
      }
    },
    {
      "displayName": "Walgreens",
      "id": "walgreens-437f3b",
      "locationSet": {"include": ["us"]},
      "matchNames": ["walgreens pharmacy"],
      "tags": {
        "brand": "Walgreens",
        "brand:wikidata": "Q1591889",
        "name": "Walgreens",
        "shop": "chemist"
      }
    },
    {
      "displayName": "Watsons",
      "id": "watsons-3eb610",
      "locationSet": {
        "include": ["001"],
        "exclude": ["cn", "tw"]
      },
      "tags": {
        "brand": "Watsons",
        "brand:wikidata": "Q7974785",
        "name": "Watsons",
        "shop": "chemist"
      }
    },
    {
      "displayName": "Wells",
      "id": "wells-20e6e7",
      "locationSet": {"include": ["pt"]},
      "tags": {
        "brand": "Wells",
        "brand:wikidata": "Q115388598",
        "name": "Wells",
        "shop": "chemist"
      }
    },
    {
      "displayName": "Лили Дрогерия (България)",
      "id": "lilly-22ddb5",
      "locationSet": {"include": ["bg"]},
      "tags": {
        "brand": "Lilly",
        "brand:wikidata": "Q111764460",
        "name": "Lilly",
        "name:bg": "Лили",
        "name:en": "Lilly",
        "shop": "chemist"
      }
    },
    {
      "displayName": "Магнит Косметик",
      "id": "magnitcosmetics-2141a5",
      "locationSet": {"include": ["ru"]},
      "tags": {
        "brand": "Магнит Косметик",
        "brand:en": "Magnit Cosmetics",
        "brand:ru": "Магнит Косметик",
        "brand:wikidata": "Q940518",
        "name": "Магнит Косметик",
        "name:en": "Magnit Cosmetics",
        "name:ru": "Магнит Косметик",
        "shop": "chemist"
      }
    },
    {
      "displayName": "Мила",
      "id": "mila-133d36",
      "locationSet": {"include": ["by"]},
      "tags": {
        "brand": "Мила",
        "brand:be": "Міла",
        "brand:en": "Mila",
        "brand:ru": "Мила",
        "brand:wikidata": "Q107123038",
        "name": "Мила",
        "name:be": "Міла",
        "name:en": "Mila",
        "name:ru": "Мила",
        "shop": "chemist"
      }
    },
    {
      "displayName": "Новэкс",
      "id": "4da500-2141a5",
      "locationSet": {"include": ["ru"]},
      "tags": {
        "brand": "Новэкс",
        "name": "Новэкс",
        "shop": "chemist"
      }
    },
    {
      "displayName": "Остров чистоты и вкуса",
      "id": "ostrovchistoty-133d36",
      "locationSet": {"include": ["by"]},
      "matchNames": ["остров чистоты"],
      "tags": {
        "brand": "Остров чистоты и вкуса",
        "brand:be": "Востраў чысціні і смаку",
        "brand:en": "Ostrov Chistoty",
        "brand:ru": "Остров чистоты и вкуса",
        "brand:wikidata": "Q64606280",
        "name": "Остров чистоты и вкуса",
        "name:be": "Востраў чысціні і смаку",
        "name:en": "Ostrov Chistoty",
        "name:ru": "Остров чистоты и вкуса",
        "shop": "chemist"
      }
    },
    {
      "displayName": "Рубль Бум",
      "id": "6390b4-2141a5",
      "locationSet": {"include": ["ru"]},
      "tags": {
        "brand": "Рубль Бум",
        "name": "Рубль Бум",
        "shop": "chemist"
      }
    },
    {
      "displayName": "Улыбка радуги",
      "id": "c9d6d1-2141a5",
      "locationSet": {"include": ["ru"]},
      "tags": {
        "brand": "Улыбка радуги",
        "brand:ru": "Улыбка радуги",
        "brand:wikidata": "Q109734104",
        "name": "Улыбка радуги",
        "name:ru": "Улыбка радуги",
        "shop": "chemist"
      }
    },
    {
      "displayName": "სუფთა სახლი",
      "id": "cleanhouse-ab5407",
      "locationSet": {"include": ["ge"]},
      "tags": {
        "alt_name:en": "Supta Sakhli",
        "alt_name:ru": "Супта Сахли",
        "brand": "სუფთა სახლი",
        "brand:en": "Clean House",
        "brand:ka": "სუფთა სახლი",
        "brand:wikidata": "Q131469962",
        "name": "სუფთა სახლი",
        "name:en": "Clean House",
        "name:ka": "სუფთა სახლი",
        "name:ru": "Чистый Дом",
        "shop": "chemist"
      }
    },
    {
      "displayName": "ウエルシア薬局",
      "id": "welcia-a211ef",
      "locationSet": {"include": ["jp"]},
      "matchNames": ["ウェルシア", "ウエルシア", "ハックドラッグ"],
      "tags": {
        "brand": "welcia",
        "brand:en": "welcia",
        "brand:ja": "ウエルシア薬局",
        "brand:wikidata": "Q11288687",
        "name": "ウエルシア薬局",
        "name:en": "Welcia",
        "name:ja": "ウエルシア薬局",
        "shop": "chemist"
      }
    },
    {
      "displayName": "ウェルパーク",
      "id": "welpark-a211ef",
      "locationSet": {"include": ["jp"]},
      "tags": {
        "brand": "ウェルパーク",
        "brand:en": "Welpark",
        "brand:ja": "ウェルパーク",
        "brand:wikidata": "Q11288610",
        "name": "ウェルパーク",
        "name:en": "Welpark",
        "name:ja": "ウェルパーク",
        "shop": "chemist"
      }
    },
    {
      "displayName": "オーエスドラッグ",
      "id": "osdrug-a211ef",
      "locationSet": {"include": ["jp"]},
      "tags": {
        "alt_name": "OSドラッグ",
        "brand": "オーエスドラッグ",
        "brand:en": "OS Drug",
        "brand:ja": "オーエスドラッグ",
        "brand:wikidata": "Q11407223",
        "name": "オーエスドラッグ",
        "name:en": "OS Drug",
        "name:ja": "オーエスドラッグ",
        "shop": "chemist"
      }
    },
    {
      "displayName": "カワチ薬品",
      "id": "cawachi-a211ef",
      "locationSet": {"include": ["jp"]},
      "tags": {
        "brand": "カワチ薬品",
        "brand:en": "Cawachi",
        "brand:ja": "カワチ薬品",
        "brand:wikidata": "Q11295397",
        "name": "カワチ薬品",
        "name:en": "Cawachi",
        "name:ja": "カワチ薬品",
        "shop": "chemist"
      }
    },
    {
      "displayName": "キリン堂",
      "id": "kirindo-a211ef",
      "locationSet": {"include": ["jp"]},
      "tags": {
        "brand": "キリン堂",
        "brand:en": "Kirindo",
        "brand:ja": "キリン堂",
        "brand:wikidata": "Q130612731",
        "name": "キリン堂",
        "name:en": "Kirindo",
        "name:ja": "キリン堂",
        "shop": "chemist"
      }
    },
    {
      "displayName": "クスリのアオキ",
      "id": "kusurinoaoki-a211ef",
      "locationSet": {"include": ["jp"]},
      "tags": {
        "brand": "クスリのアオキ",
        "brand:en": "Kusuri no Aoki",
        "brand:ja": "クスリのアオキ",
        "brand:wikidata": "Q11298661",
        "name": "クスリのアオキ",
        "name:en": "Kusuri no Aoki",
        "name:ja": "クスリのアオキ",
        "shop": "chemist"
      }
    },
    {
      "displayName": "くすりの福太郎",
      "id": "kusurinofukutaro-a211ef",
      "locationSet": {"include": ["jp"]},
      "tags": {
        "brand": "くすりの福太郎",
        "brand:en": "Kusurino FUKUTARO",
        "brand:ja": "くすりの福太郎",
        "brand:wikidata": "Q17214460",
        "name": "くすりの福太郎",
        "name:en": "Kusurino Fukutaro",
        "name:ja": "くすりの福太郎",
        "shop": "chemist"
      }
    },
    {
      "displayName": "クリエイトSD",
      "id": "createsd-a211ef",
      "locationSet": {"include": ["jp"]},
      "matchNames": ["クリエイト"],
      "tags": {
        "alt_name": "薬CREATE",
        "alt_name:ja": "薬クリエイト",
        "brand": "クリエイトSD",
        "brand:en": "Create SD",
        "brand:ja": "クリエイトSD",
        "brand:wikidata": "Q117337754",
        "name": "クリエイトSD",
        "name:en": "Create SD",
        "name:ja": "クリエイトSD",
        "shop": "chemist"
      }
    },
    {
      "displayName": "クリエイト薬局",
      "id": "createpharmacy-a211ef",
      "locationSet": {"include": ["jp"]},
      "tags": {
        "brand": "クリエイト薬局",
        "brand:en": "Create Pharmacy",
        "brand:ja": "クリエイト薬局",
        "brand:wikidata": "Q115682176",
        "name": "クリエイト薬局",
        "name:en": "Create Pharmacy",
        "name:ja": "クリエイト薬局",
        "shop": "chemist"
      }
    },
    {
      "displayName": "コクミン",
      "id": "kokumin-a211ef",
      "locationSet": {"include": ["jp"]},
      "tags": {
        "brand": "コクミン",
        "brand:en": "Kokumin",
        "brand:ja": "コクミン",
        "brand:wikidata": "Q11301923",
        "name": "コクミン",
        "name:en": "Kokumin",
        "name:ja": "コクミン",
        "official_name": "コクミンドラッグ",
        "official_name:en": "Kokumin Drug",
        "official_name:ja": "コクミンドラッグ",
        "shop": "chemist"
      }
    },
    {
      "displayName": "ココカラファイン",
      "id": "cocokarafine-a211ef",
      "locationSet": {"include": ["jp"]},
      "tags": {
        "brand": "ココカラファイン",
        "brand:en": "Cocokara Fine",
        "brand:ja": "ココカラファイン",
        "brand:wikidata": "Q11301948",
        "name": "ココカラファイン",
        "name:en": "Cocokara Fine",
        "name:ja": "ココカラファイン",
        "shop": "chemist"
      }
    },
    {
      "displayName": "コスモス",
      "id": "ca9ccd-a211ef",
      "locationSet": {"include": ["jp"]},
      "tags": {
        "brand": "コスモス",
        "brand:ja": "コスモス",
        "brand:wikidata": "Q11302127",
        "name": "コスモス",
        "name:ja": "コスモス",
        "shop": "chemist"
      }
    },
    {
      "displayName": "サツドラ",
      "id": "satsudora-a211ef",
      "locationSet": {"include": ["jp"]},
      "tags": {
        "alt_name": "サッポロドラッグストアー",
        "alt_name:en": "Sapporo Drug Store",
        "alt_name:ja": "サッポロドラッグストアー",
        "brand": "サツドラ",
        "brand:en": "SATSUDORA",
        "brand:ja": "サツドラ",
        "brand:wikidata": "Q11304804",
        "name": "サツドラ",
        "name:en": "Satsudora",
        "name:ja": "サツドラ",
        "shop": "chemist"
      }
    },
    {
      "displayName": "サンドラッグ",
      "id": "sundrug-a211ef",
      "locationSet": {"include": ["jp"]},
      "tags": {
        "brand": "サンドラッグ",
        "brand:en": "Sundrug",
        "brand:ja": "サンドラッグ",
        "brand:wikidata": "Q11305867",
        "name": "サンドラッグ",
        "name:en": "Sundrug",
        "name:ja": "サンドラッグ",
        "shop": "chemist"
      }
    },
    {
      "displayName": "スーパードラッグひまわり",
      "id": "superdrughimawari-a211ef",
      "locationSet": {"include": ["jp"]},
      "tags": {
        "brand": "スーパードラッグひまわり",
        "brand:en": "Super Drug Himawari",
        "brand:ja": "スーパードラッグひまわり",
        "brand:wikidata": "Q119871355",
        "name": "スーパードラッグひまわり",
        "name:en": "Super Drug Himawari",
        "name:ja": "スーパードラッグひまわり",
        "shop": "chemist"
      }
    },
    {
      "displayName": "スギ薬局",
      "id": "sugipharmacy-a211ef",
      "locationSet": {"include": ["jp"]},
      "tags": {
        "brand": "スギ薬局",
        "brand:en": "Sugi Pharmacy",
        "brand:ja": "スギ薬局",
        "brand:wikidata": "Q11311460",
        "name": "スギ薬局",
        "name:en": "Sugi Pharmacy",
        "name:ja": "スギ薬局",
        "shop": "chemist"
      }
    },
    {
      "displayName": "セイジョー",
      "id": "seijo-a211ef",
      "locationSet": {"include": ["jp"]},
      "tags": {
        "brand": "セイジョー",
        "brand:en": "Seijo",
        "brand:ja": "セイジョー",
        "brand:wikidata": "Q11314133",
        "name": "セイジョー",
        "name:en": "Seijo",
        "name:ja": "セイジョー",
        "shop": "chemist"
      }
    },
    {
      "displayName": "セイムス",
      "id": "seims-a211ef",
      "locationSet": {"include": ["jp"]},
      "matchNames": ["ドラッグセイムス"],
      "tags": {
        "brand": "セイムス",
        "brand:en": "Seims",
        "brand:ja": "セイムス",
        "brand:wikidata": "Q11456137",
        "name": "セイムス",
        "name:en": "Seims",
        "name:ja": "セイムス",
        "shop": "chemist"
      }
    },
    {
      "displayName": "ダイコクドラッグ",
      "id": "daikokudrug-a211ef",
      "locationSet": {"include": ["jp"]},
      "tags": {
        "brand": "ダイコクドラッグ",
        "brand:en": "Daikoku Drug",
        "brand:ja": "ダイコクドラッグ",
        "brand:wikidata": "Q11316754",
        "name": "ダイコクドラッグ",
        "name:en": "Daikoku Drug",
        "name:ja": "ダイコクドラッグ",
        "shop": "chemist"
      }
    },
    {
      "displayName": "ツルハドラッグ",
      "id": "tsuruha-a211ef",
      "locationSet": {"include": ["jp"]},
      "matchNames": ["tsuruha drug"],
      "tags": {
        "brand": "ツルハドラッグ",
        "brand:en": "Tsuruha",
        "brand:ja": "ツルハドラッグ",
        "brand:wikidata": "Q11318826",
        "name": "ツルハドラッグ",
        "name:en": "Tsuruha",
        "name:ja": "ツルハドラッグ",
        "shop": "chemist"
      }
    },
    {
      "displayName": "トモズ",
      "id": "tomods-a211ef",
      "locationSet": {"include": ["jp"]},
      "matchNames": ["トモズエキスプレス"],
      "tags": {
        "brand": "トモズ",
        "brand:en": "Tomod's",
        "brand:ja": "トモズ",
        "brand:wikidata": "Q7820097",
        "name": "トモズ",
        "name:en": "Tomod's",
        "name:ja": "トモズ",
        "shop": "chemist"
      }
    },
    {
      "displayName": "ドラッグイレブン",
      "id": "drugeleven-a211ef",
      "locationSet": {"include": ["jp"]},
      "tags": {
        "brand": "ドラッグイレブン",
        "brand:en": "Drug Eleven",
        "brand:ja": "ドラッグイレブン",
        "brand:wikidata": "Q11323075",
        "name": "ドラッグイレブン",
        "name:en": "Drug Eleven",
        "name:ja": "ドラッグイレブン",
        "shop": "chemist"
      }
    },
    {
      "displayName": "ぱぱす",
      "id": "papasu-a211ef",
      "locationSet": {"include": ["jp"]},
      "tags": {
        "brand": "ぱぱす",
        "brand:en": "Papasu",
        "brand:ja": "ぱぱす",
        "brand:wikidata": "Q11276061",
        "name": "ぱぱす",
        "name:en": "Papasu",
        "name:ja": "ぱぱす",
        "shop": "chemist"
      }
    },
    {
      "displayName": "フィットケアデポ",
      "id": "fitcaredepot-a211ef",
      "locationSet": {"include": ["jp"]},
      "tags": {
        "brand": "Fit Care DEPOT",
        "brand:en": "Fit Care DEPOT",
        "brand:ja": "フィットケアデポ",
        "brand:wikidata": "Q121625030",
        "name": "フィットケアデポ",
        "name:en": "Fit Care DEPOT",
        "name:ja": "フィットケアデポ",
        "shop": "chemist"
      }
    },
    {
      "displayName": "マツモトキヨシ",
      "id": "matsumotokiyoshi-a211ef",
      "locationSet": {"include": ["jp"]},
      "tags": {
        "brand": "マツモトキヨシ",
        "brand:en": "Matsumoto Kiyoshi",
        "brand:ja": "マツモトキヨシ",
        "brand:wikidata": "Q8014776",
        "name": "マツモトキヨシ",
        "name:en": "Matsumoto Kiyoshi",
        "name:ja": "マツモトキヨシ",
        "shop": "chemist",
        "short_name": "マツキヨ",
        "short_name:en": "Matsukiyo",
        "short_name:ja": "マツキヨ"
      }
    },
    {
      "displayName": "万宁",
      "id": "mannings-c26faa",
      "locationSet": {
        "include": ["cn"],
        "exclude": ["hk", "mo"]
      },
      "tags": {
        "amenity": "pharmacy",
        "brand": "万宁",
        "brand:en": "Mannings",
        "brand:wikidata": "Q13646560",
        "brand:zh": "万宁",
        "healthcare": "pharmacy",
        "name": "万宁",
        "name:en": "Mannings",
        "name:zh": "万宁",
        "shop": "chemist"
      }
    },
    {
      "displayName": "寶雅",
      "id": "poya-ff929b",
      "locationSet": {"include": ["tw"]},
      "tags": {
        "brand": "寶雅",
        "brand:en": "POYA",
        "brand:wikidata": "Q15927734",
        "brand:zh": "寶雅",
        "name": "寶雅",
        "name:en": "POYA",
        "name:zh": "寶雅",
        "shop": "chemist"
      }
    },
    {
      "displayName": "屈臣氏",
      "id": "watsons-96d573",
      "locationSet": {
        "include": ["cn", "tw"],
        "exclude": ["hk", "mo"]
      },
      "tags": {
        "brand": "屈臣氏",
        "brand:en": "Watsons",
        "brand:wikidata": "Q7974785",
        "brand:zh": "屈臣氏",
        "name": "屈臣氏",
        "name:en": "Watsons",
        "name:zh": "屈臣氏",
        "shop": "chemist"
      }
    },
    {
      "displayName": "屈臣氏 Watsons",
      "id": "watsons-d89f96",
      "locationSet": {"include": ["hk", "mo"]},
      "tags": {
        "brand": "屈臣氏 Watsons",
        "brand:en": "Watsons",
        "brand:wikidata": "Q7974785",
        "brand:zh": "屈臣氏",
        "name": "屈臣氏 Watsons",
        "name:en": "Watsons",
        "name:zh": "屈臣氏",
        "shop": "chemist"
      }
    },
    {
      "displayName": "康是美",
      "id": "cosmed-ff929b",
      "locationSet": {"include": ["tw"]},
      "tags": {
        "brand": "康是美",
        "brand:en": "COSMED",
        "brand:wikidata": "Q11063876",
        "brand:zh": "康是美",
        "name": "康是美",
        "name:en": "COSMED",
        "name:zh": "康是美",
        "shop": "chemist"
      }
    },
    {
      "displayName": "日藥本舖",
      "id": "jpmedical-ff929b",
      "locationSet": {"include": ["tw"]},
      "matchNames": ["japan medical", "jpmed"],
      "tags": {
        "brand": "日藥本舖",
        "brand:en": "jp medical",
        "brand:wikidata": "Q131688453",
        "brand:zh": "日藥本舖",
        "name": "日藥本舖",
        "name:en": "jp medical",
        "name:zh": "日藥本舖",
        "operator": "日藥本舖股份有限公司",
        "operator:en": "Japan Medical Co., Ltd.",
        "operator:zh": "日藥本舖股份有限公司",
        "shop": "chemist"
      }
    },
    {
      "displayName": "杏林堂",
      "id": "kyorindo-a211ef",
      "locationSet": {"include": ["jp"]},
      "tags": {
        "brand": "杏林堂",
        "brand:en": "Kyorindo",
        "brand:ja": "杏林堂",
        "brand:wikidata": "Q11522605",
        "name": "杏林堂",
        "name:en": "Kyorindo",
        "name:ja": "杏林堂",
        "shop": "chemist"
      }
    },
    {
      "displayName": "萬寧 Mannings",
      "id": "mannings-d89f96",
      "locationSet": {"include": ["hk", "mo"]},
      "tags": {
        "amenity": "pharmacy",
        "brand": "萬寧 Mannings",
        "brand:en": "Mannings",
        "brand:wikidata": "Q13646560",
        "brand:zh": "萬寧",
        "brand:zh-Hans": "万宁",
        "brand:zh-Hant": "萬寧",
        "healthcare": "pharmacy",
        "name": "萬寧 Mannings",
        "name:en": "Mannings",
        "name:zh": "萬寧",
        "name:zh-Hans": "万宁",
        "name:zh-Hant": "萬寧",
        "shop": "chemist"
      }
    },
    {
      "displayName": "薬王堂",
      "id": "yakuodo-a211ef",
      "locationSet": {"include": ["jp"]},
      "tags": {
        "brand": "薬王堂",
        "brand:en": "Yakuodo",
        "brand:ja": "薬王堂",
        "brand:wikidata": "Q11622485",
        "name": "薬王堂",
        "name:en": "Yakuodo",
        "name:ja": "薬王堂",
        "shop": "chemist"
      }
    }
  ]
}
