{
  "properties": {
    "path": "brands/shop/coffee",
    "exclude": {
      "generic": ["^coffee( shop)?$"],
      "named": ["^bar kafe?$"]
    }
  },
  "items": [
    {
      "displayName": "Nespresso",
      "id": "nespresso-d0bfaf",
      "locationSet": {"include": ["001"]},
      "tags": {
        "brand": "Nespresso",
        "brand:wikidata": "Q301301",
        "name": "Nespresso",
        "shop": "coffee"
      }
    },
    {
      "displayName": "Tchibo",
      "id": "tchibo-8e6167",
      "locationSet": {
        "include": [
          "at",
          "ch",
          "cz",
          "de",
          "pl",
          "sk"
        ]
      },
      "matchTags": ["shop/convenience"],
      "tags": {
        "brand": "Tchibo",
        "brand:wikidata": "Q564213",
        "name": "Tchibo",
        "shop": "coffee"
      }
    },
    {
      "displayName": "მეამა",
      "id": "meama-06d40a",
      "locationSet": {"include": ["ge"]},
      "tags": {
        "brand": "მეამა",
        "brand:en": "Meama",
        "brand:ka": "მეამა",
        "brand:ru": "Меама",
        "brand:wikidata": "Q99850395",
        "name": "მეამა",
        "name:en": "Meama",
        "name:ka": "მეამა",
        "name:ru": "Меама",
        "operator:wikidata": "Q99850395",
        "shop": "coffee"
      }
    },
    {
      "displayName": "სისაური",
      "id": "sisauri-06d40a",
      "locationSet": {"include": ["ge"]},
      "tags": {
        "brand": "სისაური",
        "brand:en": "Sisauri",
        "brand:ka": "სისაური",
        "brand:ru": "Сисаури",
        "brand:wikidata": "Q136806161",
        "name": "სისაური",
        "name:en": "Sisauri",
        "name:ka": "სისაური",
        "name:ru": "Сисаури",
        "shop": "coffee"
      }
    },
    {
      "displayName": "カルディコーヒーファーム",
      "id": "kaldicoffeefarm-e1062f",
      "locationSet": {"include": ["jp"]},
      "tags": {
        "brand": "カルディコーヒーファーム",
        "brand:en": "Kaldi Coffee Farm",
        "brand:ja": "カルディコーヒーファーム",
        "brand:wikidata": "Q129093913",
        "name": "カルディコーヒーファーム",
        "name:en": "Kaldi Coffee Farm",
        "name:ja": "カルディコーヒーファーム",
        "shop": "coffee"
      }
    }
  ]
}
