{
  "properties": {
    "path": "brands/shop/computer",
    "exclude": {"generic": ["^computer$"]}
  },
  "items": [
    {
      "displayName": "Amac",
      "id": "amac-0d9307",
      "locationSet": {"include": ["nl"]},
      "tags": {
        "brand": "Amac",
        "brand:wikidata": "Q109187530",
        "name": "Amac",
        "shop": "computer"
      }
    },
    {
      "displayName": "ARLT Computer",
      "id": "arltcomputer-8969c7",
      "locationSet": {"include": ["de"]},
      "tags": {
        "brand": "ARLT Computer",
        "brand:wikidata": "Q675902",
        "name": "ARLT Computer",
        "shop": "computer"
      }
    },
    {
      "displayName": "Beep",
      "id": "beep-6542a7",
      "locationSet": {"include": ["es"]},
      "tags": {
        "brand": "Beep",
        "brand:wikidata": "Q98489220",
        "name": "Beep",
        "shop": "computer"
      }
    },
    {
      "displayName": "cyberport",
      "id": "cyberport-a9f92a",
      "locationSet": {"include": ["at", "de"]},
      "tags": {
        "brand": "cyberport",
        "brand:wikidata": "Q1147187",
        "name": "cyberport",
        "shop": "computer"
      }
    },
    {
      "displayName": "Gravis",
      "id": "gravis-8969c7",
      "locationSet": {"include": ["de"]},
      "tags": {
        "brand": "Gravis",
        "brand:wikidata": "Q1543982",
        "name": "Gravis",
        "shop": "computer"
      }
    },
    {
      "displayName": "K&M Elektronik",
      "id": "kandmelektronik-8969c7",
      "locationSet": {"include": ["de"]},
      "tags": {
        "brand": "K&M Elektronik",
        "brand:wikidata": "Q1718002",
        "name": "K&M Elektronik",
        "shop": "computer"
      }
    },
    {
      "displayName": "LDLC",
      "id": "ldlc-87ca9a",
      "locationSet": {"include": ["fx"]},
      "tags": {
        "brand": "LDLC",
        "brand:wikidata": "Q3117461",
        "name": "LDLC",
        "shop": "computer"
      }
    },
    {
      "displayName": "Micro Center",
      "id": "microcenter-c4ecce",
      "locationSet": {"include": ["us"]},
      "tags": {
        "brand": "Micro Center",
        "brand:wikidata": "Q6839153",
        "name": "Micro Center",
        "shop": "computer"
      }
    },
    {
      "displayName": "notebooksbilliger.de",
      "id": "notebooksbilligerde-8969c7",
      "locationSet": {"include": ["de"]},
      "tags": {
        "brand": "notebooksbilliger.de",
        "brand:wikidata": "Q2001998",
        "name": "notebooksbilliger.de",
        "shop": "computer"
      }
    },
    {
      "displayName": "PCデポ",
      "id": "pcdepot-8cc09d",
      "locationSet": {"include": ["jp"]},
      "matchNames": ["ピーシーデポ"],
      "tags": {
        "brand": "PCデポ",
        "brand:en": "PC Depot",
        "brand:ja": "PCデポ",
        "brand:wikidata": "Q11331723",
        "name": "PCデポ",
        "name:en": "PC Depot",
        "name:ja": "PCデポ",
        "shop": "computer"
      }
    },
    {
      "displayName": "アプライド",
      "id": "applied-8cc09d",
      "locationSet": {"include": ["jp"]},
      "tags": {
        "brand": "アプライド",
        "brand:en": "Applied",
        "brand:ja": "アプライド",
        "brand:wikidata": "Q11284742",
        "name": "アプライド",
        "name:en": "Applied",
        "name:ja": "アプライド",
        "shop": "computer"
      }
    },
    {
      "displayName": "イオシス",
      "id": "iosys-8cc09d",
      "locationSet": {"include": ["jp"]},
      "tags": {
        "brand": "イオシス",
        "brand:en": "IOSYS",
        "brand:ja": "イオシス",
        "brand:wikidata": "Q17988651",
        "name": "イオシス",
        "name:en": "IOSYS",
        "name:ja": "イオシス",
        "shop": "computer"
      }
    },
    {
      "displayName": "じゃんぱら",
      "id": "janpara-8cc09d",
      "locationSet": {"include": ["jp"]},
      "tags": {
        "brand": "じゃんぱら",
        "brand:en": "Janpara",
        "brand:ja": "じゃんぱら",
        "brand:wikidata": "Q11306198",
        "name": "じゃんぱら",
        "name:en": "Janpara",
        "name:ja": "じゃんぱら",
        "shop": "computer"
      }
    },
    {
      "displayName": "ツクモ",
      "id": "tsukumo-8cc09d",
      "locationSet": {"include": ["jp"]},
      "tags": {
        "brand": "ツクモ",
        "brand:en": "TSUKUMO",
        "brand:ja": "ツクモ",
        "brand:wikidata": "Q29793996",
        "name": "ツクモ",
        "name:en": "TSUKUMO",
        "name:ja": "ツクモ",
        "shop": "computer"
      }
    },
    {
      "displayName": "ドスパラ",
      "id": "dospara-8cc09d",
      "locationSet": {"include": ["jp"]},
      "tags": {
        "brand": "ドスパラ",
        "brand:en": "Dospara",
        "brand:ja": "ドスパラ",
        "brand:wikidata": "Q11306200",
        "name": "ドスパラ",
        "name:en": "Dospara",
        "name:ja": "ドスパラ",
        "shop": "computer"
      }
    },
    {
      "displayName": "パソコン工房",
      "id": "6185e9-8cc09d",
      "locationSet": {"include": ["jp"]},
      "tags": {
        "brand": "パソコン工房",
        "brand:ja": "パソコン工房",
        "brand:wikidata": "Q11345680",
        "name": "パソコン工房",
        "name:ja": "パソコン工房",
        "shop": "computer"
      }
    },
    {
      "displayName": "偉倫電腦 Wellent",
      "id": "wellent-e0237d",
      "locationSet": {"include": ["hk"]},
      "matchNames": ["偉倫"],
      "tags": {
        "brand": "偉倫電腦 Wellent",
        "brand:en": "Wellent",
        "brand:wikidata": "Q111103504",
        "brand:zh": "偉倫電腦",
        "brand:zh-Hans": "伟伦电脑",
        "brand:zh-Hant": "偉倫電腦",
        "name": "偉倫電腦 Wellent",
        "name:en": "Wellent",
        "name:zh": "偉倫電腦",
        "name:zh-Hans": "伟伦电脑",
        "name:zh-Hant": "偉倫電腦",
        "shop": "computer"
      }
    }
  ]
}
