{
  "properties": {
    "path": "brands/shop/confectionery",
    "exclude": {
      "generic": [
        "^(commerce boutique|confectionery)$"
      ]
    }
  },
  "items": [
    {
      "displayName": "Adyar Ananda Bhavan",
      "id": "adyaranandabhavan-abc6d4",
      "locationSet": {"include": ["in"]},
      "tags": {
        "brand": "Adyar Ananda Bhavan",
        "brand:wikidata": "Q15178238",
        "name": "Adyar Ananda Bhavan",
        "shop": "confectionery"
      }
    },
    {
      "displayName": "Ambala Foods",
      "id": "ambalafoods-bdbf63",
      "locationSet": {"include": ["gb"]},
      "tags": {
        "brand": "Ambala",
        "brand:wikidata": "Q111806237",
        "cuisine": "indian",
        "name": "Ambala Foods",
        "shop": "confectionery"
      }
    },
    {
      "displayName": "arko",
      "id": "arko-2c21b2",
      "locationSet": {"include": ["de"]},
      "tags": {
        "brand": "arko",
        "brand:wikidata": "Q673647",
        "name": "arko",
        "shop": "confectionery"
      }
    },
    {
      "displayName": "Bahlsen Outlet",
      "id": "bahlsenoutlet-2c21b2",
      "locationSet": {"include": ["de"]},
      "tags": {
        "brand": "Bahlsen",
        "brand:wikidata": "Q315068",
        "name": "Bahlsen Outlet",
        "shop": "confectionery"
      }
    },
    {
      "displayName": "Bären-Treff",
      "id": "barentreff-b9e3ac",
      "locationSet": {"include": ["de", "kr"]},
      "tags": {
        "brand": "Bären-Treff",
        "brand:wikidata": "Q99510166",
        "name": "Bären-Treff",
        "shop": "confectionery"
      }
    },
    {
      "displayName": "Bärenland",
      "id": "barenland-f63894",
      "locationSet": {
        "include": ["at", "de", "lu"]
      },
      "tags": {
        "brand": "Bärenland",
        "brand:wikidata": "Q99510395",
        "name": "Bärenland",
        "shop": "confectionery"
      }
    },
    {
      "displayName": "Bears & Friends",
      "id": "bearsandfriends-e5aed3",
      "locationSet": {
        "include": [
          "at",
          "cz",
          "de",
          "hk",
          "hr",
          "hu"
        ]
      },
      "tags": {
        "brand": "Bears & Friends",
        "brand:wikidata": "Q99510345",
        "name": "Bears & Friends",
        "shop": "confectionery"
      }
    },
    {
      "displayName": "Belros",
      "id": "belros-0b3ba6",
      "locationSet": {"include": ["es"]},
      "matchTags": ["shop/convenience"],
      "tags": {
        "brand": "Belros",
        "brand:wikidata": "Q100089059",
        "name": "Belros",
        "shop": "confectionery"
      }
    },
    {
      "displayName": "Candy Tyme",
      "id": "candytyme-c4be02",
      "locationSet": {"include": ["us"]},
      "tags": {
        "brand": "Candy Tyme",
        "brand:wikidata": "Q108411111",
        "name": "Candy Tyme",
        "shop": "confectionery"
      }
    },
    {
      "displayName": "Châteraisé",
      "id": "chateraise-c520ad",
      "locationSet": {
        "include": ["hk", "sg", "th", "tw"]
      },
      "tags": {
        "brand": "Châteraisé",
        "brand:en": "Chateraise",
        "brand:ja": "シャトレーゼ",
        "brand:wikidata": "Q11307696",
        "name": "Châteraisé",
        "name:en": "Chateraise",
        "name:ja": "シャトレーゼ",
        "shop": "confectionery"
      }
    },
    {
      "displayName": "DeBeukelaer Factory Outlet",
      "id": "debeukelaerfactoryoutlet-2c21b2",
      "locationSet": {"include": ["de"]},
      "tags": {
        "brand": "DeBeukelaer",
        "name": "DeBeukelaer Factory Outlet",
        "shop": "confectionery"
      }
    },
    {
      "displayName": "Eilles",
      "id": "eilles-2c21b2",
      "locationSet": {"include": ["de"]},
      "tags": {
        "brand": "Eilles",
        "brand:wikidata": "Q99976174",
        "name": "Eilles",
        "shop": "confectionery"
      }
    },
    {
      "displayName": "El Rincón",
      "id": "elrincon-0b3ba6",
      "locationSet": {"include": ["es"]},
      "matchNames": ["frutos secos el rincón"],
      "matchTags": ["shop/convenience"],
      "tags": {
        "brand": "El Rincón",
        "brand:wikidata": "Q98456614",
        "name": "El Rincón",
        "shop": "confectionery"
      }
    },
    {
      "displayName": "El Rincón & Coffee",
      "id": "elrinconandcoffee-0b3ba6",
      "locationSet": {"include": ["es"]},
      "tags": {
        "amenity": "cafe",
        "brand": "El Rincón",
        "brand:wikidata": "Q98456614",
        "name": "El Rincón & Coffee",
        "shop": "confectionery"
      }
    },
    {
      "displayName": "Hemmakvall",
      "id": "hemmakvall-bb4f01",
      "locationSet": {"include": ["se"]},
      "tags": {
        "brand": "Hemmakväll",
        "brand:wikidata": "Q10521791",
        "name": "Hemmakväll",
        "shop": "confectionery"
      }
    },
    {
      "displayName": "Hotel Chocolat",
      "id": "hotelchocolat-bdbf63",
      "locationSet": {"include": ["gb"]},
      "tags": {
        "brand": "Hotel Chocolat",
        "brand:wikidata": "Q5911369",
        "name": "Hotel Chocolat",
        "shop": "confectionery"
      }
    },
    {
      "displayName": "Hussel",
      "id": "hussel-c45342",
      "locationSet": {
        "include": ["at", "de", "pt"]
      },
      "tags": {
        "brand": "Hussel",
        "brand:wikidata": "Q17123688",
        "name": "Hussel",
        "shop": "confectionery"
      }
    },
    {
      "displayName": "Hussel Confiserie",
      "id": "husselconfiserie-ce6a87",
      "locationSet": {"include": ["at", "de"]},
      "tags": {
        "brand": "Hussel",
        "brand:wikidata": "Q17123688",
        "name": "Hussel Confiserie",
        "shop": "confectionery"
      }
    },
    {
      "displayName": "Jamin",
      "id": "jamin-2c00a5",
      "locationSet": {"include": ["nl"]},
      "tags": {
        "brand": "Jamin",
        "brand:wikidata": "Q2291848",
        "name": "Jamin",
        "shop": "confectionery"
      }
    },
    {
      "displayName": "Kaspa's",
      "id": "kaspas-bdbf63",
      "locationSet": {"include": ["gb"]},
      "tags": {
        "brand": "Kaspa's",
        "brand:wikidata": "Q24439133",
        "name": "Kaspa's",
        "shop": "confectionery"
      }
    },
    {
      "displayName": "Kilwins",
      "id": "kilwins-c4be02",
      "locationSet": {"include": ["us"]},
      "tags": {
        "brand": "Kilwins",
        "brand:wikidata": "Q38250832",
        "cuisine": "chocolate;ice_cream;popcorn",
        "name": "Kilwins",
        "shop": "confectionery"
      }
    },
    {
      "displayName": "Kulikov",
      "id": "kulikov-311d19",
      "locationSet": {"include": ["001"]},
      "tags": {
        "brand": "Kulikov",
        "name": "Kulikov",
        "shop": "confectionery"
      }
    },
    {
      "displayName": "Lolli and Pops",
      "id": "lolliandpops-c4be02",
      "locationSet": {"include": ["us"]},
      "tags": {
        "brand": "Lolli and Pops",
        "brand:wikidata": "Q108410191",
        "name": "Lolli and Pops",
        "shop": "confectionery"
      }
    },
    {
      "displayName": "Rocket Fizz",
      "id": "rocketfizz-9950eb",
      "locationSet": {"include": ["ca", "us"]},
      "tags": {
        "brand": "Rocket Fizz",
        "brand:wikidata": "Q17107987",
        "name": "Rocket Fizz",
        "official_name": "Rocket Fizz Soda Pop & Candy Shop",
        "shop": "confectionery"
      }
    },
    {
      "displayName": "Rocky Mountain Chocolate Factory",
      "id": "rockymountainchocolatefactory-9950eb",
      "locationSet": {"include": ["ca", "us"]},
      "tags": {
        "brand": "Rocky Mountain Chocolate Factory",
        "brand:wikidata": "Q7355878",
        "name": "Rocky Mountain Chocolate Factory",
        "shop": "confectionery"
      }
    },
    {
      "displayName": "Roshen",
      "id": "roshen-84145b",
      "locationSet": {"include": ["ua"]},
      "tags": {
        "brand": "Roshen",
        "brand:wikidata": "Q2635017",
        "name": "Roshen",
        "name:en": "Roshen",
        "name:uk": "Roshen",
        "shop": "confectionery"
      }
    },
    {
      "displayName": "See's Candies",
      "id": "seescandies-c4be02",
      "locationSet": {"include": ["us"]},
      "matchNames": ["sees candy"],
      "tags": {
        "brand": "See's Candies",
        "brand:wikidata": "Q2103510",
        "name": "See's Candies",
        "shop": "confectionery"
      }
    },
    {
      "displayName": "Storck Welt Outlet",
      "id": "storckweltoutlet-2c21b2",
      "locationSet": {"include": ["de"]},
      "tags": {
        "brand": "Storck",
        "brand:wikidata": "Q566814",
        "name": "Storck Welt Outlet",
        "shop": "confectionery"
      }
    },
    {
      "displayName": "T. SN",
      "id": "tsn-32643e",
      "locationSet": {"include": ["ec"]},
      "tags": {
        "brand": "T. SN",
        "name": "T. SN",
        "shop": "confectionery"
      }
    },
    {
      "displayName": "Thorntons",
      "id": "thorntons-bdbf63",
      "locationSet": {"include": ["gb"]},
      "tags": {
        "brand": "Thorntons",
        "brand:wikidata": "Q683102",
        "name": "Thorntons",
        "shop": "confectionery"
      }
    },
    {
      "displayName": "Viba",
      "id": "viba-2c21b2",
      "locationSet": {"include": ["de"]},
      "tags": {
        "brand": "Viba",
        "brand:wikidata": "Q1290252",
        "name": "Viba",
        "shop": "confectionery"
      }
    },
    {
      "displayName": "Вацак",
      "id": "vatsak-84145b",
      "locationSet": {"include": ["ua"]},
      "tags": {
        "brand": "Вацак",
        "brand:wikidata": "Q30966576",
        "name": "Вацак",
        "name:en": "Vatsak",
        "name:uk": "Вацак",
        "shop": "confectionery"
      }
    },
    {
      "displayName": "Красный пищевик",
      "id": "4742ac-ceb7f9",
      "locationSet": {"include": ["by"]},
      "tags": {
        "brand": "Красный пищевик",
        "brand:wikidata": "Q61742027",
        "name": "Красный пищевик",
        "shop": "confectionery"
      }
    },
    {
      "displayName": "Лакомка",
      "id": "lakomka-61c5bf",
      "locationSet": {"include": ["ru"]},
      "tags": {
        "brand": "Лакомка",
        "name": "Лакомка",
        "name:en": "Lakomka",
        "name:ru": "Лакомка",
        "shop": "confectionery"
      }
    },
    {
      "displayName": "Север-Метрополь",
      "id": "severmetropol-61c5bf",
      "locationSet": {"include": ["ru"]},
      "tags": {
        "brand": "Север-Метрополь",
        "brand:en": "Sever-Metropol",
        "brand:ru": "Север-Метрополь",
        "brand:wikidata": "Q4411982",
        "name": "Север-Метрополь",
        "name:en": "Sever-Metropol",
        "name:ru": "Север-Метрополь",
        "shop": "confectionery"
      }
    },
    {
      "displayName": "おかしのまちおか",
      "id": "machioka-59ea1b",
      "locationSet": {"include": ["jp"]},
      "tags": {
        "brand": "おかしのまちおか",
        "brand:en": "Machioka",
        "brand:ja": "おかしのまちおか",
        "name": "おかしのまちおか",
        "name:en": "Machioka",
        "name:ja": "おかしのまちおか",
        "shop": "confectionery"
      }
    },
    {
      "displayName": "シャトレーゼ",
      "id": "chateraise-59ea1b",
      "locationSet": {"include": ["jp"]},
      "tags": {
        "brand": "シャトレーゼ",
        "brand:en": "Chateraise",
        "brand:ja": "シャトレーゼ",
        "brand:wikidata": "Q11307696",
        "name": "シャトレーゼ",
        "name:en": "Chateraise",
        "name:ja": "シャトレーゼ",
        "shop": "confectionery"
      }
    },
    {
      "displayName": "不二家",
      "id": "fujiya-59ea1b",
      "locationSet": {"include": ["jp"]},
      "tags": {
        "brand": "不二家",
        "brand:en": "Fujiya",
        "brand:ja": "不二家",
        "brand:wikidata": "Q858452",
        "name": "不二家",
        "name:en": "Fujiya",
        "name:ja": "不二家",
        "shop": "confectionery"
      }
    },
    {
      "displayName": "銀座コージーコーナー",
      "id": "ginzacozycorner-59ea1b",
      "locationSet": {"include": ["jp"]},
      "matchNames": ["コージーコーナー"],
      "tags": {
        "brand": "銀座コージーコーナー",
        "brand:en": "Ginza Cozy Corner",
        "brand:ja": "銀座コージーコーナー",
        "brand:wikidata": "Q11649983",
        "name": "銀座コージーコーナー",
        "name:en": "Ginza Cozy Corner",
        "name:ja": "銀座コージーコーナー",
        "shop": "confectionery"
      }
    }
  ]
}
