{
  "properties": {
    "path": "brands/shop/convenience",
    "exclude": {
      "generic": [
        "^(bakkal|baqala|bodega|delikatesy|dépanneur|dorfladen|kisbolt|market|mercearia|parduotuvė|potraviny|prehrana|spätkauf|vegyesbolt|večerka|weltladen)$",
        "^(convenience|corner|general|sari-sari)( store)?$",
        "^(mini|super)?\\s?(market|mart|mercado)( non-stop)?$",
        "^(sklep )?(spożywcz(y|o))(-przemysłowy)?$",
        "^(крамниця|купец)$",
        "^(мини)?[ -]?(магазин|маркет)$",
        "^[eé]pic(erie|ier)$",
        "^aliment(ation|ación|ar[ai])( g[eé]n[eé]rale)?$",
        "^alimentară$",
        "^duka la vyakula$",
        "^kios(co|k|ko|que)?$",
        "^magazin\\s?(alimentar|mixt|non-stop)?",
        "^nafaka$",
        "^post office$",
        "^pulper[ií]a$",
        "^retail shop$",
        "^smíšené zboží$",
        "^tienda( de (barrio|abarrotes|variedades))?$",
        "^tiendita$",
        "^продукт(овый|и|ы)?( магазин)?$",
        "^универ(маг|сам)$",
        "^хүнсний дэлгүүр$",
        "^მარკეტი( \\(market\\))?",
        "^بقال(ة)?$",
        "^マーケット$",
        "^小卖部$"
      ],
      "named": [
        "^(24 часа|августина|альянс|апельсин|ассорти|бер[её]зка|бриз|валентина|весна|визит|ветеран|водолей|гастроном|гермес|гурман|диана|добрый|дружба|домашний|елена)$",
        "^(777|independent)$",
        "^(almac[eé]n|despensa|mini\\s?abc|milk bar)$",
        "^(boutique d'alimentation|sup[eé]rette)$",
        "^(калинка|каштан|квартал|колобок|колос(ок)?|каравай|кооператор|корзинка|кулинария|лакомка|ласточка|лидер|луч|любава|любимый|людмила|люкс)$",
        "^(меркурий|мечта|мираж|белорусские продукты|продукты 24|натали|надежда|ника)$",
        "^(оазис|околица|олимп|парус|пеликан|престиж|подсолнух|радуга|росинка|ромашка|родник|рассвет|русь)$",
        "^(сельпо|семейный|сказка|солнышко|спутник|солнечный|светлана|удача|ивушка)$",
        "^(юбилейный|южный|юлия|эконом|шанс|чайка|центральный|хороший|хуторок|фаворит|фортуна|татьяна|тройка|эдем|уют)$",
        "^(昭和|ロイヤル・ダッチ・)?シェル(石油)?$"
      ]
    }
  },
  "items": [
    {
      "displayName": "Sasol Delight",
      "locationSet": {"include": ["za"]},
      "tags": {
        "brand": "Sasol Delight",
        "brand:wikidata": "Q116620703",
        "name": "Sasol Delight",
        "shop": "convenience"
      }
    },
    {
      "displayName": "Fresh Stop",
      "locationSet": {"include": ["za", "na"]},
      "tags": {
        "brand": "Fresh Stop",
        "brand:wikidata": "Q116620734",
        "name": "Fresh Stop",
        "shop": "convenience"
      }
    },
    {
      "displayName": "10-11",
      "id": "1011-ead397",
      "locationSet": {"include": ["is"]},
      "tags": {
        "brand": "10-11",
        "brand:wikidata": "Q65336720",
        "name": "10-11",
        "shop": "convenience"
      }
    },
    {
      "displayName": "1st Stop",
      "id": "1ststop-f1e40b",
      "locationSet": {"include": ["us"]},
      "matchNames": ["first stop"],
      "tags": {
        "brand": "1st Stop",
        "brand:wikidata": "Q65706152",
        "name": "1st Stop",
        "shop": "convenience"
      }
    },
    {
      "displayName": "3COINS",
      "id": "3coins-652b3e",
      "locationSet": {"include": ["jp"]},
      "tags": {
        "alt_name": "スリーコインズ",
        "brand": "3COINS",
        "brand:wikidata": "Q60997353",
        "name": "3COINS",
        "shop": "convenience"
      }
    },
    {
      "displayName": "7-Eleven",
      "id": "7eleven-dda8d6",
      "locationSet": {
        "include": ["001"],
        "exclude": ["no"]
      },
      "matchNames": ["7-11", "seven eleven"],
      "matchTags": ["shop/supermarket"],
      "tags": {
        "brand": "7-Eleven",
        "brand:wikidata": "Q259340",
        "name": "7-Eleven",
        "shop": "convenience"
      }
    },
    {
      "displayName": "7-Eleven (Norge)",
      "id": "7eleven-2da37b",
      "locationSet": {"include": ["no"]},
      "matchNames": ["7-11", "seven eleven"],
      "matchTags": ["shop/supermarket"],
      "note": "https://github.com/osmlab/name-suggestion-index/issues/5500",
      "preserveTags": ["^name"],
      "tags": {
        "brand": "7-Eleven",
        "brand:wikidata": "Q259340",
        "name": "7-Eleven",
        "shop": "convenience"
      }
    },
    {
      "displayName": "7/24 Mix",
      "id": "724mix-9d5235",
      "locationSet": {"include": ["mx"]},
      "tags": {
        "brand": "7/24 Mix",
        "brand:wikidata": "Q113264389",
        "name": "7/24 Mix",
        "shop": "convenience"
      }
    },
    {
      "displayName": "759阿信屋 759 Store",
      "id": "759store-298a73",
      "locationSet": {"include": ["hk"]},
      "tags": {
        "brand": "759阿信屋 759 Store",
        "brand:wikidata": "Q10846179",
        "brand:zh": "759阿信屋",
        "brand:zh-Hans": "759阿信屋",
        "brand:zh-Hant": "759阿信屋",
        "name": "759阿信屋 759 Store",
        "name:en": "759 Store",
        "name:zh": "759阿信屋",
        "name:zh-Hans": "759阿信屋",
        "name:zh-Hant": "759阿信屋",
        "shop": "convenience"
      }
    },
    {
      "displayName": "76",
      "id": "76-f1e40b",
      "locationSet": {"include": ["us"]},
      "tags": {
        "brand": "76",
        "brand:wikidata": "Q1658320",
        "name": "76",
        "shop": "convenience"
      }
    },
    {
      "displayName": "8 à Huit",
      "id": "8ahuit-bf3eb4",
      "locationSet": {"include": ["fr"]},
      "tags": {
        "brand": "8 à Huit",
        "brand:wikidata": "Q2818601",
        "name": "8 à Huit",
        "shop": "convenience"
      }
    },
    {
      "displayName": "Abarrotes Monterrey",
      "id": "abarrotesmonterrey-9d5235",
      "locationSet": {"include": ["mx"]},
      "matchTags": ["shop/supermarket"],
      "tags": {
        "brand": "Abarrotes Monterrey",
        "brand:wikidata": "Q113182569",
        "name": "Abarrotes Monterrey",
        "shop": "convenience"
      }
    },
    {
      "displayName": "ABC (Hawaii)",
      "id": "abc-540f13",
      "locationSet": {"include": ["us-hi"]},
      "matchNames": ["abc stores"],
      "tags": {
        "brand": "ABC",
        "brand:wikidata": "Q4650251",
        "name": "ABC",
        "shop": "convenience"
      }
    },
    {
      "displayName": "abc (Poland)",
      "id": "abc-95f41b",
      "locationSet": {"include": ["pl"]},
      "matchTags": ["shop/supermarket"],
      "tags": {
        "brand": "abc",
        "brand:wikidata": "Q11683985",
        "name": "abc",
        "shop": "convenience"
      }
    },
    {
      "displayName": "Admiral",
      "id": "admiral-f1e40b",
      "locationSet": {"include": ["us"]},
      "tags": {
        "brand": "Admiral",
        "name": "Admiral",
        "shop": "convenience"
      }
    },
    {
      "displayName": "Aibė",
      "id": "aibe-64a6c9",
      "locationSet": {"include": ["lt"]},
      "tags": {
        "brand": "Aibė",
        "brand:wikidata": "Q1022952",
        "name": "Aibė",
        "shop": "convenience"
      }
    },
    {
      "displayName": "Albert Heijn to go",
      "id": "albertheijntogo-f85122",
      "locationSet": {"include": ["nl"]},
      "tags": {
        "brand": "Albert Heijn to go",
        "brand:wikidata": "Q77971185",
        "name": "Albert Heijn to go",
        "official_name": "AH to go",
        "shop": "convenience"
      }
    },
    {
      "displayName": "Alepa",
      "id": "alepa-5dea79",
      "locationSet": {"include": ["fi"]},
      "tags": {
        "brand": "Alepa",
        "brand:wikidata": "Q4716167",
        "name": "Alepa",
        "shop": "convenience"
      }
    },
    {
      "displayName": "Alfamart",
      "id": "alfamart-28d321",
      "locationSet": {"include": ["id", "ph"]},
      "matchTags": ["shop/supermarket"],
      "tags": {
        "brand": "Alfamart",
        "brand:wikidata": "Q23745600",
        "name": "Alfamart",
        "shop": "convenience"
      }
    },
    {
      "displayName": "Alfamidi",
      "id": "alfamidi-bb8a09",
      "locationSet": {"include": ["id"]},
      "tags": {
        "brand": "Alfamidi",
        "brand:wikidata": "Q12471462",
        "name": "Alfamidi",
        "shop": "convenience"
      }
    },
    {
      "displayName": "Allsup's",
      "id": "allsups-f1e40b",
      "locationSet": {"include": ["us"]},
      "tags": {
        "brand": "Allsup's",
        "brand:wikidata": "Q4733292",
        "name": "Allsup's",
        "shop": "convenience"
      }
    },
    {
      "displayName": "Aloha Island Mart",
      "id": "alohaislandmart-f1e40b",
      "locationSet": {"include": ["us"]},
      "tags": {
        "brand": "Aloha Petroleum",
        "brand:wikidata": "Q4734197",
        "name": "Aloha Island Mart",
        "shop": "convenience"
      }
    },
    {
      "displayName": "Alta Convenience",
      "id": "altaconvenience-f1e40b",
      "locationSet": {"include": ["us"]},
      "tags": {
        "brand": "Alta Convenience",
        "brand:wikidata": "Q110311797",
        "name": "Alta Convenience",
        "shop": "convenience"
      }
    },
    {
      "displayName": "Aman",
      "id": "714782-3015fb",
      "locationSet": {"include": ["rs"]},
      "tags": {
        "brand": "Аман",
        "brand:wikidata": "Q116235856",
        "name": "Аман",
        "name:sr": "Аман",
        "name:sr-Latn": "Aman",
        "shop": "convenience"
      }
    },
    {
      "displayName": "Amazon Go",
      "id": "amazongo-f1e40b",
      "locationSet": {"include": ["us"]},
      "tags": {
        "brand": "Amazon Fresh",
        "brand:wikidata": "Q27676067",
        "name": "Amazon Go",
        "shop": "convenience"
      }
    },
    {
      "displayName": "AmeriStop",
      "id": "ameristop-f1e40b",
      "locationSet": {"include": ["us"]},
      "tags": {
        "brand": "AmeriStop",
        "brand:wikidata": "Q66048258",
        "name": "AmeriStop",
        "shop": "convenience"
      }
    },
    {
      "displayName": "Amoco",
      "id": "amoco-f1e40b",
      "locationSet": {"include": ["us"]},
      "tags": {
        "brand": "Amoco",
        "brand:wikidata": "Q465952",
        "name": "Amoco",
        "shop": "convenience"
      }
    },
    {
      "displayName": "ampm",
      "id": "ampm-4d6b4b",
      "locationSet": {"include": ["001"]},
      "tags": {
        "brand": "ampm",
        "brand:wikidata": "Q306960",
        "name": "ampm",
        "shop": "convenience"
      }
    },
    {
      "displayName": "APlus (Sunoco)",
      "id": "aplus-f1e40b",
      "locationSet": {"include": ["us"]},
      "tags": {
        "brand": "APlus",
        "brand:wikidata": "Q4646934",
        "name": "APlus",
        "shop": "convenience"
      }
    },
    {
      "displayName": "Aral",
      "id": "aral-1fe310",
      "locationSet": {"include": ["de", "lu"]},
      "matchNames": ["aral tankstelle"],
      "tags": {
        "brand": "Aral",
        "brand:wikidata": "Q565734",
        "name": "Aral",
        "shop": "convenience"
      }
    },
    {
      "displayName": "Aroma",
      "id": "52dc6d-3015fb",
      "locationSet": {"include": ["rs"]},
      "matchTags": ["shop/supermarket"],
      "tags": {
        "brand": "Арома",
        "brand:wikidata": "Q116446961",
        "name": "Арома",
        "name:sr": "Арома",
        "name:sr-Latn": "Aroma",
        "shop": "convenience"
      }
    },
    {
      "displayName": "Asda",
      "id": "asda-232829",
      "locationSet": {"include": ["gb"]},
      "tags": {
        "brand": "Asda",
        "brand:wikidata": "Q297410",
        "name": "Asda",
        "shop": "convenience"
      }
    },
    {
      "displayName": "Asda Express",
      "id": "asdaexpress-232829",
      "locationSet": {"include": ["gb"]},
      "preserveTags": ["^name"],
      "tags": {
        "brand": "Asda Express",
        "brand:wikidata": "Q114826023",
        "name": "Asda Express",
        "shop": "convenience"
      }
    },
    {
      "displayName": "Asda On The Move",
      "id": "asdaonthemove-232829",
      "locationSet": {"include": ["gb"]},
      "matchNames": ["aotm"],
      "tags": {
        "brand": "Asda On The Move",
        "brand:wikidata": "Q105221621",
        "name": "Asda On The Move",
        "shop": "convenience"
      }
    },
    {
      "displayName": "avec",
      "id": "avec-c71a8a",
      "locationSet": {"include": ["ch", "de"]},
      "tags": {
        "brand": "avec",
        "brand:wikidata": "Q103863974",
        "name": "avec",
        "shop": "convenience"
      }
    },
    {
      "displayName": "Avia",
      "id": "avia-3fdfc9",
      "locationSet": {
        "include": [
          "at",
          "be",
          "bg",
          "ch",
          "cz",
          "de",
          "es",
          "fr",
          "hu",
          "it",
          "nl",
          "pl",
          "pt",
          "rs",
          "ua"
        ]
      },
      "tags": {
        "brand": "Avia",
        "brand:wikidata": "Q300147",
        "name": "Avia",
        "shop": "convenience"
      }
    },
    {
      "displayName": "B&M Express",
      "id": "bandmexpress-232829",
      "locationSet": {"include": ["gb"]},
      "matchNames": ["heron foods"],
      "note": "Replacement branding for Heron Foods, which B&M bought.",
      "tags": {
        "brand": "B&M Express",
        "brand:wikidata": "Q99640578",
        "name": "B&M Express",
        "shop": "convenience"
      }
    },
    {
      "displayName": "Bách Hóa XANH",
      "id": "bachhoaxanh-61b913",
      "locationSet": {"include": ["vn"]},
      "tags": {
        "brand": "Bách Hóa XANH",
        "brand:wikidata": "Q115327101",
        "name": "Bách Hóa XANH",
        "shop": "convenience"
      }
    },
    {
      "displayName": "Bakmaz",
      "id": "bakmaz-5b00ff",
      "locationSet": {"include": ["hr"]},
      "tags": {
        "brand": "Bakmaz",
        "brand:wikidata": "Q65132948",
        "name": "Bakmaz",
        "shop": "convenience"
      }
    },
    {
      "displayName": "Bama",
      "id": "bama-9d5235",
      "locationSet": {"include": ["mx"]},
      "matchTags": ["shop/supermarket"],
      "tags": {
        "brand": "Bama",
        "brand:wikidata": "Q113182024",
        "name": "Bama",
        "shop": "convenience"
      }
    },
    {
      "displayName": "BellStores",
      "id": "bellstores-147d98",
      "locationSet": {
        "include": ["us-oh.geojson"]
      },
      "matchTags": ["amenity/fuel"],
      "tags": {
        "brand": "BellStores",
        "brand:wikidata": "Q111698204",
        "name": "BellStores",
        "shop": "convenience"
      }
    },
    {
      "displayName": "Best-one",
      "id": "bestone-232829",
      "locationSet": {"include": ["gb"]},
      "tags": {
        "brand": "Best-one",
        "brand:wikidata": "Q4896532",
        "name": "Best-one",
        "shop": "convenience"
      }
    },
    {
      "displayName": "Big Red Stores",
      "id": "bigred-087ec0",
      "locationSet": {
        "include": ["us-ar.geojson"]
      },
      "tags": {
        "brand": "Big Red Stores",
        "brand:wikidata": "Q109648675",
        "name": "Big Red",
        "shop": "convenience"
      }
    },
    {
      "displayName": "Bodega Aurrera Express",
      "id": "bodegaaurreraexpress-9d5235",
      "locationSet": {"include": ["mx"]},
      "matchTags": ["shop/supermarket"],
      "tags": {
        "brand": "Bodega Aurrera",
        "brand:wikidata": "Q3365858",
        "name": "Bodega Aurrera Express",
        "shop": "convenience"
      }
    },
    {
      "displayName": "Boni-Soir",
      "id": "bonisoir-eea72f",
      "locationSet": {"include": ["ca"]},
      "tags": {
        "brand": "Boni-Soir",
        "name": "Boni-Soir",
        "shop": "convenience"
      }
    },
    {
      "displayName": "Bonjour",
      "id": "bonjour-4d6b4b",
      "locationSet": {"include": ["001"]},
      "tags": {
        "brand": "Bonjour",
        "brand:wikidata": "Q110278299",
        "name": "Bonjour",
        "shop": "convenience"
      }
    },
    {
      "displayName": "BP 2go",
      "id": "bp2go-7a43a8",
      "locationSet": {"include": ["nz"]},
      "matchNames": ["bp"],
      "tags": {
        "brand": "BP 2go",
        "brand:wikidata": "Q152057",
        "name": "BP 2go",
        "shop": "convenience"
      }
    },
    {
      "displayName": "BP Connect",
      "id": "bpconnect-7a43a8",
      "locationSet": {"include": ["nz"]},
      "matchNames": ["bp"],
      "tags": {
        "brand": "BP Connect",
        "brand:wikidata": "Q152057",
        "name": "BP Connect",
        "shop": "convenience"
      }
    },
    {
      "displayName": "BP Shop",
      "id": "bpshop-24c3f1",
      "locationSet": {
        "include": ["au", "ch", "fr", "gb", "us"]
      },
      "matchNames": ["bp"],
      "tags": {
        "brand": "BP Shop",
        "brand:wikidata": "Q152057",
        "name": "BP Shop",
        "shop": "convenience"
      }
    },
    {
      "displayName": "BR",
      "id": "br-12bebb",
      "locationSet": {"include": ["br"]},
      "tags": {
        "brand": "BR",
        "brand:wikidata": "Q4836468",
        "name": "BR",
        "shop": "convenience"
      }
    },
    {
      "displayName": "BR Mania",
      "id": "brmania-12bebb",
      "locationSet": {"include": ["br"]},
      "tags": {
        "brand": "BR Mania",
        "name": "BR Mania",
        "shop": "convenience"
      }
    },
    {
      "displayName": "Buc-ee's",
      "id": "bucees-f1e40b",
      "locationSet": {"include": ["us"]},
      "tags": {
        "brand": "Buc-ee's",
        "brand:wikidata": "Q4982335",
        "name": "Buc-ee's",
        "shop": "convenience"
      }
    },
    {
      "displayName": "Budgens",
      "id": "budgens-232829",
      "locationSet": {"include": ["gb"]},
      "tags": {
        "brand": "Budgens",
        "brand:wikidata": "Q4985016",
        "name": "Budgens",
        "shop": "convenience"
      }
    },
    {
      "displayName": "Caltex",
      "id": "caltex-4d6b4b",
      "locationSet": {"include": ["001"]},
      "tags": {
        "brand": "Caltex",
        "name": "Caltex",
        "shop": "convenience"
      }
    },
    {
      "displayName": "Carrefour",
      "id": "carrefour-4d6b4b",
      "locationSet": {"include": ["001"]},
      "tags": {
        "brand": "Carrefour",
        "brand:wikidata": "Q217599",
        "name": "Carrefour",
        "shop": "convenience"
      }
    },
    {
      "displayName": "Carrefour Express",
      "id": "carrefourexpress-4d6b4b",
      "locationSet": {"include": ["001"]},
      "matchTags": ["shop/supermarket"],
      "tags": {
        "brand": "Carrefour Express",
        "brand:wikidata": "Q2940190",
        "name": "Carrefour Express",
        "shop": "convenience"
      }
    },
    {
      "displayName": "Casey's General Store",
      "id": "caseysgeneralstore-f1e40b",
      "locationSet": {"include": ["us"]},
      "tags": {
        "brand": "Casey's General Store",
        "brand:wikidata": "Q2940968",
        "name": "Casey's General Store",
        "shop": "convenience"
      }
    },
    {
      "displayName": "Casino Shop",
      "id": "casinoshop-bf3eb4",
      "locationSet": {"include": ["fr"]},
      "matchNames": ["casino"],
      "tags": {
        "brand": "Casino Shop",
        "brand:wikidata": "Q89029601",
        "name": "Casino Shop",
        "shop": "convenience"
      }
    },
    {
      "displayName": "CBA",
      "id": "cba-a1e3fb",
      "locationSet": {
        "include": ["bg", "hu", "ro", "sk"]
      },
      "tags": {
        "brand": "CBA",
        "brand:wikidata": "Q779845",
        "name": "CBA",
        "shop": "convenience"
      }
    },
    {
      "displayName": "CEFCO",
      "id": "cefco-abc9e1",
      "locationSet": {
        "include": [
          "us-al.geojson",
          "us-fl.geojson",
          "us-la.geojson",
          "us-ms.geojson",
          "us-tx.geojson"
        ]
      },
      "tags": {
        "amenity": "fuel",
        "brand": "CEFCO",
        "brand:wikidata": "Q110209230",
        "name": "CEFCO",
        "shop": "convenience"
      }
    },
    {
      "displayName": "Cenex",
      "id": "cenex-4d6b4b",
      "locationSet": {"include": ["001"]},
      "tags": {
        "brand": "Cenex",
        "name": "Cenex",
        "shop": "convenience"
      }
    },
    {
      "displayName": "Centra",
      "id": "centra-31620e",
      "locationSet": {"include": ["gb", "ie"]},
      "tags": {
        "brand": "Centra",
        "brand:wikidata": "Q747678",
        "name": "Centra",
        "shop": "convenience"
      }
    },
    {
      "displayName": "Central",
      "id": "central-eb7785",
      "locationSet": {
        "include": ["gb-eng", "gb-sct", "gb-wls"]
      },
      "tags": {
        "brand": "Central Convenience Store",
        "brand:wikidata": "Q97104475",
        "name": "Central",
        "official_name": "Central Convenience Store",
        "shop": "convenience"
      }
    },
    {
      "displayName": "Certified",
      "id": "certified-f1e40b",
      "locationSet": {"include": ["us"]},
      "tags": {
        "brand": "Certified",
        "brand:wikidata": "Q100148356",
        "name": "Certified",
        "official_name": "Certified Oil",
        "shop": "convenience"
      }
    },
    {
      "displayName": "Chata Polska",
      "id": "chatapolska-95f41b",
      "locationSet": {"include": ["pl"]},
      "tags": {
        "brand": "Chata Polska",
        "brand:wikidata": "Q61994406",
        "name": "Chata Polska",
        "shop": "convenience"
      }
    },
    {
      "displayName": "Cheers",
      "id": "cheers-a4ab31",
      "locationSet": {"include": ["sg", "vn"]},
      "tags": {
        "brand": "Cheers",
        "brand:wikidata": "Q64154066",
        "name": "Cheers",
        "opening_hours": "24/7",
        "shop": "convenience"
      }
    },
    {
      "displayName": "Chevron",
      "id": "chevron-f1e40b",
      "locationSet": {"include": ["us"]},
      "tags": {
        "brand": "Chevron",
        "brand:wikidata": "Q319642",
        "name": "Chevron",
        "shop": "convenience"
      }
    },
    {
      "displayName": "Chorten",
      "id": "chorten-95f41b",
      "locationSet": {"include": ["pl"]},
      "tags": {
        "brand": "Chorten",
        "brand:wikidata": "Q48843988",
        "name": "Chorten",
        "shop": "convenience"
      }
    },
    {
      "displayName": "Circle K",
      "id": "circlek-4d6b4b",
      "locationSet": {"include": ["001"]},
      "matchNames": ["ok", "ok-mart"],
      "tags": {
        "brand": "Circle K",
        "brand:wikidata": "Q3268010",
        "name": "Circle K",
        "shop": "convenience"
      }
    },
    {
      "displayName": "Citgo",
      "id": "citgo-f1e40b",
      "locationSet": {"include": ["us"]},
      "tags": {
        "brand": "Citgo",
        "brand:wikidata": "Q2974437",
        "name": "Citgo",
        "shop": "convenience"
      }
    },
    {
      "displayName": "Clark's Pump-N-Shop",
      "id": "clarkspumpnshop-f1e40b",
      "locationSet": {"include": ["us"]},
      "tags": {
        "brand": "Clark's Pump-N-Shop",
        "brand:wikidata": "Q65118218",
        "name": "Clark's Pump-N-Shop",
        "shop": "convenience"
      }
    },
    {
      "displayName": "Clydebank Co-operative Society",
      "id": "clydebankcooperative-232829",
      "locationSet": {"include": ["gb"]},
      "tags": {
        "brand": "Clydebank Co-operative",
        "brand:wikidata": "Q5137069",
        "name": "Clydebank Co-operative",
        "operator": "Clydebank Co-operative Society",
        "operator:wikidata": "Q5137069",
        "shop": "convenience"
      }
    },
    {
      "displayName": "Co-op (Canada)",
      "id": "coop-eea72f",
      "locationSet": {"include": ["ca"]},
      "tags": {
        "brand": "Federated Co-operatives",
        "brand:wikidata": "Q5440676",
        "name": "Co-op",
        "shop": "convenience"
      }
    },
    {
      "displayName": "Co-op Daily",
      "id": "coopdaily-232829",
      "locationSet": {"include": ["gb"]},
      "tags": {
        "brand": "Co-op Daily",
        "brand:wikidata": "Q107589681",
        "name": "CO-OP Daily",
        "operator": "East of England Co-operative Society",
        "operator:wikidata": "Q5329759",
        "shop": "convenience"
      }
    },
    {
      "displayName": "Co-op Food",
      "id": "coopfood-232829",
      "locationSet": {"include": ["gb"]},
      "matchNames": ["coop"],
      "tags": {
        "brand": "Co-op Food",
        "brand:wikidata": "Q3277439",
        "name": "Co-op Food",
        "shop": "convenience"
      }
    },
    {
      "displayName": "Co-operative En Route",
      "id": "cooperativeenroute-d9d9cb",
      "locationSet": {"include": ["gg", "je"]},
      "tags": {
        "brand": "Co-operative En Route",
        "brand:wikidata": "Q107594899",
        "name": "Co-operative En Route",
        "operator": "Channel Islands Co-operative Society",
        "operator:wikidata": "Q108129104",
        "shop": "convenience"
      }
    },
    {
      "displayName": "Co-operative Locale",
      "id": "cooperativelocale-d9d9cb",
      "locationSet": {"include": ["gg", "je"]},
      "tags": {
        "brand": "Co-operative Locale",
        "brand:wikidata": "Q107594899",
        "name": "Co-operative Locale",
        "operator": "Channel Islands Co-operative Society",
        "operator:wikidata": "Q5072404",
        "shop": "convenience"
      }
    },
    {
      "displayName": "CocciMarket",
      "id": "coccimarket-bf3eb4",
      "locationSet": {"include": ["fr"]},
      "tags": {
        "brand": "CocciMarket",
        "brand:wikidata": "Q90020480",
        "name": "CocciMarket",
        "shop": "convenience"
      }
    },
    {
      "displayName": "CocciMarket City",
      "id": "coccimarketcity-bf3eb4",
      "locationSet": {"include": ["fr"]},
      "tags": {
        "brand": "CocciMarket City",
        "brand:wikidata": "Q90020481",
        "name": "CocciMarket City",
        "shop": "convenience"
      }
    },
    {
      "displayName": "Coles Express",
      "id": "colesexpress-0b0ae9",
      "locationSet": {"include": ["au"]},
      "tags": {
        "brand": "Coles Express",
        "brand:wikidata": "Q5144653",
        "name": "Coles Express",
        "operator": "Coles Group",
        "operator:wikidata": "Q1339055",
        "shop": "convenience"
      }
    },
    {
      "displayName": "Conoco",
      "id": "conoco-f1e40b",
      "locationSet": {"include": ["us"]},
      "tags": {
        "brand": "Conoco",
        "brand:wikidata": "Q109341187",
        "name": "Conoco",
        "shop": "convenience"
      }
    },
    {
      "displayName": "Convenient Food Mart",
      "id": "convenientfoodmart-f1e40b",
      "locationSet": {"include": ["us"]},
      "tags": {
        "brand": "Convenient Food Mart",
        "brand:wikidata": "Q5166143",
        "name": "Convenient Food Mart",
        "shop": "convenience"
      }
    },
    {
      "displayName": "Coop (Schweiz)",
      "id": "coop-07a460",
      "locationSet": {"include": ["ch"]},
      "tags": {
        "brand": "Coop",
        "brand:wikidata": "Q432564",
        "name": "Coop",
        "shop": "convenience"
      }
    },
    {
      "displayName": "Coop ABC",
      "id": "coopabc-58d40d",
      "locationSet": {"include": ["hu"]},
      "tags": {
        "brand": "Coop ABC",
        "brand:wikidata": "Q868980",
        "name": "Coop ABC",
        "shop": "convenience"
      }
    },
    {
      "displayName": "COOP Jednota",
      "id": "coopjednota-65ae8a",
      "locationSet": {"include": ["cz", "sk"]},
      "matchNames": ["jednota"],
      "tags": {
        "brand": "COOP Jednota",
        "brand:wikidata": "Q41629254",
        "name": "COOP Jednota",
        "shop": "convenience"
      }
    },
    {
      "displayName": "Coop Mini",
      "id": "coopmini-58d40d",
      "locationSet": {"include": ["hu"]},
      "tags": {
        "brand": "Coop Mini",
        "brand:wikidata": "Q868980",
        "name": "Coop Mini",
        "shop": "convenience"
      }
    },
    {
      "displayName": "Coop Pronto",
      "id": "cooppronto-0438d5",
      "locationSet": {"include": ["ch", "li"]},
      "tags": {
        "brand": "Coop Pronto",
        "brand:wikidata": "Q1129777",
        "name": "Coop Pronto",
        "shop": "convenience"
      }
    },
    {
      "displayName": "Costcutter",
      "id": "costcutter-31620e",
      "locationSet": {"include": ["gb", "ie"]},
      "matchNames": ["costcutters"],
      "tags": {
        "brand": "Costcutter",
        "brand:wikidata": "Q5175072",
        "name": "Costcutter",
        "shop": "convenience"
      }
    },
    {
      "displayName": "Couche-Tard",
      "id": "couchetard-eea72f",
      "locationSet": {"include": ["ca"]},
      "tags": {
        "brand": "Couche-Tard",
        "brand:wikidata": "Q2836957",
        "name": "Couche-Tard",
        "shop": "convenience"
      }
    },
    {
      "displayName": "Cruizers",
      "id": "cruizers-f1e40b",
      "locationSet": {"include": ["us"]},
      "tags": {
        "brand": "Cruizers",
        "brand:wikidata": "Q66134801",
        "name": "Cruizers",
        "shop": "convenience"
      }
    },
    {
      "displayName": "CU",
      "id": "cu-3b6392",
      "locationSet": {"include": ["kr", "my"]},
      "tags": {
        "brand": "CU",
        "brand:wikidata": "Q12580836",
        "name": "CU",
        "shop": "convenience"
      }
    },
    {
      "displayName": "Cumberland Farms",
      "id": "cumberlandfarms-f1e40b",
      "locationSet": {"include": ["us"]},
      "tags": {
        "brand": "Cumberland Farms",
        "brand:wikidata": "Q1143685",
        "name": "Cumberland Farms",
        "shop": "convenience"
      }
    },
    {
      "displayName": "Daisy Mart",
      "id": "daisymart-eea72f",
      "locationSet": {"include": ["ca"]},
      "tags": {
        "brand": "Daisy Mart",
        "brand:wikidata": "Q61994934",
        "name": "Daisy Mart",
        "shop": "convenience"
      }
    },
    {
      "displayName": "Dari Mart",
      "id": "darimart-f1e40b",
      "locationSet": {"include": ["us"]},
      "tags": {
        "brand": "Dari Mart",
        "brand:wikidata": "Q5222675",
        "name": "Dari Mart",
        "shop": "convenience"
      }
    },
    {
      "displayName": "Dash In",
      "id": "dashin-f1e40b",
      "locationSet": {"include": ["us"]},
      "tags": {
        "brand": "Dash In",
        "brand:wikidata": "Q108809024",
        "name": "Dash In",
        "shop": "convenience"
      }
    },
    {
      "displayName": "Day-Today",
      "id": "daytoday-31620e",
      "locationSet": {"include": ["gb", "ie"]},
      "tags": {
        "brand": "Day-Today",
        "name": "Day-Today",
        "shop": "convenience"
      }
    },
    {
      "displayName": "Daybreak",
      "id": "daybreak-cb4625",
      "locationSet": {"include": ["ie"]},
      "tags": {
        "brand": "Daybreak",
        "brand:wikidata": "Q112901144",
        "name": "Daybreak",
        "shop": "convenience"
      }
    },
    {
      "displayName": "Delikatesy Centrum",
      "id": "delikatesycentrum-95f41b",
      "locationSet": {"include": ["pl"]},
      "tags": {
        "brand": "Delikatesy Centrum",
        "brand:wikidata": "Q11693824",
        "name": "Delikatesy Centrum",
        "shop": "convenience"
      }
    },
    {
      "displayName": "Delikatesy Premium",
      "id": "delikatesypremium-95f41b",
      "locationSet": {"include": ["pl"]},
      "tags": {
        "brand": "Delikatesy Premium",
        "name": "Delikatesy Premium",
        "shop": "convenience"
      }
    },
    {
      "displayName": "Delikatesy SLAWEX",
      "id": "delikatesyslawex-95f41b",
      "locationSet": {"include": ["pl"]},
      "tags": {
        "brand": "SLAWEX",
        "brand:wikidata": "Q110801396",
        "name": "Delikatesy SLAWEX",
        "shop": "convenience"
      }
    },
    {
      "displayName": "Dia & Go",
      "id": "diaandgo-dd9aae",
      "locationSet": {"include": ["es"]},
      "tags": {
        "brand": "Dia & Go",
        "brand:wikidata": "Q925132",
        "name": "Dia & Go",
        "shop": "convenience"
      }
    },
    {
      "displayName": "Diona",
      "id": "diona-5b00ff",
      "locationSet": {"include": ["hr"]},
      "tags": {
        "brand": "Diona",
        "name": "Diona",
        "shop": "convenience"
      }
    },
    {
      "displayName": "Douka",
      "id": "douka-bf3eb4",
      "locationSet": {"include": ["fr"]},
      "tags": {
        "brand": "Douka",
        "name": "Douka",
        "shop": "convenience"
      }
    },
    {
      "displayName": "DriveCafe",
      "id": "drivecafe-3015fb",
      "locationSet": {"include": ["rs"]},
      "tags": {
        "brand": "DriveCafe",
        "name": "DriveCafe",
        "shop": "convenience"
      }
    },
    {
      "displayName": "Duchess",
      "id": "duchess-439b0d",
      "locationSet": {
        "include": [
          "us-oh.geojson",
          "us-wv.geojson"
        ]
      },
      "tags": {
        "brand": "Duchess",
        "brand:wikidata": "Q111698565",
        "name": "Duchess",
        "shop": "convenience"
      }
    },
    {
      "displayName": "Duka",
      "id": "duka-1ca326",
      "locationSet": {"include": ["tz"]},
      "tags": {
        "brand": "Duka",
        "name": "Duka",
        "shop": "convenience"
      }
    },
    {
      "displayName": "EG Australia",
      "id": "egaustralia-0b0ae9",
      "locationSet": {"include": ["au"]},
      "matchNames": ["woolworths petrol"],
      "tags": {
        "brand": "EG Australia",
        "brand:wikidata": "Q5023980",
        "name": "EG Australia",
        "shop": "convenience"
      }
    },
    {
      "displayName": "Ekomini",
      "id": "ekomini-62eaab",
      "locationSet": {"include": ["tr"]},
      "tags": {
        "brand": "Ekomini",
        "brand:wikidata": "Q115534014",
        "name": "Ekomini",
        "shop": "convenience"
      }
    },
    {
      "displayName": "Enmarket",
      "id": "enmarket-f1e40b",
      "locationSet": {"include": ["us"]},
      "tags": {
        "brand": "Enmarket",
        "brand:wikidata": "Q113207779",
        "name": "Enmarket",
        "shop": "convenience"
      }
    },
    {
      "displayName": "Épi Service",
      "id": "episervice-bf3eb4",
      "locationSet": {"include": ["fr"]},
      "tags": {
        "brand": "Épi Service",
        "name": "Épi Service",
        "shop": "convenience"
      }
    },
    {
      "displayName": "Epicier بقال",
      "id": "0ae0d0-4d6b4b",
      "locationSet": {"include": ["001"]},
      "tags": {
        "brand": "Epicier بقال",
        "name": "Epicier بقال",
        "shop": "convenience"
      }
    },
    {
      "displayName": "Esso",
      "id": "esso-4d6b4b",
      "locationSet": {"include": ["001"]},
      "tags": {
        "brand": "Esso",
        "brand:wikidata": "Q867662",
        "name": "Esso",
        "shop": "convenience"
      }
    },
    {
      "displayName": "Esso Snack & Shop",
      "id": "essosnackandshop-60c7fe",
      "locationSet": {"include": ["de"]},
      "tags": {
        "brand": "Esso",
        "brand:wikidata": "Q867662",
        "name": "Esso Snack & Shop",
        "shop": "convenience"
      }
    },
    {
      "displayName": "Express",
      "id": "express-4d6b4b",
      "locationSet": {"include": ["001"]},
      "tags": {
        "brand": "Express",
        "name": "Express",
        "shop": "convenience"
      }
    },
    {
      "displayName": "Express Mart",
      "id": "expressmart-4d6b4b",
      "locationSet": {"include": ["001"]},
      "tags": {
        "brand": "Express Mart",
        "name": "Express Mart",
        "shop": "convenience"
      }
    },
    {
      "displayName": "ExtraMile",
      "id": "extramile-f1e40b",
      "locationSet": {"include": ["us"]},
      "tags": {
        "brand": "ExtraMile",
        "brand:wikidata": "Q64224605",
        "name": "ExtraMile",
        "shop": "convenience"
      }
    },
    {
      "displayName": "EZ Mart",
      "id": "ezmart-f1e40b",
      "locationSet": {"include": ["us"]},
      "tags": {
        "brand": "EZ Mart",
        "name": "EZ Mart",
        "shop": "convenience"
      }
    },
    {
      "displayName": "Family Express",
      "id": "familyexpress-16b990",
      "locationSet": {
        "include": ["us-in.geojson"]
      },
      "tags": {
        "brand": "Family Express",
        "brand:wikidata": "Q85760458",
        "name": "Family Express",
        "shop": "convenience"
      }
    },
    {
      "displayName": "FamilyMart",
      "id": "familymart-52fb27",
      "locationSet": {
        "include": [
          "cn",
          "id",
          "jp",
          "my",
          "ph",
          "th",
          "tw",
          "vn"
        ]
      },
      "tags": {
        "brand": "FamilyMart",
        "brand:wikidata": "Q1191685",
        "name": "FamilyMart",
        "shop": "convenience"
      }
    },
    {
      "displayName": "Food Mart",
      "id": "foodmart-4d6b4b",
      "locationSet": {"include": ["001"]},
      "tags": {
        "brand": "Food Mart",
        "name": "Food Mart",
        "shop": "convenience"
      }
    },
    {
      "displayName": "Four Square",
      "id": "foursquare-7a43a8",
      "locationSet": {"include": ["nz"]},
      "matchNames": ["4 square"],
      "tags": {
        "brand": "Four Square",
        "brand:wikidata": "Q5475558",
        "name": "Four Square",
        "shop": "convenience"
      }
    },
    {
      "displayName": "Franprix",
      "id": "franprix-bf3eb4",
      "locationSet": {"include": ["fr"]},
      "matchTags": ["shop/supermarket"],
      "tags": {
        "brand": "Franprix",
        "brand:wikidata": "Q2420096",
        "name": "Franprix",
        "shop": "convenience"
      }
    },
    {
      "displayName": "Fresh",
      "id": "fresh-2496a5",
      "locationSet": {"include": ["sk"]},
      "tags": {
        "brand": "Fresh",
        "brand:wikidata": "Q50737403",
        "name": "Fresh",
        "shop": "convenience"
      }
    },
    {
      "displayName": "Fresh Corner",
      "id": "freshcorner-2496a5",
      "locationSet": {"include": ["sk"]},
      "tags": {
        "brand": "Fresh Corner",
        "brand:wikidata": "Q1587563",
        "name": "Fresh Corner",
        "shop": "convenience"
      }
    },
    {
      "displayName": "Friendly Grocer",
      "id": "friendlygrocer-0b0ae9",
      "locationSet": {"include": ["au"]},
      "preserveTags": ["^name"],
      "tags": {
        "brand": "Friendly Grocer",
        "brand:wikidata": "Q24190419",
        "name": "Friendly Grocer",
        "shop": "convenience"
      }
    },
    {
      "displayName": "Full",
      "id": "full-4c351f",
      "locationSet": {"include": ["ar"]},
      "tags": {
        "brand": "Full",
        "name": "Full",
        "shop": "convenience"
      }
    },
    {
      "displayName": "Gala",
      "id": "gala-cb4625",
      "locationSet": {"include": ["ie"]},
      "tags": {
        "brand": "Gala",
        "brand:wikidata": "Q5517749",
        "name": "Gala",
        "shop": "convenience"
      }
    },
    {
      "displayName": "Gama",
      "id": "gama-4d6b4b",
      "locationSet": {"include": ["001"]},
      "tags": {
        "brand": "Gama",
        "name": "Gama",
        "shop": "convenience"
      }
    },
    {
      "displayName": "Gavranović",
      "id": "gavranovic-5b00ff",
      "locationSet": {"include": ["hr"]},
      "tags": {
        "brand": "Gavranović",
        "name": "Gavranović",
        "shop": "convenience"
      }
    },
    {
      "displayName": "GetGo",
      "id": "getgo-f1e40b",
      "locationSet": {"include": ["us"]},
      "tags": {
        "brand": "GetGo",
        "brand:wikidata": "Q5553766",
        "name": "GetGo",
        "shop": "convenience"
      }
    },
    {
      "displayName": "GoMart",
      "id": "gomart-07a9fd",
      "locationSet": {
        "include": [
          "us-ky.geojson",
          "us-oh.geojson",
          "us-va.geojson",
          "us-wv.geojson"
        ]
      },
      "tags": {
        "brand": "GoMart",
        "brand:wikidata": "Q5574575",
        "name": "GoMart",
        "shop": "convenience"
      }
    },
    {
      "displayName": "Gomex",
      "id": "gomex-3015fb",
      "locationSet": {"include": ["rs"]},
      "tags": {
        "brand": "Gomex",
        "brand:wikidata": "Q115570534",
        "name": "Gomex",
        "name:sr": "Гомекс",
        "name:sr-Latn": "Gomeks",
        "shop": "convenience"
      }
    },
    {
      "displayName": "Good 2 Go",
      "id": "good2go-f1e40b",
      "locationSet": {"include": ["us"]},
      "tags": {
        "brand": "Good 2 Go",
        "brand:wikidata": "Q109826132",
        "name": "Good 2 Go",
        "shop": "convenience"
      }
    },
    {
      "displayName": "Groszek",
      "id": "groszek-95f41b",
      "locationSet": {"include": ["pl"]},
      "tags": {
        "brand": "Groszek",
        "brand:wikidata": "Q9280965",
        "name": "Groszek",
        "shop": "convenience"
      }
    },
    {
      "displayName": "GS25",
      "id": "gs25-f248a7",
      "locationSet": {"include": ["kr", "vn"]},
      "matchTags": ["shop/supermarket"],
      "tags": {
        "brand": "GS25",
        "brand:wikidata": "Q624041",
        "name": "GS25",
        "shop": "convenience"
      }
    },
    {
      "displayName": "Gutkauf",
      "id": "gutkauf-60c7fe",
      "locationSet": {"include": ["de"]},
      "matchTags": ["shop/supermarket"],
      "tags": {
        "brand": "Gutkauf",
        "brand:wikidata": "Q112253146",
        "name": "Gutkauf",
        "shop": "convenience"
      }
    },
    {
      "displayName": "Hasty Market",
      "id": "hastymarket-eea72f",
      "locationSet": {"include": ["ca"]},
      "tags": {
        "brand": "Hasty Market",
        "brand:wikidata": "Q58022603",
        "name": "Hasty Market",
        "shop": "convenience"
      }
    },
    {
      "displayName": "HiperDino Express",
      "id": "hiperdinoexpress-dd9aae",
      "locationSet": {"include": ["es"]},
      "tags": {
        "brand": "HiperDino Express",
        "brand:wikidata": "Q105955317",
        "operator": "DinoSol",
        "operator:wikidata": "Q5278478",
        "shop": "convenience"
      }
    },
    {
      "displayName": "Holiday",
      "id": "holiday-f1e40b",
      "locationSet": {"include": ["us"]},
      "tags": {
        "brand": "Holiday",
        "brand:wikidata": "Q5880490",
        "name": "Holiday",
        "shop": "convenience"
      }
    },
    {
      "displayName": "Hruška",
      "id": "hruska-a7773e",
      "locationSet": {"include": ["cz"]},
      "tags": {
        "brand": "Hruška",
        "name": "Hruška",
        "shop": "convenience"
      }
    },
    {
      "displayName": "Huck's Food & Fuel",
      "id": "hucksfoodandfuel-f1e40b",
      "locationSet": {"include": ["us"]},
      "tags": {
        "brand": "Huck's Food & Fuel",
        "brand:wikidata": "Q56276328",
        "name": "Huck's Food & Fuel",
        "shop": "convenience",
        "short_name": "Huck's"
      }
    },
    {
      "displayName": "Hudson",
      "id": "hudson-16ec4d",
      "locationSet": {"include": ["ca", "us"]},
      "tags": {
        "brand": "Hudson",
        "brand:wikidata": "Q111534515",
        "name": "Hudson",
        "shop": "convenience"
      }
    },
    {
      "displayName": "Hursts",
      "id": "hursts-232829",
      "locationSet": {"include": ["gb"]},
      "tags": {
        "brand": "Hursts",
        "brand:wikidata": "Q80975681",
        "name": "Hursts",
        "shop": "convenience"
      }
    },
    {
      "displayName": "Husky",
      "id": "husky-eea72f",
      "locationSet": {"include": ["ca"]},
      "tags": {
        "brand": "Husky",
        "brand:wikidata": "Q702049",
        "name": "Husky",
        "shop": "convenience"
      }
    },
    {
      "displayName": "ICA",
      "id": "ica-c2a4d7",
      "locationSet": {"include": ["no", "se"]},
      "note": "https://github.com/osmlab/name-suggestion-index/issues/5500",
      "preserveTags": ["^name"],
      "tags": {
        "brand": "ICA",
        "brand:wikidata": "Q1663776",
        "name": "ICA",
        "shop": "convenience"
      }
    },
    {
      "displayName": "ICA Nära",
      "id": "icanara-f5adeb",
      "locationSet": {"include": ["se"]},
      "tags": {
        "brand": "ICA Nära",
        "brand:wikidata": "Q1663776",
        "name": "ICA Nära",
        "shop": "convenience"
      }
    },
    {
      "displayName": "IDEA",
      "id": "idea-8f21d6",
      "locationSet": {"include": ["me", "rs"]},
      "matchTags": ["shop/supermarket"],
      "tags": {
        "brand": "IDEA",
        "brand:en": "IDEA",
        "brand:sr": "Идеа",
        "brand:wikidata": "Q23461622",
        "name": "IDEA",
        "name:sr": "Идеа",
        "name:sr-Latn": "Idea",
        "shop": "convenience"
      }
    },
    {
      "displayName": "IDEA Organic",
      "id": "ideaorganic-3015fb",
      "locationSet": {"include": ["rs"]},
      "tags": {
        "brand": "IDEA Organic",
        "brand:en": "IDEA Organic",
        "brand:sr": "Идеа органик",
        "brand:wikidata": "Q114670320",
        "name": "IDEA Organic",
        "name:sr": "Идеа органик",
        "name:sr-Latn": "Idea organik",
        "organic": "only",
        "shop": "convenience"
      }
    },
    {
      "displayName": "IGA (Australia)",
      "id": "iga-0b0ae9",
      "locationSet": {"include": ["au"]},
      "preserveTags": ["^name"],
      "tags": {
        "brand": "IGA",
        "brand:wikidata": "Q5970945",
        "name": "IGA",
        "shop": "convenience"
      }
    },
    {
      "displayName": "Indomaret",
      "id": "indomaret-bb8a09",
      "locationSet": {"include": ["id"]},
      "matchNames": ["indomart"],
      "matchTags": ["shop/supermarket"],
      "tags": {
        "brand": "Indomaret",
        "brand:wikidata": "Q4262825",
        "name": "Indomaret",
        "shop": "convenience"
      }
    },
    {
      "displayName": "Intermarché Contact",
      "id": "intermarchecontact-bf3eb4",
      "locationSet": {"include": ["fr"]},
      "matchTags": ["shop/supermarket"],
      "tags": {
        "brand": "Intermarché Contact",
        "brand:wikidata": "Q98278049",
        "name": "Intermarché Contact",
        "shop": "convenience"
      }
    },
    {
      "displayName": "Ipiranga",
      "id": "ipiranga-12bebb",
      "locationSet": {"include": ["br"]},
      "tags": {
        "brand": "Ipiranga",
        "name": "Ipiranga",
        "shop": "convenience"
      }
    },
    {
      "displayName": "Irving",
      "id": "irving-16ec4d",
      "locationSet": {"include": ["ca", "us"]},
      "tags": {
        "brand": "Irving",
        "brand:wikidata": "Q1673286",
        "name": "Irving",
        "shop": "convenience"
      }
    },
    {
      "displayName": "J&H Family Stores",
      "id": "jandhfamilystores-f1e40b",
      "locationSet": {"include": ["us"]},
      "note": "ISO_3166-2:US us-mi (Michigan State of the USA)",
      "tags": {
        "brand": "J&H Family Stores",
        "name": "J&H Family Stores",
        "shop": "convenience"
      }
    },
    {
      "displayName": "Jacksons",
      "id": "jacksons-f1e40b",
      "locationSet": {"include": ["us"]},
      "tags": {
        "brand": "Jacksons",
        "brand:wikidata": "Q64617393",
        "name": "Jacksons",
        "shop": "convenience"
      }
    },
    {
      "displayName": "Jiffy",
      "id": "jiffy-c8e053",
      "locationSet": {
        "include": ["kh", "la", "ph", "th"]
      },
      "tags": {
        "brand": "Jiffy",
        "brand:en": "Jiffy",
        "brand:th": "จิฟฟี่",
        "brand:wikidata": "Q16770436",
        "name": "Jiffy",
        "name:en": "Jiffy",
        "name:th": "จิฟฟี่",
        "shop": "convenience"
      }
    },
    {
      "displayName": "Joe's Kwik Marts",
      "id": "joeskwikmarts-f1e40b",
      "locationSet": {"include": ["us"]},
      "tags": {
        "brand": "Joe's Kwik Marts",
        "brand:wikidata": "Q109871144",
        "name": "Joe's Kwik Marts",
        "shop": "convenience"
      }
    },
    {
      "displayName": "K-Market",
      "id": "kmarket-5dea79",
      "locationSet": {"include": ["fi"]},
      "matchTags": ["shop/supermarket"],
      "tags": {
        "brand": "K-Market",
        "brand:wikidata": "Q11868562",
        "name": "K-Market",
        "shop": "convenience"
      }
    },
    {
      "displayName": "Kangaroo Express",
      "id": "kangarooexpress-f1e40b",
      "locationSet": {"include": ["us"]},
      "tags": {
        "brand": "Kangaroo Express",
        "brand:wikidata": "Q61747408",
        "name": "Kangaroo Express",
        "shop": "convenience",
        "short_name": "Kangaroo"
      }
    },
    {
      "displayName": "Kent Kwik",
      "id": "kentkwik-c3f9f6",
      "locationSet": {
        "include": [
          "us-nm.geojson",
          "us-ok.geojson",
          "us-tx.geojson"
        ]
      },
      "tags": {
        "brand": "Kent Kwik",
        "brand:wikidata": "Q110622262",
        "name": "Kent Kwik",
        "shop": "convenience"
      }
    },
    {
      "displayName": "Kirana Pasal",
      "id": "kiranapasal-70535b",
      "locationSet": {"include": ["np"]},
      "tags": {
        "brand": "Kirana Pasal",
        "name": "Kirana Pasal",
        "shop": "convenience"
      }
    },
    {
      "displayName": "KK Super Mart",
      "id": "kksupermart-3e5671",
      "locationSet": {"include": ["my"]},
      "matchNames": ["kk mart"],
      "matchTags": ["shop/supermarket"],
      "tags": {
        "brand": "KK Super Mart",
        "brand:wikidata": "Q95721993",
        "name": "KK Super Mart",
        "shop": "convenience",
        "short_name": "KK"
      }
    },
    {
      "displayName": "Konzum (Balkans)",
      "id": "konzum-442b6e",
      "locationSet": {
        "include": ["ba", "hr", "rs"]
      },
      "tags": {
        "brand": "Konzum",
        "brand:wikidata": "Q518563",
        "name": "Konzum",
        "shop": "convenience"
      }
    },
    {
      "displayName": "Konzum (Czechia)",
      "id": "konzum-65ae8a",
      "locationSet": {"include": ["cz", "sk"]},
      "tags": {
        "brand": "Konzum",
        "name": "Konzum",
        "shop": "convenience"
      }
    },
    {
      "displayName": "Koops",
      "id": "koops-64a6c9",
      "locationSet": {"include": ["lt"]},
      "tags": {
        "brand": "Koops",
        "name": "Koops",
        "shop": "convenience"
      }
    },
    {
      "displayName": "Kropka",
      "id": "kropka-95f41b",
      "locationSet": {"include": ["pl"]},
      "tags": {
        "brand": "Kropka",
        "name": "Kropka",
        "shop": "convenience"
      }
    },
    {
      "displayName": "Kum & Go",
      "id": "kumandgo-f1e40b",
      "locationSet": {"include": ["us"]},
      "tags": {
        "brand": "Kum & Go",
        "brand:wikidata": "Q6443340",
        "name": "Kum & Go",
        "shop": "convenience"
      }
    },
    {
      "displayName": "Kuups",
      "id": "kuups-dd9aae",
      "locationSet": {"include": ["es"]},
      "matchNames": ["kups"],
      "matchTags": ["shop/supermarket"],
      "tags": {
        "brand": "Kuups",
        "brand:wikidata": "Q113464694",
        "name": "Kuups",
        "operator": "Kuups Design International SL",
        "operator:wikidata": "Q113464694",
        "shop": "convenience"
      }
    },
    {
      "displayName": "Kwik Shop",
      "id": "kwikshop-f1e40b",
      "locationSet": {"include": ["us"]},
      "tags": {
        "brand": "Kwik Shop",
        "brand:wikidata": "Q6450417",
        "name": "Kwik Shop",
        "shop": "convenience"
      }
    },
    {
      "displayName": "Kwik Trip",
      "id": "kwiktrip-f1e40b",
      "locationSet": {"include": ["us"]},
      "tags": {
        "brand": "Kwik Trip",
        "brand:wikidata": "Q6450420",
        "name": "Kwik Trip",
        "shop": "convenience"
      }
    },
    {
      "displayName": "La Doi Pași",
      "id": "ladoipasi-597303",
      "locationSet": {"include": ["ro"]},
      "tags": {
        "brand": "La Doi Pași",
        "brand:wikidata": "Q18544132",
        "name": "La Doi Pași",
        "shop": "convenience"
      }
    },
    {
      "displayName": "La Vie Claire",
      "id": "lavieclaire-bf3eb4",
      "locationSet": {"include": ["fr"]},
      "tags": {
        "brand": "La Vie Claire",
        "brand:wikidata": "Q3213589",
        "name": "La Vie Claire",
        "organic": "only",
        "shop": "convenience"
      }
    },
    {
      "displayName": "LaTS",
      "id": "lats-401681",
      "locationSet": {"include": ["lv"]},
      "tags": {
        "brand": "LaTS",
        "name": "LaTS",
        "shop": "convenience"
      }
    },
    {
      "displayName": "Lawson",
      "id": "lawson-04f01c",
      "locationSet": {
        "include": ["001"],
        "exclude": ["cn"]
      },
      "tags": {
        "brand": "Lawson",
        "brand:wikidata": "Q1557223",
        "name": "Lawson",
        "shop": "convenience"
      }
    },
    {
      "displayName": "Le Petit Casino",
      "id": "lepetitcasino-bf3eb4",
      "locationSet": {"include": ["fr"]},
      "matchNames": ["petit casino"],
      "tags": {
        "brand": "Le Petit Casino",
        "brand:wikidata": "Q89029249",
        "name": "Le Petit Casino",
        "shop": "convenience"
      }
    },
    {
      "displayName": "Lewiatan",
      "id": "lewiatan-95f41b",
      "locationSet": {"include": ["pl"]},
      "tags": {
        "brand": "Lewiatan",
        "brand:wikidata": "Q11755396",
        "name": "Lewiatan",
        "shop": "convenience"
      }
    },
    {
      "displayName": "Lifestyle Express",
      "id": "lifestyleexpress-232829",
      "locationSet": {"include": ["gb"]},
      "tags": {
        "brand": "Lifestyle Express",
        "brand:wikidata": "Q61994869",
        "name": "Lifestyle Express",
        "shop": "convenience"
      }
    },
    {
      "displayName": "Little Waitrose",
      "id": "littlewaitrose-126aa8",
      "locationSet": {"include": ["gb", "je"]},
      "tags": {
        "brand": "Little Waitrose",
        "brand:wikidata": "Q771734",
        "name": "Little Waitrose",
        "shop": "convenience"
      }
    },
    {
      "displayName": "Livio",
      "id": "livio-95f41b",
      "locationSet": {"include": ["pl"]},
      "tags": {
        "brand": "Livio",
        "brand:wikidata": "Q108599511",
        "name": "Livio",
        "shop": "convenience"
      }
    },
    {
      "displayName": "Loaf 'N Jug",
      "id": "loafnjug-f1e40b",
      "locationSet": {"include": ["us"]},
      "tags": {
        "brand": "Loaf 'N Jug",
        "brand:wikidata": "Q6663398",
        "name": "Loaf 'N Jug",
        "shop": "convenience"
      }
    },
    {
      "displayName": "Londis (Ireland)",
      "id": "londis-cb4625",
      "locationSet": {"include": ["ie"]},
      "tags": {
        "brand": "Londis",
        "brand:wikidata": "Q21015800",
        "name": "Londis",
        "shop": "convenience"
      }
    },
    {
      "displayName": "Londis (UK)",
      "id": "londis-232829",
      "locationSet": {"include": ["gb"]},
      "tags": {
        "brand": "Londis",
        "brand:wikidata": "Q21008564",
        "name": "Londis",
        "shop": "convenience"
      }
    },
    {
      "displayName": "Lonia",
      "id": "lonia-5b00ff",
      "locationSet": {"include": ["hr"]},
      "tags": {
        "brand": "Lonia",
        "name": "Lonia",
        "shop": "convenience"
      }
    },
    {
      "displayName": "Love's",
      "id": "loves-f1e40b",
      "locationSet": {"include": ["us"]},
      "tags": {
        "brand": "Love's",
        "brand:wikidata": "Q1872496",
        "name": "Love's",
        "shop": "convenience"
      }
    },
    {
      "displayName": "M&S Simply Food",
      "id": "mandssimplyfood-4d6b4b",
      "locationSet": {"include": ["001"]},
      "matchNames": [
        "marks & spencer simply food"
      ],
      "tags": {
        "brand": "M&S Simply Food",
        "brand:wikidata": "Q714491",
        "name": "M&S Simply Food",
        "shop": "convenience"
      }
    },
    {
      "displayName": "Mac's",
      "id": "macs-eea72f",
      "locationSet": {"include": ["ca"]},
      "tags": {
        "brand": "Mac's",
        "brand:wikidata": "Q4043527",
        "name": "Mac's",
        "shop": "convenience"
      }
    },
    {
      "displayName": "Mace (Ireland)",
      "id": "mace-cb4625",
      "locationSet": {"include": ["ie"]},
      "tags": {
        "brand": "Mace",
        "brand:wikidata": "Q75236910",
        "name": "Mace",
        "shop": "convenience"
      }
    },
    {
      "displayName": "Mace (Northern Ireland)",
      "id": "mace-1a0d8e",
      "locationSet": {"include": ["gb-nir"]},
      "tags": {
        "brand": "Mace",
        "brand:wikidata": "Q75238536",
        "name": "Mace",
        "shop": "convenience"
      }
    },
    {
      "displayName": "Mace (UK)",
      "id": "mace-eb7785",
      "locationSet": {
        "include": ["gb-eng", "gb-sct", "gb-wls"]
      },
      "tags": {
        "brand": "Mace",
        "brand:wikidata": "Q75240338",
        "name": "Mace",
        "shop": "convenience"
      }
    },
    {
      "displayName": "Maisto prekės",
      "id": "maistoprekes-64a6c9",
      "locationSet": {"include": ["lt"]},
      "tags": {
        "brand": "Maisto prekės",
        "name": "Maisto prekės",
        "shop": "convenience"
      }
    },
    {
      "displayName": "Małpka Express",
      "id": "malpkaexpress-95f41b",
      "locationSet": {"include": ["pl"]},
      "tags": {
        "brand": "Małpka Express",
        "brand:wikidata": "Q18431946",
        "name": "Małpka Express",
        "shop": "convenience"
      }
    },
    {
      "displayName": "Mapco",
      "id": "mapco-f1e40b",
      "locationSet": {"include": ["us"]},
      "tags": {
        "brand": "Mapco",
        "brand:wikidata": "Q107589462",
        "name": "Mapco",
        "shop": "convenience"
      }
    },
    {
      "displayName": "Marathon",
      "id": "marathon-f1e40b",
      "locationSet": {"include": ["us"]},
      "tags": {
        "brand": "Marathon",
        "brand:wikidata": "Q458363",
        "name": "Marathon",
        "shop": "convenience"
      }
    },
    {
      "displayName": "Martín Martín",
      "id": "martinmartin-dd9aae",
      "locationSet": {"include": ["es"]},
      "tags": {
        "brand": "Martín Martín",
        "brand:wikidata": "Q98546074",
        "name": "Martín Martín",
        "shop": "convenience"
      }
    },
    {
      "displayName": "masymas basic",
      "id": "masymasbasic-849ea7",
      "locationSet": {
        "include": [
          [-0.3, 38.6983, 60],
          [-0.7197, 39.4717, 60],
          [-0.8792, 37.6237, 20],
          [-1.041389, 38.207222, 60],
          [-1.6023, 37.7126, 50],
          [0.0096, 40.3, 60]
        ]
      },
      "tags": {
        "brand": "masymas",
        "brand:wikidata": "Q6135987",
        "name": "masymas basic",
        "operator": "Juan Fornés Fornés S.A.",
        "operator:wikidata": "Q6135987",
        "shop": "convenience"
      }
    },
    {
      "displayName": "Maveli Store",
      "id": "mavelistore-bb430b",
      "locationSet": {"include": ["in"]},
      "tags": {
        "brand": "Maveli Store",
        "brand:wikidata": "Q6794132",
        "name": "Maveli Store",
        "shop": "convenience"
      }
    },
    {
      "displayName": "Maverik",
      "id": "maverik-f1e40b",
      "locationSet": {"include": ["us"]},
      "tags": {
        "brand": "Maverik",
        "brand:wikidata": "Q64149010",
        "name": "Maverik",
        "shop": "convenience"
      }
    },
    {
      "displayName": "Maxikiosco",
      "id": "maxikiosco-478c1f",
      "locationSet": {"include": ["ar", "uy"]},
      "tags": {
        "brand": "Maxikiosco",
        "name": "Maxikiosco",
        "shop": "convenience"
      }
    },
    {
      "displayName": "McColl's",
      "id": "mccolls-232829",
      "locationSet": {"include": ["gb"]},
      "tags": {
        "brand": "McColl's",
        "brand:wikidata": "Q16997477",
        "name": "McColl's",
        "shop": "convenience"
      }
    },
    {
      "displayName": "Meijer",
      "id": "meijer-f1e40b",
      "locationSet": {"include": ["us"]},
      "tags": {
        "brand": "Meijer",
        "brand:wikidata": "Q1917753",
        "name": "Meijer",
        "shop": "convenience"
      }
    },
    {
      "displayName": "Mercator",
      "id": "mercator-eb6d99",
      "locationSet": {
        "include": [
          "ba",
          "hr",
          "me",
          "mk",
          "rs",
          "si"
        ]
      },
      "tags": {
        "brand": "Mercator",
        "brand:wikidata": "Q738412",
        "name": "Mercator",
        "shop": "convenience"
      }
    },
    {
      "displayName": "Mesra",
      "id": "mesra-3e5671",
      "locationSet": {"include": ["my"]},
      "tags": {
        "brand": "Mesra",
        "name": "Mesra",
        "shop": "convenience"
      }
    },
    {
      "displayName": "METSS",
      "id": "metss-5b00ff",
      "locationSet": {"include": ["hr"]},
      "tags": {
        "brand": "METSS",
        "name": "METSS",
        "shop": "convenience"
      }
    },
    {
      "displayName": "Migrolino",
      "id": "migrolino-07a460",
      "locationSet": {"include": ["ch"]},
      "tags": {
        "brand": "Migrolino",
        "brand:wikidata": "Q56745088",
        "name": "Migrolino",
        "shop": "convenience"
      }
    },
    {
      "displayName": "Milk-Agro",
      "id": "milkagro-2496a5",
      "locationSet": {"include": ["sk"]},
      "tags": {
        "brand": "Milk-Agro",
        "brand:wikidata": "Q64173785",
        "name": "Milk-Agro",
        "shop": "convenience"
      }
    },
    {
      "displayName": "Mini Big C",
      "id": "minibigc-f572b3",
      "locationSet": {"include": ["th"]},
      "tags": {
        "brand": "Mini Big C",
        "brand:wikidata": "Q858665",
        "name": "Mini Big C",
        "shop": "convenience"
      }
    },
    {
      "displayName": "Mini Extra",
      "id": "miniextra-12bebb",
      "locationSet": {"include": ["br"]},
      "tags": {
        "brand": "Mini Extra",
        "brand:wikidata": "Q5422131",
        "name": "Mini Extra",
        "shop": "convenience"
      }
    },
    {
      "displayName": "Mini Mix",
      "id": "minimix-57794c",
      "locationSet": {
        "include": [
          "at",
          "be",
          "cy",
          "cz",
          "de",
          "es",
          "fr",
          "gb",
          "gr",
          "it",
          "me",
          "nl",
          "pt"
        ]
      },
      "matchNames": ["mini mix markt"],
      "matchTags": ["shop/supermarket"],
      "tags": {
        "brand": "Mini Mix",
        "brand:wikidata": "Q327854",
        "name": "Mini Mix",
        "shop": "convenience"
      }
    },
    {
      "displayName": "miniM",
      "id": "minim-d41f40",
      "locationSet": {"include": ["at"]},
      "tags": {
        "brand": "MPreis",
        "brand:wikidata": "Q873491",
        "name": "miniM",
        "shop": "convenience"
      }
    },
    {
      "displayName": "Ministop",
      "id": "ministop-d6ae81",
      "locationSet": {
        "include": ["cn", "kz", "ph", "vn"]
      },
      "tags": {
        "brand": "Ministop",
        "brand:wikidata": "Q1038929",
        "name": "Ministop",
        "shop": "convenience"
      }
    },
    {
      "displayName": "Minit Mart",
      "id": "minitmart-f1e40b",
      "locationSet": {"include": ["us"]},
      "tags": {
        "brand": "Minit Mart",
        "brand:wikidata": "Q18154470",
        "name": "Minit Mart",
        "shop": "convenience"
      }
    },
    {
      "displayName": "miniピアゴ",
      "id": "minipiago-652b3e",
      "locationSet": {"include": ["jp"]},
      "matchNames": ["ミニピアゴ"],
      "tags": {
        "brand": "miniピアゴ",
        "brand:en": "mini Piago",
        "brand:ja": "miniピアゴ",
        "brand:wikidata": "Q11188499",
        "name": "miniピアゴ",
        "name:en": "mini Piago",
        "name:ja": "miniピアゴ",
        "shop": "convenience"
      }
    },
    {
      "displayName": "Mlin i pekare",
      "id": "mlinipekare-5b00ff",
      "locationSet": {"include": ["hr"]},
      "tags": {
        "brand": "Mlin i pekare",
        "name": "Mlin i pekare",
        "shop": "convenience"
      }
    },
    {
      "displayName": "Mobil Mart",
      "id": "mobilmart-4d6b4b",
      "locationSet": {"include": ["001"]},
      "matchNames": ["mobil"],
      "tags": {
        "brand": "Mobil Mart",
        "brand:wikidata": "Q109676002",
        "name": "Mobil Mart",
        "shop": "convenience"
      }
    },
    {
      "displayName": "Mokpol",
      "id": "mokpol-95f41b",
      "locationSet": {"include": ["pl"]},
      "tags": {
        "brand": "Mokpol",
        "brand:wikidata": "Q113227698",
        "name": "Mokpol",
        "shop": "convenience"
      }
    },
    {
      "displayName": "Monop'",
      "id": "monop-bf3eb4",
      "locationSet": {"include": ["fr"]},
      "tags": {
        "brand": "Monop'",
        "brand:wikidata": "Q89913683",
        "name": "Monop'",
        "shop": "convenience"
      }
    },
    {
      "displayName": "Morrisons Daily",
      "id": "morrisonsdaily-ce5d3e",
      "locationSet": {
        "include": ["gb"],
        "exclude": ["gg", "je"]
      },
      "tags": {
        "brand": "Morrisons Daily",
        "brand:wikidata": "Q99752411",
        "name": "Morrisons Daily",
        "shop": "convenience"
      }
    },
    {
      "displayName": "Morrisons Daily (Channel Islands)",
      "id": "morrisonsdaily-d9d9cb",
      "locationSet": {"include": ["gg", "je"]},
      "tags": {
        "brand": "Morrisons Daily",
        "brand:wikidata": "Q99752411",
        "name": "Morrisons Daily",
        "operator": "SandpiperCI",
        "shop": "convenience"
      }
    },
    {
      "displayName": "MrMax",
      "id": "mrmax-652b3e",
      "locationSet": {"include": ["jp"]},
      "tags": {
        "alt_name": "ミスターマックス",
        "brand": "MrMax",
        "brand:wikidata": "Q11342034",
        "name": "MrMax",
        "shop": "convenience"
      }
    },
    {
      "displayName": "Murphy Express",
      "id": "murphyexpress-f1e40b",
      "locationSet": {"include": ["us"]},
      "tags": {
        "brand": "Murphy Express",
        "brand:wikidata": "Q19604459",
        "name": "Murphy Express",
        "shop": "convenience"
      }
    },
    {
      "displayName": "Murphy USA",
      "id": "murphyusa-f1e40b",
      "locationSet": {"include": ["us"]},
      "tags": {
        "brand": "Murphy USA",
        "brand:wikidata": "Q19604459",
        "name": "Murphy USA",
        "shop": "convenience"
      }
    },
    {
      "displayName": "myNEWS.com",
      "id": "mynewscom-3e5671",
      "locationSet": {"include": ["my"]},
      "matchNames": ["mynews"],
      "matchTags": ["shop/supermarket"],
      "tags": {
        "brand": "myNEWS.com",
        "brand:wikidata": "Q17147574",
        "name": "myNEWS.com",
        "shop": "convenience"
      }
    },
    {
      "displayName": "Nasz Sklep",
      "id": "naszsklep-95f41b",
      "locationSet": {"include": ["pl"]},
      "tags": {
        "brand": "Nasz Sklep",
        "brand:wikidata": "Q62070369",
        "name": "Nasz Sklep",
        "shop": "convenience"
      }
    },
    {
      "displayName": "Neste K",
      "id": "nestek-5dea79",
      "locationSet": {"include": ["fi"]},
      "tags": {
        "brand": "Neste K",
        "brand:wikidata": "Q42901270",
        "name": "Neste K",
        "shop": "convenience"
      }
    },
    {
      "displayName": "Neto",
      "id": "neto-9d5235",
      "locationSet": {"include": ["mx"]},
      "matchTags": ["shop/supermarket"],
      "tags": {
        "brand": "Neto",
        "brand:wikidata": "Q113205593",
        "name": "Neto",
        "shop": "convenience"
      }
    },
    {
      "displayName": "NewDays",
      "id": "newdays-652b3e",
      "locationSet": {"include": ["jp"]},
      "matchNames": ["newdays ミニ"],
      "tags": {
        "alt_name": "ニューデイズ",
        "brand": "NewDays",
        "brand:wikidata": "Q11234763",
        "name": "NewDays",
        "shop": "convenience"
      }
    },
    {
      "displayName": "Nisa",
      "id": "nisa-232829",
      "locationSet": {"include": ["gb"]},
      "preserveTags": ["^name"],
      "tags": {
        "brand": "Nisa",
        "brand:wikidata": "Q16999069",
        "name": "Nisa",
        "shop": "convenience"
      }
    },
    {
      "displayName": "Nisa Local",
      "id": "nisalocal-232829",
      "locationSet": {"include": ["gb"]},
      "preserveTags": ["^name"],
      "tags": {
        "brand": "Nisa Local",
        "brand:wikidata": "Q16999069",
        "name": "Nisa Local",
        "shop": "convenience"
      }
    },
    {
      "displayName": "Odido",
      "id": "odido-95f41b",
      "locationSet": {"include": ["pl"]},
      "tags": {
        "brand": "Odido",
        "brand:wikidata": "Q106947294",
        "name": "Odido",
        "shop": "convenience"
      }
    },
    {
      "displayName": "OK Express",
      "id": "okexpress-22d46f",
      "locationSet": {
        "include": ["na", "sz", "za"]
      },
      "tags": {
        "brand": "OK Express",
        "brand:wikidata": "Q116520407",
        "name": "OK Express",
        "shop": "convenience"
      }
    },
    {
      "displayName": "OK Market",
      "id": "okmarket-e95ed6",
      "locationSet": {"include": ["cl"]},
      "tags": {
        "brand": "OK Market",
        "brand:wikidata": "Q6047736",
        "name": "OK Market",
        "shop": "convenience"
      }
    },
    {
      "displayName": "OK便利店",
      "id": "circlek-9729f7",
      "locationSet": {
        "include": ["cn"],
        "exclude": ["hk", "mo"]
      },
      "matchNames": ["ok便利商店", "ok便利店 circle k"],
      "tags": {
        "brand": "OK便利店",
        "brand:en": "Circle K",
        "brand:wikidata": "Q3268010",
        "name": "OK便利店",
        "name:en": "Circle K",
        "shop": "convenience"
      }
    },
    {
      "displayName": "OK便利店 Circle K",
      "id": "circlek-132595",
      "locationSet": {"include": ["hk", "mo"]},
      "matchNames": ["ok便利商店"],
      "tags": {
        "brand": "OK便利店 Circle K",
        "brand:en": "Circle K",
        "brand:wikidata": "Q3268010",
        "brand:zh": "OK便利店",
        "brand:zh-Hans": "OK便利店",
        "brand:zh-Hant": "OK便利店",
        "name": "OK便利店 Circle K",
        "name:en": "Circle K",
        "name:zh": "OK便利店",
        "name:zh-Hans": "OK便利店",
        "name:zh-Hant": "OK便利店",
        "shop": "convenience"
      }
    },
    {
      "displayName": "OK超商",
      "id": "okmart-aa89a7",
      "locationSet": {"include": ["tw"]},
      "tags": {
        "brand": "OK超商",
        "brand:en": "OK mart",
        "brand:wikidata": "Q10851968",
        "name": "OK超商",
        "name:en": "OK mart",
        "shop": "convenience"
      }
    },
    {
      "displayName": "On the Run",
      "id": "ontherun-4d6b4b",
      "locationSet": {"include": ["001"]},
      "tags": {
        "brand": "On the Run",
        "brand:wikidata": "Q16931259",
        "name": "On the Run",
        "shop": "convenience"
      }
    },
    {
      "displayName": "One Stop",
      "id": "onestop-232829",
      "locationSet": {"include": ["gb"]},
      "tags": {
        "brand": "One Stop",
        "brand:wikidata": "Q65954217",
        "name": "One Stop",
        "shop": "convenience"
      }
    },
    {
      "displayName": "Orlen",
      "id": "orlen-95f41b",
      "locationSet": {"include": ["pl"]},
      "tags": {
        "brand": "Orlen",
        "brand:wikidata": "Q971649",
        "name": "Orlen",
        "shop": "convenience"
      }
    },
    {
      "displayName": "OTR",
      "id": "otr-0b0ae9",
      "locationSet": {"include": ["au"]},
      "tags": {
        "brand": "OTR",
        "brand:wikidata": "Q116394019",
        "name": "OTR",
        "shop": "convenience"
      }
    },
    {
      "displayName": "Oxxo",
      "id": "oxxo-8364f9",
      "locationSet": {
        "include": [
          "br",
          "cl",
          "co",
          "cr",
          "mx",
          "pe",
          "us"
        ]
      },
      "matchTags": ["shop/supermarket"],
      "tags": {
        "brand": "Oxxo",
        "brand:wikidata": "Q1342538",
        "name": "Oxxo",
        "shop": "convenience"
      }
    },
    {
      "displayName": "Pam Local",
      "id": "pamlocal-1aaf3e",
      "locationSet": {"include": ["it"]},
      "tags": {
        "brand": "Pam Local",
        "brand:wikidata": "Q105614389",
        "name": "Pam Local",
        "shop": "convenience"
      }
    },
    {
      "displayName": "Panier Sympa",
      "id": "paniersympa-bf3eb4",
      "locationSet": {"include": ["fr"]},
      "tags": {
        "brand": "Panier Sympa",
        "name": "Panier Sympa",
        "shop": "convenience"
      }
    },
    {
      "displayName": "Par Mar Stores",
      "id": "parmarstores-f1e40b",
      "locationSet": {"include": ["us"]},
      "tags": {
        "brand": "Par Mar Stores",
        "brand:wikidata": "Q110622206",
        "name": "Par Mar Stores",
        "shop": "convenience"
      }
    },
    {
      "displayName": "Patanjali Store",
      "id": "patanjalistore-bb430b",
      "locationSet": {"include": ["in"]},
      "tags": {
        "brand": "Patanjali Ayurved",
        "brand:wikidata": "Q19856023",
        "name": "Patanjali Store",
        "shop": "convenience"
      }
    },
    {
      "displayName": "PDV",
      "id": "pdv-4d6b4b",
      "locationSet": {"include": ["001"]},
      "tags": {
        "brand": "PDV",
        "name": "PDV",
        "shop": "convenience"
      }
    },
    {
      "displayName": "PerSu",
      "id": "persu-3015fb",
      "locationSet": {"include": ["rs"]},
      "tags": {
        "brand": "PerSu",
        "brand:wikidata": "Q115574817",
        "name": "PerSu",
        "name:sr": "ПерСу",
        "name:sr-Latn": "PerSu",
        "shop": "convenience"
      }
    },
    {
      "displayName": "Petro-Canada",
      "id": "petrocanada-eea72f",
      "locationSet": {"include": ["ca"]},
      "tags": {
        "brand": "Petro-Canada",
        "brand:wikidata": "Q1208279",
        "name": "Petro-Canada",
        "shop": "convenience"
      }
    },
    {
      "displayName": "Petrobras",
      "id": "petrobras-4d6b4b",
      "locationSet": {"include": ["001"]},
      "tags": {
        "brand": "Petrobras",
        "name": "Petrobras",
        "shop": "convenience"
      }
    },
    {
      "displayName": "Pilot",
      "id": "pilot-16ec4d",
      "locationSet": {"include": ["ca", "us"]},
      "matchNames": ["pilot travel center"],
      "tags": {
        "alt_name": "Pilot Travel Centers",
        "brand": "Pilot",
        "brand:wikidata": "Q64128179",
        "name": "Pilot",
        "shop": "convenience"
      }
    },
    {
      "displayName": "Plaid Pantry",
      "id": "plaidpantry-f1e40b",
      "locationSet": {"include": ["us"]},
      "tags": {
        "brand": "Plaid Pantry",
        "brand:wikidata": "Q7200591",
        "name": "Plaid Pantry",
        "shop": "convenience"
      }
    },
    {
      "displayName": "Premier",
      "id": "premier-232829",
      "locationSet": {"include": ["gb"]},
      "tags": {
        "brand": "Premier",
        "brand:wikidata": "Q7240340",
        "shop": "convenience"
      }
    },
    {
      "displayName": "Premier Express",
      "id": "premierexpress-232829",
      "locationSet": {"include": ["gb"]},
      "tags": {
        "brand": "Premier Express",
        "name": "Premier Express",
        "shop": "convenience"
      }
    },
    {
      "displayName": "Privát",
      "id": "privat-58d40d",
      "locationSet": {"include": ["hu"]},
      "tags": {
        "brand": "Privát",
        "brand:wikidata": "Q115606854",
        "name": "Privát",
        "shop": "convenience"
      }
    },
    {
      "displayName": "Proxi",
      "id": "proxi-6fdfa6",
      "locationSet": {"include": ["ch", "fr"]},
      "matchNames": ["proxy"],
      "matchTags": ["shop/supermarket"],
      "tags": {
        "brand": "Proxi",
        "brand:wikidata": "Q3408522",
        "name": "Proxi",
        "shop": "convenience"
      }
    },
    {
      "displayName": "Qazaq Oil",
      "id": "qazaqoil-7ad3ae",
      "locationSet": {"include": ["kz"]},
      "tags": {
        "brand": "Qazaq Oil",
        "brand:wikidata": "Q115190155",
        "name": "Qazaq Oil",
        "shop": "convenience"
      }
    },
    {
      "displayName": "Quality Mart",
      "id": "qualitymart-f1e40b",
      "locationSet": {"include": ["us"]},
      "tags": {
        "brand": "Quality Mart",
        "brand:wikidata": "Q66134834",
        "name": "Quality Mart",
        "shop": "convenience"
      }
    },
    {
      "displayName": "Quick Stop",
      "id": "quickstop-4d6b4b",
      "locationSet": {"include": ["001"]},
      "tags": {
        "brand": "Quick Stop",
        "name": "Quick Stop",
        "shop": "convenience"
      }
    },
    {
      "displayName": "QuickChek",
      "id": "quickchek-f1e40b",
      "locationSet": {"include": ["us"]},
      "tags": {
        "brand": "QuickChek",
        "brand:wikidata": "Q7271689",
        "name": "QuickChek",
        "shop": "convenience"
      }
    },
    {
      "displayName": "Quik Stop",
      "id": "quikstop-f1e40b",
      "locationSet": {"include": ["us"]},
      "tags": {
        "brand": "Quik Stop",
        "brand:wikidata": "Q105141709",
        "name": "Quik Stop",
        "shop": "convenience"
      }
    },
    {
      "displayName": "QuikTrip",
      "id": "quiktrip-4d6b4b",
      "locationSet": {"include": ["001"]},
      "tags": {
        "brand": "QuikTrip",
        "brand:wikidata": "Q7271953",
        "name": "QuikTrip",
        "shop": "convenience",
        "short_name": "QT"
      }
    },
    {
      "displayName": "Rabat",
      "id": "rabat-95f41b",
      "locationSet": {"include": ["pl"]},
      "tags": {
        "brand": "Rabat",
        "name": "Rabat",
        "shop": "convenience"
      }
    },
    {
      "displayName": "RaceTrac",
      "id": "racetrac-f1e40b",
      "locationSet": {"include": ["us"]},
      "tags": {
        "brand": "RaceTrac",
        "brand:wikidata": "Q735942",
        "name": "RaceTrac",
        "shop": "convenience"
      }
    },
    {
      "displayName": "RaceWay",
      "id": "raceway-f1e40b",
      "locationSet": {"include": ["us"]},
      "tags": {
        "brand": "RaceWay",
        "brand:wikidata": "Q73039084",
        "name": "RaceWay",
        "shop": "convenience"
      }
    },
    {
      "displayName": "Ration Shop",
      "id": "rationshop-bb430b",
      "locationSet": {"include": ["in"]},
      "tags": {
        "brand": "Ration Shop",
        "brand:wikidata": "Q60901",
        "name": "Ration Shop",
        "operator": "Public Distribution System",
        "operator:type": "public",
        "operator:wikidata": "Q60901",
        "shop": "convenience"
      }
    },
    {
      "displayName": "Reál",
      "id": "real-58d40d",
      "locationSet": {"include": ["hu"]},
      "matchNames": [
        "reál hungária élelmiszer kereskedelmi kft.",
        "reál pont"
      ],
      "tags": {
        "brand": "Reál",
        "brand:wikidata": "Q100741414",
        "name": "Reál",
        "shop": "convenience"
      }
    },
    {
      "displayName": "Red Apple Food Mart",
      "id": "redapplefoodmart-f1e40b",
      "locationSet": {"include": ["us"]},
      "matchTags": ["shop/supermarket"],
      "tags": {
        "brand": "Red Apple Food Mart",
        "brand:wikidata": "Q114343337",
        "name": "Red Apple Food Mart",
        "shop": "convenience"
      }
    },
    {
      "displayName": "Rewe To Go",
      "id": "rewetogo-60c7fe",
      "locationSet": {"include": ["de"]},
      "matchTags": ["shop/supermarket"],
      "tags": {
        "brand": "REWE To Go",
        "brand:wikidata": "Q85224313",
        "name": "REWE To Go",
        "shop": "convenience"
      }
    },
    {
      "displayName": "Rhodes",
      "id": "rhodes-37aedb",
      "locationSet": {
        "include": [
          "us-il.geojson",
          "us-mo.geojson"
        ]
      },
      "matchNames": ["rhodes 101"],
      "tags": {
        "brand": "Rhodes",
        "brand:wikidata": "Q114570150",
        "name": "Rhodes",
        "shop": "convenience"
      }
    },
    {
      "displayName": "Road Ranger",
      "id": "roadranger-f1e40b",
      "locationSet": {"include": ["us"]},
      "tags": {
        "brand": "Road Ranger",
        "brand:wikidata": "Q7339377",
        "name": "Road Ranger",
        "shop": "convenience"
      }
    },
    {
      "displayName": "Rotten Robbie",
      "id": "rottenrobbie-f1e40b",
      "locationSet": {"include": ["us"]},
      "tags": {
        "brand": "Rotten Robbie",
        "brand:wikidata": "Q87378070",
        "name": "Rotten Robbie",
        "shop": "convenience"
      }
    },
    {
      "displayName": "Royal Farms",
      "id": "royalfarms-f1e40b",
      "locationSet": {"include": ["us"]},
      "tags": {
        "brand": "Royal Farms",
        "brand:wikidata": "Q7374169",
        "name": "Royal Farms",
        "shop": "convenience"
      }
    },
    {
      "displayName": "Rüedu",
      "id": "ruedu-07a460",
      "locationSet": {"include": ["ch"]},
      "tags": {
        "brand": "Rüedu",
        "brand:wikidata": "Q112913831",
        "name": "Rüedu",
        "self_service": "only",
        "shop": "convenience"
      }
    },
    {
      "displayName": "Rutter's",
      "id": "rutters-f1e40b",
      "locationSet": {"include": ["us"]},
      "tags": {
        "brand": "Rutter's",
        "brand:wikidata": "Q7383544",
        "name": "Rutter's",
        "shop": "convenience"
      }
    },
    {
      "displayName": "Sainsbury's Local",
      "id": "sainsburyslocal-232829",
      "locationSet": {"include": ["gb"]},
      "matchTags": ["shop/supermarket"],
      "tags": {
        "brand": "Sainsbury's Local",
        "brand:wikidata": "Q13218434",
        "name": "Sainsbury's Local",
        "shop": "convenience"
      }
    },
    {
      "displayName": "Sale",
      "id": "sale-5dea79",
      "locationSet": {"include": ["fi"]},
      "tags": {
        "brand": "Sale",
        "brand:wikidata": "Q11892046",
        "name": "Sale",
        "shop": "convenience"
      }
    },
    {
      "displayName": "Scotmid",
      "id": "scotmid-232829",
      "locationSet": {"include": ["gb"]},
      "tags": {
        "brand": "Scotmid",
        "brand:wikidata": "Q7435719",
        "name": "Scotmid",
        "shop": "convenience"
      }
    },
    {
      "displayName": "Select",
      "id": "select-4d6b4b",
      "locationSet": {"include": ["001"]},
      "tags": {
        "brand": "Select",
        "name": "Select",
        "shop": "convenience"
      }
    },
    {
      "displayName": "ServiceStore DB",
      "id": "servicestoredb-60c7fe",
      "locationSet": {"include": ["de"]},
      "matchNames": ["db servicestore"],
      "tags": {
        "brand": "ServiceStore DB",
        "brand:wikidata": "Q84482517",
        "name": "ServiceStore DB",
        "shop": "convenience"
      }
    },
    {
      "displayName": "Servicompras",
      "id": "servicompras-4c351f",
      "locationSet": {"include": ["ar"]},
      "tags": {
        "brand": "Servicompras",
        "name": "Servicompras",
        "shop": "convenience"
      }
    },
    {
      "displayName": "Sheetz",
      "id": "sheetz-ab596a",
      "locationSet": {
        "include": [
          "us-md.geojson",
          "us-nc.geojson",
          "us-oh.geojson",
          "us-pa.geojson",
          "us-va.geojson",
          "us-wv.geojson"
        ]
      },
      "tags": {
        "brand": "Sheetz",
        "brand:wikidata": "Q7492551",
        "name": "Sheetz",
        "shop": "convenience"
      }
    },
    {
      "displayName": "Shell",
      "id": "shell-cfb41f",
      "locationSet": {
        "include": ["001"],
        "exclude": ["jp"]
      },
      "tags": {
        "brand": "Shell",
        "brand:wikidata": "Q110716465",
        "name": "Shell",
        "shop": "convenience"
      }
    },
    {
      "displayName": "Shell Select",
      "id": "shellselect-cfb41f",
      "locationSet": {
        "include": ["001"],
        "exclude": ["jp"]
      },
      "tags": {
        "brand": "Shell Select",
        "brand:wikidata": "Q110716465",
        "name": "Shell Select",
        "shop": "convenience"
      }
    },
    {
      "displayName": "Shell Shop",
      "id": "shellshop-cfb41f",
      "locationSet": {
        "include": ["001"],
        "exclude": ["jp"]
      },
      "tags": {
        "brand": "Shell Shop",
        "brand:wikidata": "Q110716465",
        "name": "Shell Shop",
        "shop": "convenience"
      }
    },
    {
      "displayName": "Shop & Go",
      "id": "shopandgo-4d6b4b",
      "locationSet": {"include": ["001"]},
      "tags": {
        "brand": "Shop & Go",
        "name": "Shop & Go",
        "shop": "convenience"
      }
    },
    {
      "displayName": "Shop&Go (Romania)",
      "id": "shopandgo-597303",
      "locationSet": {"include": ["ro"]},
      "tags": {
        "brand": "Shop&Go",
        "brand:wikidata": "Q114644174",
        "name": "Shop&Go",
        "operator": "Mega Image",
        "operator:wikidata": "Q6808085",
        "shop": "convenience"
      }
    },
    {
      "displayName": "Shop&Go (Serbia)",
      "id": "shopandgo-3015fb",
      "locationSet": {"include": ["rs"]},
      "matchNames": ["maxi shop&go"],
      "matchTags": ["shop/supermarket"],
      "tags": {
        "brand": "Shop&Go",
        "brand:wikidata": "Q116269550",
        "name": "Shop&Go",
        "shop": "convenience"
      }
    },
    {
      "displayName": "Shoprite Mini",
      "id": "shopritemini-c7b713",
      "locationSet": {"include": ["za"]},
      "tags": {
        "brand": "Shoprite Mini",
        "brand:wikidata": "Q1857639",
        "name": "Shoprite Mini",
        "shop": "convenience"
      }
    },
    {
      "displayName": "Simply Basic",
      "id": "simplybasic-dd9aae",
      "locationSet": {"include": ["es"]},
      "tags": {
        "brand": "Simply Basic",
        "brand:wikidata": "Q5643014",
        "name": "Simply Basic",
        "shop": "convenience"
      }
    },
    {
      "displayName": "Simply City",
      "id": "simplycity-dd9aae",
      "locationSet": {"include": ["es"]},
      "tags": {
        "brand": "Simply City",
        "brand:wikidata": "Q5643014",
        "name": "Simply City",
        "shop": "convenience"
      }
    },
    {
      "displayName": "Simply Store",
      "id": "simplystore-dd9aae",
      "locationSet": {"include": ["es"]},
      "tags": {
        "brand": "Simply Store",
        "brand:wikidata": "Q5643014",
        "name": "Simply Store",
        "shop": "convenience"
      }
    },
    {
      "displayName": "Siwa",
      "id": "siwa-5dea79",
      "locationSet": {"include": ["fi"]},
      "tags": {
        "brand": "Siwa",
        "brand:wikidata": "Q11893827",
        "name": "Siwa",
        "shop": "convenience"
      }
    },
    {
      "displayName": "Six",
      "id": "six-4d6b4b",
      "locationSet": {"include": ["001"]},
      "tags": {
        "brand": "Six",
        "name": "Six",
        "shop": "convenience"
      }
    },
    {
      "displayName": "Sklep Polski",
      "id": "skleppolski-95f41b",
      "locationSet": {"include": ["pl"]},
      "tags": {
        "brand": "Sklep Polski",
        "brand:wikidata": "Q114699006",
        "name": "Sklep Polski",
        "shop": "convenience"
      }
    },
    {
      "displayName": "Słoneczko",
      "id": "sloneczko-95f41b",
      "locationSet": {"include": ["pl"]},
      "tags": {
        "brand": "Słoneczko",
        "brand:wikidata": "Q113230439",
        "name": "Słoneczko",
        "shop": "convenience"
      }
    },
    {
      "displayName": "Spar",
      "id": "spar-dda8d6",
      "locationSet": {
        "include": ["001"],
        "exclude": ["no"]
      },
      "tags": {
        "brand": "Spar",
        "brand:wikidata": "Q610492",
        "name": "Spar",
        "shop": "convenience"
      }
    },
    {
      "displayName": "Spar (Norge)",
      "id": "spar-2da37b",
      "locationSet": {"include": ["no"]},
      "note": "https://github.com/osmlab/name-suggestion-index/issues/5500",
      "preserveTags": ["^name"],
      "tags": {
        "brand": "Spar",
        "brand:wikidata": "Q610492",
        "name": "Spar",
        "shop": "convenience"
      }
    },
    {
      "displayName": "Spar Express",
      "id": "sparexpress-dda8d6",
      "locationSet": {
        "include": ["001"],
        "exclude": ["no"]
      },
      "matchTags": ["shop/supermarket"],
      "tags": {
        "brand": "Spar",
        "brand:wikidata": "Q610492",
        "name": "Spar Express",
        "shop": "convenience"
      }
    },
    {
      "displayName": "Spar Express (Norge)",
      "id": "sparexpress-2da37b",
      "locationSet": {"include": ["no"]},
      "matchTags": ["shop/supermarket"],
      "note": "https://github.com/osmlab/name-suggestion-index/issues/5500",
      "preserveTags": ["^name"],
      "tags": {
        "brand": "Spar",
        "brand:wikidata": "Q610492",
        "name": "Spar Express",
        "shop": "convenience"
      }
    },
    {
      "displayName": "Speedway",
      "id": "speedway-4d6b4b",
      "locationSet": {"include": ["001"]},
      "tags": {
        "brand": "Speedway",
        "brand:wikidata": "Q7575683",
        "name": "Speedway",
        "shop": "convenience"
      }
    },
    {
      "displayName": "Spencer’s",
      "id": "spencers-bb430b",
      "locationSet": {"include": ["in"]},
      "tags": {
        "brand": "Spencer’s",
        "brand:wikidata": "Q7575959",
        "name": "Spencer’s",
        "shop": "convenience"
      }
    },
    {
      "displayName": "Społem",
      "id": "spolem-95f41b",
      "locationSet": {"include": ["pl"]},
      "tags": {
        "brand": "Społem",
        "brand:wikidata": "Q11826043",
        "name": "Społem",
        "shop": "convenience"
      }
    },
    {
      "displayName": "Star Mart",
      "id": "starmart-4d6b4b",
      "locationSet": {"include": ["001"]},
      "tags": {
        "brand": "Star Mart",
        "brand:wikidata": "Q61994857",
        "name": "Star Mart",
        "shop": "convenience"
      }
    },
    {
      "displayName": "Stewart's Shops",
      "id": "stewartsshops-f1e40b",
      "locationSet": {"include": ["us"]},
      "matchNames": ["stewarts"],
      "tags": {
        "brand": "Stewart's Shops",
        "brand:wikidata": "Q7615690",
        "name": "Stewart's Shops",
        "shop": "convenience"
      }
    },
    {
      "displayName": "Stinker",
      "id": "stinker-f1e40b",
      "locationSet": {"include": ["us"]},
      "matchNames": ["stinker stores"],
      "tags": {
        "brand": "Stinker",
        "brand:wikidata": "Q95990164",
        "name": "Stinker",
        "shop": "convenience"
      }
    },
    {
      "displayName": "Stokrotka Express",
      "id": "stokrotkaexpress-95f41b",
      "locationSet": {"include": ["pl"]},
      "tags": {
        "brand": "Stokrotka Express",
        "brand:wikidata": "Q110801119",
        "name": "Stokrotka Express",
        "shop": "convenience"
      }
    },
    {
      "displayName": "Stripes",
      "id": "stripes-cc811e",
      "locationSet": {"include": ["cl", "us"]},
      "tags": {
        "brand": "Stripes",
        "brand:wikidata": "Q7624135",
        "name": "Stripes",
        "shop": "convenience"
      }
    },
    {
      "displayName": "Stuckey's",
      "id": "stuckeys-f1e40b",
      "locationSet": {"include": ["us"]},
      "tags": {
        "brand": "Stuckey's",
        "brand:wikidata": "Q7627481",
        "name": "Stuckey's",
        "shop": "convenience"
      }
    },
    {
      "displayName": "Studenac",
      "id": "studenac-5b00ff",
      "locationSet": {"include": ["hr"]},
      "matchTags": ["shop/supermarket"],
      "tags": {
        "brand": "Studenac",
        "brand:wikidata": "Q65156084",
        "name": "Studenac",
        "shop": "convenience"
      }
    },
    {
      "displayName": "Sunoco",
      "id": "sunoco-f1e40b",
      "locationSet": {"include": ["us"]},
      "tags": {
        "brand": "Sunoco",
        "brand:wikidata": "Q1423218",
        "name": "Sunoco",
        "shop": "convenience"
      }
    },
    {
      "displayName": "Super 7",
      "id": "super7-4d6b4b",
      "locationSet": {"include": ["001"]},
      "tags": {
        "brand": "Super 7",
        "name": "Super 7",
        "shop": "convenience"
      }
    },
    {
      "displayName": "Super Sánchez",
      "id": "supersanchez-9d5235",
      "locationSet": {"include": ["mx"]},
      "matchTags": ["shop/supermarket"],
      "tags": {
        "brand": "Super Sánchez",
        "brand:wikidata": "Q113182316",
        "name": "Super Sánchez",
        "shop": "convenience"
      }
    },
    {
      "displayName": "T. SN",
      "id": "tsn-80468a",
      "locationSet": {"include": ["ec"]},
      "tags": {
        "brand": "T. SN",
        "name": "T. SN",
        "shop": "convenience"
      }
    },
    {
      "displayName": "TA",
      "id": "ta-f1e40b",
      "locationSet": {"include": ["us"]},
      "tags": {
        "brand": "TA",
        "brand:wikidata": "Q7835892",
        "name": "TA",
        "shop": "convenience"
      }
    },
    {
      "displayName": "tạp hoá",
      "id": "taphoa-61b913",
      "locationSet": {"include": ["vn"]},
      "tags": {
        "brand": "tạp hoá",
        "name": "tạp hoá",
        "shop": "convenience"
      }
    },
    {
      "displayName": "Tesco",
      "id": "tesco-4d6b4b",
      "locationSet": {"include": ["001"]},
      "tags": {
        "brand": "Tesco",
        "brand:wikidata": "Q487494",
        "name": "Tesco",
        "shop": "convenience"
      }
    },
    {
      "displayName": "Tesco Express",
      "id": "tescoexpress-4d6b4b",
      "locationSet": {"include": ["001"]},
      "matchNames": ["tesco metro"],
      "matchTags": ["shop/supermarket"],
      "tags": {
        "brand": "Tesco Express",
        "brand:wikidata": "Q98456772",
        "name": "Tesco Express",
        "shop": "convenience"
      }
    },
    {
      "displayName": "Tesco Lotus Express",
      "id": "tescolotusexpress-f572b3",
      "locationSet": {"include": ["th"]},
      "tags": {
        "brand": "Tesco Lotus Express",
        "name": "Tesco Lotus Express",
        "shop": "convenience"
      }
    },
    {
      "displayName": "Texaco",
      "id": "texaco-4d6b4b",
      "locationSet": {"include": ["001"]},
      "tags": {
        "brand": "Texaco",
        "brand:wikidata": "Q775060",
        "name": "Texaco",
        "shop": "convenience"
      }
    },
    {
      "displayName": "The Co-operative Food",
      "id": "thecooperativefood-232829",
      "locationSet": {"include": ["gb"]},
      "matchNames": [
        "central england co-operative",
        "chelmsford star co-operative society",
        "coop",
        "heart of england co-operative society",
        "midcounties co-operative",
        "radstock co-operative society",
        "southern co-operative"
      ],
      "tags": {
        "brand": "The Co-operative Food",
        "brand:wikidata": "Q107617274",
        "name": "The Co-operative Food",
        "shop": "convenience"
      }
    },
    {
      "displayName": "Thorntons",
      "id": "thorntons-f1e40b",
      "locationSet": {"include": ["us"]},
      "tags": {
        "brand": "Thorntons",
        "brand:wikidata": "Q7796584",
        "name": "Thorntons",
        "shop": "convenience"
      }
    },
    {
      "displayName": "Tiendas 3B",
      "id": "tiendas3b-9d5235",
      "locationSet": {"include": ["mx"]},
      "matchTags": ["shop/supermarket"],
      "tags": {
        "brand": "Tiendas 3B",
        "brand:wikidata": "Q113217378",
        "name": "Tiendas 3B",
        "shop": "convenience"
      }
    },
    {
      "displayName": "Tiger Mart",
      "id": "tigermart-4d6b4b",
      "locationSet": {"include": ["001"]},
      "matchNames": ["exxon"],
      "tags": {
        "brand": "Tiger Mart",
        "brand:wikidata": "Q57643977",
        "name": "Tiger Mart",
        "shop": "convenience"
      }
    },
    {
      "displayName": "Timewise",
      "id": "timewise-f1e40b",
      "locationSet": {"include": ["us"]},
      "tags": {
        "brand": "Timewise",
        "name": "Timewise",
        "shop": "convenience"
      }
    },
    {
      "displayName": "Tom Market",
      "id": "tommarket-58d40d",
      "locationSet": {"include": ["hu"]},
      "tags": {
        "brand": "Tom Market",
        "name": "Tom Market",
        "shop": "convenience"
      }
    },
    {
      "displayName": "Tommy",
      "id": "tommy-5b00ff",
      "locationSet": {"include": ["hr"]},
      "tags": {
        "brand": "Tommy",
        "brand:wikidata": "Q12643718",
        "name": "Tommy",
        "shop": "convenience"
      }
    },
    {
      "displayName": "Top Market",
      "id": "topmarket-4d6b4b",
      "locationSet": {"include": ["001"]},
      "tags": {
        "brand": "Top Market",
        "name": "Top Market",
        "shop": "convenience"
      }
    },
    {
      "displayName": "Total",
      "id": "total-4d6b4b",
      "locationSet": {"include": ["001"]},
      "tags": {
        "brand": "Total",
        "brand:wikidata": "Q154037",
        "name": "Total",
        "shop": "convenience"
      }
    },
    {
      "displayName": "Total Access",
      "id": "totalaccess-f6dc0a",
      "locationSet": {"include": ["fx"]},
      "tags": {
        "brand": "Total Access",
        "name": "Total Access",
        "shop": "convenience"
      }
    },
    {
      "displayName": "Town Pump",
      "id": "townpump-f1e40b",
      "locationSet": {"include": ["us"]},
      "tags": {
        "brand": "Town Pump",
        "brand:wikidata": "Q7830004",
        "name": "Town Pump",
        "shop": "convenience"
      }
    },
    {
      "displayName": "TRD",
      "id": "trd-4d6b4b",
      "locationSet": {"include": ["001"]},
      "tags": {
        "brand": "TRD",
        "name": "TRD",
        "shop": "convenience"
      }
    },
    {
      "displayName": "Trgocentar",
      "id": "trgocentar-5b00ff",
      "locationSet": {"include": ["hr"]},
      "tags": {
        "brand": "Trgocentar",
        "name": "Trgocentar",
        "shop": "convenience"
      }
    },
    {
      "displayName": "Trgostil",
      "id": "trgostil-5b00ff",
      "locationSet": {"include": ["hr"]},
      "tags": {
        "brand": "Trgostil",
        "name": "Trgostil",
        "shop": "convenience"
      }
    },
    {
      "displayName": "Turkey Hill",
      "id": "turkeyhill-f1e40b",
      "locationSet": {"include": ["us"]},
      "tags": {
        "brand": "Turkey Hill",
        "brand:wikidata": "Q42376970",
        "name": "Turkey Hill",
        "shop": "convenience"
      }
    },
    {
      "displayName": "U-Store",
      "id": "ustore-60c7fe",
      "locationSet": {"include": ["de"]},
      "tags": {
        "brand": "U-Store",
        "brand:wikidata": "Q113290511",
        "name": "U-Store",
        "shop": "convenience"
      }
    },
    {
      "displayName": "Ultramar",
      "id": "ultramar-eea72f",
      "locationSet": {"include": ["ca"]},
      "tags": {
        "brand": "Ultramar",
        "brand:wikidata": "Q3548078",
        "name": "Ultramar",
        "shop": "convenience"
      }
    },
    {
      "displayName": "United",
      "id": "united-0b0ae9",
      "locationSet": {"include": ["au"]},
      "matchNames": ["united petroleum"],
      "tags": {
        "brand": "United",
        "brand:wikidata": "Q28224393",
        "name": "United",
        "shop": "convenience"
      }
    },
    {
      "displayName": "United Dairy Farmers",
      "id": "uniteddairyfarmers-f1e40b",
      "locationSet": {"include": ["us"]},
      "matchTags": [
        "amenity/ice_cream",
        "shop/ice_cream"
      ],
      "tags": {
        "amenity": "ice_cream",
        "brand": "United Dairy Farmers",
        "brand:wikidata": "Q7887677",
        "name": "United Dairy Farmers",
        "shop": "convenience",
        "short_name": "UDF"
      }
    },
    {
      "displayName": "uSmile 昆仑好客",
      "id": "usmile-da9ca7",
      "locationSet": {"include": ["cn"]},
      "matchNames": ["usmile 便利店", "昆仑好"],
      "matchTags": ["shop/supermarket"],
      "tags": {
        "brand": "uSmile 昆仑好客",
        "brand:en": "uSmile",
        "brand:wikidata": "Q66480830",
        "brand:zh": "昆仑好客",
        "name": "uSmile 昆仑好客",
        "name:en": "uSmile",
        "name:zh": "昆仑好客",
        "shop": "convenience"
      }
    },
    {
      "displayName": "Utile",
      "id": "utile-bf3eb4",
      "locationSet": {"include": ["fr"]},
      "matchTags": ["shop/supermarket"],
      "tags": {
        "brand": "Utile",
        "brand:wikidata": "Q2529029",
        "name": "Utile",
        "shop": "convenience"
      }
    },
    {
      "displayName": "Valero",
      "id": "valero-e1ca53",
      "locationSet": {
        "include": ["ca", "de", "fr", "gb", "us"]
      },
      "tags": {
        "brand": "Valero",
        "brand:wikidata": "Q1283291",
        "name": "Valero",
        "shop": "convenience"
      }
    },
    {
      "displayName": "VanGO",
      "id": "vango-298a73",
      "locationSet": {"include": ["hk"]},
      "tags": {
        "brand": "VanGO",
        "brand:en": "VanGO",
        "brand:wikidata": "Q10853203",
        "name": "VanGO",
        "name:en": "VanGO",
        "shop": "convenience"
      }
    },
    {
      "displayName": "Viva",
      "id": "viva-856fe1",
      "locationSet": {"include": ["150"]},
      "tags": {
        "brand": "Viva",
        "brand:wikidata": "Q168238",
        "name": "Viva",
        "shop": "convenience"
      }
    },
    {
      "displayName": "Vival",
      "id": "vival-12cc61",
      "locationSet": {"include": ["fr", "pe"]},
      "matchTags": ["shop/supermarket"],
      "tags": {
        "brand": "Vival",
        "brand:wikidata": "Q7937525",
        "name": "Vival",
        "shop": "convenience"
      }
    },
    {
      "displayName": "Viveco",
      "id": "viveco-bf3eb4",
      "locationSet": {"include": ["fr"]},
      "tags": {
        "brand": "Viveco",
        "name": "Viveco",
        "shop": "convenience"
      }
    },
    {
      "displayName": "Votre Marché",
      "id": "votremarche-bf3eb4",
      "locationSet": {"include": ["fr"]},
      "tags": {
        "brand": "Votre Marché",
        "name": "Votre Marché",
        "shop": "convenience"
      }
    },
    {
      "displayName": "Waitrose",
      "id": "waitrose-126aa8",
      "locationSet": {"include": ["gb", "je"]},
      "tags": {
        "brand": "Waitrose",
        "brand:wikidata": "Q771734",
        "name": "Waitrose",
        "shop": "convenience"
      }
    },
    {
      "displayName": "Wawa",
      "id": "wawa-dad45f",
      "locationSet": {
        "include": [
          "us-dc.geojson",
          "us-de.geojson",
          "us-fl.geojson",
          "us-md.geojson",
          "us-nj.geojson",
          "us-pa.geojson",
          "us-va.geojson"
        ]
      },
      "tags": {
        "brand": "Wawa",
        "brand:wikidata": "Q5936320",
        "name": "Wawa",
        "shop": "convenience"
      }
    },
    {
      "displayName": "Wesco",
      "id": "wesco-f1e40b",
      "locationSet": {"include": ["us"]},
      "tags": {
        "brand": "Wesco",
        "brand:wikidata": "Q7949045",
        "name": "Wesco",
        "shop": "convenience"
      }
    },
    {
      "displayName": "WinMart+",
      "id": "winmart-61b913",
      "locationSet": {"include": ["vn"]},
      "matchNames": ["vinmart+"],
      "tags": {
        "brand": "WinMart+",
        "brand:wikidata": "Q113236478",
        "name": "WinMart+",
        "shop": "convenience"
      }
    },
    {
      "displayName": "Woolworths MetroGo",
      "id": "woolworthsmetrogo-0b0ae9",
      "locationSet": {"include": ["au"]},
      "tags": {
        "brand": "Woolworths MetroGo",
        "brand:wikidata": "Q111772555",
        "name": "Woolworths MetroGo",
        "operator": "Woolworths Group",
        "operator:wikidata": "Q607272",
        "shop": "convenience"
      }
    },
    {
      "displayName": "Yorma’s",
      "id": "yormas-60c7fe",
      "locationSet": {"include": ["de"]},
      "tags": {
        "brand": "Yorma’s",
        "brand:wikidata": "Q2600868",
        "name": "Yorma’s",
        "shop": "convenience"
      }
    },
    {
      "displayName": "Żabka",
      "id": "zabka-f55ead",
      "locationSet": {"include": ["cz", "pl"]},
      "matchNames": ["freshmarket"],
      "tags": {
        "brand": "Żabka",
        "brand:wikidata": "Q2589061",
        "name": "Żabka",
        "name:pl": "Żabka",
        "name:uk": "Жабка",
        "shop": "convenience"
      }
    },
    {
      "displayName": "Żappka",
      "id": "zappka-95f41b",
      "locationSet": {"include": ["pl"]},
      "tags": {
        "brand": "Żappka",
        "brand:wikidata": "Q113307807",
        "name": "Żappka",
        "opening_hours": "24/7",
        "payment:app": "only",
        "self_service": "only",
        "shop": "convenience"
      }
    },
    {
      "displayName": "Абсолют",
      "id": "6784df-e33fbc",
      "locationSet": {"include": ["ru"]},
      "matchNames": ["абсолют cash&carry"],
      "tags": {
        "brand": "Абсолют",
        "name": "Абсолют",
        "shop": "convenience"
      }
    },
    {
      "displayName": "АВ Daily",
      "id": "61e46c-e33fbc",
      "locationSet": {"include": ["ru"]},
      "tags": {
        "brand": "АВ Daily",
        "name": "АВ Daily",
        "shop": "convenience"
      }
    },
    {
      "displayName": "Авокадо",
      "id": "a478bc-e33fbc",
      "locationSet": {"include": ["ru"]},
      "tags": {
        "brand": "Авокадо",
        "name": "Авокадо",
        "shop": "convenience"
      }
    },
    {
      "displayName": "Авоська",
      "id": "f1cc88-e33fbc",
      "locationSet": {"include": ["ru"]},
      "tags": {
        "brand": "Авоська",
        "name": "Авоська",
        "shop": "convenience"
      }
    },
    {
      "displayName": "Агрокомплекс",
      "id": "35f889-e33fbc",
      "locationSet": {"include": ["ru"]},
      "tags": {
        "brand": "Агрокомплекс",
        "name": "Агрокомплекс",
        "shop": "convenience"
      }
    },
    {
      "displayName": "Агрокомплекс Выселковский",
      "id": "1e42c5-e33fbc",
      "locationSet": {"include": ["ru"]},
      "tags": {
        "brand": "Агрокомплекс Выселковский",
        "name": "Агрокомплекс Выселковский",
        "shop": "convenience"
      }
    },
    {
      "displayName": "Акконд",
      "id": "akkond-e33fbc",
      "locationSet": {"include": ["ru"]},
      "matchTags": ["shop/confectionery"],
      "tags": {
        "brand": "Акконд",
        "brand:en": "Akkond",
        "brand:ru": "Акконд",
        "brand:wikidata": "Q4053986",
        "name": "Акконд",
        "name:en": "Akkond",
        "name:ru": "Акконд",
        "shop": "convenience"
      }
    },
    {
      "displayName": "Ассорти-продукт",
      "id": "804527-e33fbc",
      "locationSet": {"include": ["ru"]},
      "tags": {
        "brand": "Ассорти-продукт",
        "name": "Ассорти-продукт",
        "shop": "convenience"
      }
    },
    {
      "displayName": "Белоруснефть",
      "id": "ed92ce-e64bef",
      "locationSet": {"include": ["by"]},
      "tags": {
        "brand": "Белоруснефть",
        "brand:wikidata": "Q4082693",
        "name": "Белоруснефть",
        "shop": "convenience"
      }
    },
    {
      "displayName": "Березка",
      "id": "5eefb7-854be4",
      "locationSet": {"include": ["bg"]},
      "matchNames": ["берьозка"],
      "tags": {
        "brand": "Березка",
        "brand:wikidata": "Q115656510",
        "name": "Березка",
        "shop": "convenience"
      }
    },
    {
      "displayName": "Береке",
      "id": "060bbf-a39fe8",
      "locationSet": {"include": ["kg", "kz"]},
      "tags": {
        "brand": "Береке",
        "name": "Береке",
        "shop": "convenience"
      }
    },
    {
      "displayName": "Близенько",
      "id": "106d49-023e9c",
      "locationSet": {"include": ["ua"]},
      "tags": {
        "brand": "Близенько",
        "name": "Близенько",
        "shop": "convenience"
      }
    },
    {
      "displayName": "Везунчик",
      "id": "5e7e9e-c491ec",
      "locationSet": {"include": ["ru", "ua"]},
      "tags": {
        "brand": "Везунчик",
        "name": "Везунчик",
        "shop": "convenience"
      }
    },
    {
      "displayName": "Верный",
      "id": "5a1923-e33fbc",
      "locationSet": {"include": ["ru"]},
      "tags": {
        "brand": "Верный",
        "name": "Верный",
        "shop": "convenience"
      }
    },
    {
      "displayName": "Вікторія",
      "id": "e59ac7-023e9c",
      "locationSet": {"include": ["ua"]},
      "tags": {
        "brand": "Вікторія",
        "name": "Вікторія",
        "shop": "convenience"
      }
    },
    {
      "displayName": "ВкусВилл",
      "id": "f07eb1-e33fbc",
      "locationSet": {"include": ["ru"]},
      "tags": {
        "brand": "ВкусВилл",
        "brand:wikidata": "Q57271676",
        "name": "ВкусВилл",
        "shop": "convenience"
      }
    },
    {
      "displayName": "Волна",
      "id": "34f9fe-4d6b4b",
      "locationSet": {"include": ["001"]},
      "tags": {
        "brand": "Волна",
        "name": "Волна",
        "shop": "convenience"
      }
    },
    {
      "displayName": "Гастрономчикъ",
      "id": "9c4b81-e33fbc",
      "locationSet": {"include": ["ru"]},
      "matchNames": ["гастрономчик"],
      "tags": {
        "brand": "Гастрономчикъ",
        "name": "Гастрономчикъ",
        "shop": "convenience"
      }
    },
    {
      "displayName": "Гроздь",
      "id": "44aeb3-e33fbc",
      "locationSet": {"include": ["ru"]},
      "tags": {
        "brand": "Гроздь",
        "brand:wikidata": "Q21638412",
        "name": "Гроздь",
        "shop": "convenience"
      }
    },
    {
      "displayName": "Грошык",
      "id": "72f03f-4d6b4b",
      "locationSet": {"include": ["001"]},
      "tags": {
        "brand": "Грошык",
        "name": "Грошык",
        "shop": "convenience"
      }
    },
    {
      "displayName": "Доброном",
      "id": "67d62e-065292",
      "locationSet": {"include": ["by", "ru"]},
      "tags": {
        "brand": "Доброном",
        "brand:wikidata": "Q97312362",
        "name": "Доброном",
        "shop": "convenience"
      }
    },
    {
      "displayName": "Евроопт Market",
      "id": "3fdc6e-e64bef",
      "locationSet": {"include": ["by"]},
      "matchTags": ["shop/supermarket"],
      "preserveTags": ["^shop"],
      "tags": {
        "brand": "Евроопт Market",
        "brand:wikidata": "Q65455869",
        "name": "Евроопт Market",
        "name:ru": "Евроопт Маркет",
        "shop": "convenience"
      }
    },
    {
      "displayName": "Евроопт Минимаркет",
      "id": "f94c48-e64bef",
      "locationSet": {"include": ["by"]},
      "matchTags": ["shop/supermarket"],
      "tags": {
        "brand": "Евроопт Минимаркет",
        "brand:wikidata": "Q65455911",
        "name": "Евроопт Минимаркет",
        "shop": "convenience"
      }
    },
    {
      "displayName": "Ермолино",
      "id": "yermolino-c491ec",
      "locationSet": {"include": ["ru", "ua"]},
      "matchNames": ["продукты ермолино"],
      "tags": {
        "brand": "Ермолино",
        "brand:wikidata": "Q109995205",
        "name": "Ермолино",
        "name:en": "Yermolino",
        "name:ru": "Ермолино",
        "shop": "convenience"
      }
    },
    {
      "displayName": "Заря",
      "id": "9020b8-4d6b4b",
      "locationSet": {"include": ["001"]},
      "tags": {
        "brand": "Заря",
        "name": "Заря",
        "shop": "convenience"
      }
    },
    {
      "displayName": "Изюминка",
      "id": "8d46a2-4d6b4b",
      "locationSet": {"include": ["001"]},
      "tags": {
        "brand": "Изюминка",
        "name": "Изюминка",
        "shop": "convenience"
      }
    },
    {
      "displayName": "Йола-маркет",
      "id": "685f12-4d6b4b",
      "locationSet": {"include": ["001"]},
      "tags": {
        "brand": "Йола-маркет",
        "name": "Йола-маркет",
        "shop": "convenience"
      }
    },
    {
      "displayName": "КазМунайГаз",
      "id": "ec4d32-7ad3ae",
      "locationSet": {"include": ["kz"]},
      "tags": {
        "brand": "КазМунайГаз",
        "brand:wikidata": "Q1417227",
        "name": "КазМунайГаз",
        "shop": "convenience"
      }
    },
    {
      "displayName": "Караван",
      "id": "65dd46-c491ec",
      "locationSet": {"include": ["ru", "ua"]},
      "tags": {
        "brand": "Караван",
        "name": "Караван",
        "shop": "convenience"
      }
    },
    {
      "displayName": "Катюша",
      "id": "60a976-4d6b4b",
      "locationSet": {"include": ["001"]},
      "tags": {
        "brand": "Катюша",
        "name": "Катюша",
        "shop": "convenience"
      }
    },
    {
      "displayName": "Квартал вкуса",
      "id": "32310f-e64bef",
      "locationSet": {"include": ["by"]},
      "tags": {
        "brand": "Квартал вкуса",
        "name": "Квартал вкуса",
        "shop": "convenience"
      }
    },
    {
      "displayName": "Кедр",
      "id": "5f2eca-4d6b4b",
      "locationSet": {"include": ["001"]},
      "tags": {
        "brand": "Кедр",
        "name": "Кедр",
        "shop": "convenience"
      }
    },
    {
      "displayName": "Копеечка",
      "id": "347595-e64bef",
      "locationSet": {"include": ["by"]},
      "tags": {
        "brand": "Копеечка",
        "brand:wikidata": "Q97346327",
        "name": "Копеечка",
        "shop": "convenience"
      }
    },
    {
      "displayName": "Копейка",
      "id": "kopeyka-e33fbc",
      "locationSet": {"include": ["ru"]},
      "tags": {
        "brand": "Копейка",
        "brand:en": "Kopeyka",
        "brand:wikidata": "Q1783878",
        "name": "Копейка",
        "name:en": "Kopeyka",
        "shop": "convenience"
      }
    },
    {
      "displayName": "Кошик",
      "id": "3340eb-4d6b4b",
      "locationSet": {"include": ["001"]},
      "tags": {
        "brand": "Кошик",
        "name": "Кошик",
        "shop": "convenience"
      }
    },
    {
      "displayName": "КуулКлевер",
      "id": "37e337-e33fbc",
      "locationSet": {"include": ["ru"]},
      "tags": {
        "brand": "КуулКлевер",
        "name": "КуулКлевер",
        "shop": "convenience"
      }
    },
    {
      "displayName": "Лилия",
      "id": "baaf01-4d6b4b",
      "locationSet": {"include": ["001"]},
      "tags": {
        "brand": "Лилия",
        "name": "Лилия",
        "shop": "convenience"
      }
    },
    {
      "displayName": "Лукойл",
      "id": "lukoil-4d6b4b",
      "locationSet": {"include": ["001"]},
      "tags": {
        "brand": "Лукойл",
        "brand:en": "Lukoil",
        "brand:ru": "Лукойл",
        "brand:wikidata": "Q329347",
        "name": "Лукойл",
        "name:en": "Lukoil",
        "name:ru": "Лукойл",
        "shop": "convenience"
      }
    },
    {
      "displayName": "Лукошко",
      "id": "9bee64-2aa078",
      "locationSet": {
        "include": ["by", "ru", "ua"]
      },
      "tags": {
        "brand": "Лукошко",
        "name": "Лукошко",
        "shop": "convenience"
      }
    },
    {
      "displayName": "Магнит",
      "id": "magnit-4d6b4b",
      "locationSet": {"include": ["001"]},
      "matchNames": ["магнит у дома"],
      "tags": {
        "brand": "Магнит",
        "brand:en": "Magnit",
        "brand:wikidata": "Q940518",
        "name": "Магнит",
        "name:en": "Magnit",
        "shop": "convenience"
      }
    },
    {
      "displayName": "Малинка",
      "id": "3776eb-4d6b4b",
      "locationSet": {"include": ["001"]},
      "tags": {
        "brand": "Малинка",
        "name": "Малинка",
        "shop": "convenience"
      }
    },
    {
      "displayName": "Мария",
      "id": "cb9d04-4d6b4b",
      "locationSet": {"include": ["001"]},
      "tags": {
        "brand": "Мария",
        "name": "Мария",
        "shop": "convenience"
      }
    },
    {
      "displayName": "Мария-Ра",
      "id": "a5e9d6-e33fbc",
      "locationSet": {"include": ["ru"]},
      "tags": {
        "brand": "Мария-Ра",
        "brand:wikidata": "Q4281631",
        "name": "Мария-Ра",
        "shop": "convenience"
      }
    },
    {
      "displayName": "Маяк",
      "id": "bc2a95-e33fbc",
      "locationSet": {"include": ["ru"]},
      "tags": {
        "brand": "Маяк",
        "name": "Маяк",
        "shop": "convenience"
      }
    },
    {
      "displayName": "Монетка",
      "id": "a2bf99-e33fbc",
      "locationSet": {"include": ["ru"]},
      "tags": {
        "brand": "Монетка",
        "name": "Монетка",
        "shop": "convenience"
      }
    },
    {
      "displayName": "Мрія",
      "id": "a55dcb-023e9c",
      "locationSet": {"include": ["ua"]},
      "tags": {
        "brand": "Мрія",
        "name": "Мрія",
        "shop": "convenience"
      }
    },
    {
      "displayName": "МясновЪ",
      "id": "a45bbc-4d6b4b",
      "locationSet": {"include": ["001"]},
      "tags": {
        "brand": "МясновЪ",
        "name": "МясновЪ",
        "shop": "convenience"
      }
    },
    {
      "displayName": "Народный",
      "id": "357655-4d6b4b",
      "locationSet": {"include": ["001"]},
      "tags": {
        "brand": "Народный",
        "name": "Народный",
        "shop": "convenience"
      }
    },
    {
      "displayName": "Находка",
      "id": "91c68a-4d6b4b",
      "locationSet": {"include": ["001"]},
      "tags": {
        "brand": "Находка",
        "name": "Находка",
        "shop": "convenience"
      }
    },
    {
      "displayName": "Наш",
      "id": "bd53d6-4d6b4b",
      "locationSet": {"include": ["001"]},
      "tags": {
        "brand": "Наш",
        "name": "Наш",
        "shop": "convenience"
      }
    },
    {
      "displayName": "Огонёк",
      "id": "9f9c54-4d6b4b",
      "locationSet": {"include": ["001"]},
      "tags": {
        "brand": "Огонёк",
        "name": "Огонёк",
        "shop": "convenience"
      }
    },
    {
      "displayName": "Океан",
      "id": "11b259-4d6b4b",
      "locationSet": {"include": ["001"]},
      "tags": {
        "brand": "Океан",
        "name": "Океан",
        "shop": "convenience"
      }
    },
    {
      "displayName": "Ольга",
      "id": "ca9192-4d6b4b",
      "locationSet": {"include": ["001"]},
      "tags": {
        "brand": "Ольга",
        "name": "Ольга",
        "shop": "convenience"
      }
    },
    {
      "displayName": "Оптовичок",
      "id": "303083-4d6b4b",
      "locationSet": {"include": ["001"]},
      "tags": {
        "brand": "Оптовичок",
        "name": "Оптовичок",
        "shop": "convenience"
      }
    },
    {
      "displayName": "Победа",
      "id": "67c2f7-4d6b4b",
      "locationSet": {"include": ["001"]},
      "tags": {
        "brand": "Победа",
        "name": "Победа",
        "shop": "convenience"
      }
    },
    {
      "displayName": "Посад",
      "id": "fd13e6-4d6b4b",
      "locationSet": {"include": ["001"]},
      "tags": {
        "brand": "Посад",
        "name": "Посад",
        "shop": "convenience"
      }
    },
    {
      "displayName": "Продовольственный магазин",
      "id": "7fa32f-4d6b4b",
      "locationSet": {"include": ["001"]},
      "tags": {
        "brand": "Продовольственный магазин",
        "name": "Продовольственный магазин",
        "shop": "convenience"
      }
    },
    {
      "displayName": "Продуктовий",
      "id": "337654-023e9c",
      "locationSet": {"include": ["ua"]},
      "tags": {
        "brand": "Продуктовий",
        "name": "Продуктовий",
        "shop": "convenience"
      }
    },
    {
      "displayName": "Продуктовий магазин",
      "id": "562e18-4d6b4b",
      "locationSet": {"include": ["001"]},
      "tags": {
        "brand": "Продуктовий магазин",
        "name": "Продуктовий магазин",
        "shop": "convenience"
      }
    },
    {
      "displayName": "Пятачок",
      "id": "bfeaa1-4d6b4b",
      "locationSet": {"include": ["001"]},
      "tags": {
        "brand": "Пятачок",
        "name": "Пятачок",
        "shop": "convenience"
      }
    },
    {
      "displayName": "Родны кут",
      "id": "8aa1e0-4d6b4b",
      "locationSet": {"include": ["001"]},
      "tags": {
        "brand": "Родны кут",
        "name": "Родны кут",
        "shop": "convenience"
      }
    },
    {
      "displayName": "Руслан",
      "id": "e0bca4-2604ca",
      "locationSet": {
        "include": ["kz", "ru", "ua"]
      },
      "tags": {
        "brand": "Руслан",
        "name": "Руслан",
        "shop": "convenience"
      }
    },
    {
      "displayName": "Садко",
      "id": "d3e941-4d6b4b",
      "locationSet": {"include": ["001"]},
      "tags": {
        "brand": "Садко",
        "name": "Садко",
        "shop": "convenience"
      }
    },
    {
      "displayName": "Санта",
      "id": "516eeb-4d6b4b",
      "locationSet": {"include": ["001"]},
      "tags": {
        "brand": "Санта",
        "name": "Санта",
        "shop": "convenience"
      }
    },
    {
      "displayName": "Светофор",
      "id": "b701be-4d6b4b",
      "locationSet": {"include": ["001"]},
      "tags": {
        "brand": "Светофор",
        "name": "Светофор",
        "shop": "convenience"
      }
    },
    {
      "displayName": "Север",
      "id": "0d6ea7-4d6b4b",
      "locationSet": {"include": ["001"]},
      "tags": {
        "brand": "Север",
        "name": "Север",
        "shop": "convenience"
      }
    },
    {
      "displayName": "Северный",
      "id": "384e40-4d6b4b",
      "locationSet": {"include": ["001"]},
      "tags": {
        "brand": "Северный",
        "name": "Северный",
        "shop": "convenience"
      }
    },
    {
      "displayName": "Сім23",
      "id": "1e259f-4d6b4b",
      "locationSet": {"include": ["001"]},
      "tags": {
        "brand": "Сім23",
        "name": "Сім23",
        "shop": "convenience"
      }
    },
    {
      "displayName": "Скидкино",
      "id": "57f962-4d6b4b",
      "locationSet": {"include": ["001"]},
      "tags": {
        "brand": "Скидкино",
        "name": "Скидкино",
        "shop": "convenience"
      }
    },
    {
      "displayName": "Соседи",
      "id": "b4c4f8-4d6b4b",
      "locationSet": {"include": ["001"]},
      "tags": {
        "brand": "Соседи",
        "name": "Соседи",
        "shop": "convenience"
      }
    },
    {
      "displayName": "У Палыча",
      "id": "c1a6e4-e33fbc",
      "locationSet": {"include": ["ru"]},
      "tags": {
        "brand": "У Палыча",
        "name": "У Палыча",
        "shop": "convenience"
      }
    },
    {
      "displayName": "Удачный",
      "id": "516c18-4d6b4b",
      "locationSet": {"include": ["001"]},
      "tags": {
        "brand": "Удачный",
        "name": "Удачный",
        "shop": "convenience"
      }
    },
    {
      "displayName": "Успех",
      "id": "b5ec71-4d6b4b",
      "locationSet": {"include": ["001"]},
      "tags": {
        "brand": "Успех",
        "name": "Успех",
        "shop": "convenience"
      }
    },
    {
      "displayName": "Фабрика качества",
      "id": "9b63ed-4d6b4b",
      "locationSet": {"include": ["001"]},
      "tags": {
        "brand": "Фабрика качества",
        "name": "Фабрика качества",
        "shop": "convenience"
      }
    },
    {
      "displayName": "Фасоль",
      "id": "d26bcb-e33fbc",
      "locationSet": {"include": ["ru"]},
      "tags": {
        "brand": "Фасоль",
        "name": "Фасоль",
        "shop": "convenience"
      }
    },
    {
      "displayName": "Феникс",
      "id": "8b17c9-4d6b4b",
      "locationSet": {"include": ["001"]},
      "tags": {
        "brand": "Феникс",
        "name": "Феникс",
        "shop": "convenience"
      }
    },
    {
      "displayName": "Фермер",
      "id": "8449ac-4d6b4b",
      "locationSet": {"include": ["001"]},
      "tags": {
        "brand": "Фермер",
        "name": "Фермер",
        "shop": "convenience"
      }
    },
    {
      "displayName": "Флагман",
      "id": "4cacba-4d6b4b",
      "locationSet": {"include": ["001"]},
      "tags": {
        "brand": "Флагман",
        "name": "Флагман",
        "shop": "convenience"
      }
    },
    {
      "displayName": "Хит! Стандарт",
      "id": "c9c433-e64bef",
      "locationSet": {"include": ["by"]},
      "tags": {
        "brand": "Хит! Стандарт",
        "name": "Хит! Стандарт",
        "shop": "convenience"
      }
    },
    {
      "displayName": "Хит! Экспресс",
      "id": "cab3d0-e64bef",
      "locationSet": {"include": ["by"]},
      "tags": {
        "brand": "Хит! Экспресс",
        "name": "Хит! Экспресс",
        "shop": "convenience"
      }
    },
    {
      "displayName": "سوپرمارکت",
      "id": "875548-d157b9",
      "locationSet": {"include": ["ir"]},
      "tags": {
        "brand": "سوپرمارکت",
        "name": "سوپرمارکت",
        "shop": "convenience"
      }
    },
    {
      "displayName": "مواد غذائية",
      "id": "a399f4-4d6b4b",
      "locationSet": {"include": ["001"]},
      "tags": {
        "brand": "مواد غذائية",
        "name": "مواد غذائية",
        "shop": "convenience"
      }
    },
    {
      "displayName": "مواد غذائية عامة",
      "id": "06477d-14cddc",
      "locationSet": {"include": ["dz"]},
      "tags": {
        "brand": "مواد غذائية عامة",
        "name": "مواد غذائية عامة",
        "shop": "convenience"
      }
    },
    {
      "displayName": "ميد",
      "id": "meed-cc9d9e",
      "locationSet": {"include": ["sa"]},
      "tags": {
        "brand": "شركة ميد التجارية",
        "brand:ar": "شركة ميد التجارية",
        "brand:en": "MEED Trading Company",
        "brand:wikidata": "Q105492269",
        "name": "ميد",
        "name:ar": "ميد",
        "name:en": "MEED",
        "shop": "convenience"
      }
    },
    {
      "displayName": "미니스톱",
      "id": "ministop-fab923",
      "locationSet": {"include": ["kr"]},
      "tags": {
        "brand": "미니스톱",
        "brand:en": "Ministop",
        "brand:ko": "미니스톱",
        "brand:wikidata": "Q1038929",
        "name": "미니스톱",
        "name:en": "Ministop",
        "name:ko": "미니스톱",
        "shop": "convenience"
      }
    },
    {
      "displayName": "세븐일레븐",
      "id": "7eleven-fab923",
      "locationSet": {"include": ["kr"]},
      "tags": {
        "brand": "세븐일레븐",
        "brand:en": "7-Eleven",
        "brand:ko": "세븐일레븐",
        "brand:wikidata": "Q259340",
        "name": "세븐일레븐",
        "name:en": "7-Eleven",
        "name:ko": "세븐일레븐",
        "shop": "convenience"
      }
    },
    {
      "displayName": "이마트24",
      "id": "emart24-fab923",
      "locationSet": {"include": ["kr"]},
      "tags": {
        "brand": "이마트24",
        "brand:en": "emart24",
        "brand:ko": "이마트24",
        "name": "이마트24",
        "name:en": "emart24",
        "name:ko": "이마트24",
        "shop": "convenience"
      }
    },
    {
      "displayName": "アンスリー",
      "id": "an3-652b3e",
      "locationSet": {"include": ["jp"]},
      "tags": {
        "alt_name:en": "Ansuri",
        "brand": "アンスリー",
        "brand:en": "an3",
        "brand:ja": "アンスリー",
        "brand:wikidata": "Q17192555",
        "name": "アンスリー",
        "name:en": "An3",
        "name:ja": "アンスリー",
        "shop": "convenience"
      }
    },
    {
      "displayName": "コミュニティ・ストア",
      "id": "communitystore-652b3e",
      "locationSet": {"include": ["jp"]},
      "tags": {
        "brand": "コミュニティ・ストア",
        "brand:en": "Community Store",
        "brand:ja": "コミュニティ・ストア",
        "brand:wikidata": "Q11302585",
        "name": "コミュニティ・ストア",
        "name:en": "Community Store",
        "name:ja": "コミュニティ・ストア",
        "shop": "convenience"
      }
    },
    {
      "displayName": "スリーエフ",
      "id": "threef-652b3e",
      "locationSet": {"include": ["jp"]},
      "tags": {
        "brand": "スリーエフ",
        "brand:en": "Three F",
        "brand:ja": "スリーエフ",
        "brand:wikidata": "Q11313419",
        "name": "スリーエフ",
        "name:en": "Three F",
        "name:ja": "スリーエフ",
        "shop": "convenience"
      }
    },
    {
      "displayName": "セーブオン",
      "id": "saveon-652b3e",
      "locationSet": {"include": ["jp"]},
      "tags": {
        "brand": "セーブオン",
        "brand:en": "Save On",
        "brand:ja": "セーブオン",
        "brand:wikidata": "Q11314868",
        "name": "セーブオン",
        "name:en": "Save On",
        "name:ja": "セーブオン",
        "shop": "convenience"
      }
    },
    {
      "displayName": "セイコーマート",
      "id": "seicomart-652b3e",
      "locationSet": {"include": ["jp"]},
      "tags": {
        "brand": "セイコーマート",
        "brand:en": "Seicomart",
        "brand:ja": "セイコーマート",
        "brand:wikidata": "Q11314123",
        "name": "セイコーマート",
        "name:en": "Seicomart",
        "name:ja": "セイコーマート",
        "shop": "convenience"
      }
    },
    {
      "displayName": "セブン-イレブン",
      "id": "7eleven-652b3e",
      "locationSet": {"include": ["jp"]},
      "matchNames": [
        "セブンイレブン(7-11)",
        "セブンイレブン(seven-eleven)"
      ],
      "tags": {
        "brand": "セブン-イレブン",
        "brand:en": "7-Eleven",
        "brand:ja": "セブン-イレブン",
        "brand:wikidata": "Q259340",
        "name": "セブン-イレブン",
        "name:en": "7-Eleven",
        "name:ja": "セブン-イレブン",
        "official_name:en": "Seven-Eleven",
        "shop": "convenience"
      }
    },
    {
      "displayName": "デイリーヤマザキ",
      "id": "dailyyamazaki-652b3e",
      "locationSet": {"include": ["jp"]},
      "matchNames": ["デイリーストア"],
      "tags": {
        "brand": "デイリーヤマザキ",
        "brand:en": "Daily Yamazaki",
        "brand:ja": "デイリーヤマザキ",
        "brand:wikidata": "Q5209392",
        "name": "デイリーヤマザキ",
        "name:en": "Daily Yamazaki",
        "name:ja": "デイリーヤマザキ",
        "shop": "convenience"
      }
    },
    {
      "displayName": "ナチュラルローソン",
      "id": "naturallawson-652b3e",
      "locationSet": {"include": ["jp"]},
      "tags": {
        "brand": "ナチュラルローソン",
        "brand:en": "NATURAL LAWSON",
        "brand:ja": "ナチュラルローソン",
        "brand:wikidata": "Q11323850",
        "name": "ナチュラルローソン",
        "name:en": "Natural Lawson",
        "name:ja": "ナチュラルローソン",
        "shop": "convenience"
      }
    },
    {
      "displayName": "ファミマ!!",
      "id": "famima-652b3e",
      "locationSet": {"include": ["jp"]},
      "tags": {
        "brand": "ファミマ!!",
        "brand:en": "Famima!!",
        "brand:ja": "ファミマ!!",
        "brand:wikidata": "Q115868189",
        "name": "ファミマ!!",
        "name:en": "Famima!!",
        "name:ja": "ファミマ!!",
        "shop": "convenience"
      }
    },
    {
      "displayName": "ファミリーマート",
      "id": "familymart-652b3e",
      "locationSet": {"include": ["jp"]},
      "matchNames": [
        "circle k",
        "sunkus",
        "sunkus サンクス",
        "サークルk",
        "サンクス",
        "ファミマ"
      ],
      "tags": {
        "brand": "ファミリーマート",
        "brand:en": "FamilyMart",
        "brand:ja": "ファミリーマート",
        "brand:wikidata": "Q1191685",
        "name": "ファミリーマート",
        "name:en": "FamilyMart",
        "name:ja": "ファミリーマート",
        "shop": "convenience"
      }
    },
    {
      "displayName": "ポプラ",
      "id": "poplar-652b3e",
      "locationSet": {"include": ["jp"]},
      "tags": {
        "brand": "ポプラ",
        "brand:en": "Poplar",
        "brand:ja": "ポプラ",
        "brand:wikidata": "Q7229380",
        "name": "ポプラ",
        "name:en": "Poplar",
        "name:ja": "ポプラ",
        "shop": "convenience"
      }
    },
    {
      "displayName": "ミニストップ",
      "id": "ministop-652b3e",
      "locationSet": {"include": ["jp"]},
      "tags": {
        "brand": "ミニストップ",
        "brand:en": "Ministop",
        "brand:ja": "ミニストップ",
        "brand:wikidata": "Q1038929",
        "name": "ミニストップ",
        "name:en": "Ministop",
        "name:ja": "ミニストップ",
        "shop": "convenience"
      }
    },
    {
      "displayName": "ヤマザキショップ",
      "id": "yamazakishop-652b3e",
      "locationSet": {"include": ["jp"]},
      "tags": {
        "brand": "ヤマザキショップ",
        "brand:ja": "ヤマザキショップ",
        "brand:wikidata": "Q11345131",
        "name": "ヤマザキショップ",
        "name:en": "Yamazaki Shop",
        "name:ja": "ヤマザキショップ",
        "shop": "convenience"
      }
    },
    {
      "displayName": "ローソン",
      "id": "lawson-652b3e",
      "locationSet": {"include": ["jp"]},
      "matchNames": ["ﾛｰｿﾝ"],
      "tags": {
        "brand": "ローソン",
        "brand:en": "LAWSON",
        "brand:ja": "ローソン",
        "brand:wikidata": "Q1557223",
        "name": "ローソン",
        "name:en": "Lawson",
        "name:ja": "ローソン",
        "shop": "convenience"
      }
    },
    {
      "displayName": "ローソン・スリーエフ",
      "id": "lawsonthreef-652b3e",
      "locationSet": {"include": ["jp"]},
      "matchNames": [
        "lawson+スリーエフ",
        "ﾛｰｿﾝ・スリーエフ"
      ],
      "tags": {
        "brand": "ローソン・スリーエフ",
        "brand:en": "LAWSON･Three F",
        "brand:ja": "ローソン・スリーエフ",
        "brand:wikidata": "Q24866804",
        "name": "ローソン・スリーエフ",
        "name:en": "Lawson･Three F",
        "name:ja": "ローソン・スリーエフ",
        "shop": "convenience"
      }
    },
    {
      "displayName": "ローソンストア100",
      "id": "lawsonstore100-652b3e",
      "locationSet": {"include": ["jp"]},
      "tags": {
        "brand": "ローソンストア100",
        "brand:en": "LAWSON STORE 100",
        "brand:ja": "ローソンストア100",
        "brand:wikidata": "Q11350960",
        "name": "ローソンストア100",
        "name:en": "Lawson Store 100",
        "name:ja": "ローソンストア100",
        "shop": "convenience"
      }
    },
    {
      "displayName": "中百便利",
      "id": "zhongbaicvs-da9ca7",
      "locationSet": {"include": ["cn"]},
      "matchNames": ["中佰便利"],
      "note": "CN-SD.geojson",
      "tags": {
        "brand": "中百便利",
        "brand:en": "Zhongbai Cv.S",
        "brand:wikidata": "Q107204561",
        "brand:zh": "中百便利",
        "name": "中百便利",
        "name:en": "Zhongbai Cv.S",
        "name:zh": "中百便利",
        "operator": "山东潍坊百货集团",
        "shop": "convenience"
      }
    },
    {
      "displayName": "中百罗森",
      "id": "lawson-256188",
      "locationSet": {
        "include": [[114.2999353, 30.5951051, 99]]
      },
      "matchNames": [
        "中百仓储",
        "中百仓储超市",
        "中百罗森便利",
        "中百超市",
        "好邦便利"
      ],
      "note": "Because a mistake, LAWSON outside Wuhan was wrong apply the 中百罗森, it should only use in Wuhan CN-HB.geojson",
      "tags": {
        "brand": "中百罗森",
        "brand:en": "Lawson",
        "brand:wikidata": "Q10875930",
        "brand:zh": "中百罗森",
        "name": "中百罗森",
        "name:en": "Lawson",
        "name:zh": "中百罗森",
        "operator": "武汉中百罗森便利店有限公司",
        "shop": "convenience"
      }
    },
    {
      "displayName": "便利蜂",
      "id": "bianlifeng-da9ca7",
      "locationSet": {"include": ["cn"]},
      "tags": {
        "brand": "便利蜂",
        "brand:en": "Bianlifeng",
        "brand:wikidata": "Q95975982",
        "brand:zh": "便利蜂",
        "name": "便利蜂",
        "name:en": "Bianlifeng",
        "name:zh": "便利蜂",
        "shop": "convenience"
      }
    },
    {
      "displayName": "優品360 Best Mart 360",
      "id": "bestmart360-298a73",
      "locationSet": {"include": ["hk"]},
      "tags": {
        "brand": "優品360 Best Mart 360",
        "brand:en": "Best Mart 360",
        "brand:wikidata": "Q65117567",
        "brand:zh": "優品360",
        "name": "優品360 Best Mart 360",
        "name:en": "Best Mart 360",
        "name:zh": "優品360",
        "shop": "convenience"
      }
    },
    {
      "displayName": "全家",
      "id": "familymart-da9ca7",
      "locationSet": {"include": ["cn"]},
      "tags": {
        "brand": "全家",
        "brand:en": "FamilyMart",
        "brand:wikidata": "Q1191685",
        "brand:zh": "全家",
        "name": "全家",
        "name:en": "FamilyMart",
        "name:zh": "全家",
        "shop": "convenience"
      }
    },
    {
      "displayName": "全家便利商店",
      "id": "familymart-aa89a7",
      "locationSet": {"include": ["tw"]},
      "tags": {
        "brand": "全家便利商店",
        "brand:en": "FamilyMart",
        "brand:wikidata": "Q10891564",
        "brand:zh": "全家便利商店",
        "name": "全家便利商店",
        "name:en": "FamilyMart",
        "name:zh": "全家便利商店",
        "shop": "convenience"
      }
    },
    {
      "displayName": "喜士多",
      "id": "cstore-da9ca7",
      "locationSet": {"include": ["cn"]},
      "note": "CN-SH&JS&ZJ.geojson",
      "tags": {
        "brand": "喜士多",
        "brand:en": "C-Store",
        "brand:wikidata": "Q60992580",
        "brand:zh": "喜士多",
        "name": "喜士多",
        "name:en": "C-Store",
        "name:zh": "喜士多",
        "shop": "convenience"
      }
    },
    {
      "displayName": "快客",
      "id": "7a7abd-da9ca7",
      "locationSet": {"include": ["cn"]},
      "tags": {
        "brand": "快客",
        "name": "快客",
        "shop": "convenience"
      }
    },
    {
      "displayName": "悦来悦喜",
      "id": "happymart-da9ca7",
      "locationSet": {"include": ["cn"]},
      "note": "CN-HA.geojson",
      "tags": {
        "brand": "悦来悦喜",
        "brand:en": "Happy Mart",
        "brand:wikidata": "Q111263222",
        "brand:zh": "悦来悦喜",
        "name": "悦来悦喜",
        "name:en": "Happy Mart",
        "name:zh": "悦来悦喜",
        "shop": "convenience"
      }
    },
    {
      "displayName": "易客来",
      "id": "intolife-da9ca7",
      "locationSet": {"include": ["cn"]},
      "note": "CN-HA.geojson",
      "tags": {
        "brand": "易客来",
        "brand:en": "IntoLife",
        "brand:wikidata": "Q111263705",
        "brand:zh": "易客来",
        "name": "易客来",
        "name:en": "IntoLife",
        "name:zh": "易客来",
        "shop": "convenience"
      }
    },
    {
      "displayName": "易捷",
      "id": "easyjoy-da9ca7",
      "locationSet": {"include": ["cn"]},
      "matchNames": ["易捷便利店"],
      "tags": {
        "brand": "易捷",
        "brand:en": "Easy Joy",
        "brand:wikidata": "Q108301051",
        "brand:zh": "易捷",
        "name": "易捷",
        "name:en": "Easy Joy",
        "name:zh": "易捷",
        "shop": "convenience"
      }
    },
    {
      "displayName": "百得来",
      "id": "batterlife-da9ca7",
      "locationSet": {"include": ["cn"]},
      "note": "CN-HA.geojson",
      "tags": {
        "brand": "百得来",
        "brand:en": "Batterlife",
        "brand:wikidata": "Q111263235",
        "brand:zh": "百得来",
        "name": "百得来",
        "name:en": "Batterlife",
        "name:zh": "百得来",
        "shop": "convenience"
      }
    },
    {
      "displayName": "盒马鲜生",
      "id": "freshhema-da9ca7",
      "locationSet": {"include": ["cn"]},
      "tags": {
        "brand": "盒马鲜生",
        "brand:en": "fresh hema",
        "brand:wikidata": "Q58617964",
        "brand:zh": "盒马鲜生",
        "name": "盒马鲜生",
        "name:en": "fresh hema",
        "name:zh": "盒马鲜生",
        "shop": "convenience"
      }
    },
    {
      "displayName": "红旗连锁",
      "id": "hongqichain-da9ca7",
      "locationSet": {"include": ["cn"]},
      "note": "CN-SC.geojson",
      "tags": {
        "brand": "红旗连锁",
        "brand:en": "Hongqi Chain",
        "brand:wikidata": "Q15932971",
        "brand:zh": "红旗连锁",
        "name": "红旗连锁",
        "name:en": "Hongqi Chain",
        "name:zh": "红旗连锁",
        "shop": "convenience"
      }
    },
    {
      "displayName": "罗森",
      "id": "laoson-cb697c",
      "locationSet": {
        "include": ["cn"],
        "exclude": [
          [114.2999353, 30.5951051, 100]
        ]
      },
      "matchNames": ["中百罗森"],
      "note": "Because a mistake, LAWSON outside Wuhan was wrong apply the 中百罗森, it should only use in Wuhan",
      "tags": {
        "brand": "罗森",
        "brand:en": "LAWSON",
        "brand:wikidata": "Q1557223",
        "brand:zh": "罗森",
        "name": "罗森",
        "name:en": "LAOSON",
        "name:zh": "罗森",
        "operator": "罗森（中国）投资有限公司",
        "shop": "convenience"
      }
    },
    {
      "displayName": "美宜佳",
      "id": "meiyijia-da9ca7",
      "locationSet": {"include": ["cn"]},
      "tags": {
        "brand": "美宜佳",
        "brand:en": "Meiyijia",
        "brand:wikidata": "Q97300244",
        "brand:zh": "美宜佳",
        "name": "美宜佳",
        "name:en": "Meiyijia",
        "name:zh": "美宜佳",
        "shop": "convenience"
      }
    },
    {
      "displayName": "舞东风",
      "id": "wudongfeng-da9ca7",
      "locationSet": {"include": ["cn"]},
      "note": "CN-SC.geojson",
      "tags": {
        "brand": "舞东风",
        "brand:en": "WUDONGFENG",
        "brand:wikidata": "Q111051442",
        "brand:zh": "舞东风",
        "name": "舞东风",
        "name:en": "WUDONGFENG",
        "name:zh": "舞东风",
        "shop": "convenience"
      }
    },
    {
      "displayName": "萊爾富",
      "id": "hilife-aa89a7",
      "locationSet": {"include": ["tw"]},
      "tags": {
        "brand": "萊爾富",
        "brand:en": "Hi-Life",
        "brand:wikidata": "Q11326216",
        "name": "萊爾富",
        "name:en": "Hi-Life",
        "shop": "convenience"
      }
    },
    {
      "displayName": "蝦皮店到店",
      "id": "shopeexpress-aa89a7",
      "locationSet": {"include": ["tw"]},
      "tags": {
        "brand": "蝦皮店到店",
        "brand:en": "Shopee Xpress",
        "brand:wikidata": "Q109676747",
        "brand:zh": "蝦皮店到店",
        "name": "蝦皮店到店",
        "name:en": "Shopee Xpress",
        "name:zh": "蝦皮店到店",
        "shop": "convenience"
      }
    },
    {
      "displayName": "超市发",
      "id": "bjcsf-da9ca7",
      "locationSet": {"include": ["cn"]},
      "note": "CN-BJ.geojson",
      "tags": {
        "brand": "超市发",
        "brand:en": "bjcsf",
        "brand:wikidata": "Q106844410",
        "brand:zh": "超市发",
        "name": "超市发",
        "name:en": "bjcsf",
        "name:zh": "超市发",
        "shop": "convenience"
      }
    }
  ]
}
