{
  "brands/shop/deli": [
    {
      "displayName": "Vom Fass",
      "id": "vomfass-a3c745",
      "locationSet": {
        "include": [
          "at",
          "be",
          "br",
          "ca",
          "ch",
          "cz",
          "de",
          "dk",
          "es",
          "fr",
          "gb",
          "hk",
          "hr",
          "hu",
          "il",
          "it",
          "jp",
          "lv",
          "mx",
          "my",
          "ph",
          "sg",
          "th",
          "us"
        ]
      },
      "tags": {
        "brand": "Vom Fass",
        "brand:wikidata": "Q2533008",
        "brand:wikipedia": "de:Vom Fass",
        "name": "Vom Fass",
        "shop": "deli"
      }
    },
    {
      "displayName": "さぼてん",
      "id": "saboten-39c92c",
      "locationSet": {"include": ["jp"]},
      "tags": {
        "brand": "さぼてん",
        "brand:en": "Saboten",
        "brand:ja": "さぼてん",
        "brand:wikidata": "Q93277389",
        "name": "さぼてん",
        "name:en": "Saboten",
        "name:ja": "さぼてん",
        "official_name": "新宿さぼてん",
        "official_name:en": "Shinjuku Saboten",
        "official_name:ja": "新宿さぼてん",
        "shop": "deli"
      }
    },
    {
      "displayName": "ほっともっと",
      "id": "hottomotto-39c92c",
      "locationSet": {"include": ["jp"]},
      "tags": {
        "brand": "ほっともっと",
        "brand:en": "Hotto Motto",
        "brand:ja": "ほっともっと",
        "brand:wikidata": "Q10850949",
        "brand:wikipedia": "ja:ほっともっと",
        "name": "ほっともっと",
        "name:en": "Hotto Motto",
        "name:ja": "ほっともっと",
        "shop": "deli"
      }
    },
    {
      "displayName": "京樽",
      "id": "kyotaru-39c92c",
      "locationSet": {"include": ["jp"]},
      "matchTags": ["amenity/fast_food"],
      "tags": {
        "brand": "京樽",
        "brand:en": "Kyotaru",
        "brand:ja": "京樽",
        "brand:wikidata": "Q11374503",
        "brand:wikipedia": "ja:京樽",
        "name": "京樽",
        "name:en": "Kyotaru",
        "name:ja": "京樽",
        "shop": "deli"
      }
    }
  ]
}