{
  "properties": {
    "path": "brands/shop/dry_cleaning",
    "exclude": {
      "generic": [
        "^(dry )?(clean(ers?|ing)|pressing)$",
        "^химчистка$"
      ]
    }
  },
  "items": [
    {
      "displayName": "5àsec",
      "id": "5asec-e2c813",
      "locationSet": {"include": ["001"]},
      "matchTags": ["shop/laundry"],
      "tags": {
        "brand": "5àsec",
        "brand:wikidata": "Q2817899",
        "name": "5àsec",
        "shop": "dry_cleaning"
      }
    },
    {
      "displayName": "CD One Price Cleaners",
      "id": "cdonepricecleaners-1b6f6c",
      "locationSet": {"include": ["us"]},
      "tags": {
        "brand": "CD One Price Cleaners",
        "brand:wikidata": "Q110720124",
        "name": "CD One Price Cleaners",
        "shop": "dry_cleaning"
      }
    },
    {
      "displayName": "DryClean USA",
      "id": "drycleanusa-b9a2df",
      "locationSet": {
        "include": ["br", "mx", "us"]
      },
      "tags": {
        "brand": "DryClean USA",
        "brand:wikidata": "Q108878043",
        "name": "DryClean USA",
        "shop": "dry_cleaning"
      }
    },
    {
      "displayName": "Johnsons",
      "id": "johnsons-a4fd49",
      "locationSet": {"include": ["gb"]},
      "matchNames": [
        "johnson",
        "johnsons cleaners"
      ],
      "tags": {
        "brand": "Johnsons",
        "brand:wikidata": "Q6268527",
        "name": "Johnsons",
        "shop": "dry_cleaning"
      }
    },
    {
      "displayName": "Martinizing Dry Cleaning",
      "id": "martinizingdrycleaning-e2c813",
      "locationSet": {"include": ["001"]},
      "tags": {
        "brand": "Martinizing Dry Cleaning",
        "brand:wikidata": "Q6777169",
        "name": "Martinizing Dry Cleaning",
        "shop": "dry_cleaning"
      }
    },
    {
      "displayName": "Tide Cleaners",
      "id": "tidecleaners-1b6f6c",
      "locationSet": {"include": ["us"]},
      "matchNames": ["tide", "tide dry cleaners"],
      "tags": {
        "brand": "Tide Cleaners",
        "brand:wikidata": "Q66048841",
        "name": "Tide Cleaners",
        "shop": "dry_cleaning"
      }
    },
    {
      "displayName": "Zips Dry Cleaning",
      "id": "zipsdrycleaning-1b6f6c",
      "locationSet": {"include": ["us"]},
      "matchNames": ["zips", "zips cleaning"],
      "tags": {
        "brand": "Zips Dry Cleaning",
        "brand:wikidata": "Q110527952",
        "name": "Zips Dry Cleaning",
        "shop": "dry_cleaning"
      }
    },
    {
      "displayName": "Диана",
      "id": "21adb0-1a9348",
      "locationSet": {"include": ["ru"]},
      "tags": {
        "brand": "Диана",
        "brand:wikidata": "Q62105088",
        "name": "Диана",
        "shop": "dry_cleaning"
      }
    },
    {
      "displayName": "うさちゃんクリーニング",
      "id": "usachancleaning-3105a6",
      "locationSet": {"include": ["jp"]},
      "tags": {
        "brand": "うさちゃんクリーニング",
        "brand:en": "Usachan Cleaning",
        "brand:ja": "うさちゃんクリーニング",
        "brand:wikidata": "Q93641593",
        "name": "うさちゃんクリーニング",
        "name:en": "Usachan Cleaning",
        "name:ja": "うさちゃんクリーニング",
        "shop": "dry_cleaning"
      }
    },
    {
      "displayName": "ダイヤクリーニング",
      "id": "diacleaning-3105a6",
      "locationSet": {"include": ["jp"]},
      "tags": {
        "brand": "ダイヤクリーニング",
        "brand:en": "Dia Cleaning",
        "brand:ja": "ダイヤクリーニング",
        "brand:wikidata": "Q11316968",
        "name": "ダイヤクリーニング",
        "name:en": "Dia Cleaning",
        "name:ja": "ダイヤクリーニング",
        "shop": "dry_cleaning"
      }
    },
    {
      "displayName": "タカケンサンシャイン",
      "id": "takakensunshine-3105a6",
      "locationSet": {"include": ["jp"]},
      "matchNames": ["タカケンクリーング"],
      "tags": {
        "brand": "タカケンサンシャイン",
        "brand:en": "Takaken Sunshine",
        "brand:ja": "タカケンサンシャイン",
        "brand:wikidata": "Q11315914",
        "name": "タカケンサンシャイン",
        "name:en": "Takaken Sunshine",
        "name:ja": "タカケンサンシャイン",
        "shop": "dry_cleaning"
      }
    },
    {
      "displayName": "ポニー",
      "id": "pony-3105a6",
      "locationSet": {"include": ["jp"]},
      "tags": {
        "brand": "ポニー",
        "brand:en": "Pony",
        "brand:ja": "ポニー",
        "brand:wikidata": "Q88012241",
        "name": "ポニー",
        "name:en": "Pony",
        "name:ja": "ポニー",
        "official_name": "ポニークリーニング",
        "official_name:en": "Pony Cleaning",
        "official_name:ja": "ポニークリーニング",
        "shop": "dry_cleaning"
      }
    },
    {
      "displayName": "ホワイト急便",
      "id": "whitekyuubin-3105a6",
      "locationSet": {"include": ["jp"]},
      "tags": {
        "brand": "ホワイト急便",
        "brand:en": "White Kyuubin",
        "brand:ja": "ホワイト急便",
        "brand:wikidata": "Q11505557",
        "name": "ホワイト急便",
        "name:en": "White Kyuubin",
        "name:ja": "ホワイト急便",
        "shop": "dry_cleaning"
      }
    },
    {
      "displayName": "ヤングドライ",
      "id": "youngdry-3105a6",
      "locationSet": {"include": ["jp"]},
      "tags": {
        "brand": "ヤングドライ",
        "brand:en": "Young Dry",
        "brand:ja": "ヤングドライ",
        "brand:wikidata": "Q11345434",
        "name": "ヤングドライ",
        "name:en": "Young Dry",
        "name:ja": "ヤングドライ",
        "shop": "dry_cleaning"
      }
    },
    {
      "displayName": "白洋舎",
      "id": "hakuyosha-3105a6",
      "locationSet": {"include": ["jp"]},
      "tags": {
        "brand": "白洋舎",
        "brand:en": "Hakuyosha",
        "brand:ja": "白洋舎",
        "brand:wikidata": "Q11579995",
        "name": "白洋舎",
        "name:en": "Hakuyosha",
        "name:ja": "白洋舎",
        "shop": "dry_cleaning"
      }
    },
    {
      "displayName": "福奈特",
      "id": "fornet-0dec54",
      "locationSet": {"include": ["cn"]},
      "tags": {
        "brand": "福奈特",
        "brand:en": "Fornet",
        "brand:wikidata": "Q108167403",
        "brand:zh": "福奈特",
        "name": "福奈特",
        "name:en": "Fornet",
        "name:zh": "福奈特",
        "shop": "dry_cleaning"
      }
    }
  ]
}
