{
  "properties": {
    "path": "brands/shop/electronics",
    "exclude": {"generic": ["^electronics$"]}
  },
  "items": [
    {
      "displayName": "100満ボルト",
      "id": "100manvolt-f86f5e",
      "locationSet": {"include": ["jp"]},
      "matchNames": ["100mv"],
      "tags": {
        "brand": "100満ボルト",
        "brand:en": "100 Man Volt",
        "brand:ja": "100満ボルト",
        "brand:wikidata": "Q11305504",
        "name": "100満ボルト",
        "name:en": "100 Man Volt",
        "name:ja": "100満ボルト",
        "shop": "electronics"
      }
    },
    {
      "displayName": "5 Элемент",
      "id": "dcb9ff-9377b7",
      "locationSet": {"include": ["001"]},
      "tags": {
        "brand": "5 Элемент",
        "name": "5 Элемент",
        "shop": "electronics"
      }
    },
    {
      "displayName": "ABC Warehouse",
      "id": "abcwarehouse-93e093",
      "locationSet": {"include": ["us"]},
      "tags": {
        "brand": "ABC Warehouse",
        "brand:wikidata": "Q4650261",
        "name": "ABC Warehouse",
        "shop": "electronics"
      }
    },
    {
      "displayName": "Alser.kz",
      "id": "alserkz-d3529a",
      "locationSet": {"include": ["kz"]},
      "tags": {
        "brand": "Alser.kz",
        "name": "Alser.kz",
        "shop": "electronics"
      }
    },
    {
      "displayName": "Altex",
      "id": "altex-9c4b16",
      "locationSet": {"include": ["ro"]},
      "tags": {
        "brand": "Altex",
        "brand:wikidata": "Q2840436",
        "name": "Altex",
        "shop": "electronics"
      }
    },
    {
      "displayName": "Alza",
      "id": "alza-5fa1c3",
      "locationSet": {
        "include": ["cz", "hu", "sk"]
      },
      "tags": {
        "brand": "Alza",
        "brand:wikidata": "Q10786832",
        "name": "Alza",
        "name:cs": "Alza.cz",
        "name:hu": "Alza.hu",
        "name:sk": "Alza.sk",
        "shop": "electronics"
      }
    },
    {
      "displayName": "Apple Store",
      "id": "applestore-9377b7",
      "locationSet": {"include": ["001"]},
      "preserveTags": ["^name"],
      "tags": {
        "brand": "Apple Store",
        "brand:wikidata": "Q421253",
        "name": "Apple Store",
        "shop": "electronics",
        "short_name": "Apple"
      }
    },
    {
      "displayName": "Automatic Centre",
      "id": "automaticcentre-9584c3",
      "locationSet": {"include": ["ph"]},
      "tags": {
        "brand": "Automatic Centre",
        "brand:wikidata": "Q4826504",
        "name": "Automatic Centre",
        "shop": "electronics"
      }
    },
    {
      "displayName": "b8ta",
      "id": "b8ta-93e093",
      "locationSet": {"include": ["us"]},
      "tags": {
        "brand": "b8ta",
        "brand:wikidata": "Q55604609",
        "name": "b8ta",
        "shop": "electronics"
      }
    },
    {
      "displayName": "Batteries Plus Bulbs",
      "id": "batteriesplusbulbs-93e093",
      "locationSet": {"include": ["us"]},
      "matchNames": ["batteries plus"],
      "tags": {
        "brand": "Batteries Plus Bulbs",
        "brand:wikidata": "Q17005157",
        "name": "Batteries Plus Bulbs",
        "shop": "electronics"
      }
    },
    {
      "displayName": "BCC",
      "id": "bcc-94ba6e",
      "locationSet": {"include": ["nl"]},
      "tags": {
        "brand": "BCC",
        "brand:wikidata": "Q2375758",
        "name": "BCC",
        "shop": "electronics"
      }
    },
    {
      "displayName": "Beko",
      "id": "beko-9377b7",
      "locationSet": {"include": ["001"]},
      "tags": {
        "brand": "Beko",
        "name": "Beko",
        "shop": "electronics"
      }
    },
    {
      "displayName": "Best Buy",
      "id": "bestbuy-4fc914",
      "locationSet": {
        "include": ["ca", "mx", "us"]
      },
      "tags": {
        "brand": "Best Buy",
        "brand:wikidata": "Q533415",
        "name": "Best Buy",
        "shop": "electronics"
      }
    },
    {
      "displayName": "Bing Lee",
      "id": "binglee-026a7a",
      "locationSet": {"include": ["au"]},
      "tags": {
        "brand": "Bing Lee",
        "brand:wikidata": "Q4914136",
        "name": "Bing Lee",
        "shop": "electronics"
      }
    },
    {
      "displayName": "Bork",
      "id": "bork-138e7e",
      "locationSet": {
        "include": ["am", "by", "kz", "ru"]
      },
      "tags": {
        "brand": "Bork",
        "brand:wikidata": "Q4035327",
        "name": "Bork",
        "shop": "electronics"
      }
    },
    {
      "displayName": "Bosch",
      "id": "bosch-9377b7",
      "locationSet": {"include": ["001"]},
      "tags": {
        "brand": "Bosch",
        "brand:wikidata": "Q234021",
        "name": "Bosch",
        "shop": "electronics"
      }
    },
    {
      "displayName": "Boulanger",
      "id": "boulanger-38013c",
      "locationSet": {"include": ["fr"]},
      "tags": {
        "brand": "Boulanger",
        "brand:wikidata": "Q2921695",
        "name": "Boulanger",
        "shop": "electronics"
      }
    },
    {
      "displayName": "Brookstone",
      "id": "brookstone-93e093",
      "locationSet": {"include": ["us"]},
      "tags": {
        "brand": "Brookstone",
        "brand:wikidata": "Q4975128",
        "name": "Brookstone",
        "shop": "electronics"
      }
    },
    {
      "displayName": "Canada Computers & Electronics",
      "id": "canadacomputersandelectronics-88d59f",
      "locationSet": {"include": ["ca"]},
      "tags": {
        "brand": "Canada Computers & Electronics",
        "brand:wikidata": "Q60763885",
        "name": "Canada Computers & Electronics",
        "shop": "electronics"
      }
    },
    {
      "displayName": "CeX",
      "id": "cex-75e32e",
      "locationSet": {
        "include": [
          "au",
          "es",
          "gb",
          "ie",
          "in",
          "it",
          "mx",
          "nl",
          "pl",
          "pt"
        ]
      },
      "tags": {
        "brand": "CeX",
        "brand:wikidata": "Q5055676",
        "name": "CeX",
        "shop": "electronics"
      }
    },
    {
      "displayName": "Conrad",
      "id": "conrad-a3c660",
      "locationSet": {
        "include": ["at", "ch", "de", "hu"]
      },
      "tags": {
        "brand": "Conrad",
        "brand:wikidata": "Q467136",
        "name": "Conrad",
        "shop": "electronics"
      }
    },
    {
      "displayName": "Coolblue",
      "id": "coolblue-5a7634",
      "locationSet": {
        "include": ["be", "de", "nl"]
      },
      "tags": {
        "brand": "Coolblue",
        "brand:wikidata": "Q4992516",
        "name": "Coolblue",
        "shop": "electronics"
      }
    },
    {
      "displayName": "Cromā",
      "id": "croma-91ea11",
      "locationSet": {"include": ["in"]},
      "tags": {
        "brand": "Cromā",
        "brand:wikidata": "Q5187683",
        "name": "Cromā",
        "shop": "electronics"
      }
    },
    {
      "displayName": "Currys",
      "id": "currys-5f4e0b",
      "locationSet": {"include": ["gb", "ie"]},
      "matchNames": [
        "currys pc world",
        "pc world"
      ],
      "tags": {
        "brand": "currys",
        "brand:wikidata": "Q3246464",
        "name": "Currys",
        "shop": "electronics"
      }
    },
    {
      "displayName": "Darty",
      "id": "darty-38013c",
      "locationSet": {"include": ["fr"]},
      "tags": {
        "brand": "Darty",
        "brand:wikidata": "Q2439098",
        "name": "Darty",
        "shop": "electronics"
      }
    },
    {
      "displayName": "Datacomp",
      "id": "datacomp-bbcba3",
      "locationSet": {"include": ["sk"]},
      "tags": {
        "brand": "Datacomp",
        "brand:wikidata": "Q116800856",
        "name": "Datacomp",
        "shop": "electronics"
      }
    },
    {
      "displayName": "Datart",
      "id": "datart-8bbdd1",
      "locationSet": {"include": ["cz", "sk"]},
      "tags": {
        "brand": "Datart",
        "brand:wikidata": "Q11774311",
        "name": "Datart",
        "shop": "electronics"
      }
    },
    {
      "displayName": "DID Electrical",
      "id": "didelectrical-4873ea",
      "locationSet": {"include": ["ie"]},
      "tags": {
        "brand": "DID Electrical",
        "brand:wikidata": "Q113471741",
        "name": "DID Electrical",
        "shop": "electronics"
      }
    },
    {
      "displayName": "DNS",
      "id": "dns-10b077",
      "locationSet": {"include": ["ru", "ua"]},
      "tags": {
        "alt_name": "ДНС",
        "brand": "DNS",
        "brand:en": "DNS",
        "brand:ru": "ДНС",
        "brand:wikidata": "Q4036922",
        "name": "DNS",
        "name:en": "DNS",
        "name:ru": "ДНС",
        "shop": "electronics"
      }
    },
    {
      "displayName": "DNS Technopoint",
      "id": "dnstechnopoint-10b077",
      "locationSet": {"include": ["ru", "ua"]},
      "tags": {
        "brand": "DNS Technopoint",
        "name": "DNS Technopoint",
        "shop": "electronics"
      }
    },
    {
      "displayName": "Eldorado (Україна)",
      "id": "eldorado-f31684",
      "locationSet": {"include": ["ua"]},
      "matchNames": ["ельдорадо"],
      "tags": {
        "brand": "Eldorado",
        "brand:wikidata": "Q60851865",
        "name": "Eldorado",
        "shop": "electronics"
      }
    },
    {
      "displayName": "Electroplanet",
      "id": "electroplanet-293070",
      "locationSet": {"include": ["ma"]},
      "tags": {
        "brand": "Electroplanet",
        "brand:wikidata": "Q109311658",
        "name": "Electroplanet",
        "shop": "electronics"
      }
    },
    {
      "displayName": "Elektra",
      "id": "elektra-10d776",
      "locationSet": {
        "include": ["gt", "hn", "pa", "pe", "sv"]
      },
      "tags": {
        "brand": "Elektra",
        "brand:wikidata": "Q1142753",
        "name": "Elektra",
        "shop": "electronics"
      }
    },
    {
      "displayName": "Elgiganten",
      "id": "elgiganten-540210",
      "locationSet": {"include": ["dk", "se"]},
      "tags": {
        "brand": "Elgiganten",
        "brand:wikidata": "Q17050121",
        "name": "Elgiganten",
        "shop": "electronics"
      }
    },
    {
      "displayName": "Elkjøp",
      "id": "elkjop-5875d7",
      "locationSet": {"include": ["no"]},
      "tags": {
        "brand": "Elkjøp",
        "brand:wikidata": "Q1771628",
        "shop": "electronics"
      }
    },
    {
      "displayName": "EP:",
      "id": "ep-a53b66",
      "locationSet": {
        "include": ["at", "ch", "de", "nl"]
      },
      "matchNames": ["electronicpartner"],
      "matchTags": ["shop/radiotechnics"],
      "tags": {
        "brand": "EP:",
        "brand:wikidata": "Q110271192",
        "shop": "electronics"
      }
    },
    {
      "displayName": "ETA",
      "id": "eta-8bbdd1",
      "locationSet": {"include": ["cz", "sk"]},
      "tags": {
        "brand": "ETA",
        "brand:wikidata": "Q11866675",
        "name": "ETA",
        "shop": "electronics"
      }
    },
    {
      "displayName": "Euronics",
      "id": "euronics-b0e3ca",
      "locationSet": {
        "include": ["001"],
        "exclude": ["de"]
      },
      "preserveTags": ["^name"],
      "tags": {
        "brand": "Euronics",
        "brand:wikidata": "Q184860",
        "name": "Euronics",
        "shop": "electronics"
      }
    },
    {
      "displayName": "Euronics (Deutschland)",
      "id": "euronics-50d984",
      "locationSet": {"include": ["de"]},
      "preserveTags": ["^name"],
      "tags": {
        "brand": "Euronics",
        "brand:wikidata": "Q2693387",
        "name": "Euronics",
        "shop": "electronics"
      }
    },
    {
      "displayName": "Expert",
      "id": "expert-b0e3ca",
      "locationSet": {
        "include": ["001"],
        "exclude": ["de"]
      },
      "tags": {
        "brand": "Expert",
        "brand:wikidata": "Q680990",
        "name": "Expert",
        "shop": "electronics"
      }
    },
    {
      "displayName": "Expert (Deutschland)",
      "id": "expert-50d984",
      "locationSet": {"include": ["de"]},
      "preserveTags": ["^name"],
      "tags": {
        "brand": "Expert",
        "brand:wikidata": "Q680990",
        "name": "Expert",
        "shop": "electronics"
      }
    },
    {
      "displayName": "Flanco",
      "id": "flanco-9c4b16",
      "locationSet": {"include": ["ro"]},
      "tags": {
        "brand": "Flanco",
        "brand:wikidata": "Q5457354",
        "name": "Flanco",
        "shop": "electronics"
      }
    },
    {
      "displayName": "Frávega",
      "id": "fravega-6d37eb",
      "locationSet": {"include": ["ar"]},
      "tags": {
        "brand": "Frávega",
        "brand:wikidata": "Q5401467",
        "name": "Frávega",
        "shop": "electronics"
      }
    },
    {
      "displayName": "Fry's Electronics",
      "id": "fryselectronics-93e093",
      "locationSet": {"include": ["us"]},
      "tags": {
        "brand": "Fry's Electronics",
        "brand:wikidata": "Q5506545",
        "name": "Fry's Electronics",
        "shop": "electronics",
        "short_name": "Fry's"
      }
    },
    {
      "displayName": "Fust",
      "id": "fust-c12012",
      "locationSet": {"include": ["ch"]},
      "tags": {
        "brand": "Fust",
        "brand:wikidata": "Q1227164",
        "name": "Fust",
        "shop": "electronics"
      }
    },
    {
      "displayName": "Garbarino",
      "id": "garbarino-6d37eb",
      "locationSet": {"include": ["ar"]},
      "tags": {
        "brand": "Garbarino",
        "brand:wikidata": "Q5875270",
        "name": "Garbarino",
        "shop": "electronics"
      }
    },
    {
      "displayName": "Gigantti",
      "id": "gigantti-741a81",
      "locationSet": {"include": ["fi"]},
      "tags": {
        "brand": "Gigantti",
        "brand:wikidata": "Q42512186",
        "name": "Gigantti",
        "shop": "electronics"
      }
    },
    {
      "displayName": "Gigatron",
      "id": "gigatron-7d20f1",
      "locationSet": {"include": ["rs"]},
      "tags": {
        "brand": "Gigatron",
        "brand:wikidata": "Q115754758",
        "name": "Gigatron",
        "name:sr": "Гигатрон",
        "name:sr-Latn": "Gigatron",
        "shop": "electronics"
      }
    },
    {
      "displayName": "Gitem",
      "id": "gitem-38013c",
      "locationSet": {"include": ["fr"]},
      "tags": {
        "brand": "Gitem",
        "brand:wikidata": "Q3107853",
        "name": "Gitem",
        "shop": "electronics"
      }
    },
    {
      "displayName": "Hartlauer",
      "id": "hartlauer-7212ef",
      "locationSet": {"include": ["at"]},
      "tags": {
        "brand": "Hartlauer",
        "brand:wikidata": "Q1587223",
        "name": "Hartlauer",
        "shop": "electronics"
      }
    },
    {
      "displayName": "Holzleitner",
      "id": "holzleitner-50d984",
      "locationSet": {"include": ["de"]},
      "tags": {
        "brand": "Holzleitner",
        "brand:wikidata": "Q99620868",
        "name": "Holzleitner",
        "shop": "electronics"
      }
    },
    {
      "displayName": "Home Along",
      "id": "homealong-9584c3",
      "locationSet": {"include": ["ph"]},
      "tags": {
        "brand": "Home Along",
        "brand:wikidata": "Q110314827",
        "name": "Home Along",
        "shop": "electronics"
      }
    },
    {
      "displayName": "ibyte",
      "id": "ibyte-2bf2c3",
      "locationSet": {"include": ["br"]},
      "tags": {
        "brand": "ibyte",
        "brand:wikidata": "Q111108566",
        "name": "ibyte",
        "shop": "electronics"
      }
    },
    {
      "displayName": "InMotion",
      "id": "inmotion-d88b15",
      "locationSet": {
        "include": ["au", "es", "gb", "us"]
      },
      "tags": {
        "brand": "InMotion",
        "brand:wikidata": "Q109648041",
        "name": "InMotion",
        "shop": "electronics"
      }
    },
    {
      "displayName": "Interdiscount",
      "id": "interdiscount-c12012",
      "locationSet": {"include": ["ch"]},
      "tags": {
        "brand": "Interdiscount",
        "brand:wikidata": "Q1665980",
        "name": "Interdiscount",
        "shop": "electronics"
      }
    },
    {
      "displayName": "iStores",
      "id": "istores-8bbdd1",
      "locationSet": {"include": ["cz", "sk"]},
      "tags": {
        "brand": "iStores",
        "brand:wikidata": "Q116732324",
        "name": "iStores",
        "shop": "electronics"
      }
    },
    {
      "displayName": "iStyle",
      "id": "istyle-e9662e",
      "locationSet": {
        "include": [
          "bg",
          "cz",
          "hr",
          "hu",
          "mk",
          "ro",
          "rs",
          "si",
          "sk"
        ]
      },
      "tags": {
        "brand": "iStyle",
        "brand:wikidata": "Q58196745",
        "name": "iStyle",
        "shop": "electronics"
      }
    },
    {
      "displayName": "Jaycar",
      "id": "jaycar-2d5b11",
      "locationSet": {"include": ["au", "nz"]},
      "tags": {
        "brand": "Jaycar",
        "brand:wikidata": "Q6167713",
        "name": "Jaycar",
        "shop": "electronics"
      }
    },
    {
      "displayName": "JB Hi-Fi",
      "id": "jbhifi-2d5b11",
      "locationSet": {"include": ["au", "nz"]},
      "tags": {
        "brand": "JB Hi-Fi",
        "brand:wikidata": "Q3310113",
        "name": "JB Hi-Fi",
        "shop": "electronics"
      }
    },
    {
      "displayName": "Kjell & Company",
      "id": "kjellandcompany-4786d4",
      "locationSet": {"include": ["no", "se"]},
      "matchNames": ["kjell och company"],
      "tags": {
        "brand": "Kjell & Company",
        "brand:wikidata": "Q6419332",
        "name": "Kjell & Company",
        "shop": "electronics"
      }
    },
    {
      "displayName": "Komputronik",
      "id": "komputronik-2b5e29",
      "locationSet": {"include": ["pl"]},
      "tags": {
        "brand": "Komputronik",
        "brand:wikidata": "Q11742085",
        "name": "Komputronik",
        "shop": "electronics"
      }
    },
    {
      "displayName": "Krëfel",
      "id": "krefel-17d2c2",
      "locationSet": {"include": ["be"]},
      "tags": {
        "brand": "Krëfel",
        "brand:wikidata": "Q3200093",
        "name": "Krëfel",
        "shop": "electronics"
      }
    },
    {
      "displayName": "La Curacao",
      "id": "lacuracao-9377b7",
      "locationSet": {"include": ["001"]},
      "tags": {
        "brand": "La Curacao",
        "brand:wikidata": "Q5194599",
        "name": "La Curacao",
        "shop": "electronics"
      }
    },
    {
      "displayName": "Laser Eletro",
      "id": "lasereletro-2bf2c3",
      "locationSet": {"include": ["br"]},
      "tags": {
        "brand": "Laser Eletro",
        "brand:wikidata": "Q114670699",
        "name": "Laser Eletro",
        "shop": "electronics"
      }
    },
    {
      "displayName": "LG",
      "id": "lg-9377b7",
      "locationSet": {"include": ["001"]},
      "matchNames": ["lg electronics"],
      "tags": {
        "brand": "LG",
        "brand:wikidata": "Q162345",
        "name": "LG",
        "shop": "electronics"
      }
    },
    {
      "displayName": "Maplin",
      "id": "maplin-6506bb",
      "locationSet": {"include": ["gb"]},
      "tags": {
        "brand": "Maplin",
        "brand:wikidata": "Q6754124",
        "name": "Maplin",
        "shop": "electronics"
      }
    },
    {
      "displayName": "MDA",
      "id": "mda-38013c",
      "locationSet": {"include": ["fr"]},
      "tags": {
        "brand": "MDA",
        "name": "MDA",
        "shop": "electronics"
      }
    },
    {
      "displayName": "Mechta.kz",
      "id": "mechtakz-9377b7",
      "locationSet": {"include": ["001"]},
      "tags": {
        "brand": "Mechta.kz",
        "name": "Mechta.kz",
        "shop": "electronics"
      }
    },
    {
      "displayName": "Media Expert",
      "id": "mediaexpert-2b5e29",
      "locationSet": {"include": ["pl"]},
      "tags": {
        "brand": "Media Expert",
        "brand:wikidata": "Q11776794",
        "name": "Media Expert",
        "shop": "electronics"
      }
    },
    {
      "displayName": "MediaMarkt",
      "id": "mediamarkt-a3dfab",
      "locationSet": {
        "include": [
          "at",
          "be",
          "ch",
          "de",
          "es",
          "gr",
          "hu",
          "nl",
          "pl",
          "pt",
          "se",
          "tr"
        ]
      },
      "tags": {
        "brand": "MediaMarkt",
        "brand:wikidata": "Q2381223",
        "name": "MediaMarkt",
        "shop": "electronics"
      }
    },
    {
      "displayName": "MediaWorld",
      "id": "mediaworld-41f013",
      "locationSet": {"include": ["it"]},
      "matchNames": ["mediamarkt"],
      "tags": {
        "brand": "MediaWorld",
        "brand:wikidata": "Q76504823",
        "name": "MediaWorld",
        "shop": "electronics"
      }
    },
    {
      "displayName": "Medimax",
      "id": "medimax-50d984",
      "locationSet": {"include": ["de"]},
      "tags": {
        "brand": "Medimax",
        "brand:wikidata": "Q62872450",
        "name": "Medimax",
        "shop": "electronics"
      }
    },
    {
      "displayName": "melectronics",
      "id": "melectronics-c12012",
      "locationSet": {"include": ["ch"]},
      "tags": {
        "brand": "melectronics",
        "brand:wikidata": "Q110276002",
        "name": "melectronics",
        "shop": "electronics"
      }
    },
    {
      "displayName": "Miele",
      "id": "miele-9377b7",
      "locationSet": {"include": ["001"]},
      "tags": {
        "brand": "Miele",
        "brand:wikidata": "Q695230",
        "name": "Miele",
        "shop": "electronics"
      }
    },
    {
      "displayName": "Milar",
      "id": "milar-c76981",
      "locationSet": {"include": ["es"]},
      "tags": {
        "brand": "Milar",
        "brand:wikidata": "Q116149151",
        "name": "Milar",
        "shop": "electronics"
      }
    },
    {
      "displayName": "Moyo",
      "id": "moyo-f31684",
      "locationSet": {"include": ["ua"]},
      "matchNames": ["мойо"],
      "tags": {
        "brand": "Moyo",
        "brand:wikidata": "Q50413543",
        "name": "Moyo",
        "shop": "electronics"
      }
    },
    {
      "displayName": "Musimundo",
      "id": "musimundo-6d37eb",
      "locationSet": {"include": ["ar"]},
      "tags": {
        "brand": "Musimundo",
        "brand:wikidata": "Q6034719",
        "name": "Musimundo",
        "shop": "electronics"
      }
    },
    {
      "displayName": "Nay",
      "id": "nay-bbcba3",
      "locationSet": {"include": ["sk"]},
      "tags": {
        "brand": "Nay",
        "brand:wikidata": "Q13537421",
        "name": "Nay",
        "shop": "electronics"
      }
    },
    {
      "displayName": "Neonet",
      "id": "neonet-2b5e29",
      "locationSet": {"include": ["pl"]},
      "tags": {
        "brand": "Neonet",
        "brand:wikidata": "Q11790622",
        "name": "Neonet",
        "shop": "electronics"
      }
    },
    {
      "displayName": "Noel Leeming",
      "id": "noelleeming-5f4367",
      "locationSet": {"include": ["nz"]},
      "matchTags": ["shop/appliance"],
      "tags": {
        "brand": "Noel Leeming",
        "brand:wikidata": "Q110205329",
        "name": "Noel Leeming",
        "shop": "electronics"
      }
    },
    {
      "displayName": "Okay",
      "id": "okay-8bbdd1",
      "locationSet": {"include": ["cz", "sk"]},
      "tags": {
        "brand": "Okay",
        "brand:wikidata": "Q17583128",
        "name": "Okay",
        "shop": "electronics"
      }
    },
    {
      "displayName": "P. C. Richard & Son",
      "id": "pcrichardandson-93e093",
      "locationSet": {"include": ["us"]},
      "matchNames": ["pc richard"],
      "tags": {
        "brand": "P. C. Richard & Son",
        "brand:wikidata": "Q7117161",
        "name": "P. C. Richard & Son",
        "shop": "electronics"
      }
    },
    {
      "displayName": "PLANEO Elektro",
      "id": "planeoelektro-8bbdd1",
      "locationSet": {"include": ["cz", "sk"]},
      "tags": {
        "brand": "PLANEO Elektro",
        "brand:wikidata": "Q107723323",
        "name": "PLANEO Elektro",
        "shop": "electronics"
      }
    },
    {
      "displayName": "Polishop",
      "id": "polishop-2bf2c3",
      "locationSet": {"include": ["br"]},
      "tags": {
        "brand": "Polishop",
        "brand:wikidata": "Q10350856",
        "name": "Polishop",
        "shop": "electronics"
      }
    },
    {
      "displayName": "Power",
      "id": "power-9765c4",
      "locationSet": {
        "include": ["dk", "fi", "no", "se"]
      },
      "tags": {
        "brand": "Power",
        "brand:wikidata": "Q20857751",
        "name": "Power",
        "shop": "electronics"
      }
    },
    {
      "displayName": "PRO&Cie",
      "id": "proandcie-38013c",
      "locationSet": {"include": ["fr"]},
      "tags": {
        "brand": "PRO&Cie",
        "brand:wikidata": "Q3406142",
        "name": "PRO&Cie",
        "shop": "electronics"
      }
    },
    {
      "displayName": "RadioShack",
      "id": "radioshack-9377b7",
      "locationSet": {"include": ["001"]},
      "tags": {
        "brand": "RadioShack",
        "brand:wikidata": "Q1195490",
        "name": "RadioShack",
        "shop": "electronics"
      }
    },
    {
      "displayName": "re:Store",
      "id": "restore-71b2fd",
      "locationSet": {"include": ["ru"]},
      "tags": {
        "brand": "re:Store",
        "brand:wikidata": "Q7486956",
        "name": "re:Store",
        "shop": "electronics"
      }
    },
    {
      "displayName": "Reliance Digital",
      "id": "reliancedigital-91ea11",
      "locationSet": {"include": ["in"]},
      "tags": {
        "brand": "Reliance Digital",
        "brand:wikidata": "Q7311012",
        "name": "Reliance Digital",
        "shop": "electronics"
      }
    },
    {
      "displayName": "RTV Euro AGD",
      "id": "rtveuroagd-2b5e29",
      "locationSet": {"include": ["pl"]},
      "tags": {
        "brand": "RTV Euro AGD",
        "brand:wikidata": "Q7277895",
        "name": "RTV Euro AGD",
        "shop": "electronics"
      }
    },
    {
      "displayName": "Samsung",
      "id": "samsung-9377b7",
      "locationSet": {"include": ["001"]},
      "tags": {
        "brand": "Samsung",
        "brand:wikidata": "Q20718",
        "name": "Samsung",
        "shop": "electronics"
      }
    },
    {
      "displayName": "Saturn",
      "id": "saturn-cc2119",
      "locationSet": {
        "include": ["at", "de", "lu", "pl"]
      },
      "tags": {
        "brand": "Saturn",
        "brand:wikidata": "Q2543504",
        "name": "Saturn",
        "shop": "electronics"
      }
    },
    {
      "displayName": "Savers Appliances",
      "id": "saversappliances-9584c3",
      "locationSet": {"include": ["ph"]},
      "tags": {
        "brand": "Savers Appliances",
        "brand:wikidata": "Q113680122",
        "name": "Savers Appliances",
        "shop": "electronics"
      }
    },
    {
      "displayName": "Senheng",
      "id": "senheng-5d0e2e",
      "locationSet": {"include": ["my"]},
      "tags": {
        "brand": "Senheng",
        "brand:wikidata": "Q55632855",
        "name": "Senheng",
        "shop": "electronics"
      }
    },
    {
      "displayName": "Simply Mac",
      "id": "simplymac-93e093",
      "locationSet": {"include": ["us"]},
      "tags": {
        "brand": "Simply Mac",
        "brand:wikidata": "Q105180470",
        "name": "Simply Mac",
        "shop": "electronics"
      }
    },
    {
      "displayName": "Sony",
      "id": "sony-9377b7",
      "locationSet": {"include": ["001"]},
      "tags": {
        "brand": "Sony",
        "brand:wikidata": "Q41187",
        "name": "Sony",
        "shop": "electronics"
      }
    },
    {
      "displayName": "Sony Centre",
      "id": "sonycentre-9377b7",
      "locationSet": {"include": ["001"]},
      "matchNames": ["sony center"],
      "tags": {
        "brand": "Sony Centre",
        "brand:wikidata": "Q3437496",
        "name": "Sony Centre",
        "shop": "electronics"
      }
    },
    {
      "displayName": "Steren",
      "id": "steren-21e489",
      "locationSet": {
        "include": ["co", "cr", "do", "gt", "mx"]
      },
      "tags": {
        "brand": "Steren",
        "brand:wikidata": "Q5829102",
        "name": "Steren",
        "shop": "electronics"
      }
    },
    {
      "displayName": "Techmart",
      "id": "techmart-47dfb8",
      "locationSet": {"include": ["bg"]},
      "tags": {
        "brand": "Техмарт",
        "brand:bg": "Техмарт",
        "brand:en": "Techmart",
        "brand:wikidata": "Q111648425",
        "name": "Техмарт",
        "name:bg": "Техмарт",
        "name:en": "Techmart",
        "shop": "electronics"
      }
    },
    {
      "displayName": "Technodom",
      "id": "technodom-d3529a",
      "locationSet": {"include": ["kz"]},
      "tags": {
        "brand": "Technodom",
        "name": "Technodom",
        "name:en": "Technodom",
        "name:ru": "Технодом",
        "shop": "electronics"
      }
    },
    {
      "displayName": "Technopoint",
      "id": "technopoint-71b2fd",
      "locationSet": {"include": ["ru"]},
      "tags": {
        "brand": "Technopoint",
        "name": "Technopoint",
        "shop": "electronics"
      }
    },
    {
      "displayName": "Tehnomanija",
      "id": "a2c9fa-7d20f1",
      "locationSet": {"include": ["rs"]},
      "matchTags": ["shop/appliances"],
      "tags": {
        "brand": "Техноманија",
        "brand:wikidata": "Q116133188",
        "name": "Техноманија",
        "name:sr": "Техноманија",
        "name:sr-Latn": "Tehnomanija",
        "shop": "electronics"
      }
    },
    {
      "displayName": "Teknikmagasinet",
      "id": "teknikmagasinet-bae196",
      "locationSet": {
        "include": ["fi", "no", "se"]
      },
      "tags": {
        "brand": "Teknikmagasinet",
        "brand:wikidata": "Q3357520",
        "name": "Teknikmagasinet",
        "shop": "electronics"
      }
    },
    {
      "displayName": "Teknosa",
      "id": "teknosa-194b37",
      "locationSet": {"include": ["tr"]},
      "tags": {
        "brand": "Teknosa",
        "brand:wikidata": "Q6559269",
        "name": "Teknosa",
        "shop": "electronics"
      }
    },
    {
      "displayName": "The Good Guys",
      "id": "thegoodguys-026a7a",
      "locationSet": {"include": ["au"]},
      "tags": {
        "brand": "The Good Guys",
        "brand:wikidata": "Q7737217",
        "name": "The Good Guys",
        "shop": "electronics"
      }
    },
    {
      "displayName": "The Source",
      "id": "thesource-88d59f",
      "locationSet": {"include": ["ca"]},
      "tags": {
        "brand": "The Source",
        "brand:wikidata": "Q3212934",
        "name": "The Source",
        "shop": "electronics"
      }
    },
    {
      "displayName": "Trony",
      "id": "trony-41f013",
      "locationSet": {"include": ["it"]},
      "tags": {
        "brand": "Trony",
        "brand:wikidata": "Q3999692",
        "name": "Trony",
        "shop": "electronics"
      }
    },
    {
      "displayName": "Unieuro",
      "id": "unieuro-41f013",
      "locationSet": {"include": ["it"]},
      "tags": {
        "brand": "Unieuro",
        "brand:wikidata": "Q4004687",
        "name": "Unieuro",
        "shop": "electronics"
      }
    },
    {
      "displayName": "Vanden Borre",
      "id": "vandenborre-17d2c2",
      "locationSet": {"include": ["be"]},
      "tags": {
        "brand": "Vanden Borre",
        "brand:wikidata": "Q3554485",
        "name": "Vanden Borre",
        "shop": "electronics"
      }
    },
    {
      "displayName": "Vatan Bilgisayar",
      "id": "vatanbilgisayar-194b37",
      "locationSet": {"include": ["tr"]},
      "tags": {
        "brand": "Vatan Bilgisayar",
        "brand:wikidata": "Q6048050",
        "name": "Vatan Bilgisayar",
        "shop": "electronics"
      }
    },
    {
      "displayName": "Vestel",
      "id": "vestel-194b37",
      "locationSet": {"include": ["tr"]},
      "tags": {
        "brand": "Vestel",
        "brand:wikidata": "Q2191408",
        "name": "Vestel",
        "shop": "electronics"
      }
    },
    {
      "displayName": "Video Only",
      "id": "videoonly-5e4651",
      "locationSet": {
        "include": [
          "us-ca.geojson",
          "us-or.geojson",
          "us-wa.geojson"
        ]
      },
      "tags": {
        "brand": "Video Only",
        "brand:wikidata": "Q110543258",
        "name": "Video Only",
        "shop": "electronics"
      }
    },
    {
      "displayName": "Vijay Sales",
      "id": "vijaysales-91ea11",
      "locationSet": {"include": ["in"]},
      "tags": {
        "brand": "Vijay Sales",
        "brand:wikidata": "Q7929200",
        "name": "Vijay Sales",
        "shop": "electronics"
      }
    },
    {
      "displayName": "Visions Electronics",
      "id": "visionselectronics-88d59f",
      "locationSet": {"include": ["ca"]},
      "tags": {
        "brand": "Visions Electronics",
        "brand:wikidata": "Q113001366",
        "name": "Visions Electronics",
        "shop": "electronics"
      }
    },
    {
      "displayName": "Worten",
      "id": "worten-f7e8ae",
      "locationSet": {
        "include": ["ao", "es", "pt"]
      },
      "tags": {
        "brand": "Worten",
        "brand:wikidata": "Q10394039",
        "name": "Worten",
        "shop": "electronics"
      }
    },
    {
      "displayName": "x-kom",
      "id": "xkom-2b5e29",
      "locationSet": {"include": ["pl"]},
      "tags": {
        "brand": "x-kom",
        "brand:wikidata": "Q30909211",
        "name": "x-kom",
        "shop": "electronics"
      }
    },
    {
      "displayName": "Зора",
      "id": "zora-47dfb8",
      "locationSet": {"include": ["bg"]},
      "tags": {
        "brand": "Зора",
        "brand:bg": "Зора",
        "brand:en": "Zora",
        "brand:wikidata": "Q111648360",
        "name": "Зора",
        "name:bg": "Зора",
        "name:en": "Zora",
        "shop": "electronics"
      }
    },
    {
      "displayName": "М.Видео",
      "id": "mvideo-71b2fd",
      "locationSet": {"include": ["ru"]},
      "matchNames": ["m.видео"],
      "tags": {
        "brand": "М.Видео",
        "brand:en": "M.video",
        "brand:wikidata": "Q6558800",
        "name": "М.Видео",
        "name:en": "M.video",
        "shop": "electronics"
      }
    },
    {
      "displayName": "Ситилинк",
      "id": "66795d-71b2fd",
      "locationSet": {"include": ["ru"]},
      "tags": {
        "brand": "Ситилинк",
        "brand:wikidata": "Q16698091",
        "name": "Ситилинк",
        "shop": "electronics"
      }
    },
    {
      "displayName": "Техномаркет",
      "id": "technomarket-47dfb8",
      "locationSet": {"include": ["bg"]},
      "tags": {
        "brand": "Техномаркет",
        "brand:bg": "Техномаркет",
        "brand:en": "Technomarket",
        "brand:wikidata": "Q7692633",
        "name": "Техномаркет",
        "name:bg": "Техномаркет",
        "name:en": "Technomarket",
        "shop": "electronics"
      }
    },
    {
      "displayName": "Технополис",
      "id": "technopolis-47dfb8",
      "locationSet": {"include": ["bg"]},
      "tags": {
        "brand": "Технополис",
        "brand:bg": "Технополис",
        "brand:en": "Technopolis",
        "brand:wikidata": "Q28056752",
        "name": "Технополис",
        "name:bg": "Технополис",
        "name:en": "Technopolis",
        "shop": "electronics"
      }
    },
    {
      "displayName": "Фокстрот",
      "id": "foxtrot-f31684",
      "locationSet": {"include": ["ua"]},
      "matchTags": ["shop/trade"],
      "tags": {
        "brand": "Фокстрот",
        "brand:en": "Foxtrot",
        "brand:uk": "Фокстрот",
        "brand:wikidata": "Q16721578",
        "name": "Фокстрот",
        "name:en": "Foxtrot",
        "name:uk": "Фокстрот",
        "shop": "electronics"
      }
    },
    {
      "displayName": "Цитрус",
      "id": "citrus-f31684",
      "locationSet": {"include": ["ua"]},
      "matchTags": ["shop/trade"],
      "tags": {
        "brand": "Цитрус",
        "brand:en": "Citrus",
        "brand:uk": "Цитрус",
        "name": "Цитрус",
        "name:en": "Citrus",
        "name:uk": "Цитрус",
        "shop": "electronics"
      }
    },
    {
      "displayName": "Эксперт",
      "id": "expert-71b2fd",
      "locationSet": {"include": ["ru"]},
      "tags": {
        "brand": "Эксперт",
        "brand:en": "Expert",
        "brand:ru": "Эксперт",
        "brand:wikidata": "Q4530590",
        "name": "Эксперт",
        "name:en": "Expert",
        "name:ru": "Эксперт",
        "shop": "electronics"
      }
    },
    {
      "displayName": "Эльдорадо",
      "id": "d6f3ca-71b2fd",
      "locationSet": {"include": ["ru"]},
      "tags": {
        "brand": "Эльдорадо",
        "brand:wikidata": "Q4531492",
        "name": "Эльдорадо",
        "shop": "electronics"
      }
    },
    {
      "displayName": "あきばお〜",
      "id": "akibaoo-f86f5e",
      "locationSet": {"include": ["jp"]},
      "matchNames": ["あきばお~"],
      "tags": {
        "brand": "あきばお〜",
        "brand:en": "Akibaoo",
        "brand:ja": "あきばお〜",
        "brand:wikidata": "Q11257009",
        "name": "あきばお〜",
        "name:en": "Akibaoo",
        "name:ja": "あきばお〜",
        "shop": "electronics"
      }
    },
    {
      "displayName": "エディオン",
      "id": "edion-f86f5e",
      "locationSet": {"include": ["jp"]},
      "matchNames": ["デオデオ"],
      "tags": {
        "brand": "エディオン",
        "brand:en": "EDION",
        "brand:ja": "エディオン",
        "brand:wikidata": "Q11290252",
        "name": "エディオン",
        "name:en": "EDION",
        "name:ja": "エディオン",
        "shop": "electronics"
      }
    },
    {
      "displayName": "ケーズデンキ",
      "id": "ksdenki-f86f5e",
      "locationSet": {"include": ["jp"]},
      "matchTags": ["shop/appliance"],
      "tags": {
        "brand": "ケーズデンキ",
        "brand:en": "K's Denki",
        "brand:ja": "ケーズデンキ",
        "brand:wikidata": "Q6322472",
        "name": "ケーズデンキ",
        "name:en": "K's Denki",
        "name:ja": "ケーズデンキ",
        "shop": "electronics"
      }
    },
    {
      "displayName": "コジマ×ビックカメラ",
      "id": "3dc97a-f86f5e",
      "locationSet": {"include": ["jp"]},
      "tags": {
        "brand": "コジマ×ビックカメラ",
        "brand:en": "Kojima × Bic Camera",
        "brand:ja": "コジマ×ビックカメラ",
        "brand:wikidata": "Q11302052",
        "name": "コジマ×ビックカメラ",
        "name:en": "Kojima × Bic Camera",
        "name:ja": "コジマ×ビックカメラ",
        "shop": "electronics",
        "short_name": "コジマ",
        "short_name:en": "Kojima",
        "short_name:ja": "コジマ"
      }
    },
    {
      "displayName": "ソフマップ",
      "id": "sofmap-f86f5e",
      "locationSet": {"include": ["jp"]},
      "tags": {
        "brand": "ソフマップ",
        "brand:en": "Sofmap",
        "brand:ja": "ソフマップ",
        "brand:wikidata": "Q7553789",
        "name": "ソフマップ",
        "name:en": "Sofmap",
        "name:ja": "ソフマップ",
        "shop": "electronics"
      }
    },
    {
      "displayName": "デンキチ",
      "id": "denkichi-f86f5e",
      "locationSet": {"include": ["jp"]},
      "tags": {
        "brand": "デンキチ",
        "brand:en": "Denkichi",
        "brand:ja": "デンキチ",
        "brand:wikidata": "Q11272857",
        "name": "デンキチ",
        "name:en": "Denkichi",
        "name:ja": "デンキチ",
        "shop": "electronics"
      }
    },
    {
      "displayName": "ノジマ",
      "id": "nojima-f86f5e",
      "locationSet": {"include": ["jp"]},
      "tags": {
        "brand": "ノジマ",
        "brand:en": "Nojima",
        "brand:ja": "ノジマ",
        "brand:wikidata": "Q11325660",
        "name": "ノジマ",
        "name:en": "Nojima",
        "name:ja": "ノジマ",
        "shop": "electronics"
      }
    },
    {
      "displayName": "ビックカメラ",
      "id": "biccamera-f86f5e",
      "locationSet": {"include": ["jp"]},
      "tags": {
        "brand": "ビックカメラ",
        "brand:en": "Bic Camera",
        "brand:ja": "ビックカメラ",
        "brand:wikidata": "Q4903531",
        "name": "ビックカメラ",
        "name:en": "Bic Camera",
        "name:ja": "ビックカメラ",
        "shop": "electronics"
      }
    },
    {
      "displayName": "ベスト電器",
      "id": "bestdenki-f86f5e",
      "locationSet": {"include": ["jp"]},
      "matchTags": ["shop/appliance"],
      "tags": {
        "brand": "ベスト電器",
        "brand:en": "Best Denki",
        "brand:ja": "ベスト電器",
        "brand:wikidata": "Q701925",
        "name": "ベスト電器",
        "name:en": "Best Denki",
        "name:ja": "ベスト電器",
        "shop": "electronics"
      }
    },
    {
      "displayName": "ヤマダデンキ",
      "id": "yamadadenki-f86f5e",
      "locationSet": {"include": ["jp"]},
      "matchNames": ["yamada"],
      "tags": {
        "alt_name": "ヤマダ電機",
        "brand": "ヤマダデンキ",
        "brand:en": "Yamada Denki",
        "brand:ja": "ヤマダデンキ",
        "brand:wikidata": "Q1096390",
        "name": "ヤマダデンキ",
        "name:en": "Yamada Denki",
        "name:ja": "ヤマダデンキ",
        "shop": "electronics"
      }
    },
    {
      "displayName": "ヨドバシカメラ",
      "id": "yodobashicamera-f86f5e",
      "locationSet": {"include": ["jp"]},
      "tags": {
        "brand": "ヨドバシカメラ",
        "brand:en": "Yodobashi Camera",
        "brand:ja": "ヨドバシカメラ",
        "brand:wikidata": "Q168467",
        "name": "ヨドバシカメラ",
        "name:en": "Yodobashi Camera",
        "name:ja": "ヨドバシカメラ",
        "shop": "electronics"
      }
    },
    {
      "displayName": "中原電器 Chung Yuen Electrical",
      "id": "chungyuenelectrical-d4a36a",
      "locationSet": {"include": ["hk"]},
      "tags": {
        "brand": "中原電器 Chung Yuen Electrical",
        "brand:en": "Chung Yuen Electrical",
        "brand:wikidata": "Q10872623",
        "brand:zh": "中原電器",
        "name": "中原電器 Chung Yuen Electrical",
        "name:en": "Chung Yuen Electrical",
        "name:zh": "中原電器",
        "shop": "electronics"
      }
    },
    {
      "displayName": "全國電子",
      "id": "elifemall-745265",
      "locationSet": {"include": ["tw"]},
      "tags": {
        "brand": "全國電子",
        "brand:en": "E-life Mall",
        "brand:nan": "Choân-kok Tiān-chú",
        "brand:nan-HJ": "全國電子",
        "brand:nan-POJ": "Choân-kok Tiān-chú",
        "brand:nan-TL": "Tsuân-kok Tiān-tsú",
        "brand:wikidata": "Q10891540",
        "brand:zh": "全國電子",
        "name": "全國電子",
        "name:en": "E-life Mall",
        "name:nan": "Choân-kok Tiān-chú",
        "name:nan-HJ": "全國電子",
        "name:nan-POJ": "Choân-kok Tiān-chú",
        "name:nan-TL": "Tsuân-kok Tiān-tsú",
        "name:zh": "全國電子",
        "shop": "electronics"
      }
    },
    {
      "displayName": "国美电器",
      "id": "gomeelectricalappliances-8750c0",
      "locationSet": {"include": ["cn"]},
      "matchNames": ["国美", "国美家电"],
      "tags": {
        "brand": "国美电器",
        "brand:en": "GOME Electrical Appliances",
        "brand:wikidata": "Q1486322",
        "brand:zh": "国美电器",
        "name": "国美电器",
        "name:en": "GOME Electrical Appliances",
        "name:zh": "国美电器",
        "shop": "electronics"
      }
    },
    {
      "displayName": "大同3C",
      "id": "tatung3c-745265",
      "locationSet": {"include": ["tw"]},
      "tags": {
        "brand": "大同3C",
        "brand:en": "Tatung 3C",
        "brand:wikidata": "Q108365710",
        "brand:zh": "大同3C",
        "name": "大同3C",
        "name:en": "Tatung 3C",
        "name:zh": "大同3C",
        "shop": "electronics"
      }
    },
    {
      "displayName": "張毛記 CMK Electrical Store",
      "id": "cmkelectricalstore-d4a36a",
      "locationSet": {"include": ["hk"]},
      "tags": {
        "brand": "張毛記 CMK Electrical Store",
        "brand:en": "CMK Electrical Store",
        "brand:wikidata": "Q67935756",
        "brand:zh": "張毛記",
        "name": "張毛記 CMK Electrical Store",
        "name:en": "CMK Electrical Store",
        "name:zh": "張毛記",
        "shop": "electronics"
      }
    },
    {
      "displayName": "燦坤3C",
      "id": "tsannkuen3c-745265",
      "locationSet": {"include": ["tw"]},
      "tags": {
        "brand": "燦坤3C",
        "brand:en": "Tsannkuen 3C",
        "brand:wikidata": "Q11569285",
        "brand:zh": "燦坤3C",
        "name": "燦坤3C",
        "name:en": "Tsannkuen 3C",
        "name:zh": "燦坤3C",
        "shop": "electronics"
      }
    },
    {
      "displayName": "百老滙 Broadway",
      "id": "broadway-d4a36a",
      "locationSet": {"include": ["hk"]},
      "tags": {
        "brand": "百老滙 Broadway",
        "brand:en": "Broadway",
        "brand:wikidata": "Q15899930",
        "brand:zh": "百老滙",
        "name": "百老滙 Broadway",
        "name:en": "Broadway",
        "name:zh": "百老滙",
        "shop": "electronics"
      }
    },
    {
      "displayName": "苏宁易购",
      "id": "suning-f768cc",
      "locationSet": {
        "include": ["cn"],
        "exclude": ["hk"]
      },
      "matchNames": ["苏宁", "苏宁家电", "苏宁电器"],
      "tags": {
        "brand": "苏宁易购",
        "brand:en": "Suning",
        "brand:wikidata": "Q17066824",
        "brand:zh": "苏宁易购",
        "name": "苏宁易购",
        "name:en": "Suning",
        "name:zh": "苏宁易购",
        "shop": "electronics"
      }
    },
    {
      "displayName": "蘇寧 Suning",
      "id": "suning-d4a36a",
      "locationSet": {"include": ["hk"]},
      "tags": {
        "brand": "蘇寧 Suning",
        "brand:en": "Suning",
        "brand:wikidata": "Q54932254",
        "brand:zh": "蘇寧",
        "name": "蘇寧 Suning",
        "name:en": "Suning",
        "name:zh": "蘇寧",
        "shop": "electronics"
      }
    },
    {
      "displayName": "豐澤 Fortress",
      "id": "fortress-d4a36a",
      "locationSet": {"include": ["hk"]},
      "tags": {
        "brand": "豐澤 Fortress",
        "brand:en": "Fortress",
        "brand:wikidata": "Q15904138",
        "brand:zh": "豐澤",
        "name": "豐澤 Fortress",
        "name:en": "Fortress",
        "name:zh": "豐澤",
        "shop": "electronics"
      }
    },
    {
      "displayName": "順發3C",
      "id": "sunfar-745265",
      "locationSet": {"include": ["tw"]},
      "tags": {
        "brand": "順發3C",
        "brand:en": "SUNFAR",
        "brand:wikidata": "Q108365505",
        "brand:zh": "順發3C",
        "name": "順發3C",
        "name:en": "SUNFAR",
        "name:zh": "順發3C",
        "shop": "electronics"
      }
    },
    {
      "displayName": "顺电",
      "id": "sundan-8750c0",
      "locationSet": {"include": ["cn"]},
      "tags": {
        "brand": "顺电",
        "brand:en": "Sundan",
        "brand:wikidata": "Q24837717",
        "brand:zh": "顺电",
        "name": "顺电",
        "name:en": "Sundan",
        "name:zh": "顺电",
        "shop": "electronics"
      }
    },
    {
      "displayName": "駿河屋",
      "id": "surugaya-f86f5e",
      "locationSet": {"include": ["jp"]},
      "tags": {
        "brand": "駿河屋",
        "brand:en": "Surugaya",
        "brand:ja": "駿河屋",
        "brand:wikidata": "Q88485610",
        "name": "駿河屋",
        "name:en": "Surugaya",
        "name:ja": "駿河屋",
        "shop": "electronics"
      }
    }
  ]
}
