{
  "properties": {
    "path": "brands/shop/funeral_directors",
    "exclude": {
      "generic": [
        "^(funeral directors?|funeraria|tanatorio)$",
        "^памятники$",
        "^ритуал(ьные услуги)?$"
      ]
    }
  },
  "items": [
    {
      "displayName": "Antea Bestattungen",
      "id": "anteabestattungen-e9affe",
      "locationSet": {"include": ["de"]},
      "tags": {
        "brand": "Antea Bestattungen",
        "name": "Antea Bestattungen",
        "shop": "funeral_directors"
      }
    },
    {
      "displayName": "Grieneisen Bestattungen",
      "id": "grieneisenbestattungen-e9affe",
      "locationSet": {"include": ["de"]},
      "tags": {
        "brand": "Grieneisen Bestattungen",
        "name": "Grieneisen Bestattungen",
        "shop": "funeral_directors"
      }
    },
    {
      "displayName": "Großhamburger Bestattungsinstitut",
      "id": "grosshamburgerbestattungsinstitut-e9affe",
      "locationSet": {"include": ["de"]},
      "tags": {
        "brand": "Großhamburger Bestattungsinstitut",
        "brand:wikidata": "Q30988432",
        "name": "Großhamburger Bestattungsinstitut",
        "shop": "funeral_directors",
        "short_name": "GBI"
      }
    },
    {
      "displayName": "PFG",
      "id": "pfg-259041",
      "locationSet": {"include": ["fr"]},
      "tags": {
        "brand": "PFG",
        "brand:wikidata": "Q3396087",
        "name": "PFG",
        "official_name": "Pompes Funèbres Générales",
        "shop": "funeral_directors"
      }
    },
    {
      "displayName": "Roblot",
      "id": "roblot-259041",
      "locationSet": {"include": ["fr"]},
      "tags": {
        "brand": "Roblot",
        "brand:wikidata": "Q63247414",
        "name": "Roblot",
        "shop": "funeral_directors"
      }
    },
    {
      "displayName": "Roc-Eclerc",
      "id": "roceclerc-259041",
      "locationSet": {"include": ["fr"]},
      "tags": {
        "brand": "Roc-Eclerc",
        "brand:wikidata": "Q62558102",
        "name": "Roc-Eclerc",
        "shop": "funeral_directors"
      }
    },
    {
      "displayName": "The Co-operative Funeralcare",
      "id": "thecooperativefuneralcare-e90732",
      "locationSet": {"include": ["gb"]},
      "matchTags": ["office/company"],
      "tags": {
        "brand": "The Co-operative Funeralcare",
        "brand:wikidata": "Q7726521",
        "name": "The Co-operative Funeralcare",
        "shop": "funeral_directors"
      }
    },
    {
      "displayName": "Trauerhilfe Denk",
      "id": "trauerhilfedenk-e9affe",
      "locationSet": {"include": ["de"]},
      "tags": {
        "brand": "Trauerhilfe Denk",
        "name": "Trauerhilfe Denk",
        "shop": "funeral_directors"
      }
    },
    {
      "displayName": "セレマ",
      "id": "cerema-224737",
      "locationSet": {"include": ["jp"]},
      "tags": {
        "brand": "セレマ",
        "brand:en": "Cerema",
        "brand:ja": "セレマ",
        "brand:wikidata": "Q65240269",
        "name": "セレマ",
        "name:en": "Cerema",
        "name:ja": "セレマ",
        "shop": "funeral_directors"
      }
    },
    {
      "displayName": "ティア",
      "id": "tear-224737",
      "locationSet": {"include": ["jp"]},
      "tags": {
        "brand": "ティア",
        "brand:en": "Tear",
        "brand:ja": "ティア",
        "brand:wikidata": "Q11318901",
        "name": "ティア",
        "name:en": "Tear",
        "name:ja": "ティア",
        "shop": "funeral_directors"
      }
    },
    {
      "displayName": "公益社",
      "id": "koekisha-224737",
      "locationSet": {"include": ["jp"]},
      "tags": {
        "brand": "公益社",
        "brand:en": "Koekisha",
        "brand:ja": "公益社",
        "brand:wikidata": "Q93128848",
        "name": "公益社",
        "name:en": "Koekisha",
        "name:ja": "公益社",
        "shop": "funeral_directors"
      }
    }
  ]
}
