{
  "properties": {
    "path": "brands/shop/greengrocer",
    "exclude": {
      "generic": [
        "^(boutique_alimentation|greengrocer|warzywniak|zöldséges)$",
        "^(frute|verdule)r[ií]a$",
        "^frutas y verduras$",
        "^frutta e verdura$",
        "^meyvə tərəvəz$",
        "^овощи",
        "^овощи( и |-)фрукты$",
        "^фрукты( и |-)овощи$",
        "^میوه فروشی$"
      ]
    }
  },
  "items": [
    {
      "displayName": "Cerise et Potiron",
      "id": "ceriseetpotiron-f7a29d",
      "locationSet": {
        "include": ["fr-ara.geojson"]
      },
      "tags": {
        "brand": "Cerise et Potiron",
        "brand:wikidata": "Q91634572",
        "name": "Cerise et Potiron",
        "shop": "greengrocer"
      }
    },
    {
      "displayName": "HOPCOMS",
      "id": "hopcoms-b8ab5c",
      "locationSet": {"include": ["in"]},
      "tags": {
        "brand": "HOPCOMS",
        "brand:wikidata": "Q22908959",
        "name": "HOPCOMS",
        "shop": "greengrocer"
      }
    },
    {
      "displayName": "Ma Ferme en Ville",
      "id": "mafermeenville-6e345d",
      "locationSet": {"include": ["fx"]},
      "tags": {
        "brand": "Ma Ferme en Ville",
        "brand:wikidata": "Q102163541",
        "name": "Ma Ferme en Ville",
        "shop": "greengrocer"
      }
    },
    {
      "displayName": "Mangeons Frais",
      "id": "mangeonsfrais-6e345d",
      "locationSet": {"include": ["fx"]},
      "tags": {
        "brand": "Mangeons Frais",
        "brand:wikidata": "Q130215824",
        "name": "Mangeons Frais",
        "shop": "greengrocer"
      }
    },
    {
      "displayName": "MarketPlace Fresh",
      "id": "marketplacefresh-edd24e",
      "locationSet": {"include": ["au"]},
      "tags": {
        "brand": "MarketPlace Fresh",
        "brand:wikidata": "Q117847717",
        "name": "MarketPlace Fresh",
        "shop": "greengrocer"
      }
    },
    {
      "displayName": "Produce Junction",
      "id": "producejunction-c8a79f",
      "locationSet": {"include": ["us"]},
      "tags": {
        "brand": "Produce Junction",
        "brand:wikidata": "Q60583541",
        "name": "Produce Junction",
        "shop": "greengrocer"
      }
    },
    {
      "displayName": "Provenc'halles",
      "id": "provenchalles-b3c71a",
      "locationSet": {"include": ["fr"]},
      "tags": {
        "brand": "Provenc'halles",
        "brand:wikidata": "Q130162911",
        "name": "Provenc'halles",
        "shop": "greengrocer"
      }
    },
    {
      "displayName": "Superverd",
      "id": "superverd-949784",
      "locationSet": {"include": ["es"]},
      "tags": {
        "brand": "Superverd",
        "brand:wikidata": "Q11950546",
        "name": "Superverd",
        "shop": "greengrocer"
      }
    },
    {
      "displayName": "Фруктовый рай",
      "id": "81fe33-9dff2a",
      "locationSet": {"include": ["ru"]},
      "tags": {
        "brand": "Фруктовый рай",
        "name": "Фруктовый рай",
        "shop": "greengrocer"
      }
    },
    {
      "displayName": "乐家生鲜",
      "id": "lejia100-98c5dd",
      "locationSet": {"include": ["cn"]},
      "matchNames": ["肉联邦"],
      "tags": {
        "brand": "乐家生鲜",
        "brand:en": "Lejia100",
        "brand:wikidata": "Q110398460",
        "brand:zh": "乐家生鲜",
        "name": "乐家生鲜",
        "name:en": "Lejia100",
        "name:zh": "乐家生鲜",
        "shop": "greengrocer"
      }
    },
    {
      "displayName": "果唯伊",
      "id": "guoweiyi-98c5dd",
      "locationSet": {"include": ["cn"]},
      "tags": {
        "brand": "果唯伊",
        "brand:en": "Guoweiyi",
        "brand:wikidata": "Q108167377",
        "brand:zh": "果唯伊",
        "name": "果唯伊",
        "name:en": "Guoweiyi",
        "name:zh": "果唯伊",
        "shop": "greengrocer"
      }
    },
    {
      "displayName": "百果园",
      "id": "pagoda-98c5dd",
      "locationSet": {"include": ["cn"]},
      "tags": {
        "brand": "百果园",
        "brand:en": "Pagoda",
        "brand:wikidata": "Q111585678",
        "brand:zh": "百果园",
        "name": "百果园",
        "name:en": "Pagoda",
        "name:zh": "百果园",
        "shop": "greengrocer"
      }
    },
    {
      "displayName": "谊品生鲜",
      "id": "ypshengxian-98c5dd",
      "locationSet": {"include": ["cn"]},
      "tags": {
        "brand": "谊品生鲜",
        "brand:en": "YP Shengxian",
        "brand:wikidata": "Q110398461",
        "brand:zh": "谊品生鲜",
        "name": "谊品生鲜",
        "name:en": "YP Shengxian",
        "name:zh": "谊品生鲜",
        "shop": "greengrocer"
      }
    },
    {
      "displayName": "钱大妈",
      "id": "qdama-98c5dd",
      "locationSet": {"include": ["cn"]},
      "tags": {
        "brand": "钱大妈",
        "brand:en": "QDama",
        "brand:wikidata": "Q109342535",
        "brand:zh": "钱大妈",
        "name": "钱大妈",
        "name:en": "QDama",
        "name:zh": "钱大妈",
        "shop": "greengrocer"
      }
    },
    {
      "displayName": "鲜丰水果",
      "id": "xianfengfruit-c3a176",
      "locationSet": {
        "include": ["cn"],
        "exclude": ["hk", "mo"]
      },
      "tags": {
        "brand": "鲜丰水果",
        "brand:en": "Xianfeng Fruit",
        "brand:wikidata": "Q136192256",
        "brand:zh-Hans": "鲜丰水果",
        "brand:zh-Hant": "鮮豐水果",
        "delivery": "yes",
        "name": "鲜丰水果",
        "name:en": "Xianfeng Fruit",
        "name:zh": "鲜丰水果",
        "name:zh-Hans": "鲜丰水果",
        "name:zh-Hant": "鮮豐水果",
        "shop": "greengrocer"
      }
    }
  ]
}
