{
  "properties": {
    "path": "brands/shop/hairdresser",
    "exclude": {
      "generic": [
        "^((le|the) )?salo{1,2}n( de)?\\s?(coiffure|fryzjerski|beauté)?\\s?(homme|dame)?$",
        "^(barbea?r[ií]a|berber)$",
        "^(frizerie|fris(eu|ö)r|fryzjer)$",
        "^(the )?barber(ia|shop|\\sshop)?$",
        "^(парикмахер(ская)?|персона|перукарня)$",
        "^coiff(eur|ure)\\s?(homme|dame)?$",
        "^haar(genau|monie|scharf)$",
        "^hair\\s?(design|dresser|lounge|salon|studio)$",
        "^peluquer[ií]a$",
        "^salão de beleza$",
        "^салон красоты$",
        "^حلاق$"
      ],
      "named": [
        "^(figaro|haarwerk|the cutting room|стиль|локон|шарм|fodrászat)$"
      ]
    }
  },
  "items": [
    {
      "displayName": "Art of Hair",
      "id": "artofhair-ece769",
      "locationSet": {"include": ["001"]},
      "tags": {
        "brand": "Art of Hair",
        "name": "Art of Hair",
        "shop": "hairdresser"
      }
    },
    {
      "displayName": "Barbershop by Timpson",
      "id": "barbershopbytimpson-afda3f",
      "locationSet": {"include": ["gb"]},
      "tags": {
        "brand": "Timpson",
        "brand:wikidata": "Q7807658",
        "brand:wikipedia": "en:Timpson (retailer)",
        "male": "yes",
        "name": "Barbershop by Timpson",
        "shop": "hairdresser"
      }
    },
    {
      "displayName": "Biguine",
      "id": "biguine-ece769",
      "locationSet": {"include": ["001"]},
      "tags": {
        "brand": "Biguine",
        "name": "Biguine",
        "shop": "hairdresser"
      }
    },
    {
      "displayName": "Camille Albane",
      "id": "camillealbane-40f1cc",
      "locationSet": {"include": ["fr"]},
      "tags": {
        "brand": "Camille Albane",
        "brand:wikidata": "Q62965183",
        "name": "Camille Albane",
        "shop": "hairdresser"
      }
    },
    {
      "displayName": "Celly's",
      "id": "cellys-afda3f",
      "locationSet": {"include": ["gb"]},
      "tags": {
        "brand": "Celly's",
        "brand:wikidata": "Q86837698",
        "name": "Celly's",
        "shop": "hairdresser"
      }
    },
    {
      "displayName": "Coiff&Co",
      "id": "coiffandco-40f1cc",
      "locationSet": {"include": ["fr"]},
      "tags": {
        "brand": "Coiff&Co",
        "name": "Coiff&Co",
        "shop": "hairdresser"
      }
    },
    {
      "displayName": "Cost Cutters",
      "id": "costcutters-28f1a5",
      "locationSet": {"include": ["us"]},
      "tags": {
        "brand": "Cost Cutters",
        "brand:wikidata": "Q62029366",
        "name": "Cost Cutters",
        "shop": "hairdresser"
      }
    },
    {
      "displayName": "Dessange",
      "id": "dessange-252950",
      "locationSet": {"include": ["be", "fr"]},
      "tags": {
        "brand": "Dessange",
        "brand:wikidata": "Q62979914",
        "name": "Dessange",
        "shop": "hairdresser"
      }
    },
    {
      "displayName": "Drybar",
      "id": "drybar-46af32",
      "locationSet": {"include": ["ca", "us"]},
      "tags": {
        "brand": "Drybar",
        "brand:wikidata": "Q18352685",
        "brand:wikipedia": "en:Drybar",
        "female": "yes",
        "name": "Drybar",
        "shop": "hairdresser"
      }
    },
    {
      "displayName": "Espace Coiffure",
      "id": "espacecoiffure-ece769",
      "locationSet": {"include": ["001"]},
      "tags": {
        "brand": "Espace Coiffure",
        "name": "Espace Coiffure",
        "shop": "hairdresser"
      }
    },
    {
      "displayName": "Essanelle",
      "id": "essanelle-b30c9d",
      "locationSet": {"include": ["de"]},
      "matchNames": ["esanelle"],
      "tags": {
        "brand": "Essanelle",
        "name": "Essanelle",
        "shop": "hairdresser"
      }
    },
    {
      "displayName": "Fantastic Sams",
      "id": "fantasticsams-28f1a5",
      "locationSet": {"include": ["us"]},
      "tags": {
        "brand": "Fantastic Sams",
        "brand:wikidata": "Q5434222",
        "brand:wikipedia": "en:Fantastic Sams",
        "name": "Fantastic Sams",
        "shop": "hairdresser"
      }
    },
    {
      "displayName": "Ferber",
      "id": "ferber-6ad147",
      "locationSet": {"include": ["lu"]},
      "tags": {
        "brand": "Ferber",
        "brand:wikidata": "Q88180887",
        "name": "Ferber",
        "shop": "hairdresser"
      }
    },
    {
      "displayName": "First Choice Haircutters",
      "id": "firstchoicehaircutters-7e5a14",
      "locationSet": {"include": ["ca"]},
      "tags": {
        "brand": "First Choice Haircutters",
        "brand:wikidata": "Q5452622",
        "brand:wikipedia": "en:First Choice Haircutters",
        "name": "First Choice Haircutters",
        "shop": "hairdresser"
      }
    },
    {
      "displayName": "Franck Provost",
      "id": "franckprovost-343148",
      "locationSet": {
        "include": ["be", "fr", "lu", "pl"]
      },
      "tags": {
        "brand": "Franck Provost",
        "brand:wikidata": "Q62805922",
        "name": "Franck Provost",
        "shop": "hairdresser"
      }
    },
    {
      "displayName": "Frédéric Moreno",
      "id": "fredericmoreno-40f1cc",
      "locationSet": {"include": ["fr"]},
      "tags": {
        "brand": "Frédéric Moreno",
        "brand:wikidata": "Q105395188",
        "name": "Frédéric Moreno",
        "shop": "hairdresser"
      }
    },
    {
      "displayName": "Gidor",
      "id": "gidor-537977",
      "locationSet": {"include": ["ch"]},
      "tags": {
        "brand": "Gidor",
        "brand:wikidata": "Q1523182",
        "brand:wikipedia": "de:Gidor",
        "name": "Gidor",
        "shop": "hairdresser"
      }
    },
    {
      "displayName": "Glamour",
      "id": "glamour-ece769",
      "locationSet": {"include": ["001"]},
      "tags": {
        "brand": "Glamour",
        "name": "Glamour",
        "shop": "hairdresser"
      }
    },
    {
      "displayName": "Great Clips",
      "id": "greatclips-46af32",
      "locationSet": {"include": ["ca", "us"]},
      "tags": {
        "brand": "Great Clips",
        "brand:wikidata": "Q5598967",
        "brand:wikipedia": "en:Great Clips",
        "name": "Great Clips",
        "shop": "hairdresser"
      }
    },
    {
      "displayName": "Hair Cuttery",
      "id": "haircuttery-28f1a5",
      "locationSet": {"include": ["us"]},
      "tags": {
        "brand": "Hair Cuttery",
        "brand:wikidata": "Q5639484",
        "brand:wikipedia": "en:Hair Cuttery",
        "name": "Hair Cuttery",
        "shop": "hairdresser"
      }
    },
    {
      "displayName": "Hair Express",
      "id": "hairexpress-b30c9d",
      "locationSet": {"include": ["de"]},
      "tags": {
        "brand": "Hair Express",
        "brand:wikidata": "Q57550814",
        "name": "Hair Express",
        "shop": "hairdresser"
      }
    },
    {
      "displayName": "Hairkiller",
      "id": "hairkiller-173527",
      "locationSet": {
        "include": ["at", "de", "lu"]
      },
      "tags": {
        "brand": "Hairkiller",
        "brand:wikidata": "Q58305998",
        "name": "Hairkiller",
        "shop": "hairdresser"
      }
    },
    {
      "displayName": "Igorance",
      "id": "igorance-6ad147",
      "locationSet": {"include": ["lu"]},
      "tags": {
        "brand": "Igorance",
        "brand:wikidata": "Q88181481",
        "name": "Igorance",
        "shop": "hairdresser"
      }
    },
    {
      "displayName": "Jean Louis David",
      "id": "jeanlouisdavid-c24876",
      "locationSet": {
        "include": ["es", "fr", "it", "pl"]
      },
      "tags": {
        "brand": "Jean Louis David",
        "brand:wikidata": "Q64445174",
        "name": "Jean Louis David",
        "shop": "hairdresser"
      }
    },
    {
      "displayName": "Kirpykla",
      "id": "kirpykla-1e6f8d",
      "locationSet": {"include": ["lt"]},
      "tags": {
        "brand": "Kirpykla",
        "name": "Kirpykla",
        "shop": "hairdresser"
      }
    },
    {
      "displayName": "Klier",
      "id": "klier-03dd74",
      "locationSet": {
        "include": ["at", "cz", "de", "sk"]
      },
      "tags": {
        "brand": "Klier",
        "brand:wikidata": "Q1465159",
        "brand:wikipedia": "de:Klier Hair Group",
        "name": "Klier",
        "shop": "hairdresser"
      }
    },
    {
      "displayName": "Klipp",
      "id": "klipp-8c968f",
      "locationSet": {"include": ["at"]},
      "tags": {
        "brand": "Klipp",
        "brand:wikidata": "Q1737304",
        "brand:wikipedia": "de:Klipp Frisör",
        "name": "Klipp",
        "shop": "hairdresser"
      }
    },
    {
      "displayName": "Magicuts",
      "id": "magicuts-7e5a14",
      "locationSet": {"include": ["ca"]},
      "tags": {
        "brand": "Magicuts",
        "name": "Magicuts",
        "shop": "hairdresser"
      }
    },
    {
      "displayName": "Marco Aldany",
      "id": "marcoaldany-ece769",
      "locationSet": {"include": ["001"]},
      "tags": {
        "brand": "Marco Aldany",
        "name": "Marco Aldany",
        "shop": "hairdresser"
      }
    },
    {
      "displayName": "Mastercuts",
      "id": "mastercuts-46af32",
      "locationSet": {"include": ["ca", "us"]},
      "tags": {
        "brand": "Mastercuts",
        "brand:wikidata": "Q64026258",
        "name": "Mastercuts",
        "shop": "hairdresser"
      }
    },
    {
      "displayName": "New Look",
      "id": "newlook-ece769",
      "locationSet": {"include": ["001"]},
      "tags": {
        "brand": "New Look",
        "name": "New Look",
        "shop": "hairdresser"
      }
    },
    {
      "displayName": "Pascal Coste",
      "id": "pascalcoste-40f1cc",
      "locationSet": {"include": ["fr"]},
      "tags": {
        "brand": "Pascal Coste",
        "brand:wikidata": "Q66555630",
        "name": "Pascal Coste",
        "shop": "hairdresser"
      }
    },
    {
      "displayName": "QBハウス",
      "id": "qbhouse-946510",
      "locationSet": {"include": ["jp"]},
      "matchNames": ["qb", "キュービーハウス"],
      "tags": {
        "brand": "QBハウス",
        "brand:en": "QB HOUSE",
        "brand:ja": "QBハウス",
        "brand:wikidata": "Q11297528",
        "brand:wikipedia": "ja:キュービーネット",
        "name": "QBハウス",
        "name:en": "QB HOUSE",
        "name:ja": "QBハウス",
        "shop": "hairdresser"
      }
    },
    {
      "displayName": "Ryanhair",
      "id": "ryanhair-6ad147",
      "locationSet": {"include": ["lu"]},
      "tags": {
        "brand": "Ryanhair",
        "brand:wikidata": "Q88180487",
        "name": "Ryanhair",
        "shop": "hairdresser"
      }
    },
    {
      "displayName": "Saint Algue",
      "id": "saintalgue-ece769",
      "locationSet": {"include": ["001"]},
      "tags": {
        "brand": "Saint Algue",
        "brand:wikidata": "Q62973210",
        "name": "Saint Algue",
        "shop": "hairdresser"
      }
    },
    {
      "displayName": "Sport Clips",
      "id": "sportclips-46af32",
      "locationSet": {"include": ["ca", "us"]},
      "matchNames": [
        "sport clips haircuts",
        "sports clips"
      ],
      "tags": {
        "brand": "Sport Clips",
        "brand:wikidata": "Q7579310",
        "name": "Sport Clips",
        "shop": "hairdresser"
      }
    },
    {
      "displayName": "Styleboxx",
      "id": "styleboxx-b30c9d",
      "locationSet": {"include": ["de"]},
      "matchNames": ["stylebox"],
      "tags": {
        "brand": "Styleboxx",
        "name": "Styleboxx",
        "shop": "hairdresser"
      }
    },
    {
      "displayName": "Super Cut",
      "id": "supercut-b30c9d",
      "locationSet": {"include": ["de"]},
      "tags": {
        "brand": "Super Cut",
        "brand:wikidata": "Q64139077",
        "name": "Super Cut",
        "shop": "hairdresser"
      }
    },
    {
      "displayName": "Supercuts",
      "id": "supercuts-cc3156",
      "locationSet": {
        "include": ["ca", "gb", "us"]
      },
      "tags": {
        "brand": "Supercuts",
        "brand:wikidata": "Q7643239",
        "brand:wikipedia": "en:Supercuts",
        "name": "Supercuts",
        "shop": "hairdresser"
      }
    },
    {
      "displayName": "Tchip",
      "id": "tchip-40f1cc",
      "locationSet": {"include": ["fr"]},
      "tags": {
        "brand": "Tchip",
        "brand:wikidata": "Q62871250",
        "name": "Tchip",
        "shop": "hairdresser"
      }
    },
    {
      "displayName": "Tchip Coiffure",
      "id": "tchipcoiffure-ece769",
      "locationSet": {"include": ["001"]},
      "tags": {
        "brand": "Tchip Coiffure",
        "name": "Tchip Coiffure",
        "shop": "hairdresser"
      }
    },
    {
      "displayName": "The Barbers",
      "id": "thebarbers-ece769",
      "locationSet": {"include": ["001"]},
      "tags": {
        "brand": "The Barbers",
        "name": "The Barbers",
        "shop": "hairdresser"
      }
    },
    {
      "displayName": "The Salon at Ulta Beauty",
      "id": "thesalonatultabeauty-28f1a5",
      "locationSet": {"include": ["us"]},
      "tags": {
        "alt_name": "Ulta Salon",
        "brand": "Ulta Beauty",
        "brand:wikidata": "Q7880076",
        "brand:wikipedia": "en:Ulta Beauty",
        "name": "The Salon at Ulta Beauty",
        "shop": "hairdresser"
      }
    },
    {
      "displayName": "Toni & Guy",
      "id": "toniandguy-ece769",
      "locationSet": {"include": ["001"]},
      "tags": {
        "brand": "Toni & Guy",
        "brand:wikidata": "Q324784",
        "brand:wikipedia": "en:Toni & Guy",
        "name": "Toni & Guy",
        "shop": "hairdresser"
      }
    },
    {
      "displayName": "Top Hair",
      "id": "tophair-b30c9d",
      "locationSet": {"include": ["de"]},
      "tags": {
        "brand": "Top Hair",
        "brand:wikidata": "Q62523343",
        "name": "Top Hair",
        "shop": "hairdresser"
      }
    },
    {
      "displayName": "TOPGUN",
      "id": "topgun-634538",
      "locationSet": {"include": ["kz", "ru"]},
      "tags": {
        "brand": "TOPGUN",
        "name": "TOPGUN",
        "shop": "hairdresser"
      }
    },
    {
      "displayName": "Виктория",
      "id": "victoria-ece769",
      "locationSet": {"include": ["001"]},
      "tags": {
        "brand": "Виктория",
        "name": "Виктория",
        "name:en": "Victoria",
        "shop": "hairdresser"
      }
    },
    {
      "displayName": "Елена",
      "id": "531658-347366",
      "locationSet": {
        "include": ["by", "kz", "ru"]
      },
      "tags": {
        "brand": "Елена",
        "name": "Елена",
        "shop": "hairdresser"
      }
    },
    {
      "displayName": "Имидж",
      "id": "image-ece769",
      "locationSet": {"include": ["001"]},
      "tags": {
        "brand": "Имидж",
        "name": "Имидж",
        "name:en": "Image",
        "shop": "hairdresser"
      }
    },
    {
      "displayName": "Каприз",
      "id": "1783eb-8106f0",
      "locationSet": {"include": ["ru", "ua"]},
      "tags": {
        "brand": "Каприз",
        "name": "Каприз",
        "shop": "hairdresser"
      }
    },
    {
      "displayName": "Фея",
      "id": "95dd71-8106f0",
      "locationSet": {"include": ["ru", "ua"]},
      "tags": {
        "brand": "Фея",
        "name": "Фея",
        "shop": "hairdresser"
      }
    },
    {
      "displayName": "Чио Чио",
      "id": "6d125a-c5abe4",
      "locationSet": {"include": ["ru"]},
      "tags": {
        "brand": "Чио Чио",
        "name": "Чио Чио",
        "shop": "hairdresser"
      }
    },
    {
      "displayName": "カットコムズ",
      "id": "cutcomz-946510",
      "locationSet": {"include": ["jp"]},
      "tags": {
        "brand": "カットコムズ",
        "brand:en": "Cutcomz",
        "brand:ja": "カットコムズ",
        "brand:wikidata": "Q91104902",
        "name": "カットコムズ",
        "name:en": "Cutcomz",
        "name:ja": "カットコムズ",
        "shop": "hairdresser"
      }
    },
    {
      "displayName": "カットファクトリー",
      "id": "cutfactory-946510",
      "locationSet": {"include": ["jp"]},
      "tags": {
        "brand": "カットファクトリー",
        "brand:en": "Cut Factory",
        "brand:ja": "カットファクトリー",
        "brand:wikidata": "Q91102312",
        "name": "カットファクトリー",
        "name:en": "Cut Factory",
        "name:ja": "カットファクトリー",
        "shop": "hairdresser"
      }
    },
    {
      "displayName": "ファミリーカット1000",
      "id": "familycut1000-946510",
      "locationSet": {"include": ["jp"]},
      "matchNames": ["ファミリーカット"],
      "tags": {
        "brand": "ファミリーカット1000",
        "brand:en": "Family Cut 1000",
        "brand:ja": "ファミリーカット1000",
        "brand:wikidata": "Q91108482",
        "name": "ファミリーカット1000",
        "name:en": "Family Cut 1000",
        "name:ja": "ファミリーカット1000",
        "shop": "hairdresser"
      }
    }
  ]
}
