{
  "properties": {
    "path": "brands/shop/health_food",
    "exclude": {"generic": ["^health food$"]}
  },
  "items": [
    {
      "displayName": "Bio Mundo",
      "id": "biomundo-894bf8",
      "locationSet": {"include": ["br"]},
      "tags": {
        "brand": "Bio Mundo",
        "brand:wikidata": "Q109562493",
        "name": "Bio Mundo",
        "shop": "health_food"
      }
    },
    {
      "displayName": "Evergreen Healthfoods",
      "id": "evergreenhealthfoods-a6966d",
      "locationSet": {"include": ["ie"]},
      "tags": {
        "brand": "Evergreen Healthfoods",
        "brand:wikidata": "Q118139610",
        "name": "Evergreen Healthfoods",
        "shop": "health_food"
      }
    },
    {
      "displayName": "G&W GezondheidsWinkel",
      "id": "gandwgezondheidswinkel-daed2e",
      "locationSet": {"include": ["nl"]},
      "tags": {
        "brand": "G&W GezondheidsWinkel",
        "brand:wikidata": "Q122903937",
        "name": "G&W GezondheidsWinkel",
        "shop": "health_food"
      }
    },
    {
      "displayName": "Grape Tree",
      "id": "grapetree-edcb10",
      "locationSet": {"include": ["gb"]},
      "matchTags": [
        "shop/chemist",
        "shop/organic"
      ],
      "tags": {
        "brand": "Grape Tree",
        "brand:wikidata": "Q87071497",
        "name": "Grape Tree",
        "shop": "health_food"
      }
    },
    {
      "displayName": "Healthy Planet",
      "id": "healthyplanet-b5c6bb",
      "locationSet": {"include": ["ca"]},
      "tags": {
        "brand": "Healthy Planet",
        "brand:wikidata": "Q113001393",
        "name": "Healthy Planet",
        "shop": "health_food"
      }
    },
    {
      "displayName": "Holland & Barrett",
      "id": "hollandandbarrett-802102",
      "locationSet": {
        "include": ["be", "gb", "ie", "nl"]
      },
      "matchTags": [
        "shop/chemist",
        "shop/organic",
        "shop/supermarket"
      ],
      "tags": {
        "brand": "Holland & Barrett",
        "brand:wikidata": "Q5880870",
        "name": "Holland & Barrett",
        "shop": "health_food"
      }
    },
    {
      "displayName": "Mundo Verde",
      "id": "mundoverde-894bf8",
      "locationSet": {"include": ["br"]},
      "tags": {
        "brand": "Mundo Verde",
        "brand:wikidata": "Q48856833",
        "name": "Mundo Verde",
        "shop": "health_food"
      }
    },
    {
      "displayName": "Nutrition House",
      "id": "nutritionhouse-b5c6bb",
      "locationSet": {"include": ["ca"]},
      "tags": {
        "brand": "Nutrition House",
        "brand:wikidata": "Q112966431",
        "name": "Nutrition House",
        "shop": "health_food"
      }
    },
    {
      "displayName": "Reformhaus Bacher",
      "id": "reformhausbacher-f6f874",
      "locationSet": {"include": ["de"]},
      "matchTags": [
        "shop/convenience",
        "shop/supermarket"
      ],
      "tags": {
        "brand": "Reformhaus Bacher",
        "brand:wikidata": "Q19816424",
        "name": "Reformhaus Bacher",
        "shop": "health_food"
      }
    },
    {
      "displayName": "Reformhaus Engelhardt",
      "id": "reformhausengelhardt-f6f874",
      "locationSet": {"include": ["de"]},
      "matchTags": [
        "shop/convenience",
        "shop/supermarket"
      ],
      "tags": {
        "brand": "Reformhaus Engelhardt",
        "brand:wikidata": "Q107710967",
        "name": "Reformhaus Engelhardt",
        "shop": "health_food"
      }
    },
    {
      "displayName": "VITALIA Reformhaus",
      "id": "vitaliareformhaus-f6f874",
      "locationSet": {"include": ["de"]},
      "matchNames": ["vitalia"],
      "matchTags": [
        "shop/convenience",
        "shop/supermarket"
      ],
      "tags": {
        "brand": "VITALIA Reformhaus",
        "brand:wikidata": "Q2528558",
        "name": "VITALIA Reformhaus",
        "shop": "health_food"
      }
    },
    {
      "displayName": "Зелёная Аптека",
      "id": "c4761d-aaffa4",
      "locationSet": {"include": ["by"]},
      "matchNames": [
        "zelenaya apteka",
        "зеленая аптека",
        "зяленая аптэка"
      ],
      "matchTags": ["amenity/pharmacy"],
      "tags": {
        "brand": "Зелёная Аптека",
        "brand:be": "Зялёная аптэка",
        "brand:ru": "Зелёная Аптека",
        "brand:uk": "Зелена аптека",
        "brand:wikidata": "Q123362420",
        "name": "Зелёная Аптека",
        "name:be": "Зялёная аптэка",
        "name:ru": "Зелёная Аптека",
        "name:uk": "Зелена аптека",
        "shop": "health_food"
      }
    },
    {
      "displayName": "健康工房 HealthWorks",
      "id": "healthworks-e87965",
      "locationSet": {"include": ["hk"]},
      "tags": {
        "brand": "健康工房 HealthWorks",
        "brand:en": "HealthWorks",
        "brand:wikidata": "Q10888880",
        "brand:zh": "健康工房",
        "name": "健康工房 HealthWorks",
        "name:en": "HealthWorks",
        "name:zh": "健康工房",
        "shop": "health_food"
      }
    }
  ]
}
