{
  "properties": {
    "path": "brands/shop/jewelry",
    "exclude": {
      "generic": [
        "^(585|bijouterie|jewelry|jubiler)$",
        "^золото(й)?$"
      ]
    }
  },
  "items": [
    {
      "displayName": "7 карат",
      "id": "a6c984-007daa",
      "locationSet": {"include": ["by"]},
      "tags": {
        "brand": "7 карат",
        "name": "7 карат",
        "shop": "jewelry"
      }
    },
    {
      "displayName": "Agatha",
      "id": "agatha-a038d2",
      "locationSet": {"include": ["001"]},
      "tags": {
        "brand": "Agatha",
        "brand:wikidata": "Q105064006",
        "name": "Agatha",
        "shop": "jewelry"
      }
    },
    {
      "displayName": "Alex and Ani",
      "id": "alexandani-70f101",
      "locationSet": {"include": ["us"]},
      "tags": {
        "brand": "Alex and Ani",
        "brand:wikidata": "Q16198810",
        "brand:wikipedia": "en:Alex and Ani",
        "name": "Alex and Ani",
        "shop": "jewelry"
      }
    },
    {
      "displayName": "Altınbaş",
      "id": "altinbas-a038d2",
      "locationSet": {"include": ["001"]},
      "tags": {
        "brand": "Altınbaş",
        "brand:wikidata": "Q19610501",
        "brand:wikipedia": "tr:Altınbaş Holding",
        "name": "Altınbaş",
        "shop": "jewelry"
      }
    },
    {
      "displayName": "Angus and Coote",
      "id": "angusandcoote-0359a8",
      "locationSet": {"include": ["au"]},
      "tags": {
        "brand": "Angus and Coote",
        "brand:wikidata": "Q18162112",
        "brand:wikipedia": "en:Angus & Coote",
        "name": "Angus and Coote",
        "shop": "jewelry"
      }
    },
    {
      "displayName": "Apart",
      "id": "apart-0f1493",
      "locationSet": {"include": ["pl"]},
      "tags": {
        "brand": "Apart",
        "brand:wikidata": "Q11686561",
        "brand:wikipedia": "pl:Apart",
        "name": "Apart",
        "shop": "jewelry"
      }
    },
    {
      "displayName": "Arthus Bertrand",
      "id": "arthusbertrand-1e77c4",
      "locationSet": {"include": ["be", "fr"]},
      "tags": {
        "brand": "Arthus Bertrand",
        "brand:wikidata": "Q3278594",
        "brand:wikipedia": "fr:Arthus-Bertrand (entreprise)",
        "name": "Arthus Bertrand",
        "shop": "jewelry"
      }
    },
    {
      "displayName": "Atasay",
      "id": "atasay-3dd149",
      "locationSet": {"include": ["tr"]},
      "tags": {
        "brand": "Atasay",
        "brand:wikidata": "Q28940710",
        "name": "Atasay",
        "shop": "jewelry"
      }
    },
    {
      "displayName": "Beaverbrooks",
      "id": "beaverbrooks-f07ca3",
      "locationSet": {"include": ["gb"]},
      "tags": {
        "brand": "Beaverbrooks",
        "brand:wikidata": "Q4878226",
        "brand:wikipedia": "en:Beaverbrooks",
        "name": "Beaverbrooks",
        "shop": "jewelry"
      }
    },
    {
      "displayName": "Bijou Brigitte",
      "id": "bijoubrigitte-a038d2",
      "locationSet": {"include": ["001"]},
      "tags": {
        "brand": "Bijou Brigitte",
        "brand:wikidata": "Q599545",
        "brand:wikipedia": "de:Bijou Brigitte",
        "name": "Bijou Brigitte",
        "shop": "jewelry"
      }
    },
    {
      "displayName": "Cartier",
      "id": "cartier-a038d2",
      "locationSet": {"include": ["001"]},
      "tags": {
        "brand": "Cartier",
        "brand:wikidata": "Q538587",
        "brand:wikipedia": "en:Cartier (jeweler)",
        "name": "Cartier",
        "shop": "jewelry"
      }
    },
    {
      "displayName": "Charm Diamond Centres",
      "id": "charmdiamondcentres-7fc58d",
      "locationSet": {"include": ["ca"]},
      "matchNames": [
        "charm diamond",
        "charm diamond centre"
      ],
      "tags": {
        "brand": "Charm Diamond Centres",
        "brand:wikidata": "Q5086396",
        "brand:wikipedia": "en:Charm Diamond Centres",
        "name": "Charm Diamond Centres",
        "shop": "jewelry"
      }
    },
    {
      "displayName": "Chemmanur International Jewellers",
      "id": "chemmanurinternationaljewellers-0ef1f6",
      "locationSet": {
        "include": ["ae", "in", "kw", "my", "us"]
      },
      "tags": {
        "brand": "Chemmanur International Jewellers",
        "brand:wikidata": "Q99520996",
        "name": "Chemmanur International Jewellers",
        "shop": "jewelry"
      }
    },
    {
      "displayName": "Chisholm Hunter",
      "id": "chisholmhunter-f07ca3",
      "locationSet": {"include": ["gb"]},
      "tags": {
        "brand": "Chisholm Hunter",
        "brand:wikidata": "Q66662001",
        "name": "Chisholm Hunter",
        "shop": "jewelry"
      }
    },
    {
      "displayName": "Christ",
      "id": "christ-729edb",
      "locationSet": {
        "include": ["ch", "de", "nl"]
      },
      "tags": {
        "brand": "Christ",
        "brand:wikidata": "Q1077957",
        "brand:wikipedia": "de:Christ (Juwelier)",
        "name": "Christ",
        "shop": "jewelry"
      }
    },
    {
      "displayName": "David Yurman",
      "id": "davidyurman-70f101",
      "locationSet": {"include": ["us"]},
      "tags": {
        "brand": "David Yurman",
        "brand:wikidata": "Q5241390",
        "brand:wikipedia": "en:David Yurman",
        "name": "David Yurman",
        "shop": "jewelry"
      }
    },
    {
      "displayName": "Dinh Van",
      "id": "dinhvan-a038d2",
      "locationSet": {"include": ["001"]},
      "matchNames": ["dinh van paris"],
      "tags": {
        "brand": "Dinh Van",
        "brand:wikidata": "Q105324937",
        "name": "Dinh Van",
        "shop": "jewelry"
      }
    },
    {
      "displayName": "Ernest Jones",
      "id": "ernestjones-f07ca3",
      "locationSet": {"include": ["gb"]},
      "tags": {
        "brand": "Ernest Jones",
        "brand:wikidata": "Q5393358",
        "brand:wikipedia": "en:Ernest Jones (retailer)",
        "name": "Ernest Jones",
        "shop": "jewelry"
      }
    },
    {
      "displayName": "F.Hinds",
      "id": "fhinds-f07ca3",
      "locationSet": {"include": ["gb"]},
      "tags": {
        "brand": "F.Hinds",
        "brand:wikidata": "Q5423915",
        "brand:wikipedia": "en:F. Hinds",
        "name": "F.Hinds",
        "shop": "jewelry"
      }
    },
    {
      "displayName": "Fred Meyer",
      "id": "fredmeyer-70f101",
      "locationSet": {"include": ["us"]},
      "tags": {
        "brand": "Fred Meyer",
        "brand:wikidata": "Q5495932",
        "brand:wikipedia": "en:Fred Meyer",
        "name": "Fred Meyer",
        "shop": "jewelry"
      }
    },
    {
      "displayName": "Goldsmiths",
      "id": "goldsmiths-f07ca3",
      "locationSet": {"include": ["gb"]},
      "tags": {
        "brand": "Goldsmiths",
        "brand:wikidata": "Q16993095",
        "brand:wikipedia": "en:Goldsmiths (retailer)",
        "name": "Goldsmiths",
        "shop": "jewelry"
      }
    },
    {
      "displayName": "Guldfynd",
      "id": "guldfynd-57004a",
      "locationSet": {"include": ["se"]},
      "tags": {
        "brand": "Guldfynd",
        "brand:wikidata": "Q49099223",
        "brand:wikipedia": "sv:Guldfynd",
        "name": "Guldfynd",
        "shop": "jewelry"
      }
    },
    {
      "displayName": "H.Samuel",
      "id": "hsamuel-f07ca3",
      "locationSet": {"include": ["gb"]},
      "tags": {
        "brand": "H.Samuel",
        "brand:wikidata": "Q5628558",
        "brand:wikipedia": "en:H. Samuel",
        "name": "H.Samuel",
        "shop": "jewelry"
      }
    },
    {
      "displayName": "Helzberg Diamonds",
      "id": "helzbergdiamonds-70f101",
      "locationSet": {"include": ["us"]},
      "tags": {
        "brand": "Helzberg Diamonds",
        "brand:wikidata": "Q16995161",
        "brand:wikipedia": "en:Helzberg Diamonds",
        "name": "Helzberg Diamonds",
        "shop": "jewelry"
      }
    },
    {
      "displayName": "Histoire d'Or",
      "id": "histoiredor-d59505",
      "locationSet": {
        "include": ["be", "fr", "it", "nl"]
      },
      "tags": {
        "brand": "Histoire d'Or",
        "brand:wikidata": "Q62529245",
        "name": "Histoire d'Or",
        "shop": "jewelry"
      }
    },
    {
      "displayName": "Icing",
      "id": "icing-30e94f",
      "locationSet": {"include": ["ca", "us"]},
      "tags": {
        "brand": "Icing",
        "name": "Icing",
        "shop": "jewelry"
      }
    },
    {
      "displayName": "James Avery Jewelry",
      "id": "jamesaveryjewelry-70f101",
      "locationSet": {"include": ["us"]},
      "tags": {
        "brand": "James Avery Jewelry",
        "brand:wikidata": "Q6129024",
        "brand:wikipedia": "en:James Avery Artisan Jewelry",
        "name": "James Avery Jewelry",
        "shop": "jewelry"
      }
    },
    {
      "displayName": "Jared",
      "id": "jared-70f101",
      "locationSet": {"include": ["us"]},
      "tags": {
        "brand": "Jared",
        "brand:wikidata": "Q62029282",
        "name": "Jared",
        "shop": "jewelry"
      }
    },
    {
      "displayName": "Jos Alukkas",
      "id": "josalukkas-96eeb4",
      "locationSet": {"include": ["in"]},
      "tags": {
        "brand": "Jos Alukkas",
        "brand:wikidata": "Q6279093",
        "brand:wikipedia": "en:Jos Alukka & Sons",
        "name": "Jos Alukkas",
        "shop": "jewelry"
      }
    },
    {
      "displayName": "Josco Jewellers",
      "id": "joscojewellers-96eeb4",
      "locationSet": {"include": ["in"]},
      "tags": {
        "brand": "Josco Jewellers",
        "brand:wikidata": "Q99521002",
        "name": "Josco Jewellers",
        "shop": "jewelry"
      }
    },
    {
      "displayName": "Joyalukkas",
      "id": "joyalukkas-534941",
      "locationSet": {
        "include": [
          "ae",
          "bh",
          "gb",
          "in",
          "kw",
          "my",
          "om",
          "qa",
          "sa",
          "sg",
          "us"
        ]
      },
      "tags": {
        "brand": "Joyalukkas",
        "brand:wikidata": "Q6297357",
        "brand:wikipedia": "en:Joyalukkas",
        "name": "Joyalukkas",
        "shop": "jewelry"
      }
    },
    {
      "displayName": "Julien d'Orcel",
      "id": "juliendorcel-05afc6",
      "locationSet": {"include": ["fr"]},
      "tags": {
        "brand": "Julien d'Orcel",
        "brand:wikidata": "Q62497463",
        "name": "Julien d'Orcel",
        "shop": "jewelry"
      }
    },
    {
      "displayName": "Kalyan Jewellers",
      "id": "kalyanjewellers-a038d2",
      "locationSet": {"include": ["001"]},
      "tags": {
        "brand": "Kalyan Jewellers",
        "brand:wikidata": "Q6354854",
        "brand:wikipedia": "en:Kalyan Jewellers",
        "name": "Kalyan Jewellers",
        "shop": "jewelry"
      }
    },
    {
      "displayName": "Kay Jewelers",
      "id": "kayjewelers-70f101",
      "locationSet": {"include": ["us"]},
      "tags": {
        "brand": "Kay Jewelers",
        "brand:wikidata": "Q62029290",
        "name": "Kay Jewelers",
        "shop": "jewelry"
      }
    },
    {
      "displayName": "Lucardi",
      "id": "lucardi-0e6622",
      "locationSet": {"include": ["nl"]},
      "tags": {
        "brand": "Lucardi",
        "brand:wikidata": "Q13774940",
        "brand:wikipedia": "nl:Lucardi",
        "name": "Lucardi",
        "shop": "jewelry"
      }
    },
    {
      "displayName": "Malabar Gold and Diamonds",
      "id": "malabargoldanddiamonds-9fa2ef",
      "locationSet": {
        "include": [
          "ae",
          "bh",
          "in",
          "kw",
          "my",
          "om",
          "qa",
          "sa",
          "sg",
          "us"
        ]
      },
      "tags": {
        "brand": "Malabar Gold and Diamonds",
        "brand:wikidata": "Q60748883",
        "brand:wikipedia": "en:Malabar Gold and Diamonds",
        "name": "Malabar Gold and Diamonds",
        "shop": "jewelry"
      }
    },
    {
      "displayName": "Marc Orian",
      "id": "marcorian-05afc6",
      "locationSet": {"include": ["fr"]},
      "tags": {
        "brand": "Marc Orian",
        "brand:wikidata": "Q99848767",
        "name": "Marc Orian",
        "shop": "jewelry"
      }
    },
    {
      "displayName": "Mauboussin",
      "id": "mauboussin-88b797",
      "locationSet": {"include": ["fr", "lu"]},
      "tags": {
        "brand": "Mauboussin",
        "brand:wikidata": "Q3300085",
        "brand:wikipedia": "fr:Mauboussin",
        "name": "Mauboussin",
        "shop": "jewelry"
      }
    },
    {
      "displayName": "Messika",
      "id": "messika-a038d2",
      "locationSet": {"include": ["001"]},
      "tags": {
        "brand": "Messika",
        "brand:wikidata": "Q104889722",
        "name": "Messika",
        "shop": "jewelry"
      }
    },
    {
      "displayName": "Michael Hill",
      "id": "michaelhill-4ffa40",
      "locationSet": {
        "include": ["au", "ca", "nz", "us"]
      },
      "tags": {
        "brand": "Michael Hill",
        "brand:wikidata": "Q3308250",
        "brand:wikipedia": "en:Michael Hill Jeweller",
        "name": "Michael Hill",
        "shop": "jewelry"
      }
    },
    {
      "displayName": "Mimco",
      "id": "mimco-0359a8",
      "locationSet": {"include": ["au"]},
      "tags": {
        "brand": "Mimco",
        "brand:wikidata": "Q106014291",
        "name": "Mimco",
        "shop": "jewelry"
      }
    },
    {
      "displayName": "Pandora",
      "id": "pandora-a038d2",
      "locationSet": {"include": ["001"]},
      "tags": {
        "brand": "Pandora",
        "brand:wikidata": "Q2241604",
        "brand:wikipedia": "en:Pandora (jewelry)",
        "name": "Pandora",
        "shop": "jewelry"
      }
    },
    {
      "displayName": "PC Jeweller",
      "id": "pcjeweller-96eeb4",
      "locationSet": {"include": ["in"]},
      "tags": {
        "brand": "PC Jeweller",
        "brand:wikidata": "Q17082520",
        "brand:wikipedia": "en:PC Jeweller",
        "name": "PC Jeweller",
        "shop": "jewelry"
      }
    },
    {
      "displayName": "Peoples Jewellers",
      "id": "peoplesjewellers-7fc58d",
      "locationSet": {"include": ["ca"]},
      "tags": {
        "brand": "Peoples Jewellers",
        "brand:wikidata": "Q64995558",
        "name": "Peoples Jewellers",
        "shop": "jewelry"
      }
    },
    {
      "displayName": "Piercing Pagoda",
      "id": "piercingpagoda-70f101",
      "locationSet": {"include": ["us"]},
      "tags": {
        "brand": "Piercing Pagoda",
        "name": "Piercing Pagoda",
        "shop": "jewelry"
      }
    },
    {
      "displayName": "PNJ",
      "id": "pnj-a9c8da",
      "locationSet": {"include": ["vn"]},
      "tags": {
        "brand": "PNJ",
        "brand:wikidata": "Q61129183",
        "brand:wikipedia": "vi:PNJ",
        "name": "PNJ",
        "shop": "jewelry"
      }
    },
    {
      "displayName": "Swarovski",
      "id": "swarovski-a038d2",
      "locationSet": {"include": ["001"]},
      "tags": {
        "brand": "Swarovski",
        "brand:wikidata": "Q611115",
        "brand:wikipedia": "en:Swarovski",
        "name": "Swarovski",
        "shop": "jewelry"
      }
    },
    {
      "displayName": "Tanishq",
      "id": "tanishq-96eeb4",
      "locationSet": {"include": ["in"]},
      "tags": {
        "brand": "Tanishq",
        "brand:wikidata": "Q13117711",
        "brand:wikipedia": "en:Tanishq",
        "name": "Tanishq",
        "shop": "jewelry"
      }
    },
    {
      "displayName": "Thomas Sabo",
      "id": "thomassabo-a038d2",
      "locationSet": {"include": ["001"]},
      "tags": {
        "brand": "Thomas Sabo",
        "brand:wikidata": "Q13415716",
        "brand:wikipedia": "en:Thomas Sabo",
        "name": "Thomas Sabo",
        "shop": "jewelry"
      }
    },
    {
      "displayName": "Tiffany & Company",
      "id": "tiffanyandcompany-a038d2",
      "locationSet": {"include": ["001"]},
      "matchNames": ["tiffany", "tiffany's"],
      "tags": {
        "brand": "Tiffany & Company",
        "brand:wikidata": "Q1066858",
        "brand:wikipedia": "en:Tiffany & Co.",
        "name": "Tiffany & Company",
        "official_name": "Tiffany & Co.",
        "shop": "jewelry"
      }
    },
    {
      "displayName": "Tous",
      "id": "tous-a038d2",
      "locationSet": {"include": ["001"]},
      "tags": {
        "brand": "Tous",
        "brand:wikidata": "Q3815128",
        "brand:wikipedia": "en:Tous (company)",
        "name": "Tous",
        "shop": "jewelry"
      }
    },
    {
      "displayName": "Warren James",
      "id": "warrenjames-f07ca3",
      "locationSet": {"include": ["gb"]},
      "tags": {
        "brand": "Warren James",
        "brand:wikidata": "Q19604616",
        "brand:wikipedia": "en:Warren James Jewellers",
        "name": "Warren James",
        "shop": "jewelry"
      }
    },
    {
      "displayName": "Wempe",
      "id": "wempe-5678fa",
      "locationSet": {
        "include": [
          "at",
          "de",
          "es",
          "fr",
          "gb",
          "us"
        ]
      },
      "tags": {
        "brand": "Wempe",
        "brand:wikidata": "Q1483424",
        "brand:wikipedia": "de:Gerhard D. Wempe",
        "name": "Wempe",
        "shop": "jewelry"
      }
    },
    {
      "displayName": "Zales",
      "id": "zales-70f101",
      "locationSet": {"include": ["us"]},
      "tags": {
        "brand": "Zales",
        "brand:wikidata": "Q8065305",
        "brand:wikipedia": "en:Zale Corporation",
        "name": "Zales",
        "shop": "jewelry"
      }
    },
    {
      "displayName": "Ziko",
      "id": "ziko-007daa",
      "locationSet": {"include": ["by"]},
      "tags": {
        "brand": "Ziko",
        "name": "Ziko",
        "shop": "jewelry"
      }
    },
    {
      "displayName": "Адамас",
      "id": "adamas-ee45ea",
      "locationSet": {"include": ["ru"]},
      "tags": {
        "brand": "Адамас",
        "brand:en": "Adamas",
        "brand:ru": "Адамас",
        "brand:wikidata": "Q62393709",
        "name": "Адамас",
        "name:en": "Adamas",
        "name:ru": "Адамас",
        "shop": "jewelry"
      }
    },
    {
      "displayName": "Золотая мечта",
      "id": "golddream-007daa",
      "locationSet": {"include": ["by"]},
      "tags": {
        "brand": "Золотая мечта",
        "brand:en": "Gold Dream",
        "brand:ru": "Золотая мечта",
        "name": "Золотая мечта",
        "name:en": "Gold Dream",
        "name:ru": "Золотая мечта",
        "shop": "jewelry"
      }
    },
    {
      "displayName": "Золотий вік",
      "id": "cc67fd-a7f1e4",
      "locationSet": {"include": ["ua"]},
      "tags": {
        "brand": "Золотий вік",
        "name": "Золотий вік",
        "shop": "jewelry"
      }
    },
    {
      "displayName": "ツツミ",
      "id": "tsutsumi-36e4b3",
      "locationSet": {"include": ["jp"]},
      "tags": {
        "brand": "ツツミ",
        "brand:en": "Tsutsumi",
        "brand:ja": "ツツミ",
        "brand:wikidata": "Q11318759",
        "brand:wikipedia": "ja:ツツミ",
        "name": "ツツミ",
        "name:en": "Tsutsumi",
        "name:ja": "ツツミ",
        "official_name": "ジュエリーツツミ",
        "official_name:en": "Jewelry Tsutsumi",
        "official_name:ja": "ジュエリーツツミ",
        "shop": "jewelry"
      }
    },
    {
      "displayName": "六福珠宝",
      "id": "lukfookjewellery-b792ed",
      "locationSet": {
        "include": [
          "au",
          "ca",
          "cn",
          "kh",
          "my",
          "sg",
          "us"
        ]
      },
      "tags": {
        "brand": "六福珠宝",
        "brand:en": "LukFook Jewellery",
        "brand:wikidata": "Q10893397",
        "brand:wikipedia": "en:Lukfook",
        "brand:zh": "六福珠宝",
        "name": "六福珠宝",
        "name:en": "LukFook Jewellery",
        "name:zh": "六福珠宝",
        "shop": "jewelry"
      }
    },
    {
      "displayName": "周大福",
      "id": "chowtaifook-9d8a9e",
      "locationSet": {
        "include": [
          "cn",
          "jp",
          "kr",
          "my",
          "sg",
          "tw",
          "us"
        ]
      },
      "tags": {
        "brand": "周大福",
        "brand:en": "Chow Tai Fook",
        "brand:wikidata": "Q48880993",
        "brand:wikipedia": "en:Chow Tai Fook Jewellery Group",
        "brand:zh": "周大福",
        "name": "周大福",
        "name:en": "Chow Tai Fook",
        "name:zh": "周大福",
        "shop": "jewelry"
      }
    },
    {
      "displayName": "周生生",
      "id": "chowsangsang-d54b30",
      "locationSet": {"include": ["cn", "tw"]},
      "tags": {
        "brand": "周生生",
        "brand:en": "Chow Sang Sang",
        "brand:wikidata": "Q10920877",
        "brand:wikipedia": "en:Chow Sang Sang",
        "brand:zh": "周生生",
        "name": "周生生",
        "name:en": "Chow Sang Sang",
        "name:zh": "周生生",
        "shop": "jewelry"
      }
    },
    {
      "displayName": "老凤祥",
      "id": "laofengxiang-c03559",
      "locationSet": {
        "include": ["au", "ca", "cn", "us"]
      },
      "tags": {
        "brand": "老凤祥",
        "brand:en": "Lao Feng Xiang",
        "brand:wikidata": "Q15910313",
        "brand:wikipedia": "en:Lao Feng Xiang",
        "brand:zh": "老凤祥",
        "name": "老凤祥",
        "name:en": "Lao Feng Xiang",
        "name:zh": "老凤祥",
        "shop": "jewelry"
      }
    }
  ]
}
