{
  "properties": {
    "path": "brands/shop/kiosk",
    "exclude": {
      "generic": [
        "^(edicola|quiosco|trinkhalle|warung)$",
        "^(киоск|мороженое|пресса)$",
        "^kios(co|k|ko|que)?$",
        "^pulper[ií]a$",
        "^taba[ck](os|chi)?( trafi[kc])?$",
        "^trafik(a)?$",
        "^продукт[иы]?$",
        "^მარკეტი( \\(market\\))?"
      ],
      "named": [
        "^(777|bp|esso|exxon|independent|mobil|shell)$"
      ]
    }
  },
  "items": [
    {
      "displayName": "Daoudabougou sougouba",
      "id": "daoudabougousougouba-332be8",
      "locationSet": {"include": ["001"]},
      "tags": {
        "brand": "Daoudabougou sougouba",
        "name": "Daoudabougou sougouba",
        "shop": "kiosk"
      }
    },
    {
      "displayName": "iNovine",
      "id": "inovine-769b40",
      "locationSet": {"include": ["ba", "hr"]},
      "tags": {
        "brand": "iNovine",
        "brand:wikidata": "Q115137198",
        "name": "iNovine",
        "shop": "kiosk"
      }
    },
    {
      "displayName": "Kiosk",
      "id": "kiosk-c47323",
      "locationSet": {"include": ["nl"]},
      "tags": {
        "brand": "Kiosk",
        "brand:wikidata": "Q109186217",
        "name": "Kiosk",
        "operator": "NS",
        "shop": "kiosk"
      }
    },
    {
      "displayName": "Lietuvos spauda",
      "id": "lietuvosspauda-34adb3",
      "locationSet": {"include": ["lt"]},
      "tags": {
        "brand": "Lietuvos spauda",
        "brand:wikidata": "Q6514414",
        "name": "Lietuvos spauda",
        "shop": "kiosk"
      }
    },
    {
      "displayName": "Lotto",
      "id": "lotto-950e06",
      "locationSet": {
        "include": ["001"],
        "exclude": ["pl"]
      },
      "tags": {
        "brand": "Lotto",
        "name": "Lotto",
        "shop": "kiosk"
      }
    },
    {
      "displayName": "Maxi Kiosco",
      "id": "maxikiosco-edaf46",
      "locationSet": {"include": ["ar"]},
      "tags": {
        "brand": "Maxi Kiosco",
        "name": "Maxi Kiosco",
        "shop": "kiosk"
      }
    },
    {
      "displayName": "Moj Kiosk",
      "id": "mojkiosk-86ee53",
      "locationSet": {"include": ["rs"]},
      "tags": {
        "brand": "Мој киоск",
        "brand:wikidata": "Q65064541",
        "name": "Мој киоск",
        "name:en": "Moj Kiosk",
        "name:sr": "Мој киоск",
        "name:sr-Latn": "Moj kiosk",
        "shop": "kiosk"
      }
    },
    {
      "displayName": "Narvesen",
      "id": "narvesen-a42ea8",
      "locationSet": {
        "include": ["lt", "lv", "no"]
      },
      "tags": {
        "brand": "Narvesen",
        "brand:wikidata": "Q6514414",
        "name": "Narvesen",
        "shop": "kiosk"
      }
    },
    {
      "displayName": "Pressbyrån",
      "id": "pressbyran-c177cf",
      "locationSet": {"include": ["se"]},
      "tags": {
        "brand": "Pressbyrån",
        "brand:wikidata": "Q2489072",
        "name": "Pressbyrån",
        "shop": "kiosk"
      }
    },
    {
      "displayName": "R-Kioski",
      "id": "rkioski-e0c7b3",
      "locationSet": {"include": ["fi"]},
      "tags": {
        "brand": "R-Kioski",
        "brand:wikidata": "Q1571400",
        "name": "R-Kioski",
        "shop": "kiosk"
      }
    },
    {
      "displayName": "Ruch",
      "id": "ruch-5bd120",
      "locationSet": {"include": ["pl"]},
      "tags": {
        "brand": "Ruch",
        "brand:wikidata": "Q1260314",
        "name": "Ruch",
        "shop": "kiosk"
      }
    },
    {
      "displayName": "Siebougouni sugu",
      "id": "siebougounisugu-332be8",
      "locationSet": {"include": ["001"]},
      "tags": {
        "brand": "Siebougouni sugu",
        "name": "Siebougouni sugu",
        "shop": "kiosk"
      }
    },
    {
      "displayName": "Sougou courani",
      "id": "sougoucourani-332be8",
      "locationSet": {"include": ["001"]},
      "tags": {
        "brand": "Sougou courani",
        "name": "Sougou courani",
        "shop": "kiosk"
      }
    },
    {
      "displayName": "Tisak",
      "id": "tisak-51cd1e",
      "locationSet": {"include": ["hr"]},
      "tags": {
        "brand": "Tisak",
        "brand:wikidata": "Q12643627",
        "name": "Tisak",
        "shop": "kiosk"
      }
    },
    {
      "displayName": "Total",
      "id": "total-332be8",
      "locationSet": {"include": ["001"]},
      "tags": {
        "brand": "Total",
        "brand:wikidata": "Q154037",
        "name": "Total",
        "shop": "kiosk"
      }
    },
    {
      "displayName": "Yorma’s",
      "id": "yormas-140365",
      "locationSet": {"include": ["de"]},
      "tags": {
        "brand": "Yorma’s",
        "brand:wikidata": "Q2600868",
        "name": "Yorma’s",
        "shop": "kiosk"
      }
    },
    {
      "displayName": "Белсаюздрук",
      "id": "28555b-332be8",
      "locationSet": {"include": ["001"]},
      "tags": {
        "brand": "Белсаюздрук",
        "name": "Белсаюздрук",
        "shop": "kiosk"
      }
    },
    {
      "displayName": "Роспечать",
      "id": "5506ed-332be8",
      "locationSet": {"include": ["001"]},
      "tags": {
        "brand": "Роспечать",
        "name": "Роспечать",
        "shop": "kiosk"
      }
    },
    {
      "displayName": "キヨスク",
      "id": "kiosk-84165a",
      "locationSet": {"include": ["jp"]},
      "tags": {
        "brand": "キヨスク",
        "brand:en": "KIOSK",
        "brand:ja": "キヨスク",
        "brand:wikidata": "Q1334796",
        "name": "キヨスク",
        "name:en": "KIOSK",
        "name:ja": "キヨスク",
        "shop": "kiosk"
      }
    },
    {
      "displayName": "ローソン+トークス",
      "id": "lawsontoks-84165a",
      "locationSet": {"include": ["jp"]},
      "note": "LAWSON+toks has two types of stores: convenience store and kiosk.",
      "tags": {
        "brand": "LAWSON+toks",
        "brand:en": "LAWSON+toks",
        "brand:ja": "ローソン+トークス",
        "brand:wikidata": "Q115868119",
        "name": "ローソン+トークス",
        "name:en": "Lawson+toks",
        "name:ja": "ローソン+トークス",
        "shop": "kiosk"
      }
    }
  ]
}
