{
  "properties": {
    "path": "brands/shop/massage",
    "exclude": {"generic": ["^(thai )?massage$"]}
  },
  "items": [
    {
      "displayName": "Elements Massage",
      "id": "elementsmassage-17cf41",
      "locationSet": {"include": ["ca", "us"]},
      "tags": {
        "brand": "Elements Massage",
        "brand:wikidata": "Q113642393",
        "name": "Elements Massage",
        "shop": "massage"
      }
    },
    {
      "displayName": "Hand & Stone Massage and Facial Spa",
      "id": "handandstonemassageandfacialspa-12d342",
      "locationSet": {"include": ["us"]},
      "matchNames": ["hand and stone massage"],
      "tags": {
        "brand": "Hand & Stone Massage and Facial Spa",
        "brand:wikidata": "Q55613342",
        "name": "Hand & Stone Massage and Facial Spa",
        "shop": "massage"
      }
    },
    {
      "displayName": "Massage Envy",
      "id": "massageenvy-12d342",
      "locationSet": {"include": ["us"]},
      "matchNames": ["massage envy spa"],
      "tags": {
        "brand": "Massage Envy",
        "brand:wikidata": "Q22922899",
        "name": "Massage Envy",
        "shop": "massage"
      }
    },
    {
      "displayName": "Massage Heights",
      "id": "massageheights-17cf41",
      "locationSet": {"include": ["ca", "us"]},
      "tags": {
        "brand": "Massage Heights",
        "brand:wikidata": "Q64573956",
        "name": "Massage Heights",
        "shop": "massage"
      }
    },
    {
      "displayName": "Re.Ra.Ku",
      "id": "reraku-22d14b",
      "locationSet": {"include": ["jp"]},
      "tags": {
        "brand": "Re.Ra.Ku",
        "brand:en": "Re.Ra.Ku",
        "brand:ja": "リラク",
        "brand:wikidata": "Q92941605",
        "name": "Re.Ra.Ku",
        "name:en": "Re.Ra.Ku",
        "name:ja": "リラク",
        "shop": "massage"
      }
    },
    {
      "displayName": "Тайрай",
      "id": "376aa0-9e3b7f",
      "locationSet": {"include": ["001"]},
      "tags": {
        "brand": "Тайрай",
        "name": "Тайрай",
        "shop": "massage"
      }
    },
    {
      "displayName": "カラダファクトリー",
      "id": "karadafactory-22d14b",
      "locationSet": {"include": ["jp"]},
      "tags": {
        "brand": "カラダファクトリー",
        "brand:en": "Karada Factory",
        "brand:ja": "カラダファクトリー",
        "brand:wikidata": "Q87833239",
        "name": "カラダファクトリー",
        "name:en": "Karada Factory",
        "name:ja": "カラダファクトリー",
        "shop": "massage"
      }
    },
    {
      "displayName": "りらくる",
      "id": "relxle-22d14b",
      "locationSet": {"include": ["jp"]},
      "tags": {
        "brand": "りらくる",
        "brand:en": "RELXLE",
        "brand:ja": "りらくる",
        "brand:wikidata": "Q92944647",
        "name": "りらくる",
        "name:en": "RELXLE",
        "name:ja": "りらくる",
        "shop": "massage"
      }
    }
  ]
}
