{
  "properties": {
    "path": "brands/shop/money_lender",
    "exclude": {"generic": ["^money lender$"]}
  },
  "items": [
    {
      "displayName": "ACE Cash Express",
      "id": "acecashexpress-f9c954",
      "locationSet": {"include": ["us"]},
      "matchNames": ["ace"],
      "tags": {
        "brand": "ACE Cash Express",
        "brand:wikidata": "Q24260962",
        "name": "ACE Cash Express",
        "shop": "money_lender"
      }
    },
    {
      "displayName": "Advance America",
      "id": "advanceamerica-f9c954",
      "locationSet": {"include": ["us"]},
      "tags": {
        "brand": "Advance America",
        "brand:wikidata": "Q4686044",
        "name": "Advance America",
        "shop": "money_lender"
      }
    },
    {
      "displayName": "Amscot",
      "id": "amscot-f9c954",
      "locationSet": {"include": ["us"]},
      "tags": {
        "brand": "Amscot",
        "brand:wikidata": "Q4748779",
        "name": "Amscot",
        "shop": "money_lender"
      }
    },
    {
      "displayName": "Barko Loans",
      "id": "barkoloans-f725f4",
      "locationSet": {"include": ["za"]},
      "tags": {
        "brand": "Barko Loans",
        "brand:wikidata": "Q118185897",
        "name": "Barko Loans",
        "shop": "money_lender"
      }
    },
    {
      "displayName": "California Check Cashing Stores",
      "id": "californiacheckcashingstores-f9c954",
      "locationSet": {"include": ["us"]},
      "matchNames": ["california check cashing"],
      "tags": {
        "brand": "California Check Cashing Stores",
        "brand:wikidata": "Q64390932",
        "name": "California Check Cashing Stores",
        "shop": "money_lender"
      }
    },
    {
      "displayName": "Cash 4 You",
      "id": "cash4you-06fadc",
      "locationSet": {
        "include": ["ca-on.geojson"]
      },
      "tags": {
        "brand": "Cash 4 You",
        "brand:wikidata": "Q102843806",
        "name": "Cash 4 You",
        "shop": "money_lender"
      }
    },
    {
      "displayName": "Cash Credit",
      "id": "cashcredit-937eaf",
      "locationSet": {"include": ["bg"]},
      "tags": {
        "brand": "Cash Credit",
        "brand:wikidata": "Q115656743",
        "name": "Cash Credit",
        "name:bg": "Кеш Кредит",
        "shop": "money_lender"
      }
    },
    {
      "displayName": "Cash Money",
      "id": "cashmoney-d5f811",
      "locationSet": {"include": ["ca"]},
      "tags": {
        "brand": "Cash Money",
        "name": "Cash Money",
        "shop": "money_lender"
      }
    },
    {
      "displayName": "Cash Store",
      "id": "cashstore-f9c954",
      "locationSet": {"include": ["us"]},
      "tags": {
        "brand": "Cash Store",
        "brand:wikidata": "Q61943411",
        "name": "Cash Store",
        "shop": "money_lender"
      }
    },
    {
      "displayName": "Cashco Financial",
      "id": "cashcofinancial-d5f811",
      "locationSet": {"include": ["ca"]},
      "tags": {
        "brand": "Cashco Financial",
        "brand:wikidata": "Q117314435",
        "name": "Cashco Financial",
        "shop": "money_lender"
      }
    },
    {
      "displayName": "CashMax",
      "id": "cashmax-f9c954",
      "locationSet": {"include": ["us"]},
      "tags": {
        "brand": "CashMax",
        "brand:wikidata": "Q69365478",
        "name": "CashMax",
        "shop": "money_lender"
      }
    },
    {
      "displayName": "Check 'n Go",
      "id": "checkngo-f9c954",
      "locationSet": {"include": ["us"]},
      "matchNames": ["check and go"],
      "tags": {
        "brand": "Check 'n Go",
        "brand:wikidata": "Q96067540",
        "name": "Check 'n Go",
        "shop": "money_lender"
      }
    },
    {
      "displayName": "Check Into Cash",
      "id": "checkintocash-f9c954",
      "locationSet": {"include": ["us"]},
      "tags": {
        "brand": "Check Into Cash",
        "brand:wikidata": "Q16961246",
        "name": "Check Into Cash",
        "shop": "money_lender"
      }
    },
    {
      "displayName": "CheckSmart",
      "id": "checksmart-f9c954",
      "locationSet": {"include": ["us"]},
      "tags": {
        "alt_name": "Check$mart",
        "brand": "CheckSmart",
        "brand:wikidata": "Q65640213",
        "name": "CheckSmart",
        "shop": "money_lender"
      }
    },
    {
      "displayName": "Credissimo",
      "id": "credissimo-937eaf",
      "locationSet": {"include": ["bg"]},
      "tags": {
        "brand": "Credissimo",
        "brand:wikidata": "Q115656700",
        "name": "Credissimo",
        "name:bg": "Кредисимо",
        "shop": "money_lender"
      }
    },
    {
      "displayName": "Crefisa",
      "id": "crefisa-46cd18",
      "locationSet": {"include": ["br"]},
      "tags": {
        "brand": "Crefisa",
        "brand:wikidata": "Q10261396",
        "shop": "money_lender"
      }
    },
    {
      "displayName": "EasyCredit",
      "id": "easycredit-937eaf",
      "locationSet": {"include": ["bg"]},
      "matchNames": ["изи кредит"],
      "tags": {
        "brand": "EasyCredit",
        "brand:wikidata": "Q111762111",
        "name": "EasyCredit",
        "shop": "money_lender"
      }
    },
    {
      "displayName": "easyfinancial",
      "id": "easyfinancial-d5f811",
      "locationSet": {"include": ["ca"]},
      "tags": {
        "brand": "easyfinancial",
        "brand:wikidata": "Q48816497",
        "name": "easyfinancial",
        "shop": "money_lender"
      }
    },
    {
      "displayName": "Fairstone Financial",
      "id": "fairstonefinancial-d5f811",
      "locationSet": {"include": ["ca"]},
      "tags": {
        "brand": "Fairstone Financial",
        "name": "Fairstone Financial",
        "shop": "money_lender"
      }
    },
    {
      "displayName": "First Virginia",
      "id": "firstvirginia-f9c954",
      "locationSet": {"include": ["us"]},
      "matchNames": ["1st virginia"],
      "tags": {
        "brand": "First Virginia",
        "brand:wikidata": "Q65640051",
        "name": "First Virginia",
        "shop": "money_lender"
      }
    },
    {
      "displayName": "Kmf",
      "id": "kmf-0276ee",
      "locationSet": {"include": ["001"]},
      "tags": {
        "brand": "Kmf",
        "name": "Kmf",
        "shop": "money_lender"
      }
    },
    {
      "displayName": "Momento",
      "id": "momento-937eaf",
      "locationSet": {"include": ["bg"]},
      "tags": {
        "brand": "Momento",
        "name": "Momento",
        "operator": "Пощенска банка",
        "operator:wikidata": "Q7234083",
        "shop": "money_lender"
      }
    },
    {
      "displayName": "Money Mart",
      "id": "moneymart-b33bc6",
      "locationSet": {"include": ["ca", "us"]},
      "tags": {
        "brand": "Money Mart",
        "brand:wikidata": "Q6899166",
        "name": "Money Mart",
        "shop": "money_lender"
      }
    },
    {
      "displayName": "Moneytree",
      "id": "moneytree-f9c954",
      "locationSet": {"include": ["us"]},
      "tags": {
        "brand": "Moneytree",
        "brand:wikidata": "Q6899361",
        "name": "Moneytree",
        "shop": "money_lender"
      }
    },
    {
      "displayName": "OneMain Financial",
      "id": "onemainfinancial-f9c954",
      "locationSet": {"include": ["us"]},
      "matchTags": ["office/financial"],
      "tags": {
        "brand": "OneMain Financial",
        "brand:wikidata": "Q28444592",
        "name": "OneMain Financial",
        "shop": "money_lender"
      }
    },
    {
      "displayName": "Radiowealth Finance",
      "id": "radiowealthfinance-f85e7b",
      "locationSet": {"include": ["ph"]},
      "tags": {
        "brand": "Radiowealth Finance",
        "brand:en": "Radiowealth Finance",
        "brand:wikidata": "Q94572570",
        "name": "Radiowealth Finance",
        "name:en": "Radiowealth Finance",
        "official_name": "Radiowealth Finance Company",
        "shop": "money_lender",
        "short_name": "RFC"
      }
    },
    {
      "displayName": "Taytay sa Kauswagan",
      "id": "taytaysakauswagan-f85e7b",
      "locationSet": {"include": ["ph"]},
      "tags": {
        "brand": "Taytay sa Kauswagan",
        "name": "Taytay sa Kauswagan",
        "shop": "money_lender"
      }
    },
    {
      "displayName": "TitleMax",
      "id": "titlemax-f9c954",
      "locationSet": {"include": ["us"]},
      "tags": {
        "brand": "TitleMax",
        "brand:wikidata": "Q7810030",
        "name": "TitleMax",
        "shop": "money_lender"
      }
    },
    {
      "displayName": "Viva Credit",
      "id": "vivacredit-937eaf",
      "locationSet": {"include": ["bg"]},
      "tags": {
        "brand": "Viva Credit",
        "brand:wikidata": "Q115656774",
        "name": "Viva Credit",
        "name:bg": "Вива Кредит",
        "shop": "money_lender"
      }
    },
    {
      "displayName": "Акс Финанс",
      "id": "f3fdfe-cbb345",
      "locationSet": {"include": ["ru"]},
      "tags": {
        "brand": "Акс Финанс",
        "name": "Акс Финанс",
        "shop": "money_lender"
      }
    },
    {
      "displayName": "Быстроденьги",
      "id": "72ac10-cbb345",
      "locationSet": {"include": ["ru"]},
      "tags": {
        "brand": "Быстроденьги",
        "name": "Быстроденьги",
        "shop": "money_lender"
      }
    },
    {
      "displayName": "Касса Взаимопомощи",
      "id": "eaa927-cbb345",
      "locationSet": {"include": ["ru"]},
      "tags": {
        "brand": "Касса Взаимопомощи",
        "name": "Касса Взаимопомощи",
        "shop": "money_lender"
      }
    },
    {
      "displayName": "Отличные наличные",
      "id": "3b0369-cbb345",
      "locationSet": {"include": ["ru"]},
      "tags": {
        "brand": "Отличные наличные",
        "name": "Отличные наличные",
        "shop": "money_lender"
      }
    },
    {
      "displayName": "プロミス",
      "id": "promise-9de2dd",
      "locationSet": {"include": ["jp"]},
      "tags": {
        "brand": "プロミス",
        "brand:en": "Promise",
        "brand:ja": "プロミス",
        "brand:wikidata": "Q11243682",
        "name": "プロミス",
        "name:en": "Promise",
        "name:ja": "プロミス",
        "official_name": "SMBCコンシューマーファイナンス",
        "official_name:en": "SMBC Consumer Finance",
        "shop": "money_lender"
      }
    }
  ]
}
