{
  "properties": {
    "path": "brands/shop/newsagent",
    "exclude": {
      "generic": [
        "^(edicola|newsagent|tabac presse|trafika?)$",
        "^(печать|пресса|табак(ерка)?)$"
      ]
    }
  },
  "items": [
    {
      "displayName": "Central",
      "id": "central-cce5fc",
      "locationSet": {
        "include": ["gb-eng", "gb-sct", "gb-wls"]
      },
      "tags": {
        "brand": "Central Convenience Store",
        "brand:wikidata": "Q97104475",
        "name": "Central",
        "shop": "newsagent"
      }
    },
    {
      "displayName": "Cigo (Germany)",
      "id": "cigo-ae6a07",
      "locationSet": {"include": ["de"]},
      "tags": {
        "brand": "Cigo",
        "brand:wikidata": "Q113290782",
        "name": "Cigo",
        "shop": "newsagent",
        "tobacco": "yes"
      }
    },
    {
      "displayName": "Cigo (Netherlands)",
      "id": "cigo-308ab8",
      "locationSet": {"include": ["nl"]},
      "tags": {
        "brand": "Cigo",
        "brand:wikidata": "Q62391977",
        "name": "Cigo",
        "shop": "newsagent"
      }
    },
    {
      "displayName": "CNN Newsstand",
      "id": "cnnnewsstand-fa8cad",
      "locationSet": {"include": ["us"]},
      "tags": {
        "brand": "CNN Newsstand",
        "brand:wikidata": "Q113695436",
        "name": "CNN Newsstand",
        "shop": "newsagent"
      }
    },
    {
      "displayName": "Hudson News",
      "id": "hudsonnews-a0252c",
      "locationSet": {"include": ["ca", "us"]},
      "matchNames": ["hudson"],
      "tags": {
        "brand": "Hudson News",
        "brand:wikidata": "Q5928787",
        "name": "Hudson News",
        "shop": "newsagent"
      }
    },
    {
      "displayName": "inmedio",
      "id": "inmedio-1fb2fe",
      "locationSet": {"include": ["bg"]},
      "tags": {
        "brand": "inmedio",
        "brand:wikidata": "Q114053635",
        "name": "inmedio",
        "shop": "newsagent"
      }
    },
    {
      "displayName": "Inmedio",
      "id": "inmedio-b60255",
      "locationSet": {
        "include": ["hu", "pl", "ro"]
      },
      "tags": {
        "brand": "Inmedio",
        "brand:wikidata": "Q108599411",
        "name": "Inmedio",
        "shop": "newsagent"
      }
    },
    {
      "displayName": "k kiosk",
      "id": "kkiosk-49035c",
      "locationSet": {"include": ["ch"]},
      "tags": {
        "brand": "k kiosk",
        "brand:wikidata": "Q60381703",
        "name": "k kiosk",
        "shop": "newsagent"
      }
    },
    {
      "displayName": "Kolporter",
      "id": "kolporter-4bc172",
      "locationSet": {"include": ["pl"]},
      "tags": {
        "brand": "Kolporter",
        "brand:wikidata": "Q6427874",
        "name": "Kolporter",
        "shop": "newsagent"
      }
    },
    {
      "displayName": "Mag Presse",
      "id": "magpresse-007cee",
      "locationSet": {"include": ["fr"]},
      "tags": {
        "brand": "Mag Presse",
        "name": "Mag Presse",
        "shop": "newsagent"
      }
    },
    {
      "displayName": "Maison de la Presse",
      "id": "maisondelapresse-007cee",
      "locationSet": {"include": ["fr"]},
      "matchTags": ["shop/books"],
      "tags": {
        "brand": "Maison de la Presse",
        "brand:wikidata": "Q62085960",
        "name": "Maison de la Presse",
        "shop": "newsagent"
      }
    },
    {
      "displayName": "Martin's",
      "id": "martins-6728e7",
      "locationSet": {"include": ["gb"]},
      "tags": {
        "brand": "Martin's",
        "brand:wikidata": "Q16997477",
        "name": "Martin's",
        "shop": "newsagent"
      }
    },
    {
      "displayName": "Press & Books",
      "id": "pressandbooks-ae6a07",
      "locationSet": {"include": ["at", "ch", "de", "lu"]},
      "matchNames": ["p&k"],
      "tags": {
        "brand": "Press & Books",
        "brand:wikidata": "Q100407277",
        "name": "Press & Books",
        "shop": "newsagent"
      }
    },
    {
      "displayName": "Primera",
      "id": "primera-308ab8",
      "locationSet": {"include": ["nl"]},
      "tags": {
        "brand": "Primera",
        "brand:wikidata": "Q2176149",
        "name": "Primera",
        "shop": "newsagent"
      }
    },
    {
      "displayName": "Relay",
      "id": "relay-e6d891",
      "locationSet": {"include": ["001"]},
      "tags": {
        "brand": "Relay",
        "brand:wikidata": "Q3424298",
        "name": "Relay",
        "shop": "newsagent"
      }
    },
    {
      "displayName": "Ruch",
      "id": "ruch-4bc172",
      "locationSet": {"include": ["pl"]},
      "tags": {
        "brand": "Ruch",
        "brand:wikidata": "Q1260314",
        "name": "Ruch",
        "shop": "newsagent"
      }
    },
    {
      "displayName": "WHSmith",
      "id": "whsmith-e6d891",
      "locationSet": {"include": ["001"]},
      "matchTags": ["shop/stationery"],
      "tags": {
        "brand": "WHSmith",
        "brand:wikidata": "Q1548712",
        "name": "WHSmith",
        "shop": "newsagent"
      }
    },
    {
      "displayName": "БелДрук",
      "id": "b6fe6a-e86250",
      "locationSet": {"include": ["by"]},
      "matchNames": [
        "белсоюзпечать",
        "витебскоблсоюзпечать"
      ],
      "tags": {
        "brand": "БелДрук",
        "brand:wikidata": "Q63986228",
        "name": "БелДрук",
        "shop": "newsagent"
      }
    },
    {
      "displayName": "Первая полоса",
      "id": "f363b9-313f17",
      "locationSet": {"include": ["ru"]},
      "tags": {
        "brand": "Первая полоса",
        "brand:wikidata": "Q62736412",
        "name": "Первая полоса",
        "shop": "newsagent"
      }
    },
    {
      "displayName": "Преса",
      "id": "6007bd-0307ab",
      "locationSet": {"include": ["ua"]},
      "tags": {
        "brand": "Преса",
        "name": "Преса",
        "shop": "newsagent"
      }
    },
    {
      "displayName": "Роспечать",
      "id": "5506ed-313f17",
      "locationSet": {"include": ["ru"]},
      "tags": {
        "brand": "Роспечать",
        "name": "Роспечать",
        "shop": "newsagent"
      }
    },
    {
      "displayName": "Союзпечать",
      "id": "6aba18-b88745",
      "locationSet": {"include": ["ru", "ua"]},
      "tags": {
        "brand": "Союзпечать",
        "brand:wikidata": "Q4430611",
        "name": "Союзпечать",
        "shop": "newsagent"
      }
    },
    {
      "displayName": "日本経済新聞",
      "id": "thenikkei-0319e7",
      "locationSet": {"include": ["jp"]},
      "matchNames": ["日経新聞"],
      "tags": {
        "brand": "日本経済新聞",
        "brand:en": "The Nikkei",
        "brand:ja": "日本経済新聞",
        "brand:wikidata": "Q1077694",
        "name": "日本経済新聞",
        "name:en": "The Nikkei",
        "name:ja": "日本経済新聞",
        "shop": "newsagent"
      }
    },
    {
      "displayName": "朝日新聞",
      "id": "asahishimbun-0319e7",
      "locationSet": {"include": ["jp"]},
      "tags": {
        "brand": "朝日新聞",
        "brand:en": "Asahi Shimbun",
        "brand:wikidata": "Q720503",
        "name": "朝日新聞",
        "name:en": "Asahi Shimbun",
        "shop": "newsagent"
      }
    },
    {
      "displayName": "毎日新聞",
      "id": "mainichishimbun-0319e7",
      "locationSet": {"include": ["jp"]},
      "matchNames": ["毎日ニュースポート"],
      "tags": {
        "brand": "毎日新聞",
        "brand:en": "Mainichi Shimbun",
        "brand:ja": "毎日新聞",
        "brand:wikidata": "Q1136866",
        "name": "毎日新聞",
        "name:en": "Mainichi Shimbun",
        "name:ja": "毎日新聞",
        "shop": "newsagent"
      }
    },
    {
      "displayName": "産経新聞",
      "id": "sankeishimbun-0319e7",
      "locationSet": {"include": ["jp"]},
      "matchNames": ["サンケイ新聞"],
      "tags": {
        "brand": "産経新聞",
        "brand:en": "Sankei Shimbun",
        "brand:ja": "産経新聞",
        "brand:wikidata": "Q1197261",
        "name": "産経新聞",
        "name:en": "Sankei Shimbun",
        "name:ja": "産経新聞",
        "shop": "newsagent"
      }
    },
    {
      "displayName": "読売新聞",
      "id": "yomiurishimbun-0319e7",
      "locationSet": {"include": ["jp"]},
      "tags": {
        "brand": "読売新聞",
        "brand:en": "Yomiuri Shimbun",
        "brand:wikidata": "Q645218",
        "name": "読売新聞",
        "name:en": "Yomiuri Shimbun",
        "shop": "newsagent"
      }
    }
  ]
}
