{
  "properties": {
    "path": "brands/shop/nuts",
    "exclude": {"generic": ["^nuts?$"]}
  },
  "items": [
    {
      "displayName": "Mr. Almond",
      "id": "mralmond-f85d29",
      "locationSet": {"include": ["bg"]},
      "tags": {
        "brand": "Mr. Almond",
        "brand:wikidata": "Q130477385",
        "name": "Mr. Almond",
        "shop": "nuts"
      }
    },
    {
      "displayName": "Rois",
      "id": "rois-f85d29",
      "locationSet": {"include": ["bg"]},
      "tags": {
        "brand": "Rois",
        "brand:wikidata": "Q110399902",
        "name": "Rois",
        "name:bg": "Ройс",
        "name:en": "Rois",
        "shop": "nuts"
      }
    },
    {
      "displayName": "Ядки Начев",
      "id": "cedcc3-f85d29",
      "locationSet": {"include": ["bg"]},
      "tags": {
        "brand": "Начев",
        "brand:wikidata": "Q130477366",
        "name": "Начев",
        "shop": "nuts"
      }
    },
    {
      "displayName": "三只松鼠",
      "id": "threesquirrels-1d484f",
      "locationSet": {
        "include": ["cn"],
        "exclude": ["hk", "mo"]
      },
      "tags": {
        "brand": "三只松鼠",
        "brand:en": "Three Squirrels",
        "brand:wikidata": "Q54805303",
        "brand:zh": "三只松鼠",
        "name": "三只松鼠",
        "name:en": "Three Squirrels",
        "name:zh": "三只松鼠",
        "shop": "nuts"
      }
    },
    {
      "displayName": "良品铺子",
      "id": "bestore-1d484f",
      "locationSet": {
        "include": ["cn"],
        "exclude": ["hk", "mo"]
      },
      "tags": {
        "brand": "良品铺子",
        "brand:en": "Bestore",
        "brand:wikidata": "Q76382148",
        "brand:zh": "良品铺子",
        "name": "良品铺子",
        "name:en": "Bestore",
        "name:zh": "良品铺子",
        "shop": "nuts"
      }
    }
  ]
}
