{
  "properties": {
    "path": "brands/shop/outdoor",
    "exclude": {
      "generic": ["^outdoor$", "^рыболов$"]
    }
  },
  "items": [
    {
      "displayName": "A.S.Adventure",
      "id": "asadventure-718831",
      "locationSet": {
        "include": ["be", "fx", "lu", "nl"]
      },
      "tags": {
        "brand": "A.S.Adventure",
        "brand:wikidata": "Q1815008",
        "name": "A.S.Adventure",
        "shop": "outdoor"
      }
    },
    {
      "displayName": "Anaconda",
      "id": "anaconda-a827df",
      "locationSet": {"include": ["au"]},
      "tags": {
        "brand": "Anaconda",
        "brand:wikidata": "Q105981238",
        "name": "Anaconda",
        "shop": "outdoor"
      }
    },
    {
      "displayName": "ANWB",
      "id": "anwbwinkel-88720f",
      "locationSet": {"include": ["nl"]},
      "tags": {
        "brand": "ANWB",
        "brand:wikidata": "Q2646455",
        "name": "ANWB winkel",
        "shop": "outdoor"
      }
    },
    {
      "displayName": "Au vieux campeur",
      "id": "auvieuxcampeur-6bb650",
      "locationSet": {"include": ["fx"]},
      "tags": {
        "brand": "Au vieux campeur",
        "brand:wikidata": "Q2409646",
        "name": "Au vieux campeur",
        "shop": "outdoor"
      }
    },
    {
      "displayName": "Aussie Disposals",
      "id": "aussiedisposals-a827df",
      "locationSet": {"include": ["au"]},
      "tags": {
        "brand": "Aussie Disposals",
        "brand:wikidata": "Q117847729",
        "name": "Aussie Disposals",
        "shop": "outdoor"
      }
    },
    {
      "displayName": "Bass Pro Shops",
      "id": "bassproshops-069867",
      "locationSet": {"include": ["ca", "us"]},
      "tags": {
        "brand": "Bass Pro Shops",
        "brand:wikidata": "Q4867953",
        "name": "Bass Pro Shops",
        "shop": "outdoor"
      }
    },
    {
      "displayName": "BCF",
      "id": "bcf-a827df",
      "locationSet": {"include": ["au"]},
      "tags": {
        "brand": "BCF",
        "brand:wikidata": "Q16246527",
        "name": "BCF",
        "shop": "outdoor"
      }
    },
    {
      "displayName": "Bever",
      "id": "bever-88720f",
      "locationSet": {"include": ["nl"]},
      "tags": {
        "brand": "Bever",
        "brand:wikidata": "Q123596881",
        "name": "Bever",
        "shop": "outdoor"
      }
    },
    {
      "displayName": "Bivouac Outdoor",
      "id": "bivouacoutdoor-f40221",
      "locationSet": {"include": ["nz"]},
      "tags": {
        "brand": "Bivouac Outdoor",
        "brand:wikidata": "Q111019114",
        "name": "Bivouac Outdoor",
        "shop": "outdoor",
        "short_name": "Bivouac"
      }
    },
    {
      "displayName": "Blacks",
      "id": "blacks-f55d12",
      "locationSet": {"include": ["gb"]},
      "tags": {
        "brand": "Blacks",
        "brand:wikidata": "Q64822933",
        "name": "Blacks",
        "shop": "outdoor"
      }
    },
    {
      "displayName": "Cabela's",
      "id": "cabelas-069867",
      "locationSet": {"include": ["ca", "us"]},
      "tags": {
        "brand": "Cabela's",
        "brand:wikidata": "Q2793714",
        "name": "Cabela's",
        "shop": "outdoor"
      }
    },
    {
      "displayName": "Cape Union Mart",
      "id": "capeunionmart-fb8ccb",
      "locationSet": {"include": ["za"]},
      "tags": {
        "brand": "Cape Union Mart",
        "brand:wikidata": "Q110085683",
        "name": "Cape Union Mart",
        "shop": "outdoor"
      }
    },
    {
      "displayName": "Cotswold Outdoor",
      "id": "cotswoldoutdoor-f55d12",
      "locationSet": {"include": ["gb"]},
      "matchNames": ["cotswold"],
      "tags": {
        "brand": "Cotswold Outdoor",
        "brand:wikidata": "Q5175488",
        "name": "Cotswold Outdoor",
        "shop": "outdoor"
      }
    },
    {
      "displayName": "Eastern Mountain Sports",
      "id": "easternmountainsports-d32658",
      "locationSet": {
        "include": [
          "us-ct.geojson",
          "us-ma.geojson",
          "us-me.geojson",
          "us-nh.geojson",
          "us-nj.geojson",
          "us-ny.geojson",
          "us-pa.geojson",
          "us-vt.geojson"
        ]
      },
      "tags": {
        "brand": "Eastern Mountain Sports",
        "brand:wikidata": "Q5330322",
        "name": "Eastern Mountain Sports",
        "shop": "outdoor",
        "short_name": "EMS"
      }
    },
    {
      "displayName": "Eiger",
      "id": "eiger-19c913",
      "locationSet": {"include": ["id"]},
      "tags": {
        "brand": "Eiger",
        "brand:wikidata": "Q25471361",
        "name": "Eiger",
        "shop": "outdoor"
      }
    },
    {
      "displayName": "Ekosport",
      "id": "ekosport-6bb650",
      "locationSet": {"include": ["fx"]},
      "tags": {
        "brand": "Ekosport",
        "brand:wikidata": "Q130221125",
        "name": "Ekosport",
        "shop": "outdoor"
      }
    },
    {
      "displayName": "Espace Montagne",
      "id": "espacemontagne-6bb650",
      "locationSet": {"include": ["fx"]},
      "tags": {
        "brand": "Espace Montagne",
        "brand:wikidata": "Q130221137",
        "name": "Espace Montagne",
        "shop": "outdoor"
      }
    },
    {
      "displayName": "Fjällräven",
      "id": "fjallraven-069867",
      "locationSet": {"include": ["150", "ca", "us"]},
      "tags": {
        "brand": "Fjällräven",
        "brand:wikidata": "Q1422481",
        "name": "Fjällräven",
        "shop": "outdoor"
      }
    },
    {
      "displayName": "Fritz Berger",
      "id": "fritzberger-00734f",
      "locationSet": {"include": ["de"]},
      "tags": {
        "brand": "Fritz Berger",
        "brand:wikidata": "Q107636665",
        "name": "Fritz Berger",
        "shop": "outdoor"
      }
    },
    {
      "displayName": "Gander Outdoors",
      "id": "ganderoutdoors-a7317e",
      "locationSet": {"include": ["us"]},
      "matchNames": ["gander mountain"],
      "tags": {
        "brand": "Gander Outdoors",
        "brand:wikidata": "Q5520637",
        "name": "Gander Outdoors",
        "shop": "outdoor"
      }
    },
    {
      "displayName": "Globetrotter",
      "id": "globetrotter-00734f",
      "locationSet": {"include": ["de"]},
      "tags": {
        "brand": "Globetrotter",
        "brand:wikidata": "Q1531763",
        "name": "Globetrotter",
        "shop": "outdoor"
      }
    },
    {
      "displayName": "Go Outdoors",
      "id": "gooutdoors-f55d12",
      "locationSet": {"include": ["gb"]},
      "preserveTags": ["^name"],
      "tags": {
        "brand": "Go Outdoors",
        "brand:wikidata": "Q75293941",
        "dog": "yes",
        "name": "Go Outdoors",
        "shop": "outdoor"
      }
    },
    {
      "displayName": "Go Outdoors Express",
      "id": "gooutdoorsexpress-f55d12",
      "locationSet": {"include": ["gb"]},
      "preserveTags": ["^name"],
      "tags": {
        "brand": "Go Outdoors Express",
        "brand:wikidata": "Q131862654",
        "dog": "yes",
        "name": "Go Outdoors Express",
        "shop": "outdoor"
      }
    },
    {
      "displayName": "Husky",
      "id": "husky-240bcf",
      "locationSet": {"include": ["cz", "sk"]},
      "tags": {
        "brand": "Husky",
        "brand:wikidata": "Q54973467",
        "name": "Husky",
        "shop": "outdoor"
      }
    },
    {
      "displayName": "Jack Wolfskin",
      "id": "jackwolfskin-279671",
      "locationSet": {
        "include": [
          "at",
          "be",
          "ch",
          "de",
          "fx",
          "gb",
          "it",
          "nl",
          "pl",
          "ru",
          "ua"
        ]
      },
      "tags": {
        "brand": "Jack Wolfskin",
        "brand:wikidata": "Q536133",
        "name": "Jack Wolfskin",
        "shop": "outdoor"
      }
    },
    {
      "displayName": "Kathmandu",
      "id": "kathmandu-7b766e",
      "locationSet": {"include": ["au", "nz"]},
      "tags": {
        "brand": "Kathmandu",
        "brand:wikidata": "Q1736294",
        "name": "Kathmandu",
        "shop": "outdoor"
      }
    },
    {
      "displayName": "L.L.Bean",
      "id": "llbean-b092d8",
      "locationSet": {
        "include": ["ca", "jp", "us"]
      },
      "tags": {
        "brand": "L.L.Bean",
        "brand:wikidata": "Q6131944",
        "name": "L.L.Bean",
        "shop": "outdoor"
      }
    },
    {
      "displayName": "Macpac",
      "id": "macpac-7b766e",
      "locationSet": {"include": ["au", "nz"]},
      "tags": {
        "brand": "Macpac",
        "brand:wikidata": "Q6724943",
        "name": "Macpac",
        "shop": "outdoor"
      }
    },
    {
      "displayName": "McTREK",
      "id": "mctrek-00734f",
      "locationSet": {"include": ["de"]},
      "tags": {
        "brand": "McTREK",
        "brand:wikidata": "Q110007506",
        "name": "McTREK",
        "shop": "outdoor"
      }
    },
    {
      "displayName": "MEC Mountain Equipment Company",
      "id": "mecmountainequipmentcompany-388b66",
      "locationSet": {"include": ["ca"]},
      "matchNames": [
        "mec",
        "mec canada",
        "mountain equipment company",
        "mountain equipment coop"
      ],
      "tags": {
        "brand": "MEC Mountain Equipment Company",
        "brand:wikidata": "Q104867916",
        "name": "MEC Mountain Equipment Company",
        "shop": "outdoor"
      }
    },
    {
      "displayName": "Millets",
      "id": "millets-f55d12",
      "locationSet": {"include": ["gb"]},
      "tags": {
        "brand": "Millets",
        "brand:wikidata": "Q64822903",
        "name": "Millets",
        "shop": "outdoor"
      }
    },
    {
      "displayName": "Mountain Warehouse",
      "id": "mountainwarehouse-19caf6",
      "locationSet": {
        "include": [
          "at",
          "ca",
          "de",
          "gb",
          "ie",
          "nz",
          "pl",
          "us"
        ]
      },
      "tags": {
        "brand": "Mountain Warehouse",
        "brand:wikidata": "Q6925414",
        "name": "Mountain Warehouse",
        "shop": "outdoor"
      }
    },
    {
      "displayName": "Nature & Découvertes",
      "id": "natureanddecouvertes-fb7405",
      "locationSet": {
        "include": ["be", "ch", "fr", "lu", "pt"]
      },
      "matchNames": ["nature et découvertes"],
      "tags": {
        "brand": "Nature & Découvertes",
        "brand:wikidata": "Q3337111",
        "name": "Nature & Découvertes",
        "shop": "outdoor"
      }
    },
    {
      "displayName": "Naturkompaniet",
      "id": "naturkompaniet-ab6c4a",
      "locationSet": {"include": ["se"]},
      "tags": {
        "brand": "Naturkompaniet",
        "brand:wikidata": "Q10594975",
        "name": "Naturkompaniet",
        "shop": "outdoor"
      }
    },
    {
      "displayName": "Outdoor Warehouse",
      "id": "outdoorwarehouse-fb8ccb",
      "locationSet": {"include": ["za"]},
      "tags": {
        "brand": "Outdoor Warehouse",
        "brand:wikidata": "Q130485369",
        "name": "Outdoor Warehouse",
        "shop": "outdoor"
      }
    },
    {
      "displayName": "Regatta Great Outdoors",
      "id": "regattagreatoutdoors-d45246",
      "locationSet": {"include": ["001"]},
      "tags": {
        "brand": "Regatta Great Outdoors",
        "brand:wikidata": "Q9305279",
        "name": "Regatta Great Outdoors",
        "shop": "outdoor",
        "short_name": "Regatta"
      }
    },
    {
      "displayName": "REI",
      "id": "rei-72e82e",
      "locationSet": {"include": ["id", "us"]},
      "tags": {
        "brand": "REI",
        "brand:wikidata": "Q3414933",
        "name": "REI",
        "official_name": "Recreational Equipment, Inc.",
        "shop": "outdoor"
      }
    },
    {
      "displayName": "Sierra",
      "id": "sierra-a7317e",
      "locationSet": {"include": ["us"]},
      "tags": {
        "alt_name": "Sierra Trading Post",
        "brand": "Sierra",
        "brand:wikidata": "Q7511598",
        "name": "Sierra",
        "shop": "outdoor"
      }
    },
    {
      "displayName": "Snow+Rock",
      "id": "snowrock-f55d12",
      "locationSet": {"include": ["gb"]},
      "matchNames": ["snow & rock"],
      "tags": {
        "brand": "Snow+Rock",
        "brand:wikidata": "Q113556466",
        "name": "Snow+Rock",
        "shop": "outdoor"
      }
    },
    {
      "displayName": "Sportsman's Warehouse",
      "id": "sportsmanswarehouse-a7317e",
      "locationSet": {"include": ["us"]},
      "tags": {
        "brand": "Sportsman's Warehouse",
        "brand:wikidata": "Q7579979",
        "name": "Sportsman's Warehouse",
        "shop": "outdoor"
      }
    },
    {
      "displayName": "TOG24",
      "id": "tog24-911a4c",
      "locationSet": {"include": ["gb", "ie"]},
      "tags": {
        "brand": "TOG24",
        "brand:wikidata": "Q131273719",
        "name": "TOG24",
        "shop": "outdoor"
      }
    },
    {
      "displayName": "Torpedo7",
      "id": "torpedo7-f40221",
      "locationSet": {"include": ["nz"]},
      "tags": {
        "brand": "Torpedo7",
        "brand:wikidata": "Q110221600",
        "name": "Torpedo7",
        "shop": "outdoor"
      }
    },
    {
      "displayName": "Trespass",
      "id": "trespass-0f1422",
      "locationSet": {
        "include": ["fx", "gb", "ie"]
      },
      "tags": {
        "brand": "Trespass",
        "brand:wikidata": "Q17035733",
        "name": "Trespass",
        "shop": "outdoor"
      }
    },
    {
      "displayName": "Vaude",
      "id": "vaude-00734f",
      "locationSet": {"include": ["de"]},
      "tags": {
        "brand": "Vaude",
        "brand:wikidata": "Q322238",
        "name": "Vaude",
        "shop": "outdoor"
      }
    },
    {
      "displayName": "МдРегион",
      "id": "9d80db-29bb69",
      "locationSet": {"include": ["ru"]},
      "tags": {
        "brand": "МдРегион",
        "name": "МдРегион",
        "shop": "outdoor"
      }
    },
    {
      "displayName": "上州屋",
      "id": "johshuya-c097b7",
      "locationSet": {"include": ["jp"]},
      "tags": {
        "brand": "上州屋",
        "brand:en": "Johshuya",
        "brand:ja": "上州屋",
        "brand:wikidata": "Q11358975",
        "name": "上州屋",
        "name:en": "Johshuya",
        "name:ja": "上州屋",
        "shop": "outdoor"
      }
    },
    {
      "displayName": "城市綠洲",
      "id": "metrooasis-887a29",
      "locationSet": {"include": ["tw"]},
      "tags": {
        "brand": "城市綠洲",
        "brand:en": "Metro Oasis",
        "brand:wikidata": "Q132360408",
        "brand:zh": "城市綠洲",
        "name": "城市綠洲",
        "name:en": "Metro Oasis",
        "name:zh": "城市綠洲",
        "shop": "outdoor"
      }
    },
    {
      "displayName": "歐都納",
      "id": "atunas-887a29",
      "locationSet": {"include": ["tw"]},
      "tags": {
        "brand": "歐都納",
        "brand:en": "Atunas",
        "brand:wikidata": "Q132360419",
        "brand:zh": "歐都納",
        "name": "歐都納",
        "name:en": "Atunas",
        "name:zh": "歐都納",
        "shop": "outdoor"
      }
    }
  ]
}
