{
  "properties": {
    "path": "brands/shop/outpost",
    "exclude": {"generic": ["^outpost$"]}
  },
  "items": [
    {
      "displayName": "5post",
      "id": "5post-968c70",
      "locationSet": {"include": ["ru"]},
      "tags": {
        "brand": "5post",
        "name": "5post",
        "shop": "outpost"
      }
    },
    {
      "displayName": "Boxberry",
      "id": "boxberry-968c70",
      "locationSet": {"include": ["ru"]},
      "tags": {
        "brand": "Boxberry",
        "name": "Boxberry",
        "shop": "outpost"
      }
    },
    {
      "displayName": "E.Leclerc Drive",
      "id": "eleclercdrive-7ec344",
      "locationSet": {"include": ["fr"]},
      "matchNames": ["leclerc drive"],
      "matchTags": ["shop/supermarket"],
      "tags": {
        "brand": "E.Leclerc Drive",
        "brand:wikidata": "Q1273376",
        "drive_through": "only",
        "name": "E.Leclerc Drive",
        "shop": "outpost"
      }
    },
    {
      "displayName": "KazanExpress",
      "id": "kazanexpress-968c70",
      "locationSet": {"include": ["ru"]},
      "tags": {
        "brand": "KazanExpress",
        "name": "KazanExpress",
        "shop": "outpost"
      }
    },
    {
      "displayName": "Lamoda",
      "id": "lamoda-968c70",
      "locationSet": {"include": ["ru"]},
      "tags": {
        "brand": "Lamoda",
        "brand:wikidata": "Q97658635",
        "name": "Lamoda",
        "shop": "outpost"
      }
    },
    {
      "displayName": "MaxMarket",
      "id": "maxmarket-968c70",
      "locationSet": {"include": ["ru"]},
      "tags": {
        "brand": "MaxMarket",
        "name": "MaxMarket",
        "shop": "outpost"
      }
    },
    {
      "displayName": "Ozon",
      "id": "ozon-e8ee33",
      "locationSet": {
        "include": [
          "am",
          "by",
          "kg",
          "kz",
          "ru",
          "uz"
        ]
      },
      "tags": {
        "brand": "Ozon",
        "brand:en": "Ozon",
        "brand:wikidata": "Q2365235",
        "name": "Ozon",
        "name:en": "Ozon",
        "shop": "outpost"
      }
    },
    {
      "displayName": "Ozon Rocket",
      "id": "ozonrocket-968c70",
      "locationSet": {"include": ["ru"]},
      "tags": {
        "brand": "Ozon Rocket",
        "name": "Ozon Rocket",
        "shop": "outpost"
      }
    },
    {
      "displayName": "Rozetka",
      "id": "rozetka-497ef1",
      "locationSet": {"include": ["ua"]},
      "matchNames": ["розетка", "розетка. уа"],
      "matchTags": [
        "office/company",
        "shop/trade"
      ],
      "tags": {
        "brand": "Rozetka",
        "brand:wikidata": "Q12072279",
        "name": "Rozetka",
        "shop": "outpost"
      }
    },
    {
      "displayName": "Wildberries",
      "id": "wildberries-c79976",
      "locationSet": {
        "include": [
          "am",
          "by",
          "ge",
          "kg",
          "kz",
          "ru",
          "tj",
          "uz"
        ]
      },
      "matchNames": ["wb"],
      "matchTags": ["shop/clothes"],
      "tags": {
        "brand": "Wildberries",
        "brand:en": "Wildberries",
        "brand:wikidata": "Q24933714",
        "name": "Wildberries",
        "name:en": "Wildberries",
        "shop": "outpost"
      }
    },
    {
      "displayName": "Авито",
      "id": "a9bd6c-968c70",
      "locationSet": {"include": ["ru"]},
      "tags": {
        "brand": "Авито",
        "name": "Авито",
        "shop": "outpost"
      }
    },
    {
      "displayName": "Епіцентр К",
      "id": "13cf8e-497ef1",
      "locationSet": {"include": ["ua"]},
      "matchNames": ["epicentr k", "епіцентр"],
      "tags": {
        "brand": "Епіцентр К",
        "brand:wikidata": "Q4532244",
        "name": "Епіцентр К",
        "shop": "outpost"
      }
    },
    {
      "displayName": "Магнит Маркет",
      "id": "1d12c1-968c70",
      "locationSet": {"include": ["ru"]},
      "tags": {
        "brand": "Магнит Маркет",
        "name": "Магнит Маркет",
        "shop": "outpost"
      }
    },
    {
      "displayName": "Онлайн Трейд",
      "id": "eeed4b-968c70",
      "locationSet": {"include": ["ru"]},
      "tags": {
        "brand": "Онлайн Трейд",
        "name": "Онлайн Трейд",
        "shop": "outpost"
      }
    },
    {
      "displayName": "Яндекс.Маркет",
      "id": "yandexmarket-968c70",
      "locationSet": {"include": ["ru"]},
      "tags": {
        "brand": "Яндекс.Маркет",
        "brand:en": "Yandex.Market",
        "brand:ru": "Яндекс.Маркет",
        "brand:wikidata": "Q4537982",
        "name": "Яндекс.Маркет",
        "name:en": "Yandex.Market",
        "name:ru": "Яндекс.Маркет",
        "shop": "outpost"
      }
    },
    {
      "displayName": "ვაილდბერიზი",
      "id": "wildberries-0a4445",
      "locationSet": {"include": ["ge"]},
      "tags": {
        "brand": "Wildberries",
        "brand:en": "Wildberries",
        "brand:ka": "ვაილდბერიზი",
        "brand:wikidata": "Q24933714",
        "name": "ვაილდბერიზი",
        "name:en": "Wildberries",
        "name:ka": "ვაილდბერიზი",
        "name:ru": "Вайлдбериз",
        "shop": "outpost"
      }
    }
  ]
}
