{
  "properties": {
    "path": "brands/shop/pastry",
    "exclude": {
      "generic": ["^(beignetariat|pastry)$"]
    }
  },
  "items": [
    {
      "displayName": "Blikle",
      "id": "blikle-6e7edc",
      "locationSet": {"include": ["pl"]},
      "tags": {
        "brand": "Blikle",
        "brand:wikidata": "Q9174325",
        "name": "Blikle",
        "shop": "pastry"
      }
    },
    {
      "displayName": "Café de Nata",
      "id": "cafedenata-4c047d",
      "locationSet": {"include": ["gb"]},
      "tags": {
        "brand": "Café de Nata",
        "brand:wikidata": "Q112672158",
        "cuisine": "portuguese",
        "diet:vegan": "yes",
        "name": "Café de Nata",
        "shop": "pastry"
      }
    },
    {
      "displayName": "Cake Box",
      "id": "cakebox-4c047d",
      "locationSet": {"include": ["gb"]},
      "tags": {
        "brand": "Cake Box",
        "brand:wikidata": "Q110057905",
        "name": "Cake Box",
        "shop": "pastry"
      }
    },
    {
      "displayName": "Cheesecake Corner",
      "id": "cheesecakecorner-6e7edc",
      "locationSet": {"include": ["pl"]},
      "tags": {
        "brand": "Cheesecake Corner",
        "brand:wikidata": "Q113232487",
        "name": "Cheesecake Corner",
        "shop": "pastry"
      }
    },
    {
      "displayName": "Cookies by Design",
      "id": "cookiesbydesign-64e364",
      "locationSet": {"include": ["us"]},
      "matchTags": ["shop/gift"],
      "tags": {
        "brand": "Cookies by Design",
        "brand:wikidata": "Q5167112",
        "craft": "bakery",
        "name": "Cookies by Design",
        "shop": "pastry"
      }
    },
    {
      "displayName": "Crumbl Cookies",
      "id": "crumblcookies-64e364",
      "locationSet": {"include": ["us"]},
      "tags": {
        "brand": "Crumbl Cookies",
        "brand:wikidata": "Q106924414",
        "name": "Crumbl Cookies",
        "shop": "pastry",
        "short_name": "Crumbl"
      }
    },
    {
      "displayName": "Cukiernia Cieślikowski",
      "id": "cukierniacieslikowski-6e7edc",
      "locationSet": {"include": ["pl"]},
      "tags": {
        "brand": "Cukiernia Cieślikowski",
        "brand:wikidata": "Q113232483",
        "name": "Cukiernia Cieślikowski",
        "shop": "pastry"
      }
    },
    {
      "displayName": "Cukiernia Sowa",
      "id": "cukierniasowa-6e7edc",
      "locationSet": {"include": ["pl"]},
      "tags": {
        "brand": "Cukiernia Sowa",
        "brand:wikidata": "Q113232449",
        "name": "Cukiernia Sowa",
        "shop": "pastry"
      }
    },
    {
      "displayName": "Hoffmann",
      "id": "hoffmann-8e72cc",
      "locationSet": {"include": ["lu"]},
      "matchNames": ["pâtisserie hoffmann"],
      "tags": {
        "brand": "Hoffmann",
        "brand:wikidata": "Q98770209",
        "name": "Hoffmann",
        "shop": "pastry"
      }
    },
    {
      "displayName": "Insomnia Cookies",
      "id": "insomniacookies-64e364",
      "locationSet": {"include": ["us"]},
      "tags": {
        "brand": "Insomnia Cookies",
        "brand:wikidata": "Q16997024",
        "name": "Insomnia Cookies",
        "shop": "pastry"
      }
    },
    {
      "displayName": "Kürtősh",
      "locationSet": {"include": ["au"]},
      "tags": {
        "brand": "Kürtősh",
        "brand:wikidata": "Q117257108",
        "name": "Kürtősh",
        "shop": "pastry"
      }
    },
    {
      "displayName": "Lola's Cupcakes",
      "id": "lolascupcakes-cdbfe2",
      "locationSet": {
        "include": ["gb-eng", "jp"]
      },
      "tags": {
        "brand": "Lola's Cupcakes",
        "brand:wikidata": "Q114853535",
        "name": "Lola's Cupcakes",
        "shop": "pastry"
      }
    },
    {
      "displayName": "Lukullus",
      "id": "lukullus-6e7edc",
      "locationSet": {"include": ["pl"]},
      "tags": {
        "brand": "Lukullus",
        "brand:wikidata": "Q113232484",
        "name": "Lukullus",
        "shop": "pastry"
      }
    },
    {
      "displayName": "Mrs. Fields",
      "id": "mrsfields-e944b6",
      "locationSet": {
        "include": [
          "au",
          "ph",
          "us-ak.geojson",
          "us-al.geojson",
          "us-az.geojson",
          "us-ca.geojson",
          "us-co.geojson",
          "us-de.geojson",
          "us-fl.geojson",
          "us-ga.geojson",
          "us-hi.geojson",
          "us-id.geojson",
          "us-il.geojson",
          "us-in.geojson",
          "us-ks.geojson",
          "us-la.geojson",
          "us-ma.geojson",
          "us-md.geojson",
          "us-me.geojson",
          "us-mi.geojson",
          "us-mo.geojson",
          "us-ms.geojson",
          "us-nc.geojson",
          "us-nj.geojson",
          "us-nv.geojson",
          "us-ny.geojson",
          "us-oh.geojson",
          "us-ok.geojson",
          "us-pa.geojson",
          "us-tx.geojson",
          "us-ut.geojson",
          "us-wi.geojson"
        ]
      },
      "tags": {
        "brand": "Mrs. Fields",
        "brand:wikidata": "Q3866841",
        "name": "Mrs. Fields",
        "shop": "pastry"
      }
    },
    {
      "displayName": "Namur",
      "id": "namur-8e72cc",
      "locationSet": {"include": ["lu"]},
      "tags": {
        "brand": "Namur",
        "brand:wikidata": "Q98815398",
        "name": "Namur",
        "shop": "pastry"
      }
    },
    {
      "displayName": "Nothing Bundt Cakes",
      "id": "nothingbundtcakes-e06bde",
      "locationSet": {"include": ["ca", "us"]},
      "tags": {
        "brand": "Nothing Bundt Cakes",
        "brand:wikidata": "Q62082526",
        "name": "Nothing Bundt Cakes",
        "shop": "pastry"
      }
    },
    {
      "displayName": "Oberweis",
      "id": "oberweis-8e72cc",
      "locationSet": {"include": ["lu"]},
      "tags": {
        "brand": "Oberweis",
        "brand:wikidata": "Q98815408",
        "name": "Oberweis",
        "shop": "pastry"
      }
    },
    {
      "displayName": "Pawłowicz",
      "id": "pawlowicz-6e7edc",
      "locationSet": {"include": ["pl"]},
      "tags": {
        "brand": "Pawłowicz",
        "brand:wikidata": "Q113232485",
        "name": "Pawłowicz",
        "shop": "pastry"
      }
    },
    {
      "displayName": "Sadaharu Aoki",
      "id": "sadaharuaoki-1cea9f",
      "locationSet": {"include": ["fr", "jp"]},
      "tags": {
        "brand": "Sadaharu Aoki",
        "brand:wikidata": "Q3461079",
        "cuisine": "japanese",
        "name": "Sadaharu Aoki",
        "shop": "pastry"
      }
    },
    {
      "displayName": "Skyline",
      "id": "skyline-5d47b0",
      "locationSet": {"include": ["bg"]},
      "tags": {
        "brand": "Skyline",
        "brand:wikidata": "Q110399888",
        "name": "Skyline",
        "shop": "pastry"
      }
    },
    {
      "displayName": "Smallcakes",
      "id": "smallcakes-64e364",
      "locationSet": {"include": ["us"]},
      "tags": {
        "brand": "Smallcakes",
        "brand:wikidata": "Q62384749",
        "name": "Smallcakes",
        "shop": "pastry"
      }
    },
    {
      "displayName": "Неделя",
      "id": "nedelya-5d47b0",
      "locationSet": {"include": ["bg"]},
      "tags": {
        "brand": "Неделя",
        "brand:bg": "Неделя",
        "brand:en": "Nedelya",
        "brand:wikidata": "Q110399879",
        "name": "Неделя",
        "name:bg": "Неделя",
        "name:en": "Nedelya",
        "shop": "pastry"
      }
    },
    {
      "displayName": "Пчела",
      "id": "24f442-5d47b0",
      "locationSet": {"include": ["bg"]},
      "tags": {
        "brand": "Пчела",
        "brand:bg": "Пчела",
        "brand:wikidata": "Q110399875",
        "name": "Пчела",
        "name:bg": "Пчела",
        "shop": "pastry"
      }
    },
    {
      "displayName": "泸溪河",
      "id": "luxihetaosu-f204a7",
      "locationSet": {"include": ["cn"]},
      "tags": {
        "brand": "泸溪河",
        "brand:en": "Luxihe Taosu",
        "brand:wikidata": "Q114050925",
        "brand:zh": "泸溪河",
        "cuisine": "chinese",
        "name": "泸溪河",
        "name:en": "Luxihe Taosu",
        "name:zh": "泸溪河",
        "shop": "pastry"
      }
    },
    {
      "displayName": "稻香村（北京）",
      "id": "beijingdaoxiangcun-f204a7",
      "locationSet": {"include": ["cn"]},
      "tags": {
        "brand": "北京稻香村",
        "brand:en": "Beijing DaoXiangCun",
        "brand:wikidata": "Q15934678",
        "brand:zh": "北京稻香村",
        "cuisine": "chinese",
        "diet:halal": "no",
        "name": "北京稻香村",
        "name:en": "Beijing DaoXiangCun",
        "name:zh": "北京稻香村",
        "operator": "北京稻香村食品有限责任公司",
        "operator:zh": "北京稻香村食品有限责任公司",
        "shop": "pastry"
      }
    },
    {
      "displayName": "稻香村（苏州）",
      "id": "daoxiangcun-f204a7",
      "locationSet": {"include": ["cn"]},
      "tags": {
        "brand": "稻香村",
        "brand:en": "DaoXiangCun",
        "brand:wikidata": "Q10452498",
        "brand:zh": "稻香村",
        "cuisine": "chinese",
        "diet:halal": "no",
        "name": "稻香村",
        "name:en": "DaoXiangCun",
        "name:zh": "稻香村",
        "operator": "苏州稻香村食品有限公司",
        "operator:zh": "苏州稻香村食品有限公司",
        "shop": "pastry"
      }
    }
  ]
}
