{
  "properties": {
    "path": "brands/shop/pet",
    "exclude": {
      "generic": [
        "^pet\\s?(store|shop)?$",
        "^зоо(магазин|товары)$"
      ]
    }
  },
  "items": [
    {
      "displayName": "Animalis",
      "id": "animalis-bbe4dd",
      "locationSet": {"include": ["fr"]},
      "tags": {
        "brand": "Animalis",
        "brand:wikidata": "Q2850015",
        "name": "Animalis",
        "shop": "pet"
      }
    },
    {
      "displayName": "Animates",
      "id": "animates-b0a57a",
      "locationSet": {"include": ["nz"]},
      "tags": {
        "brand": "Animates",
        "brand:wikidata": "Q110299350",
        "name": "Animates",
        "shop": "pet"
      }
    },
    {
      "displayName": "Arcaplanet",
      "id": "arcaplanet-fc1a4b",
      "locationSet": {"include": ["it"]},
      "tags": {
        "brand": "Arcaplanet",
        "brand:wikidata": "Q105530937",
        "name": "Arcaplanet",
        "shop": "pet"
      }
    },
    {
      "displayName": "Best Friends",
      "id": "bestfriends-26188c",
      "locationSet": {"include": ["au"]},
      "tags": {
        "brand": "Best Friends",
        "brand:wikidata": "Q106540748",
        "name": "Best Friends",
        "shop": "pet"
      }
    },
    {
      "displayName": "Cobasi",
      "id": "cobasi-df7a1d",
      "locationSet": {"include": ["br"]},
      "tags": {
        "brand": "Cobasi",
        "brand:wikidata": "Q86739236",
        "name": "Cobasi",
        "shop": "pet"
      }
    },
    {
      "displayName": "Das Futterhaus",
      "id": "dasfutterhaus-f5d6d7",
      "locationSet": {"include": ["at", "de"]},
      "matchNames": ["futterhaus"],
      "tags": {
        "brand": "Das Futterhaus",
        "brand:wikidata": "Q1167914",
        "name": "Das Futterhaus",
        "shop": "pet"
      }
    },
    {
      "displayName": "EarthWise Pet",
      "id": "earthwisepet-81a22d",
      "locationSet": {"include": ["us"]},
      "tags": {
        "brand": "EarthWise Pet",
        "brand:wikidata": "Q108193626",
        "name": "EarthWise Pet",
        "shop": "pet"
      }
    },
    {
      "displayName": "Faunatar",
      "id": "faunatar-294f56",
      "locationSet": {"include": ["fi"]},
      "tags": {
        "brand": "Faunatar",
        "brand:wikidata": "Q11859415",
        "name": "Faunatar",
        "shop": "pet"
      }
    },
    {
      "displayName": "Fressnapf",
      "id": "fressnapf-d58bba",
      "locationSet": {
        "include": ["at", "ch", "de", "hu", "lu"]
      },
      "tags": {
        "brand": "Fressnapf",
        "brand:wikidata": "Q875796",
        "name": "Fressnapf",
        "shop": "pet"
      }
    },
    {
      "displayName": "Global Pet Foods",
      "id": "globalpetfoods-4f78bb",
      "locationSet": {"include": ["ca"]},
      "tags": {
        "brand": "Global Pet Foods",
        "brand:wikidata": "Q57985699",
        "name": "Global Pet Foods",
        "shop": "pet"
      }
    },
    {
      "displayName": "Jollyes",
      "id": "jollyes-8ec028",
      "locationSet": {"include": ["gb"]},
      "tags": {
        "brand": "Jollyes",
        "brand:wikidata": "Q45844955",
        "name": "Jollyes",
        "shop": "pet"
      }
    },
    {
      "displayName": "Jumper",
      "id": "jumper-734485",
      "locationSet": {"include": ["nl"]},
      "tags": {
        "brand": "Jumper",
        "brand:wikidata": "Q87338743",
        "name": "Jumper",
        "shop": "pet"
      }
    },
    {
      "displayName": "Kahoots",
      "id": "kahoots-ae290d",
      "locationSet": {
        "include": ["us-ca.geojson"]
      },
      "matchNames": [
        "kahoots feed and pet",
        "kahoots pet store"
      ],
      "tags": {
        "brand": "Kahoots",
        "brand:wikidata": "Q110028564",
        "name": "Kahoots",
        "shop": "pet"
      }
    },
    {
      "displayName": "Kiwoko",
      "id": "kiwoko-2ff4b2",
      "locationSet": {"include": ["001"]},
      "tags": {
        "brand": "Kiwoko",
        "name": "Kiwoko",
        "shop": "pet"
      }
    },
    {
      "displayName": "Kölle Zoo",
      "id": "kollezoo-9f060f",
      "locationSet": {"include": ["de"]},
      "tags": {
        "brand": "Kölle Zoo",
        "brand:wikidata": "Q76606192",
        "name": "Kölle Zoo",
        "shop": "pet"
      }
    },
    {
      "displayName": "L'Isola dei Tesori",
      "id": "lisoladeitesori-fc1a4b",
      "locationSet": {"include": ["it"]},
      "tags": {
        "brand": "L'Isola dei Tesori",
        "brand:wikidata": "Q108578003",
        "name": "L'Isola dei Tesori",
        "shop": "pet"
      }
    },
    {
      "displayName": "MasterZoo",
      "id": "masterzoo-a879a3",
      "locationSet": {"include": ["ua"]},
      "matchNames": ["мастер зоо"],
      "tags": {
        "brand": "MasterZoo",
        "brand:wikidata": "Q116920599",
        "name": "MasterZoo",
        "name:en": "MasterZoo",
        "name:uk": "MasterZoo",
        "shop": "pet"
      }
    },
    {
      "displayName": "Maxi Zoo",
      "id": "maxizoo-3e2920",
      "locationSet": {
        "include": [
          "be",
          "ch",
          "dk",
          "fr",
          "ie",
          "it",
          "pl"
        ]
      },
      "tags": {
        "brand": "Maxi Zoo",
        "brand:wikidata": "Q108403242",
        "name": "Maxi Zoo",
        "shop": "pet"
      }
    },
    {
      "displayName": "Médor et Compagnie",
      "id": "medoretcompagnie-bbe4dd",
      "locationSet": {"include": ["fr"]},
      "tags": {
        "brand": "Médor et Compagnie",
        "brand:wikidata": "Q89344773",
        "name": "Médor et Compagnie",
        "shop": "pet"
      }
    },
    {
      "displayName": "MEGAZOO",
      "id": "megazoo-9f060f",
      "locationSet": {"include": ["de"]},
      "tags": {
        "brand": "MEGAZOO",
        "brand:wikidata": "Q107718741",
        "name": "MEGAZOO",
        "shop": "pet"
      }
    },
    {
      "displayName": "Mud Bay",
      "id": "mudbay-81a22d",
      "locationSet": {"include": ["us"]},
      "tags": {
        "brand": "Mud Bay",
        "brand:wikidata": "Q30324179",
        "name": "Mud Bay",
        "shop": "pet"
      }
    },
    {
      "displayName": "Musti ja Mirri",
      "id": "mustijamirri-294f56",
      "locationSet": {"include": ["fi"]},
      "tags": {
        "brand": "Musti ja Mirri",
        "brand:wikidata": "Q11883558",
        "name": "Musti ja Mirri",
        "shop": "pet"
      }
    },
    {
      "displayName": "Pet Center",
      "id": "petcenter-09e3e7",
      "locationSet": {"include": ["cz", "sk"]},
      "tags": {
        "brand": "Pet Center",
        "brand:wikidata": "Q58607477",
        "name": "Pet Center",
        "shop": "pet"
      }
    },
    {
      "displayName": "Pet City",
      "id": "petcity-2ff4b2",
      "locationSet": {"include": ["001"]},
      "tags": {
        "brand": "Pet City",
        "name": "Pet City",
        "shop": "pet"
      }
    },
    {
      "displayName": "Pet Food Express",
      "id": "petfoodexpress-81a22d",
      "locationSet": {"include": ["us"]},
      "tags": {
        "brand": "Pet Food Express",
        "brand:wikidata": "Q7171541",
        "name": "Pet Food Express",
        "shop": "pet"
      }
    },
    {
      "displayName": "Pet Supermarket",
      "id": "petsupermarket-81a22d",
      "locationSet": {"include": ["us"]},
      "tags": {
        "brand": "Pet Supermarket",
        "brand:wikidata": "Q61968363",
        "name": "Pet Supermarket",
        "shop": "pet"
      }
    },
    {
      "displayName": "Pet Supplies Plus",
      "id": "petsuppliesplus-81a22d",
      "locationSet": {"include": ["us"]},
      "tags": {
        "brand": "Pet Supplies Plus",
        "brand:wikidata": "Q7171563",
        "name": "Pet Supplies Plus",
        "shop": "pet"
      }
    },
    {
      "displayName": "Pet Valu",
      "id": "petvalu-e394eb",
      "locationSet": {"include": ["ca", "us"]},
      "tags": {
        "brand": "Pet Valu",
        "brand:wikidata": "Q58009635",
        "name": "Pet Valu",
        "shop": "pet"
      }
    },
    {
      "displayName": "Petbarn",
      "id": "petbarn-26188c",
      "locationSet": {"include": ["au"]},
      "tags": {
        "brand": "Petbarn",
        "brand:wikidata": "Q104746468",
        "name": "Petbarn",
        "shop": "pet"
      }
    },
    {
      "displayName": "Petco",
      "id": "petco-81a22d",
      "locationSet": {"include": ["us"]},
      "tags": {
        "brand": "Petco",
        "brand:wikidata": "Q7171798",
        "name": "Petco",
        "shop": "pet"
      }
    },
    {
      "displayName": "Petland",
      "id": "petland-81a22d",
      "locationSet": {"include": ["us"]},
      "tags": {
        "brand": "Petland",
        "brand:wikidata": "Q17111474",
        "name": "Petland",
        "shop": "pet"
      }
    },
    {
      "displayName": "Petland Discounts",
      "id": "petlanddiscounts-81a22d",
      "locationSet": {"include": ["us"]},
      "tags": {
        "brand": "Petland Discounts",
        "brand:wikidata": "Q7178463",
        "name": "Petland Discounts",
        "shop": "pet"
      }
    },
    {
      "displayName": "Petmania",
      "id": "petmania-7c67e0",
      "locationSet": {"include": ["ie"]},
      "tags": {
        "brand": "Petmania",
        "brand:wikidata": "Q113281278",
        "name": "Petmania",
        "shop": "pet"
      }
    },
    {
      "displayName": "PetPeople",
      "id": "petpeople-81a22d",
      "locationSet": {"include": ["us"]},
      "tags": {
        "brand": "PetPeople",
        "brand:wikidata": "Q110706432",
        "name": "PetPeople",
        "shop": "pet"
      }
    },
    {
      "displayName": "Pets at Home",
      "id": "petsathome-8ec028",
      "locationSet": {"include": ["gb"]},
      "tags": {
        "brand": "Pets at Home",
        "brand:wikidata": "Q7179258",
        "name": "Pets at Home",
        "shop": "pet"
      }
    },
    {
      "displayName": "Pets Corner",
      "id": "petscorner-8ec028",
      "locationSet": {"include": ["gb"]},
      "tags": {
        "brand": "Pets Corner",
        "brand:wikidata": "Q17018476",
        "name": "Pets Corner",
        "shop": "pet"
      }
    },
    {
      "displayName": "Pets Place",
      "id": "petsplace-734485",
      "locationSet": {"include": ["nl"]},
      "tags": {
        "brand": "Pets Place",
        "brand:wikidata": "Q116951772",
        "name": "Pets Place",
        "shop": "pet"
      }
    },
    {
      "displayName": "Petshop.ru",
      "id": "petshopru-13b7f6",
      "locationSet": {"include": ["ru"]},
      "tags": {
        "brand": "Petshop.ru",
        "brand:wikidata": "Q109947790",
        "name": "Petshop.ru",
        "shop": "pet"
      }
    },
    {
      "displayName": "PetSmart",
      "id": "petsmart-e394eb",
      "locationSet": {"include": ["ca", "us"]},
      "tags": {
        "brand": "PetSmart",
        "brand:wikidata": "Q3307147",
        "name": "PetSmart",
        "shop": "pet"
      }
    },
    {
      "displayName": "Petstock",
      "id": "petstock-26188c",
      "locationSet": {"include": ["au"]},
      "tags": {
        "brand": "Petstock",
        "brand:wikidata": "Q106540728",
        "name": "Petstock",
        "shop": "pet"
      }
    },
    {
      "displayName": "Petstop",
      "id": "petstop-7c67e0",
      "locationSet": {"include": ["ie"]},
      "tags": {
        "brand": "Petstop",
        "brand:wikidata": "Q113197342",
        "name": "Petstop",
        "shop": "pet"
      }
    },
    {
      "displayName": "Petz",
      "id": "petz-df7a1d",
      "locationSet": {"include": ["br"]},
      "tags": {
        "brand": "Petz",
        "brand:wikidata": "Q28680851",
        "name": "Petz",
        "shop": "pet"
      }
    },
    {
      "displayName": "Q-PETs",
      "id": "qpets-f292b1",
      "locationSet": {"include": ["hk"]},
      "tags": {
        "brand": "Q-PETs",
        "brand:en": "Q-PETs",
        "brand:wikidata": "Q116986240",
        "name": "Q-PETs",
        "name:en": "Q-PETs",
        "shop": "pet"
      }
    },
    {
      "displayName": "Qualipet",
      "id": "qualipet-c04507",
      "locationSet": {"include": ["ch"]},
      "tags": {
        "brand": "Qualipet",
        "brand:wikidata": "Q15841340",
        "name": "Qualipet",
        "shop": "pet"
      }
    },
    {
      "displayName": "SUPER ZOO",
      "id": "superzoo-09e3e7",
      "locationSet": {"include": ["cz", "sk"]},
      "tags": {
        "brand": "SUPER ZOO",
        "brand:wikidata": "Q93998805",
        "name": "SUPER ZOO",
        "shop": "pet"
      }
    },
    {
      "displayName": "Tom & Co",
      "id": "tomandco-cad8a4",
      "locationSet": {
        "include": ["be", "fr", "lu"]
      },
      "tags": {
        "brand": "Tom & Co",
        "brand:wikidata": "Q98380763",
        "name": "Tom & Co",
        "shop": "pet"
      }
    },
    {
      "displayName": "Unleashed",
      "id": "unleashed-81a22d",
      "locationSet": {"include": ["us"]},
      "tags": {
        "alt_name": "Unleashed by Petco",
        "brand": "Unleashed",
        "brand:wikidata": "Q62122874",
        "name": "Unleashed",
        "shop": "pet"
      }
    },
    {
      "displayName": "Wild Birds Unlimited",
      "id": "wildbirdsunlimited-81a22d",
      "locationSet": {"include": ["us"]},
      "tags": {
        "brand": "Wild Birds Unlimited",
        "brand:wikidata": "Q8000542",
        "name": "Wild Birds Unlimited",
        "shop": "pet"
      }
    },
    {
      "displayName": "Zoo & Co.",
      "id": "zooandco-f5d6d7",
      "locationSet": {"include": ["at", "de"]},
      "tags": {
        "brand": "Zoo & Co.",
        "brand:wikidata": "Q219979",
        "name": "Zoo & Co.",
        "shop": "pet"
      }
    },
    {
      "displayName": "ZOObazar",
      "id": "zoobazar-3053c4",
      "locationSet": {"include": ["by"]},
      "tags": {
        "brand": "ZOObazar",
        "name": "ZOObazar",
        "shop": "pet"
      }
    },
    {
      "displayName": "ZooBonus",
      "id": "zoobonus-a879a3",
      "locationSet": {"include": ["ua"]},
      "matchNames": ["зоо бонус"],
      "tags": {
        "brand": "ZooBonus",
        "brand:wikidata": "Q116920737",
        "name": "ZooBonus",
        "name:en": "ZooBonus",
        "name:uk": "ZooBonus",
        "shop": "pet"
      }
    },
    {
      "displayName": "ZOOмаркет",
      "id": "e83696-3053c4",
      "locationSet": {"include": ["by"]},
      "tags": {
        "brand": "ZOOмаркет",
        "name": "ZOOмаркет",
        "shop": "pet"
      }
    },
    {
      "displayName": "Бетховен",
      "id": "90c94e-13b7f6",
      "locationSet": {"include": ["ru"]},
      "tags": {
        "brand": "Бетховен",
        "brand:wikidata": "Q62390798",
        "name": "Бетховен",
        "shop": "pet"
      }
    },
    {
      "displayName": "Золотая рыбка",
      "id": "353ff5-13b7f6",
      "locationSet": {"include": ["ru"]},
      "tags": {
        "brand": "Золотая рыбка",
        "brand:wikidata": "Q110775004",
        "name": "Золотая рыбка",
        "shop": "pet"
      }
    },
    {
      "displayName": "Зоомаркет",
      "id": "80af48-2ff4b2",
      "locationSet": {"include": ["001"]},
      "tags": {
        "brand": "Зоомаркет",
        "name": "Зоомаркет",
        "shop": "pet"
      }
    },
    {
      "displayName": "Зоомир",
      "id": "49dd5c-d273ef",
      "locationSet": {"include": ["by", "ru"]},
      "tags": {
        "brand": "Зоомир",
        "name": "Зоомир",
        "shop": "pet"
      }
    },
    {
      "displayName": "Зоотовари",
      "id": "b2c446-a879a3",
      "locationSet": {"include": ["ua"]},
      "tags": {
        "brand": "Зоотовари",
        "name": "Зоотовари",
        "shop": "pet"
      }
    },
    {
      "displayName": "Ле'Муррр",
      "id": "56262d-13b7f6",
      "locationSet": {"include": ["ru"]},
      "matchNames": ["лемур"],
      "tags": {
        "brand": "Ле'Муррр",
        "brand:wikidata": "Q109970786",
        "name": "Ле'Муррр",
        "shop": "pet"
      }
    },
    {
      "displayName": "Четыре лапы",
      "id": "42195e-8e284e",
      "locationSet": {"include": ["kz", "ru"]},
      "tags": {
        "brand": "Четыре лапы",
        "brand:wikidata": "Q62390783",
        "name": "Четыре лапы",
        "shop": "pet"
      }
    },
    {
      "displayName": "イオンペット",
      "id": "aeonpet-def705",
      "locationSet": {"include": ["jp"]},
      "tags": {
        "brand": "イオンペット",
        "brand:en": "Aeonpet",
        "brand:ja": "イオンペット",
        "brand:wikidata": "Q11286064",
        "name": "イオンペット",
        "name:en": "Aeonpet",
        "name:ja": "イオンペット",
        "shop": "pet"
      }
    }
  ]
}
