{
  "properties": {
    "path": "brands/shop/second_hand",
    "exclude": {
      "generic": [
        "^ressourcerie$",
        "^second hand$"
      ]
    }
  },
  "items": [
    {
      "displayName": "De Kringwinkel",
      "id": "dekringwinkel-04aeb6",
      "locationSet": {"include": ["be"]},
      "tags": {
        "brand": "De Kringwinkel",
        "brand:wikidata": "Q55935433",
        "shop": "second_hand"
      }
    },
    {
      "displayName": "Easycash",
      "id": "easycash-92f900",
      "locationSet": {"include": ["fr"]},
      "tags": {
        "brand": "Easycash",
        "brand:wikidata": "Q105395978",
        "name": "Easycash",
        "shop": "second_hand"
      }
    },
    {
      "displayName": "Het Goed",
      "id": "hetgoed-76cccf",
      "locationSet": {"include": ["nl"]},
      "tags": {
        "brand": "Het Goed",
        "brand:wikidata": "Q56683074",
        "shop": "second_hand"
      }
    },
    {
      "displayName": "Noppes",
      "id": "noppes-76cccf",
      "locationSet": {"include": ["nl"]},
      "tags": {
        "brand": "Noppes",
        "brand:wikidata": "Q100890364",
        "shop": "second_hand"
      }
    },
    {
      "displayName": "Savers",
      "id": "savers-cb877b",
      "locationSet": {
        "include": ["au", "ca", "us"]
      },
      "tags": {
        "brand": "Savers",
        "brand:wikidata": "Q7428188",
        "name": "Savers",
        "shop": "second_hand"
      }
    },
    {
      "displayName": "Value Village",
      "id": "valuevillage-d58a94",
      "locationSet": {"include": ["ca", "us"]},
      "tags": {
        "brand": "Value Village",
        "brand:wikidata": "Q7428188",
        "name": "Value Village",
        "shop": "second_hand"
      }
    },
    {
      "displayName": "オフハウス",
      "id": "offhouse-f1a9c4",
      "locationSet": {"include": ["jp"]},
      "tags": {
        "brand": "OFF･HOUSE",
        "brand:en": "OFF･HOUSE",
        "brand:ja": "オフハウス",
        "brand:wikidata": "Q11327274",
        "name": "オフハウス",
        "name:en": "Off House",
        "name:ja": "オフハウス",
        "shop": "second_hand"
      }
    },
    {
      "displayName": "セカンドストリート",
      "id": "2ndstreet-f1a9c4",
      "locationSet": {"include": ["jp"]},
      "tags": {
        "brand": "セカンドストリート",
        "brand:en": "2nd STREET",
        "brand:ja": "セカンドストリート",
        "brand:wikidata": "Q11314186",
        "name": "セカンドストリート",
        "name:en": "2nd STREET",
        "name:ja": "セカンドストリート",
        "shop": "second_hand"
      }
    },
    {
      "displayName": "トレジャー・ファクトリー",
      "id": "treasurefactory-f1a9c4",
      "locationSet": {"include": ["jp"]},
      "tags": {
        "brand": "トレジャー・ファクトリー",
        "brand:en": "Treasure Factory",
        "brand:ja": "トレジャー・ファクトリー",
        "brand:wikidata": "Q11322108",
        "name": "トレジャー・ファクトリー",
        "name:en": "Treasure Factory",
        "name:ja": "トレジャー・ファクトリー",
        "shop": "second_hand"
      }
    },
    {
      "displayName": "ハードオフ",
      "id": "hardoff-f1a9c4",
      "locationSet": {"include": ["jp"]},
      "tags": {
        "brand": "HARD･OFF",
        "brand:en": "HARD･OFF",
        "brand:ja": "ハードオフ",
        "brand:wikidata": "Q11327274",
        "name": "ハードオフ",
        "name:en": "Hard Off",
        "name:ja": "ハードオフ",
        "shop": "second_hand"
      }
    },
    {
      "displayName": "ホビーオフ",
      "id": "hobbyoff-f1a9c4",
      "locationSet": {"include": ["jp"]},
      "tags": {
        "brand": "HOBBY･OFF",
        "brand:en": "HOBBY･OFF",
        "brand:ja": "ホビーオフ",
        "brand:wikidata": "Q11327274",
        "name": "ホビーオフ",
        "name:en": "Hobby Off",
        "name:ja": "ホビーオフ",
        "shop": "second_hand"
      }
    },
    {
      "displayName": "買取王国",
      "id": "treasurebomb-f1a9c4",
      "locationSet": {"include": ["jp"]},
      "tags": {
        "brand": "買取王国",
        "brand:en": "Treasure Bomb",
        "brand:ja": "買取王国",
        "brand:ja-Latn": "Kaitori Okoku",
        "brand:wikidata": "Q18336741",
        "name": "買取王国",
        "name:en": "Treasure Bomb",
        "name:ja": "買取王国",
        "name:ja-Latn": "Kaitori Okoku",
        "shop": "second_hand"
      }
    }
  ]
}
