{
  "properties": {
    "path": "brands/shop/sports",
    "exclude": {
      "generic": ["^sports$", "^спорттовары$"]
    }
  },
  "items": [
    {
      "displayName": "4F",
      "id": "4f-5624eb",
      "locationSet": {
        "include": [
          "cz",
          "de",
          "lt",
          "lv",
          "ro",
          "ru",
          "sk"
        ]
      },
      "tags": {
        "brand": "4F",
        "brand:wikidata": "Q16525801",
        "name": "4F",
        "shop": "sports"
      }
    },
    {
      "displayName": "A3 SPORT",
      "id": "a3sport-9dd59e",
      "locationSet": {
        "include": ["cz", "de", "sk"]
      },
      "tags": {
        "brand": "A3 SPORT",
        "brand:wikidata": "Q58170961",
        "name": "A3 SPORT",
        "shop": "sports"
      }
    },
    {
      "displayName": "Academy Sports + Outdoors",
      "id": "academysportsoutdoors-89ce6f",
      "locationSet": {"include": ["us"]},
      "matchNames": [
        "academy",
        "academy sports and outdoors"
      ],
      "tags": {
        "brand": "Academy Sports + Outdoors",
        "brand:wikidata": "Q4671380",
        "name": "Academy Sports + Outdoors",
        "shop": "sports"
      }
    },
    {
      "displayName": "Adidas",
      "id": "adidas-59994a",
      "locationSet": {
        "include": ["001", "hk", "mo"],
        "exclude": ["cn"]
      },
      "tags": {
        "brand": "Adidas",
        "brand:wikidata": "Q3895",
        "name": "Adidas",
        "shop": "sports"
      }
    },
    {
      "displayName": "Aktiesport",
      "id": "aktiesport-2637e1",
      "locationSet": {"include": ["nl"]},
      "tags": {
        "brand": "Aktiesport",
        "brand:wikidata": "Q57546889",
        "name": "Aktiesport",
        "shop": "sports"
      }
    },
    {
      "displayName": "American Golf",
      "id": "americangolf-03b7aa",
      "locationSet": {"include": ["gb", "ie"]},
      "matchTags": ["shop/golf"],
      "tags": {
        "brand": "American Golf",
        "brand:wikidata": "Q62657494",
        "name": "American Golf",
        "shop": "sports",
        "sport": "golf"
      }
    },
    {
      "displayName": "Arei Outdoor Gear",
      "id": "areioutdoorgear-f9c896",
      "locationSet": {"include": ["id"]},
      "tags": {
        "brand": "Arei Outdoor Gear",
        "brand:wikidata": "Q114343299",
        "name": "Arei Outdoor Gear",
        "shop": "sports"
      }
    },
    {
      "displayName": "Athletics",
      "id": "athletics-d7f1c6",
      "locationSet": {"include": ["ua"]},
      "matchNames": [
        "sportmaster",
        "спортмастер"
      ],
      "tags": {
        "brand": "Athletics",
        "name": "Athletics",
        "shop": "sports"
      }
    },
    {
      "displayName": "Big 5 Sporting Goods",
      "id": "big5sportinggoods-89ce6f",
      "locationSet": {"include": ["us"]},
      "matchNames": ["big 5"],
      "tags": {
        "brand": "Big 5 Sporting Goods",
        "brand:wikidata": "Q4904902",
        "name": "Big 5 Sporting Goods",
        "shop": "sports"
      }
    },
    {
      "displayName": "Centauro",
      "id": "centauro-f744b5",
      "locationSet": {"include": ["br"]},
      "tags": {
        "brand": "Centauro",
        "brand:wikidata": "Q28679561",
        "name": "Centauro",
        "shop": "sports"
      }
    },
    {
      "displayName": "Champs Sports",
      "id": "champssports-82fdfb",
      "locationSet": {
        "include": ["ca", "pr", "us"]
      },
      "tags": {
        "brand": "Champs Sports",
        "brand:wikidata": "Q2955924",
        "name": "Champs Sports",
        "shop": "sports"
      }
    },
    {
      "displayName": "Club Champion",
      "id": "clubchampion-89ce6f",
      "locationSet": {"include": ["us"]},
      "matchTags": ["shop/golf"],
      "tags": {
        "brand": "Club Champion",
        "brand:wikidata": "Q108194158",
        "name": "Club Champion",
        "shop": "sports",
        "sport": "golf"
      }
    },
    {
      "displayName": "Decathlon",
      "id": "decathlon-330f9d",
      "locationSet": {
        "include": ["001"],
        "exclude": ["bg", "hk", "ru", "ua"]
      },
      "tags": {
        "brand": "Decathlon",
        "brand:wikidata": "Q509349",
        "name": "Decathlon",
        "shop": "sports"
      }
    },
    {
      "displayName": "Dick's Sporting Goods",
      "id": "dickssportinggoods-89ce6f",
      "locationSet": {"include": ["us"]},
      "matchNames": ["dicks"],
      "tags": {
        "brand": "Dick's Sporting Goods",
        "brand:wikidata": "Q5272601",
        "name": "Dick's Sporting Goods",
        "shop": "sports"
      }
    },
    {
      "displayName": "Dunham's Sports",
      "id": "dunhamssports-89ce6f",
      "locationSet": {"include": ["us"]},
      "tags": {
        "brand": "Dunham's Sports",
        "brand:wikidata": "Q5315238",
        "name": "Dunham's Sports",
        "shop": "sports"
      }
    },
    {
      "displayName": "EQUIVA",
      "id": "equiva-081602",
      "locationSet": {"include": ["at", "de"]},
      "matchTags": ["shop/equestrian"],
      "tags": {
        "brand": "EQUIVA",
        "brand:wikidata": "Q107677634",
        "name": "EQUIVA",
        "shop": "sports",
        "sport": "equestrian"
      }
    },
    {
      "displayName": "EXIsport",
      "id": "exisport-aa748e",
      "locationSet": {"include": ["cz", "sk"]},
      "tags": {
        "brand": "EXIsport",
        "brand:wikidata": "Q107736469",
        "name": "EXIsport",
        "shop": "sports"
      }
    },
    {
      "displayName": "Finish Line",
      "id": "finishline-89ce6f",
      "locationSet": {"include": ["us"]},
      "tags": {
        "brand": "Finish Line",
        "brand:wikidata": "Q5450341",
        "name": "Finish Line",
        "shop": "sports"
      }
    },
    {
      "displayName": "Gigasport",
      "id": "gigasport-f4008b",
      "locationSet": {"include": ["at"]},
      "tags": {
        "brand": "Gigasport",
        "brand:wikidata": "Q101000846",
        "name": "Gigasport",
        "shop": "sports"
      }
    },
    {
      "displayName": "GigaSports",
      "id": "gigasports-968672",
      "locationSet": {"include": ["hk"]},
      "tags": {
        "brand": "GigaSports",
        "brand:en": "GigaSports",
        "brand:wikidata": "Q111077434",
        "name": "GigaSports",
        "name:en": "GigaSports",
        "shop": "sports"
      }
    },
    {
      "displayName": "GO Sport",
      "id": "gosport-63990e",
      "locationSet": {"include": ["fr"]},
      "tags": {
        "brand": "GO Sport",
        "brand:wikidata": "Q3117422",
        "name": "GO Sport",
        "shop": "sports"
      }
    },
    {
      "displayName": "Golf Galaxy",
      "id": "golfgalaxy-89ce6f",
      "locationSet": {"include": ["us"]},
      "matchTags": ["shop/golf"],
      "tags": {
        "brand": "Golf Galaxy",
        "brand:wikidata": "Q69364358",
        "name": "Golf Galaxy",
        "shop": "sports",
        "sport": "golf"
      }
    },
    {
      "displayName": "Golf Town",
      "id": "golftown-80660e",
      "locationSet": {"include": ["ca"]},
      "tags": {
        "brand": "Golf Town",
        "brand:wikidata": "Q112966691",
        "name": "Golf Town",
        "shop": "sports"
      }
    },
    {
      "displayName": "Hervis",
      "id": "hervis-38a747",
      "locationSet": {
        "include": [
          "at",
          "cz",
          "de",
          "hr",
          "hu",
          "ro",
          "si"
        ]
      },
      "matchNames": [
        "hervis sport",
        "hervis sports"
      ],
      "tags": {
        "brand": "Hervis",
        "brand:wikidata": "Q1614816",
        "name": "Hervis",
        "shop": "sports"
      }
    },
    {
      "displayName": "Hibbett Sports",
      "id": "hibbettsports-89ce6f",
      "locationSet": {"include": ["us"]},
      "tags": {
        "brand": "Hibbett Sports",
        "brand:wikidata": "Q5750671",
        "name": "Hibbett Sports",
        "shop": "sports"
      }
    },
    {
      "displayName": "Intersport",
      "id": "intersport-eca9ec",
      "locationSet": {
        "include": ["001"],
        "exclude": ["de", "ie", "no"]
      },
      "tags": {
        "brand": "Intersport",
        "brand:wikidata": "Q666888",
        "name": "Intersport",
        "shop": "sports"
      }
    },
    {
      "displayName": "Intersport (Deutschland)",
      "id": "intersport-69bd4b",
      "locationSet": {"include": ["de"]},
      "preserveTags": ["^name"],
      "tags": {
        "brand": "Intersport",
        "brand:wikidata": "Q666888",
        "name": "Intersport",
        "shop": "sports"
      }
    },
    {
      "displayName": "Intersport (Norge)",
      "id": "intersport-6faf2d",
      "locationSet": {"include": ["no"]},
      "preserveTags": ["^name"],
      "tags": {
        "brand": "Intersport",
        "brand:wikidata": "Q666888",
        "name": "Intersport",
        "shop": "sports"
      }
    },
    {
      "displayName": "Intersport Elverys",
      "id": "intersportelverys-6fd3c0",
      "locationSet": {"include": ["ie"]},
      "tags": {
        "brand": "Intersport Elverys",
        "brand:wikidata": "Q5368026",
        "name": "Intersport Elverys",
        "shop": "sports"
      }
    },
    {
      "displayName": "JD Sports",
      "id": "jdsports-b01dfc",
      "locationSet": {
        "include": [
          "au",
          "de",
          "es",
          "fr",
          "gb",
          "ie",
          "nl",
          "pt"
        ]
      },
      "matchNames": ["jd"],
      "tags": {
        "brand": "JD Sports",
        "brand:wikidata": "Q6108019",
        "name": "JD Sports",
        "shop": "sports"
      }
    },
    {
      "displayName": "Krämer Pferdesport",
      "id": "kramerpferdesport-081602",
      "locationSet": {"include": ["at", "de"]},
      "matchTags": ["shop/equestrian"],
      "tags": {
        "brand": "Krämer Pferdesport",
        "brand:wikidata": "Q107983500",
        "name": "Krämer Pferdesport",
        "shop": "sports",
        "sport": "equestrian"
      }
    },
    {
      "displayName": "Life Style Sports",
      "id": "lifestylesports-6fd3c0",
      "locationSet": {"include": ["ie"]},
      "tags": {
        "brand": "Life Style Sports",
        "brand:wikidata": "Q6545495",
        "name": "Life Style Sports",
        "shop": "sports"
      }
    },
    {
      "displayName": "Marathon Sports (Ecuador)",
      "id": "marathonsports-ce6e12",
      "locationSet": {
        "include": ["bo", "ec", "pe"]
      },
      "tags": {
        "brand": "Marathon Sports",
        "brand:wikidata": "Q3027516",
        "name": "Marathon Sports",
        "shop": "sports"
      }
    },
    {
      "displayName": "Marathon Sports (Hong Kong)",
      "id": "marathonsports-968672",
      "locationSet": {"include": ["hk"]},
      "tags": {
        "brand": "Marathon Sports",
        "brand:en": "Marathon Sports",
        "brand:wikidata": "Q106798056",
        "brand:zh": "馬拉松",
        "brand:zh-Hans": "马拉松",
        "brand:zh-Hant": "馬拉松",
        "name": "馬拉松 Marathon Sports",
        "name:en": "Marathon Sports",
        "name:zh": "馬拉松",
        "name:zh-Hans": "马拉松",
        "name:zh-Hant": "馬拉松",
        "shop": "sports"
      }
    },
    {
      "displayName": "Marathon Sports (USA)",
      "id": "marathonsports-89ce6f",
      "locationSet": {"include": ["us"]},
      "tags": {
        "brand": "Marathon Sports",
        "brand:wikidata": "Q17109459",
        "name": "Marathon Sports",
        "shop": "sports"
      }
    },
    {
      "displayName": "Martes Sport",
      "id": "martessport-0527cb",
      "locationSet": {"include": ["pl"]},
      "tags": {
        "brand": "Martes Sport",
        "brand:wikidata": "Q62073490",
        "name": "Martes Sport",
        "shop": "sports"
      }
    },
    {
      "displayName": "Modell's Sporting Goods",
      "id": "modellssportinggoods-89ce6f",
      "locationSet": {"include": ["us"]},
      "matchNames": ["modells"],
      "tags": {
        "brand": "Modell's Sporting Goods",
        "brand:wikidata": "Q3317844",
        "name": "Modell's Sporting Goods",
        "shop": "sports"
      }
    },
    {
      "displayName": "Ochsner Sport",
      "id": "ochsnersport-89a72b",
      "locationSet": {"include": ["ch"]},
      "tags": {
        "brand": "Ochsner Sport",
        "brand:wikidata": "Q102030654",
        "name": "Ochsner Sport",
        "shop": "sports"
      }
    },
    {
      "displayName": "Peloton",
      "id": "peloton-18eda3",
      "locationSet": {
        "include": ["ca", "gb", "us"]
      },
      "matchNames": ["peleton"],
      "matchTags": ["shop/bicycle"],
      "tags": {
        "brand": "Peloton",
        "brand:wikidata": "Q56276186",
        "name": "Peloton",
        "shop": "sports"
      }
    },
    {
      "displayName": "Planeta Sport",
      "id": "planetasport-d20c83",
      "locationSet": {"include": ["rs"]},
      "matchNames": ["planeta"],
      "tags": {
        "brand": "Planeta Sport",
        "brand:en": "Planeta Sport",
        "brand:rs": "Planeta Sport",
        "brand:wikidata": "Q72193528",
        "name": "Planeta Sport",
        "shop": "sports"
      }
    },
    {
      "displayName": "Play It Again Sports",
      "id": "playitagainsports-2a6203",
      "locationSet": {"include": ["ca", "us"]},
      "tags": {
        "brand": "Play It Again Sports",
        "brand:wikidata": "Q7203029",
        "name": "Play It Again Sports",
        "shop": "sports"
      }
    },
    {
      "displayName": "Rapha",
      "id": "rapha-e13309",
      "locationSet": {
        "include": [
          "au",
          "de",
          "dk",
          "es",
          "gb",
          "hk",
          "jp",
          "kr",
          "nl",
          "tw",
          "us"
        ]
      },
      "matchTags": ["shop/bicycle"],
      "tags": {
        "brand": "Rapha",
        "brand:en": "Rapha",
        "brand:ja": "ラファ",
        "brand:wikidata": "Q7293931",
        "name": "Rapha",
        "name:en": "Rapha",
        "name:ja": "ラファ",
        "shop": "sports",
        "sport": "cycling"
      }
    },
    {
      "displayName": "Rebel",
      "id": "rebel-81181e",
      "locationSet": {"include": ["au"]},
      "tags": {
        "brand": "Rebel",
        "brand:wikidata": "Q18636397",
        "name": "Rebel",
        "shop": "sports"
      }
    },
    {
      "displayName": "Rebel Sport",
      "id": "rebelsport-6d17d3",
      "locationSet": {"include": ["nz"]},
      "tags": {
        "brand": "Rebel Sport",
        "brand:wikidata": "Q110190372",
        "name": "Rebel Sport",
        "shop": "sports"
      }
    },
    {
      "displayName": "Runners Need",
      "id": "runnersneed-03b7aa",
      "locationSet": {"include": ["gb", "ie"]},
      "tags": {
        "brand": "Runners Need",
        "brand:wikidata": "Q110549513",
        "name": "Runners Need",
        "recycling:shoes": "yes",
        "shop": "sports",
        "sport": "running"
      }
    },
    {
      "displayName": "Running Room",
      "id": "runningroom-2a6203",
      "locationSet": {"include": ["ca", "us"]},
      "tags": {
        "brand": "Running Room",
        "brand:wikidata": "Q102351412",
        "name": "Running Room",
        "shop": "sports"
      }
    },
    {
      "displayName": "Sport 2000",
      "id": "sport2000-44fadc",
      "locationSet": {
        "include": ["at", "de", "fr", "nl"]
      },
      "tags": {
        "brand": "Sport 2000",
        "brand:wikidata": "Q262394",
        "name": "Sport 2000",
        "shop": "sports"
      }
    },
    {
      "displayName": "Sport Chek",
      "id": "sportchek-80660e",
      "locationSet": {"include": ["ca"]},
      "tags": {
        "brand": "Sport Chek",
        "brand:wikidata": "Q3494037",
        "name": "Sport Chek",
        "shop": "sports"
      }
    },
    {
      "displayName": "Sport Zone",
      "id": "sportzone-62e24b",
      "locationSet": {"include": ["pt"]},
      "tags": {
        "brand": "Sport Zone",
        "brand:wikidata": "Q18485899",
        "name": "Sport Zone",
        "shop": "sports"
      }
    },
    {
      "displayName": "Sport-Tiedje",
      "id": "sporttiedje-b06acf",
      "locationSet": {
        "include": [
          "at",
          "be",
          "ch",
          "de",
          "dk",
          "fr",
          "gb",
          "nl",
          "pl"
        ]
      },
      "tags": {
        "brand": "Sport-Tiedje",
        "brand:wikidata": "Q15848204",
        "name": "Sport-Tiedje",
        "shop": "sports"
      }
    },
    {
      "displayName": "Sporting Life",
      "id": "sportinglife-80660e",
      "locationSet": {"include": ["ca"]},
      "tags": {
        "brand": "Sporting Life",
        "brand:wikidata": "Q7579583",
        "name": "Sporting Life",
        "shop": "sports"
      }
    },
    {
      "displayName": "Sportisimo",
      "id": "sportisimo-aa748e",
      "locationSet": {"include": ["cz", "sk"]},
      "tags": {
        "brand": "Sportisimo",
        "brand:wikidata": "Q54974273",
        "name": "Sportisimo",
        "shop": "sports"
      }
    },
    {
      "displayName": "Sportler",
      "id": "sportler-14f94f",
      "locationSet": {"include": ["at", "it"]},
      "tags": {
        "brand": "Sportler",
        "brand:wikidata": "Q109336458",
        "name": "Sportler",
        "shop": "sports"
      }
    },
    {
      "displayName": "Sports Authority",
      "id": "sportsauthority-a8f48a",
      "locationSet": {"include": ["001"]},
      "tags": {
        "brand": "Sports Authority",
        "brand:wikidata": "Q7579688",
        "name": "Sports Authority",
        "shop": "sports"
      }
    },
    {
      "displayName": "Sports Direct",
      "id": "sportsdirect-a8f48a",
      "locationSet": {"include": ["001"]},
      "matchNames": ["sportsdirect.com"],
      "tags": {
        "brand": "Sports Direct",
        "brand:wikidata": "Q7579661",
        "name": "Sports Direct",
        "shop": "sports"
      }
    },
    {
      "displayName": "SportScheck",
      "id": "sportscheck-69bd4b",
      "locationSet": {"include": ["de"]},
      "tags": {
        "brand": "SportScheck",
        "brand:wikidata": "Q3494037",
        "name": "SportScheck",
        "shop": "sports"
      }
    },
    {
      "displayName": "Sprinter",
      "id": "sprinter-b318c6",
      "locationSet": {"include": ["es"]},
      "tags": {
        "brand": "Sprinter",
        "brand:wikidata": "Q6133465",
        "name": "Sprinter",
        "shop": "sports"
      }
    },
    {
      "displayName": "Stadium",
      "id": "stadium-32e81d",
      "locationSet": {
        "include": ["de", "dk", "fi", "se"]
      },
      "tags": {
        "brand": "Stadium",
        "brand:wikidata": "Q4993863",
        "name": "Stadium",
        "shop": "sports"
      }
    },
    {
      "displayName": "Up & Running",
      "id": "upandrunning-060c70",
      "locationSet": {"include": ["gb"]},
      "tags": {
        "brand": "Up & Running",
        "brand:wikidata": "Q42847650",
        "name": "Up & Running",
        "shop": "sports",
        "sport": "running"
      }
    },
    {
      "displayName": "XXL",
      "id": "xxl-ea59d5",
      "locationSet": {
        "include": ["fi", "no", "se"]
      },
      "note": "https://github.com/osmlab/name-suggestion-index/issues/5500",
      "preserveTags": ["^name"],
      "tags": {
        "brand": "XXL",
        "brand:wikidata": "Q12010840",
        "name": "XXL",
        "shop": "sports"
      }
    },
    {
      "displayName": "Декатлон",
      "id": "decathlon-82be21",
      "locationSet": {
        "include": ["bg", "ru", "ua"]
      },
      "tags": {
        "brand": "Декатлон",
        "brand:en": "Decathlon",
        "brand:ru": "Декатлон",
        "brand:wikidata": "Q509349",
        "name": "Декатлон",
        "name:en": "Decathlon",
        "name:ru": "Декатлон",
        "shop": "sports"
      }
    },
    {
      "displayName": "Спортмастер",
      "id": "sportmaster-1e138a",
      "locationSet": {
        "include": ["by", "kz", "ru"]
      },
      "matchNames": ["спортмастер гипер"],
      "tags": {
        "brand": "Спортмастер",
        "brand:en": "Sportmaster",
        "brand:ru": "Спортмастер",
        "brand:wikidata": "Q4438176",
        "name": "Спортмастер",
        "name:en": "Sportmaster",
        "name:ru": "Спортмастер",
        "shop": "sports"
      }
    },
    {
      "displayName": "ゴルフ・ドゥ",
      "id": "golfdo-04ead7",
      "locationSet": {"include": ["jp"]},
      "tags": {
        "brand": "ゴルフ・ドゥ",
        "brand:en": "Golf・Do",
        "brand:ja": "ゴルフ・ドゥ",
        "brand:wikidata": "Q11303734",
        "name": "ゴルフ・ドゥ",
        "name:en": "Golf・Do",
        "name:ja": "ゴルフ・ドゥ",
        "shop": "sports",
        "sport": "golf"
      }
    },
    {
      "displayName": "ゴルフパートナー",
      "id": "golfpartner-04ead7",
      "locationSet": {"include": ["jp"]},
      "tags": {
        "brand": "ゴルフパートナー",
        "brand:en": "Golf Partner",
        "brand:ja": "ゴルフパートナー",
        "brand:wikidata": "Q11303729",
        "name": "ゴルフパートナー",
        "name:en": "Golf Partner",
        "name:ja": "ゴルフパートナー",
        "shop": "sports",
        "sport": "golf"
      }
    },
    {
      "displayName": "スーパースポーツゼビオ",
      "id": "supersportsxebio-04ead7",
      "locationSet": {"include": ["jp"]},
      "matchNames": ["ゼビオ"],
      "tags": {
        "brand": "スーパースポーツゼビオ",
        "brand:en": "Super Sports Xebio",
        "brand:ja": "スーパースポーツゼビオ",
        "brand:wikidata": "Q11314961",
        "name": "スーパースポーツゼビオ",
        "name:en": "Super Sports Xebio",
        "name:ja": "スーパースポーツゼビオ",
        "shop": "sports"
      }
    },
    {
      "displayName": "スポーツオーソリティ",
      "id": "sportsauthority-04ead7",
      "locationSet": {"include": ["jp"]},
      "tags": {
        "brand": "スポーツオーソリティ",
        "brand:en": "Sports Authority",
        "brand:ja": "スポーツオーソリティ",
        "brand:wikidata": "Q7579688",
        "name": "スポーツオーソリティ",
        "name:en": "Sports Authority",
        "name:ja": "スポーツオーソリティ",
        "shop": "sports"
      }
    },
    {
      "displayName": "スポーツデポ",
      "id": "sportsdepo-04ead7",
      "locationSet": {"include": ["jp"]},
      "matchNames": ["スポーツdepo"],
      "tags": {
        "brand": "スポーツデポ",
        "brand:en": "Sports Depo",
        "brand:ja": "スポーツデポ",
        "brand:wikidata": "Q11313050",
        "name": "スポーツデポ",
        "name:en": "Sports Depo",
        "name:ja": "スポーツデポ",
        "shop": "sports"
      }
    },
    {
      "displayName": "迪卡儂 Decathlon",
      "id": "decathlon-968672",
      "locationSet": {"include": ["hk"]},
      "tags": {
        "brand": "Decathlon",
        "brand:en": "Decathlon",
        "brand:wikidata": "Q509349",
        "brand:zh": "迪卡儂",
        "name": "Decathlon",
        "name:en": "Decathlon",
        "name:zh": "迪卡儂",
        "shop": "sports"
      }
    },
    {
      "displayName": "阿迪达斯",
      "id": "adidas-fa2206",
      "locationSet": {
        "include": ["cn"],
        "exclude": ["hk", "mo"]
      },
      "matchNames": ["愛迪達"],
      "tags": {
        "brand": "阿迪达斯",
        "brand:en": "Adidas",
        "brand:wikidata": "Q3895",
        "brand:zh": "阿迪达斯",
        "name": "阿迪达斯",
        "name:en": "Adidas",
        "name:zh": "阿迪达斯",
        "shop": "sports"
      }
    }
  ]
}
