{
  "properties": {
    "path": "brands/shop/tea",
    "exclude": {"generic": ["^tea( stall)?$"]}
  },
  "items": [
    {
      "displayName": "Dammann Frères",
      "id": "dammannfreres-14c0a7",
      "locationSet": {
        "include": ["fr", "it", "ja", "kr", "lu"]
      },
      "tags": {
        "brand": "Dammann Frères",
        "brand:wikidata": "Q3012927",
        "name": "Dammann Frères",
        "shop": "tea"
      }
    },
    {
      "displayName": "DavidsTea",
      "id": "davidstea-12e931",
      "locationSet": {"include": ["ca", "us"]},
      "tags": {
        "brand": "DavidsTea",
        "brand:wikidata": "Q3019129",
        "name": "DavidsTea",
        "shop": "tea"
      }
    },
    {
      "displayName": "Oxalis",
      "locationSet": {"include": ["cz", "sk"]},
      "tags": {
        "brand": "Oxalis",
        "brand:wikidata": "Q54948754",
        "name": "Oxalis",
        "shop": "tea"
      }
    },
    {
      "displayName": "Kusmi Tea",
      "id": "kusmitea-9cd54d",
      "locationSet": {"include": ["001"]},
      "tags": {
        "brand": "Kusmi Tea",
        "brand:wikidata": "Q944186",
        "name": "Kusmi Tea",
        "shop": "tea"
      }
    },
    {
      "displayName": "Palais des Thés",
      "id": "palaisdesthes-9d2342",
      "locationSet": {
        "include": [
          "be",
          "fr",
          "ge",
          "il",
          "lu",
          "no",
          "ru"
        ]
      },
      "tags": {
        "brand": "Palais des Thés",
        "brand:wikidata": "Q3225161",
        "name": "Palais des Thés",
        "shop": "tea"
      }
    },
    {
      "displayName": "Sonnentor",
      "id": "sonnentor-8b9919",
      "locationSet": {
        "include": ["at", "cz", "de"]
      },
      "matchTags": [
        "shop/herbalist",
        "shop/spices"
      ],
      "tags": {
        "brand": "Sonnentor",
        "brand:wikidata": "Q1651649",
        "name": "Sonnentor",
        "shop": "tea"
      }
    },
    {
      "displayName": "T2",
      "id": "t2-c95a9d",
      "locationSet": {"include": ["au"]},
      "tags": {
        "brand": "T2",
        "brand:wikidata": "Q48802134",
        "name": "T2",
        "shop": "tea"
      }
    },
    {
      "displayName": "Tea Shop",
      "id": "teashop-d87694",
      "locationSet": {
        "include": [
          "ar",
          "br",
          "es",
          "it",
          "pt",
          "uy"
        ]
      },
      "tags": {
        "brand": "Tea Shop",
        "brand:wikidata": "Q111730818",
        "name": "Tea Shop",
        "shop": "tea"
      }
    },
    {
      "displayName": "TeeGschwendner",
      "id": "teegschwendner-655ff5",
      "locationSet": {"include": ["de"]},
      "tags": {
        "brand": "TeeGschwendner",
        "brand:wikidata": "Q2399969",
        "name": "TeeGschwendner",
        "shop": "tea"
      }
    },
    {
      "displayName": "Whittard of Chelsea",
      "id": "whittardofchelsea-1b668e",
      "locationSet": {"include": ["gb"]},
      "note": "Store front branding is a little sporadic, some are 'Whittard of Chelsea', some 'Whittard', some 'Whittard Chelsea 1886'.",
      "tags": {
        "brand": "Whittard of Chelsea",
        "brand:wikidata": "Q7996831",
        "name": "Whittard of Chelsea",
        "shop": "tea"
      }
    },
    {
      "displayName": "Кантата",
      "id": "cantata-6c79c5",
      "locationSet": {"include": ["ru"]},
      "matchTags": ["shop/gift"],
      "tags": {
        "brand": "Кантата",
        "brand:en": "Cantata",
        "brand:wikidata": "Q110226292",
        "name": "Кантата",
        "name:en": "Cantata",
        "shop": "tea"
      }
    },
    {
      "displayName": "吴裕泰",
      "id": "wuyutai-704b78",
      "locationSet": {"include": ["cn"]},
      "tags": {
        "brand": "吴裕泰",
        "brand:en": "Wuyutai",
        "brand:wikidata": "Q10919125",
        "brand:zh": "吴裕泰",
        "name": "吴裕泰",
        "name:en": "Wuyutai",
        "name:zh": "吴裕泰",
        "shop": "tea"
      }
    },
    {
      "displayName": "张一元",
      "id": "zhangyiyuan-704b78",
      "locationSet": {"include": ["cn"]},
      "tags": {
        "brand": "张一元",
        "brand:en": "Zhangyiyuan",
        "brand:wikidata": "Q11067997",
        "brand:zh": "张一元",
        "name": "张一元",
        "name:en": "Zhangyiyuan",
        "name:zh": "张一元",
        "shop": "tea"
      }
    }
  ]
}
