{
  "brands/shop/travel_agency": [
    {
      "displayName": "ADAC Geschäftsstelle",
      "id": "adacgeschaftsstelle-3ea820",
      "locationSet": {"include": ["de"]},
      "tags": {
        "brand": "ADAC Geschäftsstelle",
        "brand:wikidata": "Q289953",
        "brand:wikipedia": "de:ADAC",
        "name": "ADAC Geschäftsstelle",
        "shop": "travel_agency"
      }
    },
    {
      "displayName": "Alltours",
      "id": "alltours-3ea820",
      "locationSet": {"include": ["de"]},
      "tags": {
        "brand": "Alltours",
        "brand:wikidata": "Q2649481",
        "brand:wikipedia": "de:Alltours",
        "name": "Alltours",
        "shop": "travel_agency"
      }
    },
    {
      "displayName": "American Automobile Association",
      "id": "americanautomobileassociation-263985",
      "locationSet": {"include": ["us"]},
      "matchTags": [
        "office/travel_agent",
        "shop/car"
      ],
      "tags": {
        "brand": "American Automobile Association",
        "brand:wikidata": "Q463436",
        "brand:wikipedia": "en:American Automobile Association",
        "name": "American Automobile Association",
        "shop": "travel_agency",
        "short_name": "AAA"
      }
    },
    {
      "displayName": "Coral Travel",
      "id": "coraltravel-45eb20",
      "locationSet": {
        "include": ["pl", "ru", "ua"]
      },
      "tags": {
        "brand": "Coral Travel",
        "brand:wikidata": "Q58011479",
        "name": "Coral Travel",
        "shop": "travel_agency"
      }
    },
    {
      "displayName": "D-reizen",
      "id": "dreizen-9d1680",
      "locationSet": {"include": ["nl"]},
      "tags": {
        "brand": "D-reizen",
        "brand:wikidata": "Q2445498",
        "brand:wikipedia": "nl:D-reizen",
        "name": "D-reizen",
        "shop": "travel_agency"
      }
    },
    {
      "displayName": "DER Reisebüro",
      "id": "derreiseburo-3ea820",
      "locationSet": {"include": ["de"]},
      "matchNames": ["der deutsches reisebüro"],
      "tags": {
        "brand": "DER Reisebüro",
        "brand:wikidata": "Q56729186",
        "brand:wikipedia": "de:Deutsches Reisebüro",
        "name": "DER Reisebüro",
        "shop": "travel_agency"
      }
    },
    {
      "displayName": "Expedia CruiseShipCenters",
      "id": "expediacruiseshipcenters-e2fbf2",
      "locationSet": {"include": ["ca", "us"]},
      "tags": {
        "brand": "Expedia CruiseShipCenters",
        "brand:wikidata": "Q5189985",
        "brand:wikipedia": "en:Expedia CruiseShipCenters",
        "name": "Expedia CruiseShipCenters",
        "shop": "travel_agency"
      }
    },
    {
      "displayName": "First Reisebüro",
      "id": "firstreiseburo-3ea820",
      "locationSet": {"include": ["de"]},
      "tags": {
        "brand": "First Reisebüro",
        "brand:wikidata": "Q573103",
        "brand:wikipedia": "en:TUI AG",
        "name": "First Reisebüro",
        "shop": "travel_agency"
      }
    },
    {
      "displayName": "Flight Centre",
      "id": "flightcentre-9aaf3f",
      "locationSet": {"include": ["001"]},
      "tags": {
        "brand": "Flight Centre",
        "brand:wikidata": "Q5459202",
        "brand:wikipedia": "en:Flight Centre",
        "name": "Flight Centre",
        "shop": "travel_agency"
      }
    },
    {
      "displayName": "Halcón Viajes",
      "id": "halconviajes-7a9abd",
      "locationSet": {"include": ["es"]},
      "tags": {
        "brand": "Halcón Viajes",
        "brand:wikidata": "Q57591939",
        "name": "Halcón Viajes",
        "shop": "travel_agency"
      }
    },
    {
      "displayName": "Havas Voyages",
      "id": "havasvoyages-9ff76a",
      "locationSet": {"include": ["fr"]},
      "tags": {
        "brand": "Havas Voyages",
        "brand:wikidata": "Q57628091",
        "name": "Havas Voyages",
        "shop": "travel_agency"
      }
    },
    {
      "displayName": "Hays Travel",
      "id": "haystravel-b1d32b",
      "locationSet": {"include": ["gb"]},
      "tags": {
        "brand": "Hays Travel",
        "brand:wikidata": "Q70250954",
        "brand:wikipedia": "en:Hays Travel",
        "name": "Hays Travel",
        "shop": "travel_agency"
      }
    },
    {
      "displayName": "Hotelplan",
      "id": "hotelplan-c09afe",
      "locationSet": {"include": ["ch"]},
      "tags": {
        "brand": "Hotelplan",
        "brand:wikidata": "Q1631145",
        "brand:wikipedia": "de:Hotelplan",
        "name": "Hotelplan",
        "shop": "travel_agency"
      }
    },
    {
      "displayName": "JTB",
      "id": "jtb-4b4d86",
      "locationSet": {"include": ["jp"]},
      "tags": {
        "brand": "JTB",
        "brand:wikidata": "Q6109053",
        "brand:wikipedia": "ja:JTB",
        "name": "JTB",
        "official_name": "日本交通公社",
        "official_name:en": "Japan Travel Bureau",
        "shop": "travel_agency"
      }
    },
    {
      "displayName": "Kuoni",
      "id": "kuoni-9aaf3f",
      "locationSet": {"include": ["001"]},
      "tags": {
        "brand": "Kuoni",
        "brand:wikidata": "Q684355",
        "brand:wikipedia": "en:Kuoni Travel",
        "name": "Kuoni",
        "shop": "travel_agency"
      }
    },
    {
      "displayName": "Last Minute Tour",
      "id": "lastminutetour-3832ef",
      "locationSet": {"include": ["it"]},
      "tags": {
        "brand": "Last Minute Tour",
        "name": "Last Minute Tour",
        "shop": "travel_agency"
      }
    },
    {
      "displayName": "Liberty Travel",
      "id": "libertytravel-263985",
      "locationSet": {"include": ["us"]},
      "tags": {
        "brand": "Liberty Travel",
        "brand:wikidata": "Q17031665",
        "brand:wikipedia": "en:Liberty Travel",
        "name": "Liberty Travel",
        "shop": "travel_agency"
      }
    },
    {
      "displayName": "ltur",
      "id": "ltur-3ea820",
      "locationSet": {"include": ["de"]},
      "tags": {
        "brand": "ltur",
        "brand:wikidata": "Q519040",
        "brand:wikipedia": "de:L’TUR",
        "name": "ltur",
        "shop": "travel_agency"
      }
    },
    {
      "displayName": "Miles Morgan Travel",
      "id": "milesmorgantravel-b1d32b",
      "locationSet": {"include": ["gb"]},
      "tags": {
        "brand": "Miles Morgan Travel",
        "brand:wikidata": "Q83179278",
        "name": "Miles Morgan Travel",
        "shop": "travel_agency"
      }
    },
    {
      "displayName": "Neckermann Reisen",
      "id": "neckermannreisen-3ea820",
      "locationSet": {"include": ["de"]},
      "tags": {
        "brand": "Neckermann Reisen",
        "brand:wikidata": "Q17300280",
        "name": "Neckermann Reisen",
        "shop": "travel_agency"
      }
    },
    {
      "displayName": "Nouvelles Frontières",
      "id": "nouvellesfrontieres-9ff76a",
      "locationSet": {"include": ["fr"]},
      "tags": {
        "brand": "Nouvelles Frontières",
        "brand:wikidata": "Q3117506",
        "brand:wikipedia": "fr:Nouvelles Frontières",
        "name": "Nouvelles Frontières",
        "shop": "travel_agency"
      }
    },
    {
      "displayName": "Reiseland",
      "id": "reiseland-3ea820",
      "locationSet": {"include": ["de"]},
      "tags": {
        "brand": "Reiseland",
        "brand:wikidata": "Q40387610",
        "brand:wikipedia": "de:OTTO Reisen",
        "name": "Reiseland",
        "shop": "travel_agency"
      }
    },
    {
      "displayName": "Selectour",
      "id": "selectour-9ff76a",
      "locationSet": {"include": ["fr"]},
      "tags": {
        "brand": "Selectour",
        "brand:wikidata": "Q3478073",
        "brand:wikipedia": "fr:Selectour",
        "name": "Selectour",
        "shop": "travel_agency"
      }
    },
    {
      "displayName": "STA Travel",
      "id": "statravel-9aaf3f",
      "locationSet": {"include": ["001"]},
      "tags": {
        "brand": "STA Travel",
        "brand:wikidata": "Q2208025",
        "brand:wikipedia": "en:STA Travel",
        "name": "STA Travel",
        "shop": "travel_agency"
      }
    },
    {
      "displayName": "The Co-operative Travel",
      "id": "thecooperativetravel-b1d32b",
      "locationSet": {"include": ["gb"]},
      "tags": {
        "brand": "The Co-operative Travel",
        "brand:wikidata": "Q7726526",
        "brand:wikipedia": "en:The Co-operative Travel",
        "name": "The Co-operative Travel",
        "shop": "travel_agency"
      }
    },
    {
      "displayName": "Thomas Cook",
      "id": "thomascook-9aaf3f",
      "locationSet": {"include": ["001"]},
      "tags": {
        "brand": "Thomas Cook",
        "brand:wikidata": "Q2141800",
        "brand:wikipedia": "en:Thomas Cook Group",
        "name": "Thomas Cook",
        "shop": "travel_agency"
      }
    },
    {
      "displayName": "TUI (Group)",
      "id": "tui-9aaf3f",
      "locationSet": {"include": ["001"]},
      "matchNames": ["tui reisecenter"],
      "tags": {
        "brand": "TUI",
        "brand:wikidata": "Q573103",
        "brand:wikipedia": "en:TUI AG",
        "name": "TUI",
        "shop": "travel_agency"
      }
    },
    {
      "displayName": "TUI (UK)",
      "id": "tui-b1d32b",
      "locationSet": {"include": ["gb"]},
      "matchNames": ["thomson"],
      "tags": {
        "brand": "TUI",
        "brand:wikidata": "Q7795876",
        "brand:wikipedia": "en:TUI UK",
        "name": "TUI",
        "shop": "travel_agency"
      }
    },
    {
      "displayName": "Turkish Airlines",
      "id": "turkishairlines-9aaf3f",
      "locationSet": {"include": ["001"]},
      "tags": {
        "brand": "Turkish Airlines",
        "brand:wikidata": "Q4548",
        "brand:wikipedia": "en:Turkish Airlines",
        "name": "Turkish Airlines",
        "shop": "travel_agency"
      }
    },
    {
      "displayName": "Поехали с нами",
      "id": "e66c7f-09bdb9",
      "locationSet": {"include": ["ua"]},
      "tags": {
        "brand": "Поехали с нами",
        "brand:wikidata": "Q25439141",
        "brand:wikipedia": "uk:Поїхали з нами",
        "name": "Поехали с нами",
        "shop": "travel_agency"
      }
    },
    {
      "displayName": "エイチ・アイ・エス",
      "id": "his-4b4d86",
      "locationSet": {"include": ["jp"]},
      "tags": {
        "alt_name:en": "HIS",
        "brand": "エイチ・アイ・エス",
        "brand:en": "H.I.S.",
        "brand:ja": "エイチ・アイ・エス",
        "brand:wikidata": "Q1452225",
        "brand:wikipedia": "ja:エイチ・アイ・エス",
        "name": "エイチ・アイ・エス",
        "name:en": "H.I.S.",
        "name:ja": "エイチ・アイ・エス",
        "shop": "travel_agency"
      }
    },
    {
      "displayName": "日本旅行",
      "id": "nippontravelagency-4b4d86",
      "locationSet": {"include": ["jp"]},
      "tags": {
        "brand": "日本旅行",
        "brand:en": "Nippon Travel Agency",
        "brand:ja": "日本旅行",
        "brand:ja-Hira": "にほんりょこう",
        "brand:ja-Latn": "Nihon Ryokō",
        "brand:wikidata": "Q11508225",
        "brand:wikipedia": "ja:日本旅行",
        "name": "日本旅行",
        "name:en": "Nippon Travel Agency",
        "name:ja": "日本旅行",
        "name:ja-Hira": "にほんりょこう",
        "name:ja-Latn": "Nihon Ryokō",
        "shop": "travel_agency",
        "short_name": "日旅",
        "short_name:en": "NTA",
        "short_name:ja": "日旅"
      }
    },
    {
      "displayName": "近畿日本ツーリスト",
      "id": "knt-4b4d86",
      "locationSet": {"include": ["jp"]},
      "tags": {
        "brand": "近畿日本ツーリスト",
        "brand:en": "KNT",
        "brand:ja": "近畿日本ツーリスト",
        "brand:wikidata": "Q11638632",
        "brand:wikipedia": "ja:近畿日本ツーリスト",
        "name": "近畿日本ツーリスト",
        "name:en": "KNT",
        "name:ja": "近畿日本ツーリスト",
        "official_name:en": "Kinki Nippon Tourist",
        "shop": "travel_agency"
      }
    }
  ]
}