{
  "properties": {
    "path": "brands/shop/tyres",
    "exclude": {
      "generic": [
        "^(tyres|wulkanizacja|vulcanizare)$",
        "^(вулканизация|шиномонтаж)$",
        "^borrachar[ií]a$",
        "^gomer[ií]a$",
        "^vulcanisateur$",
        "^vulcanizing( shop)?$"
      ]
    }
  },
  "items": [
    {
      "displayName": "Alliance Tire Company",
      "id": "alliancetirecompany-1d5291",
      "locationSet": {"include": ["001"]},
      "tags": {
        "brand": "Alliance",
        "brand:wikidata": "Q420541",
        "name": "Alliance Tire Company",
        "shop": "tyres"
      }
    },
    {
      "displayName": "American Tire Depot",
      "id": "americantiredepot-db574d",
      "locationSet": {"include": ["us"]},
      "tags": {
        "brand": "American Tire Depot",
        "brand:wikidata": "Q121599846",
        "name": "American Tire Depot",
        "shop": "tyres"
      }
    },
    {
      "displayName": "Apollo Tyres",
      "id": "apollotyres-1d5291",
      "locationSet": {"include": ["001"]},
      "tags": {
        "brand": "Apollo Tyres",
        "brand:wikidata": "Q4780362",
        "name": "Apollo Tyres",
        "shop": "tyres"
      }
    },
    {
      "displayName": "Beaurepaires",
      "id": "beaurepaires-6139cc",
      "locationSet": {"include": ["au"]},
      "tags": {
        "brand": "Beaurepaires",
        "brand:wikidata": "Q4877630",
        "name": "Beaurepaires",
        "shop": "tyres"
      }
    },
    {
      "displayName": "Belle Tire",
      "id": "belletire-db574d",
      "locationSet": {"include": ["us"]},
      "tags": {
        "brand": "Belle Tire",
        "brand:wikidata": "Q16984061",
        "name": "Belle Tire",
        "shop": "tyres"
      }
    },
    {
      "displayName": "Big Brand Tire & Service",
      "id": "bigbrandtireandservice-db574d",
      "locationSet": {"include": ["us"]},
      "tags": {
        "brand": "Big Brand Tire & Service",
        "brand:wikidata": "Q120784816",
        "name": "Big Brand Tire & Service",
        "shop": "tyres"
      }
    },
    {
      "displayName": "Big O Tires",
      "id": "bigotires-b51b37",
      "locationSet": {"include": ["ca", "us"]},
      "matchNames": ["big o tire"],
      "tags": {
        "brand": "Big O Tires",
        "brand:wikidata": "Q4906085",
        "name": "Big O Tires",
        "shop": "tyres"
      }
    },
    {
      "displayName": "Bob Jane T-Marts",
      "id": "bobjanetmarts-6139cc",
      "locationSet": {"include": ["au"]},
      "tags": {
        "brand": "Bob Jane T-Marts",
        "brand:wikidata": "Q16952468",
        "name": "Bob Jane T-Marts",
        "shop": "tyres"
      }
    },
    {
      "displayName": "Bridgestone",
      "id": "bridgestone-1d5291",
      "locationSet": {"include": ["001"]},
      "matchNames": ["bridgestone india"],
      "tags": {
        "brand": "Bridgestone",
        "brand:wikidata": "Q179433",
        "name": "Bridgestone",
        "shop": "tyres"
      }
    },
    {
      "displayName": "Commercial Tire",
      "id": "commercialtire-db574d",
      "locationSet": {"include": ["us"]},
      "tags": {
        "brand": "Commercial Tire",
        "brand:wikidata": "Q28403810",
        "name": "Commercial Tire",
        "shop": "tyres"
      }
    },
    {
      "displayName": "Continental AG",
      "id": "continentalag-1d5291",
      "locationSet": {"include": ["001"]},
      "tags": {
        "brand": "Continental AG",
        "brand:wikidata": "Q163241",
        "name": "Continental AG",
        "shop": "tyres"
      }
    },
    {
      "displayName": "Cooper Tire & Rubber Company",
      "id": "coopertireandrubbercompany-db574d",
      "locationSet": {"include": ["us"]},
      "tags": {
        "brand": "Cooper Tire & Rubber Company",
        "brand:wikidata": "Q1129847",
        "name": "Cooper Tire & Rubber Company",
        "shop": "tyres"
      }
    },
    {
      "displayName": "Costco Tire Center",
      "id": "costcotirecenter-db574d",
      "locationSet": {"include": ["us"]},
      "tags": {
        "brand": "Costco",
        "brand:wikidata": "Q715583",
        "name": "Costco Tire Center",
        "shop": "tyres"
      }
    },
    {
      "displayName": "Costco Tire Centre",
      "id": "costcotirecentre-20a245",
      "locationSet": {"include": ["ca"]},
      "tags": {
        "brand": "Costco",
        "brand:wikidata": "Q715583",
        "name": "Costco Tire Centre",
        "shop": "tyres"
      }
    },
    {
      "displayName": "Dekkmann",
      "id": "dekkmann-3a2f39",
      "locationSet": {"include": ["no"]},
      "note": "https://github.com/osmlab/name-suggestion-index/issues/5500",
      "preserveTags": ["^name"],
      "tags": {
        "brand": "Dekkmann",
        "brand:wikidata": "Q110958736",
        "name": "Dekkmann",
        "shop": "tyres"
      }
    },
    {
      "displayName": "Discount Tire",
      "id": "discounttire-db574d",
      "locationSet": {"include": ["us"]},
      "tags": {
        "brand": "Discount Tire",
        "brand:wikidata": "Q5281735",
        "name": "Discount Tire",
        "shop": "tyres"
      }
    },
    {
      "displayName": "Driver Center",
      "id": "drivercenter-24681a",
      "locationSet": {"include": ["de"]},
      "matchNames": ["pneumobil"],
      "tags": {
        "brand": "Driver Center",
        "brand:wikidata": "Q48180528",
        "name": "Driver Center",
        "shop": "tyres"
      }
    },
    {
      "displayName": "Ehrhardt Reifen + Autoservice",
      "id": "ehrhardtreifenautoservice-24681a",
      "locationSet": {"include": ["de"]},
      "tags": {
        "brand": "Ehrhardt Reifen + Autoservice",
        "brand:wikidata": "Q2099972",
        "name": "Ehrhardt Reifen + Autoservice",
        "shop": "tyres"
      }
    },
    {
      "displayName": "Eurotyre (Belgium/Netherlands)",
      "id": "eurotyre-eb61ab",
      "locationSet": {"include": ["be", "nl"]},
      "tags": {
        "brand": "Eurotyre",
        "brand:wikidata": "Q91309121",
        "name": "Eurotyre",
        "shop": "tyres"
      }
    },
    {
      "displayName": "Eurotyre (France)",
      "id": "eurotyre-e43dbb",
      "locationSet": {"include": ["fr", "so"]},
      "tags": {
        "brand": "Eurotyre",
        "brand:wikidata": "Q3060871",
        "name": "Eurotyre",
        "shop": "tyres"
      }
    },
    {
      "displayName": "Express Oil Change & Tire Engineers",
      "id": "expressoilchangeandtireengineers-db574d",
      "locationSet": {"include": ["us"]},
      "tags": {
        "brand": "Express Oil Change & Tire Engineers",
        "brand:wikidata": "Q39057654",
        "name": "Express Oil Change & Tire Engineers",
        "shop": "tyres"
      }
    },
    {
      "displayName": "Fountain Tire",
      "id": "fountaintire-20a245",
      "locationSet": {"include": ["ca"]},
      "tags": {
        "brand": "Fountain Tire",
        "brand:wikidata": "Q5474771",
        "name": "Fountain Tire",
        "shop": "tyres"
      }
    },
    {
      "displayName": "Jax Tyres & Auto",
      "id": "jaxtyresandauto-6139cc",
      "locationSet": {"include": ["au"]},
      "tags": {
        "brand": "Jax Tyres & Auto",
        "brand:wikidata": "Q54010471",
        "name": "Jax Tyres & Auto",
        "shop": "tyres"
      }
    },
    {
      "displayName": "Kal Tire",
      "id": "kaltire-20a245",
      "locationSet": {"include": ["ca"]},
      "tags": {
        "brand": "Kal Tire",
        "brand:wikidata": "Q6349904",
        "name": "Kal Tire",
        "shop": "tyres"
      }
    },
    {
      "displayName": "Les Schwab Tire Center",
      "id": "lesschwabtirecenter-db574d",
      "locationSet": {"include": ["us"]},
      "matchNames": [
        "les schwab",
        "les schwab tire centers"
      ],
      "tags": {
        "brand": "Les Schwab Tire Center",
        "brand:wikidata": "Q6529977",
        "name": "Les Schwab Tire Center",
        "shop": "tyres"
      }
    },
    {
      "displayName": "Mavis Discount Tire",
      "id": "mavisdiscounttire-db574d",
      "locationSet": {"include": ["us"]},
      "matchNames": ["mavis tires & brakes"],
      "preserveTags": ["^name"],
      "tags": {
        "brand": "Mavis Discount Tire",
        "brand:wikidata": "Q65058420",
        "name": "Mavis Discount Tire",
        "shop": "tyres"
      }
    },
    {
      "displayName": "Michelin",
      "id": "michelin-1d5291",
      "locationSet": {"include": ["001"]},
      "tags": {
        "brand": "Michelin",
        "brand:wikidata": "Q151107",
        "name": "Michelin",
        "shop": "tyres"
      }
    },
    {
      "displayName": "OK Tire",
      "id": "oktire-20a245",
      "locationSet": {"include": ["ca"]},
      "tags": {
        "brand": "OK Tire",
        "brand:wikidata": "Q118368331",
        "name": "OK Tire",
        "shop": "tyres"
      }
    },
    {
      "displayName": "Pirelli",
      "id": "pirelli-1d5291",
      "locationSet": {"include": ["001"]},
      "tags": {
        "brand": "Pirelli",
        "brand:wikidata": "Q207770",
        "name": "Pirelli",
        "shop": "tyres"
      }
    },
    {
      "displayName": "Pneuhage",
      "id": "pneuhage-24681a",
      "locationSet": {"include": ["de"]},
      "tags": {
        "brand": "Pneuhage",
        "brand:wikidata": "Q2099972",
        "name": "Pneuhage",
        "shop": "tyres"
      }
    },
    {
      "displayName": "Protyre",
      "id": "protyre-0f3cf4",
      "locationSet": {"include": ["gb"]},
      "tags": {
        "brand": "Protyre",
        "brand:wikidata": "Q7252209",
        "name": "Protyre",
        "shop": "tyres"
      }
    },
    {
      "displayName": "Quick Reifendiscount",
      "id": "quickreifendiscount-24681a",
      "locationSet": {"include": ["de"]},
      "tags": {
        "brand": "Quick Reifendiscount",
        "brand:wikidata": "Q100780633",
        "name": "Quick Reifendiscount",
        "shop": "tyres"
      }
    },
    {
      "displayName": "reifen.com",
      "id": "reifencom-24681a",
      "locationSet": {"include": ["de"]},
      "tags": {
        "brand": "reifen.com",
        "brand:wikidata": "Q19840890",
        "name": "reifen.com",
        "shop": "tyres"
      }
    },
    {
      "displayName": "Super Dekk",
      "id": "superdekk-8efefa",
      "locationSet": {
        "include": ["dk", "no", "se"]
      },
      "matchNames": [
        "super dekk service",
        "super service dekk"
      ],
      "preserveTags": ["^name"],
      "tags": {
        "brand": "Super Dekk",
        "brand:wikidata": "Q120765135",
        "name": "Super Dekk",
        "shop": "tyres"
      }
    },
    {
      "displayName": "Tiger Wheel & Tyre",
      "id": "tigerwheelandtyre-54a38f",
      "locationSet": {"include": ["za"]},
      "note": "Category may not be perfect, but matches current usage. https://github.com/osmlab/name-suggestion-index/pull/8604",
      "tags": {
        "brand": "Tiger Wheel & Tyre",
        "brand:wikidata": "Q120762656",
        "name": "Tiger Wheel & Tyre",
        "service:vehicle:batteries": "yes",
        "service:vehicle:car_parts": "yes",
        "service:vehicle:tyres": "yes",
        "service:vehicle:wheels": "yes",
        "shop": "tyres"
      }
    },
    {
      "displayName": "Tire Choice Auto Service Center",
      "id": "q7809168-db574d",
      "locationSet": {"include": ["us"]},
      "matchNames": [
        "tire choice auto service center",
        "tire choice auto service centers"
      ],
      "tags": {
        "brand": "Tire Choice",
        "brand:wikidata": "Q420541",
        "name": "Q7809168",
        "shop": "tyres"
      }
    },
    {
      "displayName": "Tire Discounters",
      "id": "tirediscounters-db574d",
      "locationSet": {"include": ["us"]},
      "tags": {
        "brand": "Tire Discounters",
        "brand:wikidata": "Q29093639",
        "name": "Tire Discounters",
        "shop": "tyres"
      }
    },
    {
      "displayName": "Tire Kingdom",
      "id": "tirekingdom-db574d",
      "locationSet": {"include": ["us"]},
      "tags": {
        "brand": "Tire Kingdom",
        "brand:wikidata": "Q17090159",
        "name": "Tire Kingdom",
        "shop": "tyres"
      }
    },
    {
      "displayName": "Tire Warehouse",
      "id": "tirewarehouse-26b73d",
      "locationSet": {
        "include": [
          "us-ma.geojson",
          "us-me.geojson",
          "us-nh.geojson",
          "us-ri.geojson",
          "us-vt.geojson"
        ]
      },
      "tags": {
        "brand": "Tire Warehouse",
        "brand:wikidata": "Q123618491",
        "name": "Tire Warehouse",
        "shop": "tyres"
      }
    },
    {
      "displayName": "Tires Plus",
      "id": "tiresplus-db574d",
      "locationSet": {"include": ["us"]},
      "tags": {
        "brand": "Tires Plus",
        "brand:wikidata": "Q64015091",
        "name": "Tires Plus",
        "shop": "tyres"
      }
    },
    {
      "displayName": "Town Fair Tire",
      "id": "townfairtire-f05d93",
      "locationSet": {
        "include": [
          "us-ct.geojson",
          "us-ma.geojson",
          "us-me.geojson",
          "us-nh.geojson",
          "us-ny.geojson",
          "us-ri.geojson",
          "us-vt.geojson"
        ]
      },
      "tags": {
        "brand": "Town Fair Tire",
        "brand:wikidata": "Q121300374",
        "name": "Town Fair Tire",
        "shop": "tyres"
      }
    },
    {
      "displayName": "Tyreplus",
      "id": "tyreplus-99cc81",
      "locationSet": {
        "include": [
          "ae",
          "au",
          "bh",
          "cn",
          "id",
          "kh",
          "kw",
          "my",
          "om",
          "ph",
          "qa",
          "ru",
          "sa",
          "sg",
          "th",
          "tw"
        ]
      },
      "tags": {
        "brand": "Tyreplus",
        "brand:wikidata": "Q110959120",
        "name": "Tyreplus",
        "shop": "tyres"
      }
    },
    {
      "displayName": "Tyrepower",
      "id": "tyrepower-6139cc",
      "locationSet": {"include": ["au"]},
      "tags": {
        "brand": "Tyrepower",
        "brand:wikidata": "Q108855867",
        "name": "Tyrepower",
        "shop": "tyres"
      }
    },
    {
      "displayName": "Vergölst",
      "id": "vergolst-24681a",
      "locationSet": {"include": ["de"]},
      "tags": {
        "brand": "Vergölst",
        "brand:wikidata": "Q1673875",
        "name": "Vergölst",
        "shop": "tyres"
      }
    },
    {
      "displayName": "Vianor",
      "id": "vianor-1d5291",
      "locationSet": {"include": ["001"]},
      "note": "https://github.com/osmlab/name-suggestion-index/issues/5500",
      "preserveTags": ["^name"],
      "tags": {
        "brand": "Vianor",
        "brand:wikidata": "Q10714920",
        "name": "Vianor",
        "shop": "tyres"
      }
    },
    {
      "displayName": "Wheel Works",
      "id": "wheelworks-3f5c6c",
      "locationSet": {
        "include": ["us-ca.geojson"]
      },
      "tags": {
        "brand": "Wheel Works",
        "brand:wikidata": "Q121088283",
        "name": "Wheel Works",
        "service:vehicle:car_repair": "yes",
        "shop": "tyres"
      }
    },
    {
      "displayName": "Белшина",
      "id": "belshina-250571",
      "locationSet": {"include": ["by"]},
      "tags": {
        "brand": "Белшина",
        "brand:wikidata": "Q443129",
        "name": "Белшина",
        "name:en": "Belshina",
        "name:ru": "Белшина",
        "shop": "tyres"
      }
    },
    {
      "displayName": "Колёса Даром",
      "id": "c2bd06-1d5291",
      "locationSet": {"include": ["001"]},
      "tags": {
        "brand": "Колёса Даром",
        "name": "Колёса Даром",
        "shop": "tyres"
      }
    },
    {
      "displayName": "Колесо",
      "id": "koleso-c15d58",
      "locationSet": {"include": ["by", "ru"]},
      "tags": {
        "brand": "Колесо",
        "brand:wikidata": "Q110959636",
        "name": "Колесо",
        "name:en": "Koleso",
        "name:ru": "Колесо",
        "shop": "tyres"
      }
    },
    {
      "displayName": "타이어뱅크 (Tire Bank)",
      "id": "tirebank-f5977f",
      "locationSet": {"include": ["kr"]},
      "tags": {
        "brand": "타이어뱅크",
        "brand:en": "Tire Bank",
        "brand:ko": "타이어뱅크",
        "brand:wikidata": "Q21825258",
        "name": "타이어뱅크",
        "name:en": "Tire Bank",
        "name:ko": "타이어뱅크",
        "shop": "tyres"
      }
    }
  ]
}
