{
  "properties": {
    "path": "brands/shop/variety_store",
    "exclude": {
      "generic": [
        "^(variety|world)\\s?(store|shop)?$",
        "^\\d00円ショップ$",
        "^tienda( de (barrio|abarrotes))?$"
      ]
    }
  },
  "items": [
    {
      "displayName": "100えんハウス レモン",
      "id": "100houselemon-e1b193",
      "locationSet": {"include": ["jp"]},
      "tags": {
        "brand": "100えんハウス レモン",
        "brand:en": "100 House Lemon",
        "brand:ja": "100えんハウス レモン",
        "brand:wikidata": "Q43305392",
        "brand:wikipedia": "ja:ワタナベ (企業)",
        "name": "100えんハウス レモン",
        "name:en": "100 House Lemon",
        "name:ja": "100えんハウス レモン",
        "shop": "variety_store"
      }
    },
    {
      "displayName": "99 Cents Only Stores",
      "id": "99centsonlystores-c85191",
      "locationSet": {"include": ["us"]},
      "matchNames": [
        "99 cent only stores",
        "99 cents only"
      ],
      "tags": {
        "brand": "99 Cents Only Stores",
        "brand:wikidata": "Q4646294",
        "brand:wikipedia": "en:99 Cents Only Stores",
        "name": "99 Cents Only Stores",
        "shop": "variety_store"
      }
    },
    {
      "displayName": "99 Speedmart",
      "id": "99speedmart-7b9564",
      "locationSet": {"include": ["my", "sg"]},
      "tags": {
        "brand": "99 Speedmart",
        "brand:wikidata": "Q62075061",
        "brand:wikipedia": "en:99 Speedmart",
        "name": "99 Speedmart",
        "shop": "variety_store"
      }
    },
    {
      "displayName": "Action",
      "id": "action-98734c",
      "locationSet": {
        "include": [
          "at",
          "be",
          "cz",
          "de",
          "fr",
          "it",
          "lu",
          "nl",
          "pl"
        ]
      },
      "tags": {
        "brand": "Action",
        "brand:wikidata": "Q2634111",
        "brand:wikipedia": "nl:Action (winkel)",
        "name": "Action",
        "shop": "variety_store"
      }
    },
    {
      "displayName": "B&M",
      "id": "bandm-622078",
      "locationSet": {"include": ["gb"]},
      "tags": {
        "brand": "B&M",
        "brand:wikidata": "Q4836931",
        "brand:wikipedia": "en:B&M",
        "name": "B&M",
        "shop": "variety_store"
      }
    },
    {
      "displayName": "B&M Bargains",
      "id": "bandmbargains-622078",
      "locationSet": {"include": ["gb"]},
      "tags": {
        "brand": "B&M Bargains",
        "brand:wikidata": "Q4836931",
        "brand:wikipedia": "en:B&M",
        "name": "B&M Bargains",
        "shop": "variety_store"
      }
    },
    {
      "displayName": "Bargain Buys",
      "id": "bargainbuys-622078",
      "locationSet": {"include": ["gb"]},
      "tags": {
        "brand": "Bargain Buys",
        "brand:wikidata": "Q19870995",
        "brand:wikipedia": "en:Bargain Buys",
        "name": "Bargain Buys",
        "shop": "variety_store"
      }
    },
    {
      "displayName": "Big Bazar",
      "id": "bigbazar-8a7b93",
      "locationSet": {"include": ["be", "nl"]},
      "tags": {
        "brand": "Big Bazar",
        "brand:wikidata": "Q15873104",
        "brand:wikipedia": "nl:Big Bazar",
        "name": "Big Bazar",
        "shop": "variety_store"
      }
    },
    {
      "displayName": "Daiso Japan",
      "id": "daisojapan-3b78c0",
      "locationSet": {"include": ["au", "us"]},
      "tags": {
        "brand": "Daiso",
        "brand:wikidata": "Q866991",
        "brand:wikipedia": "en:Daiso",
        "name": "Daiso Japan",
        "shop": "variety_store",
        "short_name": "Daiso"
      }
    },
    {
      "displayName": "Dealz",
      "id": "dealz-01f38b",
      "locationSet": {
        "include": ["es", "ie", "pl"]
      },
      "tags": {
        "brand": "Dealz",
        "brand:wikidata": "Q16942585",
        "brand:wikipedia": "en:Dealz",
        "name": "Dealz",
        "shop": "variety_store"
      }
    },
    {
      "displayName": "Dollar General",
      "id": "dollargeneral-c85191",
      "locationSet": {"include": ["us"]},
      "tags": {
        "brand": "Dollar General",
        "brand:wikidata": "Q145168",
        "brand:wikipedia": "en:Dollar General",
        "name": "Dollar General",
        "shop": "variety_store"
      }
    },
    {
      "displayName": "Dollar Tree",
      "id": "dollartree-44cca6",
      "locationSet": {"include": ["ca", "us"]},
      "tags": {
        "brand": "Dollar Tree",
        "brand:wikidata": "Q5289230",
        "brand:wikipedia": "en:Dollar Tree",
        "name": "Dollar Tree",
        "shop": "variety_store"
      }
    },
    {
      "displayName": "Dollarama",
      "id": "dollarama-f36c63",
      "locationSet": {"include": ["ca"]},
      "tags": {
        "brand": "Dollarama",
        "brand:wikidata": "Q3033947",
        "brand:wikipedia": "en:Dollarama",
        "name": "Dollarama",
        "shop": "variety_store"
      }
    },
    {
      "displayName": "Eco-Shop",
      "id": "ecoshop-14cb81",
      "locationSet": {"include": ["my"]},
      "tags": {
        "brand": "Eco-Shop",
        "brand:wikidata": "Q95721269",
        "brand:wikipedia": "ms:Eco-Shop",
        "name": "Eco-Shop",
        "shop": "variety_store"
      }
    },
    {
      "displayName": "EuroShop",
      "id": "euroshop-9f9d31",
      "locationSet": {"include": ["de"]},
      "tags": {
        "brand": "EuroShop",
        "brand:wikidata": "Q15846763",
        "brand:wikipedia": "de:Schum EuroShop",
        "name": "EuroShop",
        "shop": "variety_store"
      }
    },
    {
      "displayName": "Family Dollar",
      "id": "familydollar-c85191",
      "locationSet": {"include": ["us"]},
      "tags": {
        "brand": "Family Dollar",
        "brand:wikidata": "Q5433101",
        "brand:wikipedia": "en:Family Dollar",
        "name": "Family Dollar",
        "shop": "variety_store"
      }
    },
    {
      "displayName": "Five Below",
      "id": "fivebelow-c85191",
      "locationSet": {"include": ["us"]},
      "tags": {
        "brand": "Five Below",
        "brand:wikidata": "Q5455836",
        "brand:wikipedia": "en:Five Below",
        "name": "Five Below",
        "shop": "variety_store"
      }
    },
    {
      "displayName": "Fix Price",
      "id": "fixprice-95635e",
      "locationSet": {"include": ["by", "ru"]},
      "tags": {
        "brand": "Fix Price",
        "brand:wikidata": "Q4038791",
        "brand:wikipedia": "ru:Fix Price (сеть магазинов)",
        "name": "Fix Price",
        "shop": "variety_store"
      }
    },
    {
      "displayName": "Flying Tiger Copenhagen",
      "id": "flyingtigercopenhagen-37d726",
      "locationSet": {
        "include": [
          "at",
          "be",
          "ch",
          "cy",
          "cz",
          "de",
          "dk",
          "ee",
          "es",
          "fi",
          "fr",
          "gb",
          "gr",
          "hu",
          "ie",
          "is",
          "it",
          "jp",
          "kr",
          "lt",
          "lv",
          "mt",
          "nl",
          "no",
          "pl",
          "pt",
          "se",
          "sk"
        ]
      },
      "matchNames": ["tgr", "tiger"],
      "matchTags": ["shop/gift"],
      "tags": {
        "brand": "Flying Tiger Copenhagen",
        "brand:wikidata": "Q2786319",
        "brand:wikipedia": "en:Flying Tiger Copenhagen",
        "name": "Flying Tiger Copenhagen",
        "shop": "variety_store",
        "short_name": "Flying Tiger"
      }
    },
    {
      "displayName": "GiFi",
      "id": "gifi-4bad18",
      "locationSet": {"include": ["fr"]},
      "tags": {
        "brand": "GiFi",
        "brand:wikidata": "Q3105439",
        "brand:wikipedia": "fr:Gifi",
        "name": "GiFi",
        "shop": "variety_store"
      }
    },
    {
      "displayName": "Home Bargains",
      "id": "homebargains-622078",
      "locationSet": {"include": ["gb"]},
      "tags": {
        "brand": "Home Bargains",
        "brand:wikidata": "Q5888229",
        "brand:wikipedia": "en:Home Bargains",
        "name": "Home Bargains",
        "shop": "variety_store"
      }
    },
    {
      "displayName": "Jawoll",
      "id": "jawoll-9f9d31",
      "locationSet": {"include": ["de"]},
      "tags": {
        "brand": "Jawoll",
        "brand:wikidata": "Q65180661",
        "brand:wikipedia": "de:Jawoll (Markt)",
        "name": "Jawoll",
        "shop": "variety_store"
      }
    },
    {
      "displayName": "La Foir'Fouille",
      "id": "lafoirfouille-af2034",
      "locationSet": {
        "include": ["be", "fr", "lu", "mu", "nc"]
      },
      "tags": {
        "brand": "La Foir'Fouille",
        "brand:wikidata": "Q3209040",
        "brand:wikipedia": "fr:La Foir'Fouille",
        "name": "La Foir'Fouille",
        "shop": "variety_store"
      }
    },
    {
      "displayName": "M9",
      "id": "m9-70ec82",
      "locationSet": {"include": ["001"]},
      "tags": {
        "brand": "M9",
        "name": "M9",
        "shop": "variety_store"
      }
    },
    {
      "displayName": "Mäc-Geiz",
      "id": "macgeiz-9f9d31",
      "locationSet": {"include": ["de"]},
      "tags": {
        "brand": "Mäc-Geiz",
        "brand:wikidata": "Q1957126",
        "brand:wikipedia": "de:Mäc-Geiz",
        "name": "Mäc-Geiz",
        "shop": "variety_store"
      }
    },
    {
      "displayName": "Miniso",
      "id": "miniso-70ec82",
      "locationSet": {"include": ["001"]},
      "tags": {
        "brand": "Miniso",
        "brand:wikidata": "Q20732498",
        "brand:wikipedia": "en:Miniso",
        "name": "Miniso",
        "shop": "variety_store"
      }
    },
    {
      "displayName": "NOZ",
      "id": "noz-4bad18",
      "locationSet": {"include": ["fr"]},
      "tags": {
        "brand": "NOZ",
        "brand:wikidata": "Q3345688",
        "brand:wikipedia": "fr:Noz",
        "name": "NOZ",
        "shop": "variety_store"
      }
    },
    {
      "displayName": "Ocean State Job Lot",
      "id": "oceanstatejoblot-c85191",
      "locationSet": {"include": ["us"]},
      "tags": {
        "brand": "Ocean State Job Lot",
        "brand:wikidata": "Q7076076",
        "brand:wikipedia": "en:Ocean State Job Lot",
        "name": "Ocean State Job Lot",
        "shop": "variety_store",
        "short_name": "Job Lot"
      }
    },
    {
      "displayName": "Ollie's Bargain Outlet",
      "id": "olliesbargainoutlet-c85191",
      "locationSet": {"include": ["us"]},
      "tags": {
        "brand": "Ollie's Bargain Outlet",
        "brand:wikidata": "Q7088304",
        "brand:wikipedia": "en:Ollie's Bargain Outlet",
        "name": "Ollie's Bargain Outlet",
        "shop": "variety_store",
        "short_name": "Ollie's"
      }
    },
    {
      "displayName": "OneBelow",
      "id": "onebelow-622078",
      "locationSet": {"include": ["gb"]},
      "tags": {
        "brand": "OneBelow",
        "brand:wikidata": "Q65079443",
        "brand:wikipedia": "en:OneBelow",
        "name": "OneBelow",
        "shop": "variety_store"
      }
    },
    {
      "displayName": "Pfennigpfeiffer",
      "id": "pfennigpfeiffer-9f9d31",
      "locationSet": {"include": ["de"]},
      "tags": {
        "brand": "Pfennigpfeiffer",
        "brand:wikidata": "Q2083618",
        "brand:wikipedia": "de:Pfennigpfeiffer",
        "name": "Pfennigpfeiffer",
        "shop": "variety_store"
      }
    },
    {
      "displayName": "Postenbörse",
      "id": "postenborse-9f9d31",
      "locationSet": {"include": ["de"]},
      "tags": {
        "brand": "Postenbörse",
        "brand:wikidata": "Q100780033",
        "name": "Postenbörse",
        "shop": "variety_store"
      }
    },
    {
      "displayName": "Poundland",
      "id": "poundland-622078",
      "locationSet": {"include": ["gb"]},
      "tags": {
        "brand": "Poundland",
        "brand:wikidata": "Q1434528",
        "brand:wikipedia": "en:Poundland",
        "name": "Poundland",
        "shop": "variety_store"
      }
    },
    {
      "displayName": "Poundstretcher",
      "id": "poundstretcher-622078",
      "locationSet": {"include": ["gb"]},
      "tags": {
        "brand": "Poundstretcher",
        "brand:wikidata": "Q7235675",
        "brand:wikipedia": "en:Poundstretcher",
        "name": "Poundstretcher",
        "shop": "variety_store"
      }
    },
    {
      "displayName": "Poundworld",
      "id": "poundworld-d988bd",
      "locationSet": {"include": ["gb", "ie"]},
      "tags": {
        "brand": "Poundworld",
        "brand:wikidata": "Q16967516",
        "brand:wikipedia": "en:Poundworld",
        "name": "Poundworld",
        "shop": "variety_store"
      }
    },
    {
      "displayName": "Roses",
      "id": "roses-c85191",
      "locationSet": {"include": ["us"]},
      "tags": {
        "brand": "Roses",
        "brand:wikidata": "Q7368644",
        "brand:wikipedia": "en:Roses (store)",
        "name": "Roses",
        "shop": "variety_store"
      }
    },
    {
      "displayName": "Shiploads",
      "id": "shiploads-c7d002",
      "locationSet": {"include": ["au"]},
      "tags": {
        "brand": "Shiploads",
        "brand:wikidata": "Q105883436",
        "name": "Shiploads",
        "shop": "variety_store"
      }
    },
    {
      "displayName": "Stokomani",
      "id": "stokomani-4bad18",
      "locationSet": {"include": ["fr"]},
      "tags": {
        "brand": "Stokomani",
        "brand:wikidata": "Q22249328",
        "brand:wikipedia": "fr:Stokomani",
        "name": "Stokomani",
        "shop": "variety_store"
      }
    },
    {
      "displayName": "TEDi",
      "id": "tedi-80fd61",
      "locationSet": {
        "include": [
          "at",
          "de",
          "es",
          "hr",
          "si",
          "sk"
        ]
      },
      "tags": {
        "brand": "TEDi",
        "brand:wikidata": "Q1364603",
        "brand:wikipedia": "de:TEDi",
        "name": "TEDi",
        "shop": "variety_store"
      }
    },
    {
      "displayName": "THANK YOU MART",
      "id": "thankyoumart-e1b193",
      "locationSet": {"include": ["jp"]},
      "tags": {
        "alt_name:en": "390 Yen Shop",
        "brand": "THANK YOU MART",
        "brand:en": "THANK YOU MART",
        "brand:ja": "サンキューマート",
        "brand:wikidata": "Q11305509",
        "brand:wikipedia": "ja:サンキューマート",
        "name": "THANK YOU MART",
        "name:en": "THANK YOU MART",
        "name:ja": "サンキューマート",
        "shop": "variety_store"
      }
    },
    {
      "displayName": "The Original Factory Shop",
      "id": "theoriginalfactoryshop-622078",
      "locationSet": {"include": ["gb"]},
      "tags": {
        "brand": "The Original Factory Shop",
        "brand:wikidata": "Q7755366",
        "brand:wikipedia": "en:The Original Factory Shop",
        "name": "The Original Factory Shop",
        "shop": "variety_store"
      }
    },
    {
      "displayName": "The Reject Shop",
      "id": "therejectshop-c7d002",
      "locationSet": {"include": ["au"]},
      "tags": {
        "brand": "The Reject Shop",
        "brand:wikidata": "Q7760092",
        "brand:wikipedia": "en:The Reject Shop",
        "name": "The Reject Shop",
        "shop": "variety_store"
      }
    },
    {
      "displayName": "Tokmanni",
      "id": "tokmanni-c0b5b4",
      "locationSet": {"include": ["fi"]},
      "tags": {
        "brand": "Tokmanni",
        "brand:wikidata": "Q13423470",
        "brand:wikipedia": "fi:Tokmanni",
        "name": "Tokmanni",
        "shop": "variety_store"
      }
    },
    {
      "displayName": "Wilko",
      "id": "wilko-622078",
      "locationSet": {"include": ["gb"]},
      "tags": {
        "brand": "Wilko",
        "brand:wikidata": "Q8002536",
        "brand:wikipedia": "en:Wilko (retailer)",
        "name": "Wilko",
        "shop": "variety_store"
      }
    },
    {
      "displayName": "다이소",
      "id": "5c628e-70ec82",
      "locationSet": {"include": ["kr"]},
      "tags": {
        "brand": "다이소",
        "brand:en": "Daiso",
        "brand:ja": "ダイソー",
        "brand:ko": "다이소",
        "brand:wikidata": "Q12590862",
        "brand:zh": "大創百貨",
        "name": "다이소",
        "name:en": "Daiso",
        "name:ja": "ダイソー",
        "name:ko": "다이소",
        "name:zh": "大創百貨",
        "shop": "variety_store"
      }
    },
    {
      "displayName": "キャンドゥ",
      "id": "cando-e1b193",
      "locationSet": {"include": ["jp"]},
      "tags": {
        "brand": "キャンドゥ",
        "brand:en": "CAN DO",
        "brand:ja": "キャンドゥ",
        "brand:wikidata": "Q11297367",
        "brand:wikipedia": "ja:キャンドゥ",
        "name": "キャンドゥ",
        "name:en": "CAN DO",
        "name:ja": "キャンドゥ",
        "shop": "variety_store"
      }
    },
    {
      "displayName": "セリア",
      "id": "seria-e1b193",
      "locationSet": {"include": ["jp"]},
      "tags": {
        "brand": "セリア",
        "brand:en": "Seria",
        "brand:ja": "セリア",
        "brand:wikidata": "Q11314509",
        "brand:wikipedia": "ja:セリア (100円ショップ)",
        "name": "セリア",
        "name:en": "Seria",
        "name:ja": "セリア",
        "shop": "variety_store"
      }
    },
    {
      "displayName": "ダイソー",
      "id": "daiso-e1b193",
      "locationSet": {"include": ["jp"]},
      "matchNames": ["ザ・ダイソー", "大創産業"],
      "tags": {
        "brand": "ダイソー",
        "brand:en": "Daiso",
        "brand:ja": "ダイソー",
        "brand:wikidata": "Q866991",
        "brand:wikipedia": "ja:大創産業",
        "name": "ダイソー",
        "name:en": "Daiso",
        "name:ja": "ダイソー",
        "shop": "variety_store"
      }
    },
    {
      "displayName": "ダイレックス",
      "id": "direx-e1b193",
      "locationSet": {"include": ["jp"]},
      "tags": {
        "brand": "ダイレックス",
        "brand:en": "Direx",
        "brand:ja": "ダイレックス",
        "brand:wikidata": "Q11317051",
        "brand:wikipedia": "ja:ダイレックス (ディスカウントストア)",
        "name": "ダイレックス",
        "name:en": "Direx",
        "name:ja": "ダイレックス",
        "shop": "variety_store"
      }
    },
    {
      "displayName": "トライアル",
      "id": "trial-e1b193",
      "locationSet": {"include": ["jp"]},
      "tags": {
        "brand": "トライアル",
        "brand:en": "Trial",
        "brand:ja": "トライアル",
        "brand:wikidata": "Q11321723",
        "brand:wikipedia": "ja:トライアルカンパニー",
        "name": "トライアル",
        "name:en": "Trial",
        "name:ja": "トライアル",
        "shop": "variety_store"
      }
    },
    {
      "displayName": "ドン・キホーテ",
      "id": "donquijote-e1b193",
      "locationSet": {"include": ["jp"]},
      "tags": {
        "brand": "ドン・キホーテ",
        "brand:en": "Don Quijote",
        "brand:ja": "ドン・キホーテ",
        "brand:wikidata": "Q1185381",
        "brand:wikipedia": "ja:ドン・キホーテ (企業)",
        "name": "ドン・キホーテ",
        "name:en": "Don Quijote",
        "name:ja": "ドン・キホーテ",
        "opening_hours": "24/7",
        "shop": "variety_store",
        "short_name": "ドンキ",
        "short_name:en": "Donki",
        "short_name:ja": "ドンキ"
      }
    },
    {
      "displayName": "ワッツ",
      "id": "watts-e1b193",
      "locationSet": {"include": ["jp"]},
      "tags": {
        "brand": "ワッツ",
        "brand:en": "Watts",
        "brand:ja": "ワッツ",
        "brand:wikidata": "Q11351402",
        "brand:wikipedia": "ja:ワッツ (企業)",
        "name": "ワッツ",
        "name:en": "Watts",
        "name:ja": "ワッツ",
        "shop": "variety_store"
      }
    }
  ]
}
