{
  "properties": {
    "path": "brands/shop/wholesale",
    "exclude": {"generic": ["^wholesale$"]}
  },
  "items": [
    {
      "displayName": "Bestway",
      "id": "bestway-650ac6",
      "locationSet": {"include": ["gb"]},
      "preserveTags": ["^name"],
      "tags": {
        "brand": "Bestway",
        "brand:wikidata": "Q116679441",
        "name": "Bestway",
        "shop": "wholesale"
      }
    },
    {
      "displayName": "BJ's Wholesale Club",
      "id": "bjswholesaleclub-98b10d",
      "locationSet": {"include": ["us"]},
      "matchNames": ["bjs", "bjs wholesale"],
      "tags": {
        "brand": "BJ's Wholesale Club",
        "brand:wikidata": "Q4835754",
        "name": "BJ's Wholesale Club",
        "shop": "wholesale"
      }
    },
    {
      "displayName": "Booker Wholesale",
      "id": "bookerwholesale-650ac6",
      "locationSet": {"include": ["gb"]},
      "tags": {
        "brand": "Booker Wholesale",
        "brand:wikidata": "Q4943180",
        "name": "Booker Wholesale",
        "shop": "wholesale"
      }
    },
    {
      "displayName": "CHEF'STORE",
      "id": "chefstore-98b10d",
      "locationSet": {"include": ["us"]},
      "matchNames": [
        "cash & carry smart foodservice",
        "smart foodservice warehouse stores"
      ],
      "tags": {
        "brand": "CHEF'STORE",
        "brand:wikidata": "Q16852683",
        "name": "CHEF'STORE",
        "shop": "wholesale"
      }
    },
    {
      "displayName": "City Club",
      "id": "cityclub-8c6923",
      "locationSet": {"include": ["mx"]},
      "tags": {
        "brand": "City Club",
        "brand:wikidata": "Q5123101",
        "name": "City Club",
        "shop": "wholesale"
      }
    },
    {
      "displayName": "Costco",
      "id": "costco-2c74f6",
      "locationSet": {
        "include": [
          "ca",
          "es",
          "fr",
          "gb",
          "mx",
          "us"
        ]
      },
      "matchNames": ["costco wholesale"],
      "tags": {
        "brand": "Costco",
        "brand:wikidata": "Q715583",
        "name": "Costco",
        "shop": "wholesale"
      }
    },
    {
      "displayName": "Costco Business Center",
      "id": "costcobusinesscenter-a788d2",
      "locationSet": {"include": ["ca", "us"]},
      "tags": {
        "brand": "Costco",
        "brand:wikidata": "Q715583",
        "name": "Costco Business Center",
        "shop": "wholesale"
      }
    },
    {
      "displayName": "EDEKA Foodservice",
      "id": "edekafoodservice-ad6aeb",
      "locationSet": {"include": ["de"]},
      "tags": {
        "brand": "EDEKA",
        "brand:wikidata": "Q701755",
        "name": "EDEKA Foodservice",
        "shop": "wholesale"
      }
    },
    {
      "displayName": "Fozzy",
      "id": "fozzy-df0f6a",
      "locationSet": {"include": ["ua"]},
      "matchNames": ["фоззі"],
      "tags": {
        "brand": "Fozzy",
        "brand:wikidata": "Q12063200",
        "name": "Fozzy",
        "shop": "wholesale"
      }
    },
    {
      "displayName": "Handelshof",
      "id": "handelshof-ad6aeb",
      "locationSet": {"include": ["de"]},
      "tags": {
        "brand": "Handelshof",
        "brand:wikidata": "Q1574870",
        "name": "Handelshof",
        "shop": "wholesale"
      }
    },
    {
      "displayName": "Makro",
      "id": "makro-fb1de0",
      "locationSet": {"include": ["001"]},
      "tags": {
        "brand": "Makro",
        "brand:wikidata": "Q704606",
        "name": "Makro",
        "shop": "wholesale"
      }
    },
    {
      "displayName": "Mastermate",
      "id": "mastermate-055f9a",
      "locationSet": {"include": ["nl"]},
      "tags": {
        "brand": "Mastermate",
        "brand:wikidata": "Q116172699",
        "name": "Mastermate",
        "shop": "wholesale"
      }
    },
    {
      "displayName": "METRO",
      "id": "metro-101fbc",
      "locationSet": {
        "include": [
          "at",
          "bg",
          "de",
          "fr",
          "hr",
          "hu",
          "in",
          "it",
          "kz",
          "md",
          "pk",
          "ro",
          "rs",
          "ru",
          "sk",
          "tr",
          "ua"
        ]
      },
      "matchNames": ["metro cash & carry"],
      "tags": {
        "brand": "METRO",
        "brand:wikidata": "Q13610282",
        "name": "METRO",
        "shop": "wholesale"
      }
    },
    {
      "displayName": "S&R Membership Shopping",
      "id": "sandrmembershipshopping-fc4d00",
      "locationSet": {"include": ["ph"]},
      "matchNames": ["snr membership shopping"],
      "tags": {
        "alt_name": "SNR",
        "brand": "S&R Membership Shopping",
        "brand:wikidata": "Q109827302",
        "shop": "wholesale",
        "short_name": "S&R"
      }
    },
    {
      "displayName": "Sam's Club",
      "id": "samsclub-d2fd48",
      "locationSet": {
        "include": ["br", "mx", "us"]
      },
      "tags": {
        "brand": "Sam's Club",
        "brand:wikidata": "Q1972120",
        "name": "Sam's Club",
        "shop": "wholesale"
      }
    },
    {
      "displayName": "SELGROS cash & carry",
      "id": "selgroscashandcarry-8ea7cd",
      "locationSet": {
        "include": ["de", "pl", "ro", "ru"]
      },
      "tags": {
        "brand": "SELGROS cash & carry",
        "brand:wikidata": "Q473918",
        "name": "SELGROS cash & carry",
        "shop": "wholesale",
        "short_name": "SELGROS"
      }
    },
    {
      "displayName": "Sligro",
      "id": "sligro-fb1de0",
      "locationSet": {"include": ["001"]},
      "tags": {
        "brand": "Sligro",
        "brand:wikidata": "Q3170052",
        "name": "Sligro",
        "shop": "wholesale"
      }
    },
    {
      "displayName": "コストコ",
      "id": "costco-db891f",
      "locationSet": {"include": ["jp"]},
      "tags": {
        "brand": "コストコ",
        "brand:en": "Costco",
        "brand:ja": "コストコ",
        "brand:wikidata": "Q715583",
        "name": "コストコ",
        "name:en": "Costco",
        "name:ja": "コストコ",
        "shop": "wholesale"
      }
    },
    {
      "displayName": "好市多",
      "id": "costco-1d0072",
      "locationSet": {"include": ["tw"]},
      "tags": {
        "brand": "好市多",
        "brand:en": "Costco",
        "brand:wikidata": "Q715583",
        "brand:zh": "好市多",
        "name": "好市多",
        "name:en": "Costco",
        "name:zh": "好市多",
        "shop": "wholesale"
      }
    },
    {
      "displayName": "山姆会员商店",
      "id": "samsclub-596e18",
      "locationSet": {
        "include": ["cn"],
        "exclude": ["hk", "mo"]
      },
      "tags": {
        "brand": "山姆会员商店",
        "brand:en": "Sam's Club",
        "brand:wikidata": "Q1972120",
        "name": "山姆会员商店",
        "name:en": "Sam's Club",
        "shop": "wholesale"
      }
    },
    {
      "displayName": "麦德龙",
      "id": "metro-596e18",
      "locationSet": {
        "include": ["cn"],
        "exclude": ["hk", "mo"]
      },
      "tags": {
        "brand": "麦德龙",
        "brand:en": "METRO",
        "brand:wikidata": "Q13610282",
        "name": "麦德龙",
        "name:en": "METRO",
        "shop": "wholesale"
      }
    }
  ]
}
