{
  "leisure/fitness_centre|24 Hour Fitness": {
    "locationSet": {"include": ["us"]},
    "tags": {
      "brand": "24 Hour Fitness",
      "brand:wikidata": "Q4631849",
      "brand:wikipedia": "en:24 Hour Fitness",
      "leisure": "fitness_centre",
      "name": "24 Hour Fitness"
    }
  },
  "leisure/fitness_centre|Anytime Fitness": {
    "locationSet": {"include": ["001"]},
    "tags": {
      "brand": "Anytime Fitness",
      "brand:wikidata": "Q4778364",
      "brand:wikipedia": "en:Anytime Fitness",
      "leisure": "fitness_centre",
      "name": "Anytime Fitness"
    }
  },
    "leisure/fitness_centre|Bannatyne Health Club": {
    "locationSet": {
      "include": ["gb"]
    },
    "tags": {
      "brand": "Bannatyne Health Club",
      "brand:wikidata": "Q24993691",
      "brand:wikipedia": "en:Bannatyne's",
      "leisure": "fitness_centre",
      "name": "Bannatyne Health Club"
    }
  },
  "leisure/fitness_centre|Basic-Fit": {
    "locationSet": {
      "include": ["be", "es", "fr", "lu", "nl"]
    },
    "tags": {
      "brand": "Basic-Fit",
      "brand:wikidata": "Q40165577",
      "brand:wikipedia": "nl:Basic-Fit",
      "leisure": "fitness_centre",
      "name": "Basic-Fit"
    }
  },
  "leisure/fitness_centre|Blink Fitness": {
    "locationSet": {"include": ["us"]},
    "matchNames": ["blink"],
    "tags": {
      "brand": "Blink Fitness",
      "brand:wikidata": "Q65621568",
      "leisure": "fitness_centre",
      "name": "Blink Fitness"
    }
  },
  "leisure/fitness_centre|Clever fit": {
    "locationSet": {
      "include": ["at", "ch", "de"]
    },
    "tags": {
      "brand": "Clever fit",
      "brand:wikidata": "Q27909675",
      "brand:wikipedia": "de:Clever fit",
      "leisure": "fitness_centre",
      "name": "Clever fit"
    }
  },
  "leisure/fitness_centre|CorePower Yoga": {
    "locationSet": {"include": ["us"]},
    "matchNames": ["corepower"],
    "matchTags": [
      "club/sport",
      "leisure/sports_centre"
    ],
    "tags": {
      "brand": "CorePower Yoga",
      "brand:wikidata": "Q21015663",
      "brand:wikipedia": "en:CorePower Yoga",
      "leisure": "fitness_centre",
      "name": "CorePower Yoga",
      "sport": "yoga"
    }
  },
  "leisure/fitness_centre|Crunch Fitness": {
    "locationSet": {
      "include": ["au", "ca", "us"]
    },
    "matchNames": ["crunch"],
    "tags": {
      "brand": "Crunch Fitness",
      "brand:wikidata": "Q5190093",
      "brand:wikipedia": "en:Crunch Fitness",
      "leisure": "fitness_centre",
      "name": "Crunch Fitness"
    }
  },
  "leisure/fitness_centre|Curves": {
    "locationSet": {"include": ["001"]},
    "tags": {
      "brand": "Curves",
      "brand:wikidata": "Q5196080",
      "brand:wikipedia": "en:Curves International",
      "leisure": "fitness_centre",
      "name": "Curves"
    }
  },
  "leisure/fitness_centre|F45 Training": {
    "locationSet": {
      "include": ["au", "ca", "gb", "us"]
    },
    "tags": {
      "brand": "F45 Training",
      "brand:wikidata": "Q64390973",
      "leisure": "fitness_centre",
      "name": "F45 Training"
    }
  },
  "leisure/fitness_centre|Fit4Less~(Canada)": {
    "locationSet": {"include": ["ca"]},
    "tags": {
      "brand": "Fit4Less",
      "brand:wikidata": "Q64821050",
      "leisure": "fitness_centre",
      "name": "Fit4Less"
    }
  },
  "leisure/fitness_centre|Fit4less~(UK)": {
    "locationSet": {"include": ["gb"]},
    "tags": {
      "brand": "Fit4less",
      "brand:wikidata": "Q64821053",
      "leisure": "fitness_centre",
      "name": "Fit4less"
    }
  },
  "leisure/fitness_centre|Fitness First": {
    "locationSet": {
      "include": [
        "ae",
        "au",
        "de",
        "gb",
        "ph",
        "th"
      ]
    },
    "tags": {
      "brand": "Fitness First",
      "brand:wikidata": "Q127120",
      "brand:wikipedia": "en:Fitness First",
      "leisure": "fitness_centre",
      "name": "Fitness First"
    }
  },
  "leisure/fitness_centre|Fitness Park": {
    "locationSet": {"include": ["001"]},
    "tags": {
      "brand": "Fitness Park",
      "leisure": "fitness_centre",
      "name": "Fitness Park"
    }
  },
  "leisure/fitness_centre|Fitness24Seven": {
    "locationSet": {"include": ["fi", "se"]},
    "tags": {
      "brand": "Fitness24Seven",
      "brand:wikidata": "Q61112447",
      "brand:wikipedia": "sv:Fitness24Seven",
      "leisure": "fitness_centre",
      "name": "Fitness24Seven"
    }
  },
  "leisure/fitness_centre|Gold's Gym": {
    "locationSet": {
      "include": ["ae", "in", "ph", "us"]
    },
    "tags": {
      "brand": "Gold's Gym",
      "brand:wikidata": "Q1536234",
      "brand:wikipedia": "en:Gold's Gym",
      "leisure": "fitness_centre",
      "name": "Gold's Gym"
    }
  },
  "leisure/fitness_centre|GoodLife Fitness": {
    "locationSet": {"include": ["ca"]},
    "tags": {
      "brand": "GoodLife Fitness",
      "brand:wikidata": "Q3110654",
      "brand:wikipedia": "en:GoodLife Fitness",
      "leisure": "fitness_centre",
      "name": "GoodLife Fitness"
    }
  },
  "leisure/fitness_centre|Jazzercise": {
    "locationSet": {"include": ["us"]},
    "matchTags": ["leisure/dance"],
    "tags": {
      "brand": "Jazzercise",
      "brand:wikidata": "Q6168434",
      "brand:wikipedia": "en:Jazzercise",
      "leisure": "fitness_centre",
      "name": "Jazzercise"
    }
  },
  "leisure/fitness_centre|L'Orange Bleue": {
    "locationSet": {"include": ["fr"]},
    "tags": {
      "brand": "L'Orange Bleue",
      "brand:wikidata": "Q3204640",
      "brand:wikipedia": "fr:L'Orange bleue",
      "leisure": "fitness_centre",
      "name": "L'Orange Bleue"
    }
  },
  "leisure/fitness_centre|LA Fitness": {
    "locationSet": {
      "include": ["ca", "gb", "us"]
    },
    "tags": {
      "brand": "LA Fitness",
      "brand:wikidata": "Q6457180",
      "brand:wikipedia": "en:LA Fitness",
      "leisure": "fitness_centre",
      "name": "LA Fitness"
    }
  },
  "leisure/fitness_centre|Life Time": {
    "locationSet": {"include": ["ca", "us"]},
    "matchNames": [
      "life time athletic",
      "life time fitness"
    ],
    "tags": {
      "brand": "Life Time",
      "brand:wikidata": "Q6545004",
      "brand:wikipedia": "en:Life Time Fitness",
      "leisure": "fitness_centre",
      "name": "Life Time"
    }
  },
  "leisure/fitness_centre|McFit": {
    "locationSet": {
      "include": ["at", "de", "es", "it", "pl"]
    },
    "tags": {
      "brand": "McFit",
      "brand:wikidata": "Q871302",
      "brand:wikipedia": "en:McFit",
      "leisure": "fitness_centre",
      "name": "McFit"
    }
  },
  "leisure/fitness_centre|Mrs. Sporty": {
    "locationSet": {"include": ["001"]},
    "tags": {
      "brand": "Mrs. Sporty",
      "leisure": "fitness_centre",
      "name": "Mrs. Sporty"
    }
  },
  "leisure/fitness_centre|Orangetheory Fitness": {
    "locationSet": {
      "include": ["ca", "es", "us"]
    },
    "matchNames": ["orangetheory"],
    "tags": {
      "brand": "Orangetheory Fitness",
      "brand:wikidata": "Q25005163",
      "brand:wikipedia": "en:Orangetheory Fitness",
      "leisure": "fitness_centre",
      "name": "Orangetheory Fitness"
    }
  },
  "leisure/fitness_centre|Planet Fitness": {
    "locationSet": {"include": ["ca", "us"]},
    "tags": {
      "brand": "Planet Fitness",
      "brand:wikidata": "Q7201095",
      "brand:wikipedia": "en:Planet Fitness",
      "leisure": "fitness_centre",
      "name": "Planet Fitness"
    }
  },
  "leisure/fitness_centre|Pure Barre": {
    "locationSet": {"include": ["ca", "us"]},
    "tags": {
      "brand": "Pure Barre",
      "brand:wikidata": "Q86707084",
      "leisure": "fitness_centre",
      "name": "Pure Barre"
    }
  },
  "leisure/fitness_centre|PureGym": {
    "locationSet": {"include": ["gb"]},
    "tags": {
      "brand": "PureGym",
      "brand:wikidata": "Q18345898",
      "brand:wikipedia": "en:PureGym",
      "leisure": "fitness_centre",
      "name": "PureGym"
    }
  },
  "leisure/fitness_centre|Retro Fitness": {
    "locationSet": {"include": ["us"]},
    "tags": {
      "brand": "Retro Fitness",
      "brand:wikidata": "Q61994955",
      "leisure": "fitness_centre",
      "name": "Retro Fitness"
    }
  },
  "leisure/fitness_centre|Smart Fit": {
    "locationSet": {
      "include": [
        "br",
        "cl",
        "co",
        "do",
        "mx",
        "pe"
      ]
    },
    "tags": {
      "brand": "Smart Fit",
      "brand:wikidata": "Q30930959",
      "brand:wikipedia": "pt:Smart Fit",
      "leisure": "fitness_centre",
      "name": "Smart Fit"
    }
  },
  "leisure/fitness_centre|Snap Fitness": {
    "locationSet": {"include": ["001"]},
    "tags": {
      "brand": "Snap Fitness",
      "brand:wikidata": "Q7547254",
      "brand:wikipedia": "en:Snap Fitness",
      "leisure": "fitness_centre",
      "name": "Snap Fitness"
    }
  },
  "leisure/fitness_centre|SoulCycle": {
    "locationSet": {"include": ["ca", "us"]},
    "tags": {
      "brand": "SoulCycle",
      "brand:wikidata": "Q17084730",
      "brand:wikipedia": "en:SoulCycle",
      "leisure": "fitness_centre",
      "name": "SoulCycle",
      "sport": "cycling"
    }
  },
  "leisure/fitness_centre|Talwalkars": {
    "locationSet": {"include": ["in"]},
    "tags": {
      "brand": "Talkwalkars",
      "brand:wikidata": "Q7680402",
      "brand:wikipedia": "en:Talwalkars",
      "leisure": "fitness_centre",
      "name": "Talwalkars"
    }
  },
  "leisure/fitness_centre|The Gym": {
    "locationSet": {"include": ["gb"]},
    "matchNames": ["the gym group"],
    "tags": {
      "brand": "The Gym",
      "brand:wikidata": "Q48815022",
      "brand:wikipedia": "en:The Gym Group",
      "leisure": "fitness_centre",
      "name": "The Gym"
    }
  },
  "leisure/fitness_centre|Total Fitness": {
    "locationSet": {"include": ["gb"]},
    "tags": {
      "brand": "Total Fitness",
      "brand:wikidata": "Q7828019",
      "brand:wikipedia": "en:Total Fitness",
      "leisure": "fitness_centre",
      "name": "Total Fitness"
    }
  },
  "leisure/fitness_centre|Virgin Active": {
    "locationSet": {"include": ["001"]},
    "tags": {
      "brand": "Virgin Active",
      "brand:wikidata": "Q4013942",
      "brand:wikipedia": "en:Virgin Active",
      "leisure": "fitness_centre",
      "name": "Virgin Active"
    }
  },
  "leisure/fitness_centre|World Class": {
    "locationSet": {"include": ["001"]},
    "tags": {
      "brand": "World Class",
      "leisure": "fitness_centre",
      "name": "World Class"
    }
  },
  "leisure/fitness_centre|World Gym": {
    "locationSet": {
      "include": ["001"],
      "exclude": ["tw"]
    },
    "tags": {
      "brand": "World Gym",
      "brand:wikidata": "Q8035794",
      "brand:wikipedia": "en:World Gym",
      "leisure": "fitness_centre",
      "name": "World Gym"
    }
  },
  "leisure/fitness_centre|World Gym~(Taiwan)": {
    "locationSet": {"include": ["tw"]},
    "tags": {
      "brand": "World Gym健身俱樂部",
      "brand:en": "World Gym",
      "brand:wikidata": "Q8035794",
      "brand:wikipedia": "zh:世界健身俱樂部",
      "brand:zh": "世界健身俱樂部",
      "leisure": "fitness_centre",
      "name": "World Gym健身俱樂部",
      "name:en": "World Gym",
      "name:zh": "世界健身俱樂部"
    }
  },
  "leisure/fitness_centre|Xercise4Less": {
    "locationSet": {"include": ["gb"]},
    "tags": {
      "brand": "Xercise4Less",
      "brand:wikidata": "Q79244612",
      "leisure": "fitness_centre",
      "name": "Xercise4Less"
    }
  },
  "leisure/fitness_centre|エニタイムフィットネス": {
    "locationSet": {"include": ["jp"]},
    "tags": {
      "alt_name:en": "Fast Fitness",
      "brand": "エニタイムフィットネス",
      "brand:en": "Anytime Fitness",
      "brand:ja": "エニタイムフィットネス",
      "brand:wikidata": "Q4778364",
      "brand:wikipedia": "ja:エニタイムフィットネス",
      "leisure": "fitness_centre",
      "name": "エニタイムフィットネス",
      "name:en": "Anytime Fitness",
      "name:ja": "エニタイムフィットネス"
    }
  },
  "leisure/fitness_centre|カーブス": {
    "locationSet": {"include": ["jp"]},
    "tags": {
      "brand": "カーブス",
      "brand:en": "Curves",
      "brand:ja": "カーブス",
      "brand:wikidata": "Q5196080",
      "brand:wikipedia": "ja:カーブス",
      "leisure": "fitness_centre",
      "name": "カーブス",
      "name:en": "Curves",
      "name:ja": "カーブス"
    }
  },
  "leisure/fitness_centre|コナミスポーツクラブ": {
    "locationSet": {"include": ["jp"]},
    "tags": {
      "brand": "コナミスポーツクラブ",
      "brand:en": "Konami Sports Club",
      "brand:ja": "コナミスポーツクラブ",
      "brand:wikidata": "Q11302286",
      "brand:wikipedia": "ja:コナミスポーツ (企業)",
      "leisure": "fitness_centre",
      "name": "コナミスポーツクラブ",
      "name:en": "Konami Sports Club",
      "name:ja": "コナミスポーツクラブ"
    }
  },
  "leisure/fitness_centre|ジョイフィット": {
    "locationSet": {"include": ["jp"]},
    "tags": {
      "brand": "ジョイフィット",
      "brand:en": "JOYFIT",
      "brand:ja": "ジョイフィット",
      "brand:wikidata": "Q11310515",
      "brand:wikipedia": "ja:ジョイフィット",
      "leisure": "fitness_centre",
      "name": "ジョイフィット",
      "name:en": "JOYFIT",
      "name:ja": "ジョイフィット"
    }
  },
  "leisure/fitness_centre|ティップネス": {
    "locationSet": {"include": ["jp"]},
    "tags": {
      "brand": "ティップネス",
      "brand:en": "Tipness",
      "brand:ja": "ティップネス",
      "brand:wikidata": "Q11318940",
      "brand:wikipedia": "ja:ティップネス",
      "leisure": "fitness_centre",
      "name": "ティップネス",
      "name:en": "Tipness",
      "name:ja": "ティップネス"
    }
  },
  "leisure/fitness_centre|メガロス": {
    "locationSet": {"include": ["jp"]},
    "tags": {
      "brand": "メガロス",
      "brand:en": "MEGALOS",
      "brand:ja": "メガロス",
      "brand:wikidata": "Q11343532",
      "brand:wikipedia": "ja:メガロス",
      "leisure": "fitness_centre",
      "name": "メガロス",
      "name:en": "MEGALOS",
      "name:ja": "メガロス"
    }
  },
  "leisure/fitness_centre|健身工廠": {
    "locationSet": {"include": ["tw"]},
    "tags": {
      "brand": "健身工廠",
      "brand:en": "Fitness Factory",
      "brand:zh": "健身工廠",
      "leisure": "fitness_centre",
      "name": "健身工廠",
      "name:en": "Fitness Factory",
      "name:zh": "健身工廠"
    }
  }
}
