{
  "amenity/bureau_de_change|CADECA": {
    "locationSet": {"include": ["cu"]},
    "tags": {
      "amenity": "bureau_de_change",
      "brand": "CADECA",
      "brand:wikidata": "Q62122716",
      "name": "CADECA"
    }
  },
  "amenity/bureau_de_change|Eurochange": {
    "locationSet": {"include": ["gb"]},
    "tags": {
      "amenity": "bureau_de_change",
      "brand": "Eurochange",
      "brand:wikidata": "Q86525249",
      "name": "Eurochange"
    }
  },
  "amenity/bureau_de_change|NM Money": {
    "locationSet": {"include": ["gb"]},
    "nomatch": [
      "office/financial_advisor|NM Money"
    ],
    "tags": {
      "amenity": "bureau_de_change",
      "brand": "NM Money",
      "brand:wikidata": "Q86529747",
      "name": "NM Money"
    }
  },
  "amenity/bureau_de_change|No1 Currency": {
    "locationSet": {"include": ["gb", "ie"]},
    "tags": {
      "amenity": "bureau_de_change",
      "brand": "No1 Currency",
      "brand:wikidata": "Q87139463",
      "name": "No1 Currency"
    }
  },
  "amenity/bureau_de_change|PocketChange": {
    "locationSet": {"include": ["jp", "tw"]},
    "tags": {
      "amenity": "bureau_de_change",
      "brand": "PocketChange",
      "brand:ja": "ポケットチェンジ",
      "brand:wikidata": "Q96182316",
      "name": "PocketChange",
      "name:ja": "ポケットチェンジ"
    }
  },
  "amenity/bureau_de_change|Travelex": {
    "locationSet": {"include": ["001"]},
    "tags": {
      "amenity": "bureau_de_change",
      "brand": "Travelex",
      "brand:wikidata": "Q2337964",
      "brand:wikipedia": "en:Travelex",
      "name": "Travelex"
    }
  },
  "amenity/bureau_de_change|Беларусбанк": {
    "locationSet": {"include": ["001"]},
    "nomatch": ["amenity/bank|Беларусбанк"],
    "tags": {
      "amenity": "bureau_de_change",
      "brand": "Беларусбанк",
      "name": "Беларусбанк"
    }
  },
  "amenity/bureau_de_change|Обмен валют Кит Group": {
    "locationSet": {"include": ["001"]},
    "tags": {
      "amenity": "bureau_de_change",
      "brand": "Обмен валют Кит Group",
      "name": "Обмен валют Кит Group"
    }
  },
  "amenity/bureau_de_change|Обмін валют": {
    "locationSet": {"include": ["001"]},
    "tags": {
      "amenity": "bureau_de_change",
      "brand": "Обмін валют",
      "name": "Обмін валют"
    }
  }
}