{
  "amenity/cafe|85度C": {
    "count": 187,
    "tags": {
      "amenity": "cafe",
      "brand": "85度C",
      "brand:en": "85C Bakery Cafe",
      "brand:wikidata": "Q4644852",
      "brand:wikipedia": "en:85C Bakery Cafe",
      "cuisine": "coffee_shop",
      "name": "85度C",
      "name:en": "85C Bakery Cafe",
      "takeaway": "yes"
    }
  },
  "amenity/cafe|Barista": {
    "count": 68,
    "countryCodes": ["in", "lk", "mv", "np"],
    "tags": {
      "amenity": "cafe",
      "brand": "Barista",
      "brand:wikidata": "Q644735",
      "brand:wikipedia": "en:Barista (company)",
      "cuisine": "coffee_shop",
      "name": "Barista",
      "takeaway": "yes"
    }
  },
  "amenity/cafe|Bonafide": {
    "count": 75,
    "countryCodes": ["ar", "cl"],
    "tags": {
      "amenity": "cafe",
      "brand": "Bonafide",
      "brand:wikidata": "Q62122746",
      "cuisine": "coffee_shop",
      "name": "Bonafide",
      "takeaway": "yes"
    }
  },
  "amenity/cafe|Cafe Coffee Day": {
    "count": 280,
    "match": ["amenity/cafe|Café Coffee Day"],
    "tags": {
      "amenity": "cafe",
      "brand": "Cafe Coffee Day",
      "brand:wikidata": "Q5017235",
      "brand:wikipedia": "en:Café Coffee Day",
      "cuisine": "coffee_shop",
      "name": "Cafe Coffee Day",
      "takeaway": "yes"
    }
  },
  "amenity/cafe|Caffè Nero": {
    "count": 305,
    "match": [
      "amenity/cafe|Cafe Nero",
      "amenity/cafe|Caffe Nero"
    ],
    "tags": {
      "amenity": "cafe",
      "brand": "Caffè Nero",
      "brand:wikidata": "Q675808",
      "brand:wikipedia": "en:Caffè Nero",
      "cuisine": "coffee_shop",
      "name": "Caffè Nero",
      "takeaway": "yes"
    }
  },
  "amenity/cafe|Café Amazon": {
    "count": 272,
    "match": [
      "amenity/cafe|Cafe Amazon",
      "shop/coffee|Cafe Amazon",
      "shop/coffee|Café Amazon"
    ],
    "tags": {
      "amenity": "cafe",
      "brand": "Café Amazon",
      "brand:wikidata": "Q43247503",
      "brand:wikipedia": "en:Café Amazon",
      "cuisine": "coffee_shop",
      "name": "Café Amazon",
      "takeaway": "yes"
    }
  },
  "amenity/cafe|Café Martínez": {
    "count": 162,
    "countryCodes": ["ar"],
    "tags": {
      "amenity": "cafe",
      "brand": "Café Martínez",
      "brand:wikidata": "Q16540032",
      "brand:wikipedia": "es:Café Martínez",
      "cuisine": "coffee_shop",
      "name": "Café Martínez",
      "takeaway": "yes"
    }
  },
  "amenity/cafe|Café de Paris": {
    "count": 51,
    "tags": {
      "amenity": "cafe",
      "brand": "Café de Paris",
      "cuisine": "coffee_shop",
      "name": "Café de Paris",
      "takeaway": "yes"
    }
  },
  "amenity/cafe|Cappuccino": {
    "count": 54,
    "tags": {
      "amenity": "cafe",
      "brand": "Cappuccino",
      "cuisine": "coffee_shop",
      "name": "Cappuccino",
      "takeaway": "yes"
    }
  },
  "amenity/cafe|Caribou Coffee": {
    "count": 215,
    "tags": {
      "amenity": "cafe",
      "brand": "Caribou Coffee",
      "brand:wikidata": "Q5039494",
      "brand:wikipedia": "en:Caribou Coffee",
      "cuisine": "coffee_shop",
      "name": "Caribou Coffee",
      "takeaway": "yes"
    }
  },
  "amenity/cafe|Chatime": {
    "count": 76,
    "tags": {
      "amenity": "cafe",
      "brand": "Chatime",
      "brand:wikidata": "Q16829306",
      "brand:wikipedia": "en:Chatime",
      "cuisine": "coffee_shop",
      "name": "Chatime",
      "takeaway": "yes"
    }
  },
  "amenity/cafe|Coffee Bean": {
    "count": 55,
    "tags": {
      "amenity": "cafe",
      "brand": "Coffee Bean",
      "cuisine": "coffee_shop",
      "name": "Coffee Bean",
      "takeaway": "yes"
    }
  },
  "amenity/cafe|Coffee Culture": {
    "count": 51,
    "tags": {
      "amenity": "cafe",
      "brand": "Coffee Culture",
      "cuisine": "coffee_shop",
      "name": "Coffee Culture",
      "takeaway": "yes"
    }
  },
  "amenity/cafe|Coffee Fellows": {
    "count": 102,
    "tags": {
      "amenity": "cafe",
      "brand": "Coffee Fellows",
      "brand:wikidata": "Q23461429",
      "brand:wikipedia": "en:Coffee Fellows",
      "cuisine": "coffee_shop",
      "name": "Coffee Fellows",
      "takeaway": "yes"
    }
  },
  "amenity/cafe|Coffee House": {
    "count": 93,
    "countryCodes": ["fi"],
    "tags": {
      "amenity": "cafe",
      "brand": "Coffee House",
      "brand:wikidata": "Q11855430",
      "brand:wikipedia": "fi:Coffee House",
      "cuisine": "coffee_shop",
      "name": "Coffee House",
      "takeaway": "yes"
    }
  },
  "amenity/cafe|Coffee Island": {
    "count": 88,
    "tags": {
      "amenity": "cafe",
      "brand": "Coffee Island",
      "brand:wikidata": "Q60867333",
      "brand:wikipedia": "en:Coffee Island",
      "cuisine": "coffee_shop",
      "name": "Coffee Island",
      "takeaway": "yes"
    }
  },
  "amenity/cafe|Coffee Time": {
    "count": 132,
    "tags": {
      "amenity": "cafe",
      "brand": "Coffee Time",
      "brand:wikidata": "Q5140932",
      "brand:wikipedia": "en:Coffee Time",
      "cuisine": "coffee_shop",
      "name": "Coffee Time",
      "takeaway": "yes"
    }
  },
  "amenity/cafe|Costa": {
    "count": 1105,
    "match": ["amenity/cafe|Costa Coffee"],
    "tags": {
      "amenity": "cafe",
      "brand": "Costa",
      "brand:wikidata": "Q608845",
      "brand:wikipedia": "en:Costa Coffee",
      "cuisine": "coffee_shop",
      "name": "Costa",
      "takeaway": "yes"
    }
  },
  "amenity/cafe|Country Style": {
    "count": 75,
    "tags": {
      "amenity": "cafe",
      "brand": "Country Style",
      "brand:wikidata": "Q5177435",
      "brand:wikipedia": "en:Country Style",
      "cuisine": "coffee_shop",
      "name": "Country Style",
      "takeaway": "yes"
    }
  },
  "amenity/cafe|Dolce Vita": {
    "count": 58,
    "tags": {
      "amenity": "cafe",
      "brand": "Dolce Vita",
      "cuisine": "coffee_shop",
      "name": "Dolce Vita",
      "takeaway": "yes"
    }
  },
  "amenity/cafe|Dutch Bros. Coffee": {
    "count": 169,
    "countryCodes": ["us"],
    "match": [
      "amenity/cafe|Dutch Bro's",
      "amenity/cafe|Dutch Brother's",
      "amenity/cafe|Dutch Brothers",
      "amenity/fast_food|Dutch Bro's",
      "amenity/fast_food|Dutch Brother's",
      "amenity/fast_food|Dutch Brothers",
      "shop/coffee|Dutch Bro's",
      "shop/coffee|Dutch Brother's",
      "shop/coffee|Dutch Brothers"
    ],
    "tags": {
      "amenity": "cafe",
      "brand": "Dutch Bros. Coffee",
      "brand:wikidata": "Q5317253",
      "brand:wikipedia": "en:Dutch Bros. Coffee",
      "cuisine": "coffee_shop",
      "name": "Dutch Bros. Coffee",
      "takeaway": "yes"
    }
  },
  "amenity/cafe|Espresso House": {
    "count": 186,
    "countryCodes": ["dk", "fi", "no", "se"],
    "tags": {
      "amenity": "cafe",
      "brand": "Espresso House",
      "brand:wikidata": "Q10489162",
      "brand:wikipedia": "en:Espresso House",
      "cuisine": "coffee_shop",
      "name": "Espresso House",
      "takeaway": "yes"
    }
  },
  "amenity/cafe|Fran's Café": {
    "countryCodes": ["br"],
    "nocount": true,
    "tags": {
      "amenity": "cafe",
      "brand": "Fran's Café",
      "brand:website": "http://www.franscafe.com.br",
      "brand:wikidata": "Q62075645",
      "cuisine": "coffee_shop",
      "name": "Fran's Café",
      "takeaway": "yes"
    }
  },
  "amenity/cafe|Havanna": {
    "count": 94,
    "tags": {
      "amenity": "cafe",
      "brand": "Havanna",
      "brand:wikidata": "Q2900869",
      "brand:wikipedia": "es:Havanna",
      "cuisine": "coffee_shop",
      "name": "Havanna",
      "takeaway": "yes"
    }
  },
  "amenity/cafe|Insomnia": {
    "count": 58,
    "tags": {
      "amenity": "cafe",
      "brand": "Insomnia",
      "brand:wikidata": "Q6038271",
      "brand:wikipedia": "en:Insomnia Coffee Company",
      "cuisine": "coffee_shop",
      "name": "Insomnia",
      "takeaway": "yes"
    }
  },
  "amenity/cafe|Joe & The Juice": {
    "count": 85,
    "tags": {
      "amenity": "cafe",
      "brand": "Joe & The Juice",
      "brand:wikidata": "Q26221514",
      "brand:wikipedia": "en:Joe & The Juice",
      "cuisine": "coffee_shop",
      "name": "Joe & The Juice",
      "takeaway": "yes"
    }
  },
  "amenity/cafe|Le Pain Quotidien": {
    "count": 80,
    "tags": {
      "amenity": "cafe",
      "brand": "Le Pain Quotidien",
      "brand:wikidata": "Q2046903",
      "brand:wikipedia": "en:Le Pain Quotidien",
      "cuisine": "coffee_shop",
      "name": "Le Pain Quotidien",
      "takeaway": "yes"
    }
  },
  "amenity/cafe|Mado": {
    "count": 59,
    "tags": {
      "amenity": "cafe",
      "brand": "Mado",
      "brand:wikidata": "Q17116336",
      "brand:wikipedia": "en:Mado (food company)",
      "cuisine": "coffee_shop",
      "name": "Mado",
      "takeaway": "yes"
    }
  },
  "amenity/cafe|McCafé": {
    "count": 84,
    "tags": {
      "amenity": "cafe",
      "brand": "McCafé",
      "brand:wikidata": "Q3114287",
      "brand:wikipedia": "en:McCafé",
      "cuisine": "coffee_shop",
      "name": "McCafé",
      "operator:wikidata": "Q38076",
      "operator:wikipedia": "en:McDonald's",
      "takeaway": "yes"
    }
  },
  "amenity/cafe|Mikel": {
    "count": 55,
    "tags": {
      "amenity": "cafe",
      "brand": "Mikel",
      "cuisine": "coffee_shop",
      "name": "Mikel",
      "takeaway": "yes"
    }
  },
  "amenity/cafe|Patisserie Valerie": {
    "count": 58,
    "countryCodes": ["gb"],
    "tags": {
      "amenity": "cafe",
      "brand": "Patisserie Valerie",
      "brand:wikidata": "Q22101966",
      "brand:wikipedia": "en:Patisserie Valerie",
      "cuisine": "coffee_shop",
      "name": "Patisserie Valerie",
      "takeaway": "yes"
    }
  },
  "amenity/cafe|Peet's Coffee": {
    "count": 116,
    "countryCodes": ["us"],
    "match": ["amenity/cafe|Peet's Coffee & Tea"],
    "tags": {
      "amenity": "cafe",
      "brand": "Peet's Coffee",
      "brand:wikidata": "Q1094101",
      "brand:wikipedia": "en:Peet's Coffee",
      "cuisine": "coffee_shop",
      "name": "Peet's Coffee",
      "takeaway": "yes"
    }
  },
  "amenity/cafe|Prime": {
    "count": 65,
    "countryCodes": ["ru"],
    "tags": {
      "amenity": "cafe",
      "brand": "Prime",
      "brand:wikidata": "Q62122839",
      "cuisine": "coffee_shop",
      "name": "Prime",
      "takeaway": "yes"
    }
  },
  "amenity/cafe|Pronto": {
    "countryCodes": ["jp"],
    "match": ["amenity/cafe|プロント"],
    "nocount": true,
    "nomatch": ["shop/convenience|Coop Pronto"],
    "tags": {
      "amenity": "cafe",
      "brand": "Pronto",
      "brand:wikidata": "Q11336224",
      "brand:wikipedia": "ja:プロントコーポレーション",
      "cuisine": "coffee_shop",
      "name": "Pronto",
      "name:ja": "プロント",
      "takeaway": "yes"
    }
  },
  "amenity/cafe|Pumpkin": {
    "countryCodes": ["gb"],
    "match": [
      "amenity/cafe|Pumpkin Cafe Shop",
      "amenity/cafe|Pumpkin Café Shop"
    ],
    "nocount": true,
    "tags": {
      "amenity": "cafe",
      "brand": "Pumpkin",
      "brand:wikidata": "Q27825961",
      "brand:wikipedia": "en:Pumpkin Café Shop",
      "cuisine": "coffee_shop",
      "name": "Pumpkin",
      "takeaway": "yes"
    }
  },
  "amenity/cafe|Second Cup": {
    "count": 236,
    "tags": {
      "amenity": "cafe",
      "brand": "Second Cup",
      "brand:wikidata": "Q862180",
      "brand:wikipedia": "en:Second Cup",
      "cuisine": "coffee_shop",
      "name": "Second Cup",
      "takeaway": "yes"
    }
  },
  "amenity/cafe|Segafredo": {
    "count": 106,
    "tags": {
      "amenity": "cafe",
      "brand": "Segafredo",
      "brand:wikidata": "Q21282762",
      "brand:wikipedia": "it:Segafredo Zanetti",
      "cuisine": "coffee_shop",
      "name": "Segafredo",
      "takeaway": "yes"
    }
  },
  "amenity/cafe|Starbucks": {
    "count": 9856,
    "match": [
      "amenity/cafe|Starbuck's",
      "amenity/cafe|Starbucks Coffee",
      "amenity/fast_food|Starbuck's",
      "amenity/fast_food|Starbucks",
      "amenity/fast_food|Starbucks Coffee",
      "amenity/restaurant|Starbuck's",
      "amenity/restaurant|Starbucks",
      "amenity/restaurant|Starbucks Coffee",
      "shop/coffee|Starbuck's",
      "shop/coffee|Starbucks",
      "shop/coffee|Starbucks Coffee"
    ],
    "tags": {
      "amenity": "cafe",
      "brand": "Starbucks",
      "brand:wikidata": "Q37158",
      "brand:wikipedia": "en:Starbucks",
      "cuisine": "coffee_shop",
      "name": "Starbucks",
      "takeaway": "yes"
    }
  },
  "amenity/cafe|The Coffee Bean & Tea Leaf": {
    "count": 162,
    "tags": {
      "amenity": "cafe",
      "brand": "The Coffee Bean & Tea Leaf",
      "brand:wikidata": "Q1141384",
      "brand:wikipedia": "en:The Coffee Bean & Tea Leaf",
      "cuisine": "coffee_shop",
      "name": "The Coffee Bean & Tea Leaf",
      "takeaway": "yes"
    }
  },
  "amenity/cafe|The Coffee Club": {
    "count": 103,
    "tags": {
      "amenity": "cafe",
      "brand": "The Coffee Club",
      "brand:wikidata": "Q7726599",
      "brand:wikipedia": "en:The Coffee Club",
      "cuisine": "coffee_shop",
      "name": "The Coffee Club",
      "takeaway": "yes"
    }
  },
  "amenity/cafe|Tim Hortons": {
    "count": 2477,
    "match": [
      "amenity/fast_food|Tim Hortons",
      "amenity/restaurant|Tim Hortons"
    ],
    "tags": {
      "amenity": "cafe",
      "brand": "Tim Hortons",
      "brand:wikidata": "Q175106",
      "brand:wikipedia": "en:Tim Hortons",
      "cuisine": "coffee_shop",
      "name": "Tim Hortons",
      "takeaway": "yes"
    }
  },
  "amenity/cafe|Traveler's Coffee": {
    "count": 74,
    "tags": {
      "amenity": "cafe",
      "brand": "Traveler's Coffee",
      "brand:wikidata": "Q4051716",
      "brand:wikipedia": "ru:Traveler’s Coffee",
      "cuisine": "coffee_shop",
      "name": "Traveler's Coffee",
      "takeaway": "yes"
    }
  },
  "amenity/cafe|Wayne's Coffee": {
    "count": 52,
    "tags": {
      "amenity": "cafe",
      "brand": "Wayne's Coffee",
      "brand:wikidata": "Q2637272",
      "brand:wikipedia": "en:Wayne's Coffee",
      "cuisine": "coffee_shop",
      "name": "Wayne's Coffee",
      "takeaway": "yes"
    }
  },
  "amenity/cafe|Wild Bean Cafe": {
    "count": 61,
    "tags": {
      "amenity": "cafe",
      "brand": "Wild Bean Cafe",
      "brand:wikidata": "Q61804826",
      "cuisine": "coffee_shop",
      "name": "Wild Bean Cafe",
      "takeaway": "yes"
    }
  },
  "amenity/cafe|Берёзка": {
    "count": 58,
    "tags": {
      "amenity": "cafe",
      "brand": "Берёзка",
      "cuisine": "coffee_shop",
      "name": "Берёзка",
      "takeaway": "yes"
    }
  },
  "amenity/cafe|Виктория": {
    "count": 59,
    "tags": {
      "amenity": "cafe",
      "brand": "Виктория",
      "cuisine": "coffee_shop",
      "name": "Виктория",
      "takeaway": "yes"
    }
  },
  "amenity/cafe|Гурман": {
    "count": 60,
    "tags": {
      "amenity": "cafe",
      "brand": "Гурман",
      "cuisine": "coffee_shop",
      "name": "Гурман",
      "takeaway": "yes"
    }
  },
  "amenity/cafe|Даблби": {
    "count": 68,
    "countryCodes": ["ru"],
    "tags": {
      "amenity": "cafe",
      "brand": "Даблби",
      "brand:en": "Double B",
      "brand:wikidata": "Q62501686",
      "cuisine": "coffee_shop",
      "name": "Даблби",
      "name:en": "Double B",
      "takeaway": "yes"
    }
  },
  "amenity/cafe|Лакомка": {
    "count": 68,
    "tags": {
      "amenity": "cafe",
      "brand": "Лакомка",
      "cuisine": "coffee_shop",
      "name": "Лакомка",
      "takeaway": "yes"
    }
  },
  "amenity/cafe|Оазис": {
    "count": 66,
    "tags": {
      "amenity": "cafe",
      "brand": "Оазис",
      "brand:en": "Oasis",
      "cuisine": "coffee_shop",
      "name": "Оазис",
      "name:en": "Oasis",
      "takeaway": "yes"
    }
  },
  "amenity/cafe|Сказка": {
    "count": 78,
    "tags": {
      "amenity": "cafe",
      "brand": "Сказка",
      "cuisine": "coffee_shop",
      "name": "Сказка",
      "takeaway": "yes"
    }
  },
  "amenity/cafe|Смак": {
    "count": 65,
    "tags": {
      "amenity": "cafe",
      "brand": "Смак",
      "brand:en": "Taste",
      "cuisine": "coffee_shop",
      "name": "Смак",
      "name:en": "Taste",
      "takeaway": "yes"
    }
  },
  "amenity/cafe|Старбакс": {
    "count": 72,
    "tags": {
      "amenity": "cafe",
      "brand": "Старбакс",
      "brand:en": "Starbucks",
      "brand:wikidata": "Q37158",
      "brand:wikipedia": "en:Starbucks",
      "cuisine": "coffee_shop",
      "name": "Старбакс",
      "name:en": "Starbucks",
      "takeaway": "yes"
    }
  },
  "amenity/cafe|Транзит": {
    "count": 51,
    "tags": {
      "amenity": "cafe",
      "brand": "Транзит",
      "cuisine": "coffee_shop",
      "name": "Транзит",
      "takeaway": "yes"
    }
  },
  "amenity/cafe|Фортуна": {
    "count": 55,
    "tags": {
      "amenity": "cafe",
      "brand": "Фортуна",
      "cuisine": "coffee_shop",
      "name": "Фортуна",
      "takeaway": "yes"
    }
  },
  "amenity/cafe|Хуторок": {
    "count": 70,
    "tags": {
      "amenity": "cafe",
      "brand": "Хуторок",
      "cuisine": "coffee_shop",
      "name": "Хуторок",
      "takeaway": "yes"
    }
  },
  "amenity/cafe|Шоколадница": {
    "count": 329,
    "countryCodes": ["ru"],
    "match": ["amenity/cafe|Шоколад"],
    "tags": {
      "amenity": "cafe",
      "brand": "Шоколадница",
      "brand:en": "Chocolate",
      "brand:wikidata": "Q30891188",
      "brand:wikipedia": "ru:Шоколадница (сеть кофеен)",
      "cuisine": "coffee_shop",
      "name": "Шоколадница",
      "name:en": "Chocolate",
      "takeaway": "yes"
    }
  },
  "amenity/cafe|Штолле": {
    "count": 56,
    "countryCodes": ["by", "ru", "ua"],
    "tags": {
      "amenity": "cafe",
      "brand": "Штолле",
      "brand:en": "Stolle",
      "brand:wikidata": "Q62502236",
      "cuisine": "coffee_shop",
      "name": "Штолле",
      "name:en": "Stolle",
      "takeaway": "yes"
    }
  },
  "amenity/cafe|ארומה": {
    "count": 71,
    "countryCodes": ["il"],
    "tags": {
      "amenity": "cafe",
      "brand": "ארומה",
      "brand:en": "Aroma Espresso Bar",
      "brand:he": "ארומה",
      "brand:wikidata": "Q2909872",
      "brand:wikipedia": "en:Aroma Espresso Bar",
      "cuisine": "coffee_shop",
      "name": "ארומה",
      "name:en": "Aroma Espresso Bar",
      "name:he": "ארומה",
      "takeaway": "yes"
    }
  },
  "amenity/cafe|คาเฟ่ อเมซอน": {
    "count": 59,
    "countryCodes": ["th"],
    "tags": {
      "amenity": "cafe",
      "brand": "คาเฟ่ อเมซอน",
      "brand:en": "Café Amazon",
      "brand:th": "คาเฟ่ อเมซอน",
      "brand:wikidata": "Q43247503",
      "brand:wikipedia": "en:Café Amazon",
      "cuisine": "coffee_shop",
      "name": "คาเฟ่ อเมซอน",
      "name:en": "Café Amazon",
      "name:th": "คาเฟ่ อเมซอน",
      "takeaway": "yes"
    }
  },
  "amenity/cafe|エクセルシオール カフェ": {
    "count": 63,
    "countryCodes": ["jp"],
    "tags": {
      "amenity": "cafe",
      "brand": "エクセルシオール カフェ",
      "brand:en": "EXCELSIOR CAFFÉ",
      "brand:ja": "エクセルシオール カフェ",
      "brand:wikidata": "Q11289828",
      "brand:wikipedia": "ja:エクセルシオール カフェ",
      "cuisine": "coffee_shop",
      "name": "エクセルシオール カフェ",
      "name:ja": "エクセルシオール カフェ",
      "takeaway": "yes"
    }
  },
  "amenity/cafe|カフェ・ド・クリエ": {
    "count": 80,
    "countryCodes": ["jp"],
    "tags": {
      "amenity": "cafe",
      "brand": "カフェ・ド・クリエ",
      "brand:en": "Cafe de CRIE",
      "brand:ja": "カフェ・ド・クリエ",
      "brand:wikidata": "Q17219077",
      "brand:wikipedia": "ja:ポッカクリエイト",
      "cuisine": "coffee_shop",
      "name": "カフェ・ド・クリエ",
      "name:en": "Cafe de CRIE",
      "name:ja": "カフェ・ド・クリエ",
      "takeaway": "yes"
    }
  },
  "amenity/cafe|カフェ・ベローチェ": {
    "count": 111,
    "countryCodes": ["jp"],
    "tags": {
      "amenity": "cafe",
      "brand": "カフェ・ベローチェ",
      "brand:en": "CAFFÈ VELOCE",
      "brand:ja": "カフェ・ベローチェ",
      "brand:wikidata": "Q11294597",
      "brand:wikipedia": "ja:カフェ・ベローチェ",
      "cuisine": "coffee_shop",
      "name": "カフェ・ベローチェ",
      "name:en": "CAFFÈ VELOCE",
      "name:ja": "カフェ・ベローチェ",
      "takeaway": "yes"
    }
  },
  "amenity/cafe|コメダ珈琲店": {
    "count": 260,
    "countryCodes": ["jp"],
    "tags": {
      "amenity": "cafe",
      "brand": "コメダ珈琲店",
      "brand:en": "Komeda Coffee Shop",
      "brand:ja": "コメダ珈琲店",
      "brand:wikidata": "Q11302679",
      "brand:wikipedia": "ja:コメダ",
      "cuisine": "coffee_shop",
      "name": "コメダ珈琲店",
      "name:en": "Komeda Coffee Shop",
      "name:ja": "コメダ珈琲店",
      "takeaway": "yes"
    }
  },
  "amenity/cafe|サンマルクカフェ": {
    "count": 170,
    "countryCodes": ["jp"],
    "tags": {
      "amenity": "cafe",
      "brand": "サンマルクカフェ",
      "brand:en": "ST.MARC CAFÉ",
      "brand:ja": "サンマルクカフェ",
      "brand:wikidata": "Q11305989",
      "brand:wikipedia": "ja:サンマルクホールディングス",
      "cuisine": "coffee_shop",
      "name": "サンマルクカフェ",
      "name:en": "ST.MARC CAFÉ",
      "name:ja": "サンマルクカフェ",
      "takeaway": "yes"
    }
  },
  "amenity/cafe|スターバックス": {
    "count": 636,
    "countryCodes": ["jp"],
    "tags": {
      "amenity": "cafe",
      "brand": "スターバックス",
      "brand:en": "Starbucks",
      "brand:ja": "スターバックス",
      "brand:wikidata": "Q37158",
      "brand:wikipedia": "ja:スターバックス",
      "cuisine": "coffee_shop",
      "name": "スターバックス",
      "name:en": "Starbucks",
      "name:ja": "スターバックス",
      "takeaway": "yes"
    }
  },
  "amenity/cafe|タリーズコーヒー": {
    "count": 279,
    "countryCodes": ["jp"],
    "tags": {
      "amenity": "cafe",
      "brand": "タリーズコーヒー",
      "brand:en": "Tully's Coffee",
      "brand:ja": "タリーズコーヒー",
      "brand:wikidata": "Q3541983",
      "brand:wikipedia": "en:Tully's Coffee",
      "cuisine": "coffee_shop",
      "name": "タリーズコーヒー",
      "name:en": "Tully's Coffee",
      "name:ja": "タリーズコーヒー",
      "takeaway": "yes"
    }
  },
  "amenity/cafe|ドトールコーヒーショップ": {
    "count": 514,
    "countryCodes": ["jp"],
    "tags": {
      "amenity": "cafe",
      "brand": "ドトールコーヒーショップ",
      "brand:en": "Doutor",
      "brand:ja": "ドトールコーヒーショップ",
      "brand:wikidata": "Q11322732",
      "brand:wikipedia": "ja:ドトールコーヒーショップ",
      "cuisine": "coffee_shop",
      "name": "ドトールコーヒーショップ",
      "name:en": "Doutor Coffee Shop",
      "name:ja": "ドトールコーヒーショップ",
      "takeaway": "yes"
    }
  },
  "amenity/cafe|星巴克": {
    "count": 290,
    "countryCodes": ["cn", "tw"],
    "tags": {
      "amenity": "cafe",
      "brand": "星巴克",
      "brand:en": "Starbucks",
      "brand:wikidata": "Q37158",
      "brand:wikipedia": "zh:星巴克",
      "brand:zh": "星巴克",
      "cuisine": "coffee_shop",
      "name": "星巴克",
      "name:en": "Starbucks",
      "name:zh": "星巴克",
      "takeaway": "yes"
    }
  },
  "amenity/cafe|珈琲館": {
    "countryCodes": ["jp"],
    "nocount": true,
    "tags": {
      "amenity": "cafe",
      "brand": "珈琲館",
      "brand:en": "Kohikan",
      "brand:ja": "珈琲館",
      "brand:wikidata": "Q11573290",
      "brand:wikipedia": "ja:珈琲館",
      "cuisine": "coffee_shop",
      "name": "珈琲館",
      "name:en": "Kohikan",
      "name:ja": "珈琲館",
      "takeaway": "yes"
    }
  },
  "amenity/cafe|스타벅스": {
    "count": 103,
    "countryCodes": ["kr"],
    "tags": {
      "amenity": "cafe",
      "brand": "스타벅스",
      "brand:en": "Starbucks",
      "brand:ko": "스타벅스",
      "brand:wikidata": "Q37158",
      "brand:wikipedia": "ko:스타벅스",
      "cuisine": "coffee_shop",
      "name": "스타벅스",
      "name:en": "Starbucks",
      "name:ko": "스타벅스",
      "takeaway": "yes"
    }
  }
}