{
  "amenity/car_rental|Alamo": {
    "tags": {
      "amenity": "car_rental",
      "brand": "Alamo",
      "brand:wikidata": "Q1429287",
      "brand:wikipedia": "en:Alamo Rent a Car",
      "name": "Alamo"
    }
  },
  "amenity/car_rental|Avis": {
    "matchNames": ["avis car rental"],
    "tags": {
      "amenity": "car_rental",
      "brand": "Avis",
      "brand:wikidata": "Q791136",
      "brand:wikipedia": "en:Avis Car Rental",
      "name": "Avis"
    }
  },
  "amenity/car_rental|Budget": {
    "matchNames": ["budget car rental"],
    "tags": {
      "amenity": "car_rental",
      "brand": "Budget",
      "brand:wikidata": "Q1001437",
      "brand:wikipedia": "en:Budget Rent a Car",
      "name": "Budget",
      "official_name": "Budget Rent a Car"
    }
  },
  "amenity/car_rental|Dollar": {
    "countryCodes": ["us"],
    "tags": {
      "amenity": "car_rental",
      "brand": "Dollar",
      "brand:wikidata": "Q1235661",
      "brand:wikipedia": "en:Dollar Rent A Car",
      "name": "Dollar",
      "official_name": "Dollar Rent A Car"
    }
  },
  "amenity/car_rental|Enterprise": {
    "matchNames": ["enterprise car rental"],
    "tags": {
      "amenity": "car_rental",
      "brand": "Enterprise",
      "brand:wikidata": "Q17085454",
      "brand:wikipedia": "en:Enterprise Rent-A-Car",
      "name": "Enterprise",
      "official_name": "Enterprise Rent-A-Car"
    }
  },
  "amenity/car_rental|Europcar": {
    "tags": {
      "amenity": "car_rental",
      "brand": "Europcar",
      "brand:wikidata": "Q1376256",
      "brand:wikipedia": "en:Europcar",
      "name": "Europcar"
    }
  },
  "amenity/car_rental|Hertz": {
    "matchNames": ["hertz car rental"],
    "tags": {
      "amenity": "car_rental",
      "brand": "Hertz",
      "brand:wikidata": "Q1543874",
      "brand:wikipedia": "en:The Hertz Corporation",
      "name": "Hertz"
    }
  },
  "amenity/car_rental|Localiza": {
    "tags": {
      "amenity": "car_rental",
      "brand": "Localiza",
      "brand:wikidata": "Q10319490",
      "brand:wikipedia": "en:Localiza",
      "name": "Localiza"
    }
  },
  "amenity/car_rental|National": {
    "matchNames": ["national car rental"],
    "nomatch": ["amenity/bank|National Bank"],
    "tags": {
      "amenity": "car_rental",
      "brand": "National",
      "brand:wikidata": "Q1424142",
      "brand:wikipedia": "National Car Rental",
      "name": "National",
      "official_name": "National Car Rental"
    }
  },
  "amenity/car_rental|Sixt": {
    "tags": {
      "amenity": "car_rental",
      "brand": "Sixt",
      "brand:wikidata": "Q705664",
      "brand:wikipedia": "en:Sixt",
      "name": "Sixt"
    }
  },
  "amenity/car_rental|Thrifty": {
    "matchNames": ["thrifty car rental"],
    "tags": {
      "amenity": "car_rental",
      "brand": "Thrifty",
      "brand:wikidata": "Q2429546",
      "brand:wikipedia": "en:Thrifty Car Rental",
      "name": "Thrifty"
    }
  },
  "amenity/car_rental|U-Haul": {
    "matchNames": ["uhaul neighborhood dealer"],
    "tags": {
      "amenity": "car_rental",
      "brand": "U-Haul",
      "brand:wikidata": "Q7862902",
      "brand:wikipedia": "en:U-Haul",
      "name": "U-Haul"
    }
  },
  "amenity/car_rental|オリックスレンタカー": {
    "countryCodes": ["jp"],
    "tags": {
      "amenity": "car_rental",
      "brand": "オリックスレンタカー",
      "brand:en": "ORIX Car Rental",
      "brand:ja": "オリックスレンタカー",
      "brand:wikidata": "Q11123021",
      "brand:wikipedia": "ja:オリックスレンタカー",
      "name": "オリックスレンタカー",
      "name:en": "ORIX Car Rental",
      "name:ja": "オリックスレンタカー"
    }
  },
  "amenity/car_rental|トヨタレンタカー": {
    "countryCodes": ["jp"],
    "matchNames": ["トヨタレンタリース"],
    "tags": {
      "amenity": "car_rental",
      "brand": "トヨタレンタカー",
      "brand:en": "Toyota Rental Car",
      "brand:ja": "トヨタレンタカー",
      "brand:wikidata": "Q11321580",
      "brand:wikipedia": "ja:トヨタレンタリース",
      "name": "トヨタレンタカー",
      "name:en": "Toyota Rental Car",
      "name:ja": "トヨタレンタカー"
    }
  },
  "amenity/car_rental|ニッポンレンタカー": {
    "countryCodes": ["jp"],
    "tags": {
      "amenity": "car_rental",
      "brand": "ニッポンレンタカー",
      "brand:en": "Nippon Car Rental",
      "brand:ja": "ニッポンレンタカー",
      "brand:wikidata": "Q11086533",
      "brand:wikipedia": "ja:ニッポンレンタカー",
      "name": "ニッポンレンタカー",
      "name:en": "Nippon Car Rental",
      "name:ja": "ニッポンレンタカー"
    }
  },
  "amenity/car_rental|日産レンタカー": {
    "countryCodes": ["jp"],
    "tags": {
      "amenity": "car_rental",
      "brand": "日産レンタカー",
      "brand:en": "Nissan Car Rental",
      "brand:ja": "日産レンタカー",
      "brand:wikidata": "Q11086838",
      "brand:wikipedia": "ja:日産レンタカー",
      "name": "日産レンタカー",
      "name:en": "Nissan Car Rental",
      "name:ja": "日産レンタカー"
    }
  }
}