{
  "amenity/dentist|Aspen Dental": {
    "countryCodes": ["us"],
    "matchTags": ["healthcare/dentist"],
    "tags": {
      "amenity": "dentist",
      "brand": "Aspen Dental",
      "brand:wikidata": "Q4807808",
      "brand:wikipedia": "en:Aspen Dental",
      "healthcare": "dentist",
      "name": "Aspen Dental"
    }
  },
  "amenity/dentist|Comfort Dental": {
    "countryCodes": ["us"],
    "matchTags": ["healthcare/dentist"],
    "tags": {
      "amenity": "dentist",
      "brand": "Comfort Dental",
      "brand:wikidata": "Q22079521",
      "brand:wikipedia": "en:Comfort Dental",
      "healthcare": "dentist",
      "name": "Comfort Dental"
    }
  },
  "amenity/dentist|Dentix": {
    "tags": {
      "amenity": "dentist",
      "brand": "Dentix",
      "name": "Dentix"
    }
  },
  "amenity/dentist|Gentle Dental": {
    "countryCodes": ["us"],
    "tags": {
      "amenity": "dentist",
      "brand": "Gentle Dental",
      "name": "Gentle Dental"
    }
  },
  "amenity/dentist|Kool Smiles": {
    "countryCodes": ["us"],
    "matchTags": ["healthcare/dentist"],
    "tags": {
      "amenity": "dentist",
      "brand": "Kool Smiles",
      "brand:wikidata": "Q6430587",
      "brand:wikipedia": "en:Kool Smiles",
      "healthcare": "dentist",
      "name": "Kool Smiles"
    }
  },
  "amenity/dentist|Vitaldent": {
    "tags": {
      "amenity": "dentist",
      "brand": "Vitaldent",
      "name": "Vitaldent"
    }
  },
  "amenity/dentist|Western Dental": {
    "countryCodes": ["us"],
    "matchNames": [
      "western dental and orthodontics"
    ],
    "matchTags": ["healthcare/dentist"],
    "tags": {
      "alt_name": "Western Dental & Orthodontics",
      "amenity": "dentist",
      "brand": "Western Dental",
      "brand:wikidata": "Q64211989",
      "brand:wikipedia": "en:Western Dental",
      "healthcare": "dentist",
      "name": "Western Dental"
    }
  }
}