{
  "amenity/fast_food|A&W~(Canada)": {
    "countryCodes": ["ca"],
    "match": ["amenity/restaurant|A&W~(Canada)"],
    "nocount": true,
    "nomatch": ["amenity/fast_food|A&W~(USA)"],
    "tags": {
      "amenity": "fast_food",
      "brand": "A&W",
      "brand:wikidata": "Q2818848",
      "brand:wikipedia": "en:A&W (Canada)",
      "cuisine": "burger",
      "name": "A&W",
      "takeaway": "yes"
    }
  },
  "amenity/fast_food|A&W~(USA)": {
    "countryCodes": ["us"],
    "match": ["amenity/restaurant|A&W~(USA)"],
    "nocount": true,
    "nomatch": ["amenity/fast_food|A&W~(Canada)"],
    "tags": {
      "amenity": "fast_food",
      "brand": "A&W",
      "brand:wikidata": "Q277641",
      "brand:wikipedia": "en:A&W Restaurants",
      "cuisine": "burger",
      "name": "A&W",
      "takeaway": "yes"
    }
  },
  "amenity/fast_food|Andok's": {
    "count": 60,
    "countryCodes": ["ph"],
    "tags": {
      "amenity": "fast_food",
      "brand": "Andok's",
      "brand:wikidata": "Q62267166",
      "cuisine": "chicken",
      "name": "Andok's",
      "takeaway": "yes"
    }
  },
  "amenity/fast_food|Angel's Burger": {
    "count": 88,
    "countryCodes": ["ph"],
    "tags": {
      "amenity": "fast_food",
      "brand": "Angel's Burger",
      "brand:wikidata": "Q62267228",
      "cuisine": "burger",
      "name": "Angel's Burger",
      "takeaway": "yes"
    }
  },
  "amenity/fast_food|Arby's": {
    "count": 1986,
    "tags": {
      "amenity": "fast_food",
      "brand": "Arby's",
      "brand:wikidata": "Q630866",
      "brand:wikipedia": "en:Arby's",
      "cuisine": "sandwich",
      "name": "Arby's",
      "takeaway": "yes"
    }
  },
  "amenity/fast_food|Au Bon Pain": {
    "countryCodes": ["in", "th", "us"],
    "match": [
      "amenity/cafe|Au Bon Pain",
      "amenity/restaurant|Au Bon Pain"
    ],
    "nocount": true,
    "tags": {
      "amenity": "fast_food",
      "brand": "Au Bon Pain",
      "brand:wikidata": "Q4818942",
      "brand:wikipedia": "en:Au Bon Pain",
      "cuisine": "sandwich",
      "name": "Au Bon Pain",
      "takeaway": "yes"
    }
  },
  "amenity/fast_food|Auntie Anne's": {
    "count": 67,
    "match": [
      "amenity/fast_food|Auntie Annes",
      "amenity/restaurant|Auntie Anne's",
      "shop/bakery|Auntie Anne's"
    ],
    "tags": {
      "amenity": "fast_food",
      "brand": "Auntie Anne's",
      "brand:wikidata": "Q4822010",
      "brand:wikipedia": "en:Auntie Anne's",
      "cuisine": "pretzel",
      "name": "Auntie Anne's",
      "takeaway": "yes"
    }
  },
  "amenity/fast_food|Baja Fresh": {
    "count": 59,
    "tags": {
      "amenity": "fast_food",
      "brand": "Baja Fresh",
      "brand:wikidata": "Q2880019",
      "brand:wikipedia": "en:Baja Fresh",
      "cuisine": "mexican",
      "name": "Baja Fresh",
      "takeaway": "yes"
    }
  },
  "amenity/fast_food|Bembos": {
    "countryCodes": ["pe"],
    "nocount": true,
    "tags": {
      "amenity": "fast_food",
      "brand": "Bembos",
      "brand:wikidata": "Q466971",
      "brand:wikipedia": "en:Bembos",
      "cuisine": "burger",
      "name": "Bembos",
      "takeaway": "yes"
    }
  },
  "amenity/fast_food|Bob's": {
    "count": 119,
    "countryCodes": ["ao", "br", "cl", "pt"],
    "tags": {
      "amenity": "fast_food",
      "brand": "Bob's",
      "brand:wikidata": "Q1392113",
      "brand:wikipedia": "en:Bob's",
      "cuisine": "burger",
      "name": "Bob's",
      "takeaway": "yes"
    }
  },
  "amenity/fast_food|Bojangles'": {
    "count": 86,
    "countryCodes": ["us"],
    "match": [
      "amenity/fast_food|Bojangles",
      "amenity/restaurant|Bojangles",
      "amenity/restaurant|Bojangles'"
    ],
    "tags": {
      "amenity": "fast_food",
      "brand": "Bojangles'",
      "brand:wikidata": "Q891163",
      "brand:wikipedia": "en:Bojangles' Famous Chicken 'n Biscuits",
      "cuisine": "chicken",
      "name": "Bojangles'",
      "official_name": "Bojangles' Famous Chicken 'n Biscuits",
      "takeaway": "yes"
    }
  },
  "amenity/fast_food|Booster Juice": {
    "count": 113,
    "tags": {
      "amenity": "fast_food",
      "brand": "Booster Juice",
      "brand:wikidata": "Q4943796",
      "brand:wikipedia": "en:Booster Juice",
      "cuisine": "juice",
      "name": "Booster Juice",
      "takeaway": "yes"
    }
  },
  "amenity/fast_food|Boston Market": {
    "count": 154,
    "match": ["amenity/restaurant|Boston Market"],
    "tags": {
      "amenity": "fast_food",
      "brand": "Boston Market",
      "brand:wikidata": "Q603617",
      "brand:wikipedia": "en:Boston Market",
      "cuisine": "american",
      "name": "Boston Market",
      "takeaway": "yes"
    }
  },
  "amenity/fast_food|Braum's": {
    "count": 121,
    "countryCodes": ["us"],
    "match": ["shop/dairy|Braum's"],
    "tags": {
      "amenity": "fast_food",
      "brand": "Braum's",
      "brand:wikidata": "Q4958263",
      "brand:wikipedia": "en:Braum's",
      "cuisine": "ice_cream",
      "name": "Braum's",
      "shop": "dairy",
      "takeaway": "yes"
    }
  },
  "amenity/fast_food|Burger King": {
    "count": 8106,
    "match": [
      "amenity/fast_food|Burguer King",
      "amenity/restaurant|Burger King"
    ],
    "tags": {
      "amenity": "fast_food",
      "brand": "Burger King",
      "brand:wikidata": "Q177054",
      "brand:wikipedia": "en:Burger King",
      "cuisine": "burger",
      "name": "Burger King",
      "takeaway": "yes"
    }
  },
  "amenity/fast_food|Burger Machine": {
    "count": 65,
    "countryCodes": ["ph"],
    "tags": {
      "amenity": "fast_food",
      "brand": "Burger Machine",
      "brand:wikidata": "Q4998549",
      "brand:wikipedia": "en:Burger Machine",
      "cuisine": "burger",
      "name": "Burger Machine",
      "takeaway": "yes"
    }
  },
  "amenity/fast_food|BurgerFi": {
    "countryCodes": ["us"],
    "match": ["amenity/fast_food|BURGERFI"],
    "nocount": true,
    "tags": {
      "amenity": "fast_food",
      "brand": "BurgerFi",
      "brand:wikidata": "Q39045496",
      "brand:wikipedia": "en:BurgerFi",
      "cuisine": "burger",
      "name": "BurgerFi",
      "takeaway": "yes"
    }
  },
  "amenity/fast_food|Captain D's": {
    "count": 98,
    "countryCodes": ["us"],
    "match": ["amenity/restaurant|Captain D's"],
    "tags": {
      "amenity": "fast_food",
      "brand": "Captain D's",
      "brand:wikidata": "Q5036616",
      "brand:wikipedia": "en:Captain D's",
      "cuisine": "seafood",
      "name": "Captain D's",
      "takeaway": "yes"
    }
  },
  "amenity/fast_food|Carl's Jr.": {
    "count": 699,
    "match": [
      "amenity/fast_food|Carl's Jr",
      "amenity/fast_food|Carls Jr."
    ],
    "tags": {
      "amenity": "fast_food",
      "brand": "Carl's Jr.",
      "brand:wikidata": "Q1043486",
      "brand:wikipedia": "en:Carl's Jr.",
      "cuisine": "burger",
      "name": "Carl's Jr.",
      "takeaway": "yes"
    }
  },
  "amenity/fast_food|Checkers": {
    "count": 144,
    "nomatch": ["shop/supermarket|Checkers"],
    "tags": {
      "amenity": "fast_food",
      "brand": "Checkers",
      "brand:wikidata": "Q3419341",
      "brand:wikipedia": "en:Checkers and Rally's",
      "cuisine": "burger",
      "name": "Checkers",
      "takeaway": "yes"
    }
  },
  "amenity/fast_food|Chick-fil-A": {
    "count": 1221,
    "match": [
      "amenity/fast_food|Chick-Fil-A",
      "amenity/restaurant|Chick-Fil-A",
      "amenity/restaurant|Chick-fil-A"
    ],
    "tags": {
      "amenity": "fast_food",
      "brand": "Chick-fil-A",
      "brand:wikidata": "Q491516",
      "brand:wikipedia": "en:Chick-fil-A",
      "cuisine": "chicken",
      "name": "Chick-fil-A",
      "takeaway": "yes"
    }
  },
  "amenity/fast_food|Chicken Express": {
    "count": 102,
    "tags": {
      "amenity": "fast_food",
      "brand": "Chicken Express",
      "brand:wikidata": "Q5096235",
      "brand:wikipedia": "en:Chicken Express",
      "cuisine": "chicken",
      "name": "Chicken Express",
      "takeaway": "yes"
    }
  },
  "amenity/fast_food|China Wok": {
    "match": [
      "amenity/fast_food|ChinaWok",
      "amenity/restaurant|China Wok",
      "amenity/restaurant|ChinaWok"
    ],
    "nocount": true,
    "tags": {
      "amenity": "fast_food",
      "brand": "China Wok",
      "brand:wikidata": "Q5766542",
      "brand:wikipedia": "es:China Wok",
      "cuisine": "chinese",
      "name": "China Wok",
      "takeaway": "yes"
    }
  },
  "amenity/fast_food|Chipotle": {
    "count": 1040,
    "match": [
      "amenity/fast_food|Chipotle Mexican Grill",
      "amenity/restaurant|Chipotle",
      "amenity/restaurant|Chipotle Mexican Grill"
    ],
    "tags": {
      "amenity": "fast_food",
      "brand": "Chipotle",
      "brand:wikidata": "Q465751",
      "brand:wikipedia": "en:Chipotle Mexican Grill",
      "cuisine": "mexican",
      "name": "Chipotle",
      "official_name": "Chipotle Mexican Grill",
      "takeaway": "yes"
    }
  },
  "amenity/fast_food|Chopt": {
    "countryCodes": ["us"],
    "nocount": true,
    "tags": {
      "amenity": "fast_food",
      "brand": "Chopt",
      "brand:wikidata": "Q17509305",
      "brand:wikipedia": "en:Chopt",
      "cuisine": "salad",
      "name": "Chopt",
      "takeaway": "yes"
    }
  },
  "amenity/fast_food|Chowking": {
    "count": 312,
    "match": ["amenity/restaurant|Chowking"],
    "tags": {
      "amenity": "fast_food",
      "brand": "Chowking",
      "brand:wikidata": "Q1076816",
      "brand:wikipedia": "en:Chowking",
      "cuisine": "asian",
      "name": "Chowking",
      "takeaway": "yes"
    }
  },
  "amenity/fast_food|Church's Chicken": {
    "count": 329,
    "tags": {
      "amenity": "fast_food",
      "brand": "Church's Chicken",
      "brand:wikidata": "Q1089932",
      "brand:wikipedia": "en:Church's Chicken",
      "cuisine": "chicken",
      "name": "Church's Chicken",
      "takeaway": "yes"
    }
  },
  "amenity/fast_food|Cinnabon": {
    "count": 52,
    "match": [
      "amenity/cafe|Cinnabon",
      "amenity/restaurant|Cinnabon",
      "shop/bakery|Cinnabon",
      "shop/confectionery|Cinnabon",
      "shop/pastry|Cinnabon"
    ],
    "tags": {
      "amenity": "fast_food",
      "brand": "Cinnabon",
      "brand:website": "https://www.cinnabon.com/",
      "brand:wikidata": "Q1092539",
      "brand:wikipedia": "en:Cinnabon",
      "cuisine": "dessert",
      "name": "Cinnabon",
      "takeaway": "yes"
    }
  },
  "amenity/fast_food|CoCo壱番屋": {
    "count": 271,
    "countryCodes": ["cn", "jp"],
    "match": ["amenity/restaurant|CoCo壱番屋"],
    "tags": {
      "amenity": "fast_food",
      "brand": "CoCo壱番屋",
      "brand:en": "Ichibanya",
      "brand:wikidata": "Q5986105",
      "brand:wikipedia": "en:Ichibanya",
      "cuisine": "japanese",
      "name": "CoCo壱番屋",
      "name:en": "Ichibanya",
      "takeaway": "yes"
    }
  },
  "amenity/fast_food|Cook Out": {
    "count": 118,
    "countryCodes": ["us"],
    "tags": {
      "amenity": "fast_food",
      "brand": "Cook Out",
      "brand:wikidata": "Q5166992",
      "brand:wikipedia": "en:Cook Out (restaurant)",
      "cuisine": "american",
      "name": "Cook Out",
      "takeaway": "yes"
    }
  },
  "amenity/fast_food|Culver's": {
    "count": 688,
    "tags": {
      "amenity": "fast_food",
      "brand": "Culver's",
      "brand:wikidata": "Q1143589",
      "brand:wikipedia": "en:Culver's",
      "cuisine": "burger",
      "name": "Culver's",
      "takeaway": "yes"
    }
  },
  "amenity/fast_food|DQ Grill & Chill": {
    "count": 77,
    "nomatch": ["amenity/fast_food|Dairy Queen"],
    "tags": {
      "amenity": "fast_food",
      "brand": "DQ Grill & Chill",
      "brand:wikidata": "Q1141226",
      "brand:wikipedia": "en:Dairy Queen",
      "cuisine": "burger",
      "name": "DQ Grill & Chill",
      "takeaway": "yes"
    }
  },
  "amenity/fast_food|Dairy Queen": {
    "count": 1921,
    "match": [
      "amenity/fast_food|DQ",
      "amenity/ice_cream|Dairy Queen",
      "amenity/restaurant|Dairy Queen"
    ],
    "nomatch": [
      "amenity/fast_food|DQ Grill & Chill"
    ],
    "tags": {
      "amenity": "fast_food",
      "brand": "Dairy Queen",
      "brand:wikidata": "Q1141226",
      "brand:wikipedia": "en:Dairy Queen",
      "cuisine": "ice_cream",
      "name": "Dairy Queen",
      "takeaway": "yes"
    }
  },
  "amenity/fast_food|Daylight Donuts": {
    "countryCodes": ["us"],
    "nocount": true,
    "tags": {
      "amenity": "fast_food",
      "brand": "Daylight Donuts",
      "brand:wikidata": "Q48970508",
      "brand:wikipedia": "en:Daylight Donuts",
      "cuisine": "donut",
      "name": "Daylight Donuts",
      "takeaway": "yes"
    }
  },
  "amenity/fast_food|Del Taco": {
    "count": 311,
    "tags": {
      "amenity": "fast_food",
      "brand": "Del Taco",
      "brand:wikidata": "Q1183818",
      "brand:wikipedia": "en:Del Taco",
      "cuisine": "mexican",
      "name": "Del Taco",
      "takeaway": "yes"
    }
  },
  "amenity/fast_food|Dig Inn": {
    "countryCodes": ["us"],
    "nocount": true,
    "tags": {
      "amenity": "fast_food",
      "brand": "Dig Inn",
      "brand:wikidata": "Q28226241",
      "brand:wikipedia": "en:Dig Inn",
      "cuisine": "regional",
      "name": "Dig Inn",
      "takeaway": "yes"
    }
  },
  "amenity/fast_food|Domino's Pizza": {
    "count": 2722,
    "match": [
      "amenity/fast_food|Domino's",
      "amenity/fast_food|Dominos",
      "amenity/fast_food|Dominos Pizza",
      "amenity/restaurant|Domino's",
      "amenity/restaurant|Domino's Pizza",
      "amenity/restaurant|Dominos",
      "amenity/restaurant|Dominos Pizza"
    ],
    "tags": {
      "amenity": "fast_food",
      "brand": "Domino's Pizza",
      "brand:wikidata": "Q839466",
      "brand:wikipedia": "en:Domino's Pizza",
      "cuisine": "pizza",
      "name": "Domino's Pizza",
      "takeaway": "yes"
    }
  },
  "amenity/fast_food|Dunkin' Donuts": {
    "count": 1863,
    "match": [
      "amenity/cafe|Dunkin Donuts",
      "amenity/cafe|Dunkin' Donuts",
      "amenity/fast_food|Dunkin Donuts",
      "amenity/restaurant|Dunkin Donuts",
      "amenity/restaurant|Dunkin' Donuts",
      "shop/bakery|Dunkin' Donuts"
    ],
    "tags": {
      "amenity": "fast_food",
      "brand": "Dunkin' Donuts",
      "brand:wikidata": "Q847743",
      "brand:wikipedia": "en:Dunkin' Donuts",
      "cuisine": "donut",
      "name": "Dunkin' Donuts",
      "takeaway": "yes"
    }
  },
  "amenity/fast_food|Einstein Bros. Bagels": {
    "count": 101,
    "countryCodes": ["us"],
    "match": [
      "amenity/fast_food|Einstein Bros Bagels",
      "amenity/fast_food|Einstein Brothers Bagels",
      "amenity/restaurant|Einstein Bros Bagels",
      "amenity/restaurant|Einstein Bros. Bagels",
      "amenity/restaurant|Einstein Brothers Bagels"
    ],
    "tags": {
      "amenity": "fast_food",
      "brand": "Einstein Bros. Bagels",
      "brand:wikidata": "Q5349788",
      "brand:wikipedia": "en:Einstein Bros. Bagels",
      "cuisine": "bagel",
      "name": "Einstein Bros. Bagels",
      "takeaway": "yes"
    }
  },
  "amenity/fast_food|El Pollo Loco": {
    "count": 194,
    "tags": {
      "amenity": "fast_food",
      "brand": "El Pollo Loco",
      "brand:wikidata": "Q2353849",
      "brand:wikipedia": "en:El Pollo Loco",
      "cuisine": "mexican",
      "name": "El Pollo Loco",
      "takeaway": "yes"
    }
  },
  "amenity/fast_food|Everest": {
    "count": 69,
    "countryCodes": ["gr"],
    "tags": {
      "amenity": "fast_food",
      "brand": "Everest",
      "brand:wikidata": "Q62273299",
      "cuisine": "burger",
      "name": "Everest",
      "takeaway": "yes"
    }
  },
  "amenity/fast_food|Extreme Pita": {
    "count": 62,
    "tags": {
      "amenity": "fast_food",
      "brand": "Extreme Pita",
      "brand:wikidata": "Q5422367",
      "brand:wikipedia": "en:Extreme Pita",
      "cuisine": "pita",
      "name": "Extreme Pita",
      "takeaway": "yes"
    }
  },
  "amenity/fast_food|Fazoli's": {
    "count": 89,
    "tags": {
      "amenity": "fast_food",
      "brand": "Fazoli's",
      "brand:wikidata": "Q1399195",
      "brand:wikipedia": "en:Fazoli's",
      "cuisine": "italian",
      "name": "Fazoli's",
      "takeaway": "yes"
    }
  },
  "amenity/fast_food|Firehouse Subs": {
    "count": 257,
    "match": [
      "amenity/restaurant|Firehouse Subs"
    ],
    "tags": {
      "amenity": "fast_food",
      "brand": "Firehouse Subs",
      "brand:wikidata": "Q5451873",
      "brand:wikipedia": "en:Firehouse Subs",
      "cuisine": "sandwich",
      "name": "Firehouse Subs",
      "takeaway": "yes"
    }
  },
  "amenity/fast_food|Five Guys": {
    "count": 828,
    "match": [
      "amenity/fast_food|Five Guys Burgers and Fries",
      "amenity/restaurant|Five Guys"
    ],
    "tags": {
      "amenity": "fast_food",
      "brand": "Five Guys",
      "brand:wikidata": "Q1131810",
      "brand:wikipedia": "en:Five Guys",
      "cuisine": "burger",
      "name": "Five Guys",
      "official_name": "Five Guys Burgers and Fries",
      "takeaway": "yes"
    }
  },
  "amenity/fast_food|Freddy's": {
    "match": [
      "amenity/fast_food|Freddy's Frozen Custard & Steakburgers"
    ],
    "nocount": true,
    "tags": {
      "amenity": "fast_food",
      "brand": "Freddy's",
      "brand:wikidata": "Q5496837",
      "brand:wikipedia": "en:Freddy's Frozen Custard & Steakburgers",
      "cuisine": "burger",
      "name": "Freddy's",
      "takeaway": "yes"
    }
  },
  "amenity/fast_food|Freebirds": {
    "countryCodes": ["us"],
    "nocount": true,
    "tags": {
      "amenity": "fast_food",
      "brand": "Freebirds",
      "brand:wikidata": "Q5500367",
      "brand:wikipedia": "en:Freebirds World Burrito",
      "cuisine": "mexican",
      "name": "Freebirds",
      "takeaway": "yes"
    }
  },
  "amenity/fast_food|Gabriel Pizza": {
    "countryCodes": ["ca"],
    "match": ["amenity/restaurant|Gabriel Pizza"],
    "nocount": true,
    "tags": {
      "amenity": "fast_food",
      "brand": "Gabriel Pizza",
      "brand:wikidata": "Q5515791",
      "brand:wikipedia": "en:Gabriel Pizza",
      "cuisine": "pizza",
      "name": "Gabriel Pizza",
      "takeaway": "yes"
    }
  },
  "amenity/fast_food|Gino's Pizza": {
    "count": 51,
    "tags": {
      "amenity": "fast_food",
      "brand": "Gino's Pizza",
      "name": "Gino's Pizza",
      "takeaway": "yes"
    }
  },
  "amenity/fast_food|Golden Krust Caribbean Bakery & Grill": {
    "countryCodes": ["ca", "us"],
    "nocount": true,
    "tags": {
      "amenity": "fast_food",
      "brand": "Golden Krust Caribbean Bakery & Grill",
      "brand:wikidata": "Q5579615",
      "brand:wikipedia": "en:Golden Krust Caribbean Bakery & Grill",
      "cuisine": "caribbean",
      "name": "Golden Krust",
      "takeaway": "yes"
    }
  },
  "amenity/fast_food|Greenwich": {
    "count": 111,
    "tags": {
      "amenity": "fast_food",
      "brand": "Greenwich",
      "brand:wikidata": "Q2691308",
      "brand:wikipedia": "en:Greenwich Pizza",
      "cuisine": "pizza",
      "name": "Greenwich",
      "takeaway": "yes"
    }
  },
  "amenity/fast_food|Habib's": {
    "count": 135,
    "countryCodes": ["br", "mx"],
    "tags": {
      "amenity": "fast_food",
      "brand": "Habib's",
      "brand:wikidata": "Q2504930",
      "brand:wikipedia": "en:Habib's",
      "cuisine": "middle_eastern",
      "name": "Habib's",
      "takeaway": "yes"
    }
  },
  "amenity/fast_food|Hallo Pizza": {
    "count": 80,
    "countryCodes": ["de"],
    "tags": {
      "amenity": "fast_food",
      "brand": "Hallo Pizza",
      "brand:wikidata": "Q1571798",
      "brand:wikipedia": "de:Hallo Pizza",
      "cuisine": "pizza",
      "name": "Hallo Pizza",
      "takeaway": "yes"
    }
  },
  "amenity/fast_food|Hardee's": {
    "count": 804,
    "match": [
      "amenity/fast_food|Hardees",
      "amenity/restaurant|Hardee's",
      "amenity/restaurant|Hardees"
    ],
    "tags": {
      "amenity": "fast_food",
      "brand": "Hardee's",
      "brand:wikidata": "Q1585088",
      "brand:wikipedia": "en:Hardee's",
      "cuisine": "burger",
      "name": "Hardee's",
      "takeaway": "yes"
    }
  },
  "amenity/fast_food|Harvey's": {
    "count": 188,
    "countryCodes": ["ca"],
    "tags": {
      "amenity": "fast_food",
      "brand": "Harvey's",
      "brand:wikidata": "Q1466184",
      "brand:wikipedia": "en:Harvey's",
      "cuisine": "burger",
      "name": "Harvey's",
      "takeaway": "yes"
    }
  },
  "amenity/fast_food|Hesburger": {
    "count": 234,
    "tags": {
      "amenity": "fast_food",
      "brand": "Hesburger",
      "brand:wikidata": "Q1276832",
      "brand:wikipedia": "en:Hesburger",
      "cuisine": "burger",
      "name": "Hesburger",
      "takeaway": "yes"
    }
  },
  "amenity/fast_food|Hot Dog on a Stick": {
    "countryCodes": ["us"],
    "nocount": true,
    "tags": {
      "amenity": "fast_food",
      "brand": "Hot Dog on a Stick",
      "brand:wikidata": "Q5909922",
      "brand:wikipedia": "en:Hot Dog on a Stick",
      "cuisine": "hot_dog",
      "name": "Hot Dog on a Stick",
      "takeaway": "yes"
    }
  },
  "amenity/fast_food|Hungry Howie's": {
    "countryCodes": ["us"],
    "match": [
      "amenity/fast_food|Hungry Howie's Pizza",
      "amenity/fast_food|Hungry Howies",
      "amenity/fast_food|Hungry Howies Pizza",
      "amenity/restaurant|Hungry Howie's",
      "amenity/restaurant|Hungry Howie's Pizza",
      "amenity/restaurant|Hungry Howies",
      "amenity/restaurant|Hungry Howies Pizza"
    ],
    "nocount": true,
    "tags": {
      "amenity": "fast_food",
      "brand": "Hungry Howie's",
      "brand:wikidata": "Q16985303",
      "brand:wikipedia": "en:Hungry Howie's Pizza",
      "cuisine": "pizza",
      "name": "Hungry Howie's",
      "takeaway": "yes"
    }
  },
  "amenity/fast_food|Hungry Jacks": {
    "count": 222,
    "countryCodes": ["au"],
    "match": ["amenity/fast_food|Hungry Jack's"],
    "tags": {
      "amenity": "fast_food",
      "brand": "Hungry Jacks",
      "brand:wikidata": "Q3036373",
      "brand:wikipedia": "en:Hungry Jack's",
      "cuisine": "burger",
      "name": "Hungry Jacks",
      "takeaway": "yes"
    }
  },
  "amenity/fast_food|In-N-Out Burger": {
    "count": 274,
    "tags": {
      "amenity": "fast_food",
      "brand": "In-N-Out Burger",
      "brand:wikidata": "Q1205312",
      "brand:wikipedia": "en:In-N-Out Burger",
      "cuisine": "burger",
      "name": "In-N-Out Burger",
      "takeaway": "yes"
    }
  },
  "amenity/fast_food|Jack in the Box": {
    "count": 1100,
    "match": [
      "amenity/fast_food|Jack In The Box"
    ],
    "tags": {
      "amenity": "fast_food",
      "brand": "Jack in the Box",
      "brand:wikidata": "Q1538507",
      "brand:wikipedia": "en:Jack in the Box",
      "cuisine": "burger",
      "name": "Jack in the Box",
      "takeaway": "yes"
    }
  },
  "amenity/fast_food|Jamba Juice": {
    "count": 283,
    "match": ["amenity/cafe|Jamba Juice"],
    "tags": {
      "amenity": "fast_food",
      "brand": "Jamba Juice",
      "brand:wikidata": "Q3088784",
      "brand:wikipedia": "en:Jamba Juice",
      "cuisine": "juice",
      "name": "Jamba Juice",
      "takeaway": "yes"
    }
  },
  "amenity/fast_food|Jersey Mike's Subs": {
    "count": 235,
    "match": [
      "amenity/fast_food|Jersey Mike's",
      "amenity/restaurant|Jersey Mike's",
      "amenity/restaurant|Jersey Mike's Subs"
    ],
    "tags": {
      "amenity": "fast_food",
      "brand": "Jersey Mike's Subs",
      "brand:wikidata": "Q6184897",
      "brand:wikipedia": "en:Jersey Mike's Subs",
      "cuisine": "sandwich",
      "name": "Jersey Mike's Subs",
      "takeaway": "yes"
    }
  },
  "amenity/fast_food|Jimmy John's": {
    "count": 869,
    "match": [
      "amenity/fast_food|Jimmy Johns",
      "amenity/restaurant|Jimmy John's",
      "amenity/restaurant|Jimmy Johns"
    ],
    "tags": {
      "amenity": "fast_food",
      "brand": "Jimmy John's",
      "brand:wikidata": "Q1689380",
      "brand:wikipedia": "en:Jimmy John's",
      "cuisine": "sandwich",
      "name": "Jimmy John's",
      "takeaway": "yes"
    }
  },
  "amenity/fast_food|Jollibee": {
    "count": 940,
    "tags": {
      "amenity": "fast_food",
      "brand": "Jollibee",
      "brand:wikidata": "Q37614",
      "brand:wikipedia": "en:Jollibee",
      "cuisine": "burger",
      "name": "Jollibee",
      "takeaway": "yes"
    }
  },
  "amenity/fast_food|Just Salad": {
    "countryCodes": ["us"],
    "nocount": true,
    "tags": {
      "amenity": "fast_food",
      "brand": "Just Salad",
      "brand:wikidata": "Q23091823",
      "brand:wikipedia": "en:Just Salad",
      "cuisine": "salad",
      "name": "Just Salad",
      "takeaway": "yes"
    }
  },
  "amenity/fast_food|KFC": {
    "count": 7158,
    "match": [
      "amenity/fast_food|Kentucky Fried Chicken",
      "amenity/restaurant|KFC"
    ],
    "tags": {
      "amenity": "fast_food",
      "brand": "KFC",
      "brand:wikidata": "Q524757",
      "brand:wikipedia": "en:KFC",
      "cuisine": "chicken",
      "name": "KFC",
      "takeaway": "yes"
    }
  },
  "amenity/fast_food|Kochlöffel": {
    "count": 79,
    "countryCodes": ["de", "pl", "tr"],
    "tags": {
      "amenity": "fast_food",
      "brand": "Kochlöffel",
      "brand:wikidata": "Q315539",
      "brand:wikipedia": "en:Kochlöffel",
      "cuisine": "burger",
      "name": "Kochlöffel",
      "takeaway": "yes"
    }
  },
  "amenity/fast_food|Kotipizza": {
    "count": 101,
    "tags": {
      "amenity": "fast_food",
      "brand": "Kotipizza",
      "brand:wikidata": "Q1628625",
      "brand:wikipedia": "en:Kotipizza",
      "cuisine": "pizza",
      "name": "Kotipizza",
      "takeaway": "yes"
    }
  },
  "amenity/fast_food|Krispy Kreme": {
    "count": 129,
    "match": ["amenity/cafe|Krispy Kreme"],
    "tags": {
      "amenity": "fast_food",
      "brand": "Krispy Kreme",
      "brand:wikidata": "Q1192805",
      "brand:wikipedia": "en:Krispy Kreme",
      "cuisine": "donut",
      "name": "Krispy Kreme",
      "takeaway": "yes"
    }
  },
  "amenity/fast_food|Krystal": {
    "count": 77,
    "countryCodes": ["us"],
    "tags": {
      "amenity": "fast_food",
      "brand": "Krystal",
      "brand:wikidata": "Q472195",
      "brand:wikipedia": "en:Krystal (restaurant)",
      "cuisine": "burger",
      "name": "Krystal",
      "takeaway": "yes"
    }
  },
  "amenity/fast_food|Little Caesars": {
    "count": 948,
    "match": [
      "amenity/fast_food|Little Caesar's",
      "amenity/fast_food|Little Caesars Pizza",
      "amenity/restaurant|Little Caesar's",
      "amenity/restaurant|Little Caesar's Pizza",
      "amenity/restaurant|Little Caesars",
      "amenity/restaurant|Little Caesars Pizza"
    ],
    "tags": {
      "amenity": "fast_food",
      "brand": "Little Caesars",
      "brand:wikidata": "Q1393809",
      "brand:wikipedia": "en:Little Caesars",
      "cuisine": "pizza",
      "name": "Little Caesars",
      "takeaway": "yes"
    }
  },
  "amenity/fast_food|Long John Silver's": {
    "count": 340,
    "tags": {
      "amenity": "fast_food",
      "brand": "Long John Silver's",
      "brand:wikidata": "Q1535221",
      "brand:wikipedia": "en:Long John Silver's",
      "cuisine": "seafood",
      "name": "Long John Silver's",
      "takeaway": "yes"
    }
  },
  "amenity/fast_food|Lotteria": {
    "count": 94,
    "tags": {
      "amenity": "fast_food",
      "brand": "Lotteria",
      "brand:wikidata": "Q249525",
      "brand:wikipedia": "en:Lotteria",
      "cuisine": "burger",
      "name": "Lotteria",
      "takeaway": "yes"
    }
  },
  "amenity/fast_food|Mang Inasal": {
    "count": 181,
    "countryCodes": ["ph"],
    "match": ["amenity/restaurant|Mang Inasal"],
    "tags": {
      "amenity": "fast_food",
      "brand": "Mang Inasal",
      "brand:wikidata": "Q6748573",
      "brand:wikipedia": "en:Mang Inasal",
      "cuisine": "barbecue",
      "name": "Mang Inasal",
      "takeaway": "yes"
    }
  },
  "amenity/fast_food|Marmaris": {
    "count": 51,
    "tags": {
      "amenity": "fast_food",
      "brand": "Marmaris",
      "name": "Marmaris",
      "takeaway": "yes"
    }
  },
  "amenity/fast_food|Max": {
    "count": 63,
    "tags": {
      "amenity": "fast_food",
      "brand": "Max",
      "brand:wikidata": "Q1912172",
      "brand:wikipedia": "en:Max Hamburgers",
      "cuisine": "burger",
      "name": "Max",
      "takeaway": "yes"
    }
  },
  "amenity/fast_food|McDonald's": {
    "count": 20256,
    "match": [
      "amenity/fast_food|Mc Donald's",
      "amenity/fast_food|Mc Donalds",
      "amenity/fast_food|McDonalds",
      "amenity/fast_food|McDonald’s",
      "amenity/restaurant|Mc Donald's",
      "amenity/restaurant|Mc Donalds",
      "amenity/restaurant|McDonald's",
      "amenity/restaurant|McDonalds",
      "amenity/restaurant|McDonald’s"
    ],
    "tags": {
      "amenity": "fast_food",
      "brand": "McDonald's",
      "brand:wikidata": "Q38076",
      "brand:wikipedia": "en:McDonald's",
      "cuisine": "burger",
      "name": "McDonald's",
      "takeaway": "yes"
    }
  },
  "amenity/fast_food|Mighty Taco": {
    "countryCodes": ["us"],
    "nocount": true,
    "tags": {
      "amenity": "fast_food",
      "brand": "Mighty Taco",
      "brand:wikidata": "Q6844210",
      "brand:wikipedia": "en:Mighty Taco",
      "cuisine": "mexican",
      "name": "Mighty Taco",
      "takeaway": "yes"
    }
  },
  "amenity/fast_food|Minute Burger": {
    "count": 82,
    "countryCodes": ["ph"],
    "tags": {
      "amenity": "fast_food",
      "brand": "Minute Burger",
      "brand:wikidata": "Q62273503",
      "cuisine": "burger",
      "name": "Minute Burger",
      "takeaway": "yes"
    }
  },
  "amenity/fast_food|Moe's Southwest Grill": {
    "count": 116,
    "match": [
      "amenity/restaurant|Moe's Southwest Grill"
    ],
    "tags": {
      "amenity": "fast_food",
      "brand": "Moe's Southwest Grill",
      "brand:wikidata": "Q6889938",
      "brand:wikipedia": "en:Moe's Southwest Grill",
      "cuisine": "mexican",
      "name": "Moe's Southwest Grill",
      "takeaway": "yes"
    }
  },
  "amenity/fast_food|Mr. Sub": {
    "count": 167,
    "tags": {
      "amenity": "fast_food",
      "brand": "Mr. Sub",
      "brand:wikidata": "Q6929225",
      "brand:wikipedia": "en:Mr. Sub",
      "cuisine": "sandwich",
      "name": "Mr. Sub",
      "takeaway": "yes"
    }
  },
  "amenity/fast_food|New York Pizza": {
    "count": 101,
    "tags": {
      "amenity": "fast_food",
      "brand": "New York Pizza",
      "brand:wikidata": "Q2639128",
      "brand:wikipedia": "nl:New York Pizza",
      "cuisine": "pizza",
      "name": "New York Pizza",
      "takeaway": "yes"
    }
  },
  "amenity/fast_food|Nordsee": {
    "count": 230,
    "match": ["amenity/restaurant|Nordsee"],
    "tags": {
      "amenity": "fast_food",
      "brand": "Nordsee",
      "brand:wikidata": "Q74866",
      "brand:wikipedia": "en:Nordsee",
      "cuisine": "seafood",
      "name": "Nordsee",
      "takeaway": "yes"
    }
  },
  "amenity/fast_food|Num Pang": {
    "countryCodes": ["us"],
    "nocount": true,
    "tags": {
      "amenity": "fast_food",
      "brand": "Num Pang",
      "brand:wikidata": "Q62079702",
      "brand:wikipedia": "en:Num Pang",
      "cuisine": "cambodian, sandwich",
      "name": "Num Pang",
      "takeaway": "yes"
    }
  },
  "amenity/fast_food|O'Tacos": {
    "count": 81,
    "tags": {
      "amenity": "fast_food",
      "brand": "O'Tacos",
      "brand:wikidata": "Q28494040",
      "brand:wikipedia": "en:O'Tacos",
      "cuisine": "mexican",
      "name": "O'Tacos",
      "takeaway": "yes"
    }
  },
  "amenity/fast_food|Oporto": {
    "count": 51,
    "tags": {
      "amenity": "fast_food",
      "brand": "Oporto",
      "brand:wikidata": "Q4412342",
      "brand:wikipedia": "en:Oporto (restaurant)",
      "name": "Oporto",
      "takeaway": "yes"
    }
  },
  "amenity/fast_food|Pal's": {
    "countryCodes": ["us"],
    "match": [
      "amenity/fast_food|Pal's Sudden Service"
    ],
    "nocount": true,
    "tags": {
      "amenity": "fast_food",
      "brand": "Pal's",
      "brand:wikidata": "Q7126094",
      "brand:wikipedia": "en:Pal's",
      "cuisine": "burger",
      "name": "Pal's",
      "takeaway": "yes"
    }
  },
  "amenity/fast_food|Panago": {
    "count": 55,
    "countryCodes": ["ca"],
    "tags": {
      "amenity": "fast_food",
      "brand": "Panago",
      "brand:wikidata": "Q17111672",
      "brand:wikipedia": "en:Panago",
      "cuisine": "pizza",
      "name": "Panago",
      "takeaway": "yes"
    }
  },
  "amenity/fast_food|Panda Express": {
    "count": 883,
    "match": [
      "amenity/restaurant|Panda",
      "amenity/restaurant|Panda Express"
    ],
    "tags": {
      "amenity": "fast_food",
      "brand": "Panda Express",
      "brand:wikidata": "Q1358690",
      "brand:wikipedia": "en:Panda Express",
      "cuisine": "chinese",
      "name": "Panda Express",
      "takeaway": "yes"
    }
  },
  "amenity/fast_food|Panera Bread": {
    "count": 496,
    "match": [
      "amenity/cafe|Panera Bread",
      "amenity/restaurant|Panera Bread"
    ],
    "tags": {
      "amenity": "fast_food",
      "brand": "Panera Bread",
      "brand:wikidata": "Q7130852",
      "brand:wikipedia": "en:Panera Bread",
      "cuisine": "sandwich",
      "name": "Panera Bread",
      "takeaway": "yes"
    }
  },
  "amenity/fast_food|Papa John's": {
    "count": 1067,
    "match": [
      "amenity/fast_food|Papa John's Pizza",
      "amenity/fast_food|Papa Johns",
      "amenity/restaurant|Papa John's",
      "amenity/restaurant|Papa John's Pizza"
    ],
    "tags": {
      "amenity": "fast_food",
      "brand": "Papa John's",
      "brand:wikidata": "Q2759586",
      "brand:wikipedia": "en:Papa John's Pizza",
      "cuisine": "pizza",
      "name": "Papa John's",
      "takeaway": "yes"
    }
  },
  "amenity/fast_food|Papa Murphy's": {
    "count": 239,
    "match": ["amenity/restaurant|Papa Murphy's"],
    "tags": {
      "amenity": "fast_food",
      "brand": "Papa Murphy's",
      "brand:wikidata": "Q7132349",
      "brand:wikipedia": "en:Papa Murphy's",
      "cuisine": "pizza",
      "name": "Papa Murphy's",
      "official_name": "Papa Murphy's Take 'N' Bake Pizza",
      "takeaway": "only"
    }
  },
  "amenity/fast_food|Penn Station": {
    "countryCodes": ["us"],
    "match": ["amenity/restaurant|Penn Station"],
    "nocount": true,
    "tags": {
      "amenity": "fast_food",
      "brand": "Penn Station",
      "brand:wikidata": "Q7163311",
      "brand:wikipedia": "en:Penn Station (restaurant)",
      "cuisine": "sandwich",
      "name": "Penn Station",
      "takeaway": "yes"
    }
  },
  "amenity/fast_food|Philly Pretzel Factory": {
    "countryCodes": ["us"],
    "match": [
      "amenity/fast_food|Philly Soft Pretzel Factory",
      "amenity/restaurant|Philly Pretzel Factory",
      "amenity/restaurant|Philly Soft Pretzel Factory",
      "shop/bakery|Philly Pretzel Factory",
      "shop/bakery|Philly Soft Pretzel Factory"
    ],
    "nocount": true,
    "tags": {
      "amenity": "fast_food",
      "brand": "Philly Pretzel Factory",
      "brand:wikidata": "Q60097339",
      "cuisine": "pretzel",
      "name": "Philly Pretzel Factory",
      "takeaway": "yes"
    }
  },
  "amenity/fast_food|Pinulito": {
    "count": 58,
    "countryCodes": ["gt"],
    "tags": {
      "amenity": "fast_food",
      "brand": "Pinulito",
      "brand:wikidata": "Q62273613",
      "cuisine": "chicken",
      "name": "Pinulito",
      "takeaway": "yes"
    }
  },
  "amenity/fast_food|Pita Pit": {
    "count": 196,
    "tags": {
      "amenity": "fast_food",
      "brand": "Pita Pit",
      "brand:wikidata": "Q7757289",
      "brand:wikipedia": "en:Pita Pit",
      "cuisine": "pita",
      "name": "Pita Pit",
      "takeaway": "yes"
    }
  },
  "amenity/fast_food|Pizza Hut Delivery": {
    "count": 123,
    "tags": {
      "amenity": "fast_food",
      "brand": "Pizza Hut",
      "brand:wikidata": "Q191615",
      "brand:wikipedia": "en:Pizza Hut",
      "cuisine": "pizza",
      "name": "Pizza Hut Delivery",
      "takeaway": "yes"
    }
  },
  "amenity/fast_food|Pizza Hut Express": {
    "count": 75,
    "match": ["amenity/fast_food|Pizza Hut"],
    "nomatch": ["amenity/restaurant|Pizza Hut"],
    "tags": {
      "amenity": "fast_food",
      "brand": "Pizza Hut",
      "brand:wikidata": "Q191615",
      "brand:wikipedia": "en:Pizza Hut",
      "cuisine": "pizza",
      "name": "Pizza Hut Express",
      "takeaway": "yes"
    }
  },
  "amenity/fast_food|Pizza King": {
    "count": 72,
    "tags": {
      "amenity": "fast_food",
      "brand": "Pizza King",
      "cuisine": "pizza",
      "name": "Pizza King",
      "takeaway": "yes"
    }
  },
  "amenity/fast_food|Pizza Nova": {
    "count": 105,
    "tags": {
      "amenity": "fast_food",
      "brand": "Pizza Nova",
      "brand:wikidata": "Q7199971",
      "brand:wikipedia": "en:Pizza Nova",
      "cuisine": "pizza",
      "name": "Pizza Nova",
      "takeaway": "yes"
    }
  },
  "amenity/fast_food|Pizza Pizza": {
    "count": 467,
    "tags": {
      "amenity": "fast_food",
      "brand": "Pizza Pizza",
      "brand:wikidata": "Q1194143",
      "brand:wikipedia": "en:Pizza Pizza",
      "cuisine": "pizza",
      "name": "Pizza Pizza",
      "takeaway": "yes"
    }
  },
  "amenity/fast_food|Pollo Campero": {
    "count": 141,
    "match": ["amenity/restaurant|Pollo Campero"],
    "tags": {
      "amenity": "fast_food",
      "brand": "Pollo Campero",
      "brand:wikidata": "Q942741",
      "brand:wikipedia": "en:Pollo Campero",
      "cuisine": "chicken",
      "name": "Pollo Campero",
      "takeaway": "yes"
    }
  },
  "amenity/fast_food|Pollo Granjero~(Costa Rica)": {
    "countryCodes": ["cr"],
    "nocount": true,
    "tags": {
      "amenity": "fast_food",
      "brand": "Pollo Granjero",
      "brand:wikidata": "Q62273665",
      "cuisine": "chicken",
      "name": "Pollo Granjero",
      "takeaway": "yes"
    }
  },
  "amenity/fast_food|Pollo Granjero~(Guatemala)": {
    "countryCodes": ["gt"],
    "nocount": true,
    "tags": {
      "amenity": "fast_food",
      "brand": "Pollo Granjero",
      "brand:wikidata": "Q62273652",
      "cuisine": "chicken",
      "name": "Pollo Granjero",
      "takeaway": "yes"
    }
  },
  "amenity/fast_food|Pollo Tropical": {
    "nocount": true,
    "tags": {
      "amenity": "fast_food",
      "brand": "Pollo Tropical",
      "brand:wikidata": "Q3395356",
      "brand:wikipedia": "en:Pollo Tropical",
      "cuisine": "chicken",
      "name": "Pollo Tropical",
      "takeaway": "yes"
    }
  },
  "amenity/fast_food|Popeyes": {
    "count": 183,
    "match": [
      "amenity/fast_food|Popeye's",
      "amenity/fast_food|Popeyes Louisiana Kitchen"
    ],
    "tags": {
      "amenity": "fast_food",
      "brand": "Popeyes",
      "brand:wikidata": "Q1330910",
      "brand:wikipedia": "en:Popeyes",
      "cuisine": "chicken",
      "name": "Popeyes",
      "official_name": "Popeyes Louisiana Kitchen",
      "takeaway": "yes"
    }
  },
  "amenity/fast_food|Potbelly": {
    "count": 84,
    "tags": {
      "amenity": "fast_food",
      "brand": "Potbelly",
      "brand:wikidata": "Q7234777",
      "brand:wikipedia": "en:Potbelly Sandwich Shop",
      "cuisine": "sandwich",
      "name": "Potbelly",
      "takeaway": "yes"
    }
  },
  "amenity/fast_food|Pret A Manger": {
    "match": [
      "amenity/cafe|Pret A Manger",
      "amenity/cafe|Pret a Manger"
    ],
    "nocount": true,
    "tags": {
      "amenity": "fast_food",
      "brand": "Pret A Manger",
      "brand:wikidata": "Q2109109",
      "brand:wikipedia": "en:Pret a Manger",
      "cuisine": "sandwich",
      "name": "Pret A Manger",
      "takeaway": "yes"
    }
  },
  "amenity/fast_food|Qdoba": {
    "count": 211,
    "match": [
      "amenity/fast_food|Qdoba Mexican Grill",
      "amenity/restaurant|Qdoba",
      "amenity/restaurant|Qdoba Mexican Grill"
    ],
    "tags": {
      "amenity": "fast_food",
      "brand": "Qdoba",
      "brand:wikidata": "Q1363885",
      "brand:wikipedia": "en:Qdoba",
      "cuisine": "mexican",
      "name": "Qdoba",
      "official_name": "Qdoba Mexican Grill",
      "takeaway": "yes"
    }
  },
  "amenity/fast_food|Quick": {
    "count": 318,
    "tags": {
      "amenity": "fast_food",
      "brand": "Quick",
      "brand:wikidata": "Q286494",
      "brand:wikipedia": "en:Quick (restaurant)",
      "cuisine": "burger",
      "name": "Quick",
      "takeaway": "yes"
    }
  },
  "amenity/fast_food|Quiznos": {
    "count": 370,
    "match": [
      "amenity/fast_food|Quizno's",
      "amenity/fast_food|Quiznos Sub"
    ],
    "tags": {
      "amenity": "fast_food",
      "brand": "Quiznos",
      "brand:wikidata": "Q1936229",
      "brand:wikipedia": "en:Quiznos",
      "cuisine": "sandwich",
      "name": "Quiznos",
      "takeaway": "yes"
    }
  },
  "amenity/fast_food|Raising Cane's": {
    "count": 70,
    "countryCodes": ["us"],
    "match": [
      "amenity/fast_food|Raising Cane's Chicken Fingers"
    ],
    "tags": {
      "amenity": "fast_food",
      "brand": "Raising Cane's",
      "brand:wikidata": "Q7285144",
      "brand:wikipedia": "en:Raising Cane's Chicken Fingers",
      "cuisine": "chicken",
      "name": "Raising Cane's",
      "takeaway": "yes"
    }
  },
  "amenity/fast_food|Rally's": {
    "count": 93,
    "tags": {
      "amenity": "fast_food",
      "brand": "Rally's",
      "brand:wikidata": "Q3419341",
      "brand:wikipedia": "en:Checkers and Rally's",
      "cuisine": "burger",
      "name": "Rally's",
      "takeaway": "yes"
    }
  },
  "amenity/fast_food|Red Rooster": {
    "count": 215,
    "countryCodes": ["au"],
    "tags": {
      "amenity": "fast_food",
      "brand": "Red Rooster",
      "brand:wikidata": "Q376466",
      "brand:wikipedia": "en:Red Rooster",
      "cuisine": "chicken",
      "name": "Red Rooster",
      "takeaway": "yes"
    }
  },
  "amenity/fast_food|Sbarro": {
    "count": 87,
    "tags": {
      "amenity": "fast_food",
      "brand": "Sbarro",
      "brand:wikidata": "Q2589409",
      "brand:wikipedia": "en:Sbarro",
      "cuisine": "pizza",
      "name": "Sbarro",
      "takeaway": "yes"
    }
  },
  "amenity/fast_food|Schlotzsky's": {
    "countryCodes": ["us"],
    "match": [
      "amenity/fast_food|Schlotzsky's Deli"
    ],
    "nocount": true,
    "tags": {
      "amenity": "fast_food",
      "brand": "Schlotzsky's",
      "brand:wikidata": "Q2244796",
      "brand:wikipedia": "en:Schlotzsky's",
      "cuisine": "sandwich",
      "name": "Schlotzsky's",
      "takeaway": "yes"
    }
  },
  "amenity/fast_food|Shake Shack": {
    "count": 61,
    "tags": {
      "amenity": "fast_food",
      "brand": "Shake Shack",
      "brand:wikidata": "Q1058722",
      "brand:wikipedia": "en:Shake Shack",
      "cuisine": "burger",
      "name": "Shake Shack",
      "takeaway": "yes"
    }
  },
  "amenity/fast_food|Sibylla": {
    "count": 82,
    "countryCodes": ["fi", "se"],
    "tags": {
      "amenity": "fast_food",
      "brand": "Sibylla",
      "brand:wikidata": "Q488643",
      "brand:wikipedia": "en:Sibylla (fast food)",
      "cuisine": "burger",
      "name": "Sibylla",
      "takeaway": "yes"
    }
  },
  "amenity/fast_food|Smashburger": {
    "count": 96,
    "tags": {
      "amenity": "fast_food",
      "brand": "Smashburger",
      "brand:wikidata": "Q17061332",
      "brand:wikipedia": "en:Smashburger",
      "cuisine": "burger",
      "name": "Smashburger",
      "takeaway": "yes"
    }
  },
  "amenity/fast_food|Smoothie King": {
    "count": 81,
    "tags": {
      "amenity": "fast_food",
      "brand": "Smoothie King",
      "brand:wikidata": "Q5491421",
      "brand:wikipedia": "en:Smoothie King",
      "cuisine": "juice",
      "name": "Smoothie King",
      "takeaway": "yes"
    }
  },
  "amenity/fast_food|Sonic": {
    "count": 1460,
    "match": [
      "amenity/fast_food|Sonic Drive In",
      "amenity/fast_food|Sonic Drive-In",
      "amenity/restaurant|Sonic"
    ],
    "nomatch": ["amenity/fuel|Sonic"],
    "tags": {
      "amenity": "fast_food",
      "brand": "Sonic",
      "brand:wikidata": "Q7561808",
      "brand:wikipedia": "en:Sonic Drive-In",
      "cuisine": "burger",
      "name": "Sonic",
      "takeaway": "yes"
    }
  },
  "amenity/fast_food|Steers": {
    "count": 208,
    "tags": {
      "amenity": "fast_food",
      "brand": "Steers",
      "brand:wikidata": "Q56599145",
      "brand:wikipedia": "en:Steers",
      "cuisine": "burger",
      "name": "Steers",
      "takeaway": "yes"
    }
  },
  "amenity/fast_food|Subway": {
    "count": 14245,
    "match": [
      "amenity/cafe|Subway",
      "amenity/fast_food|SubWay",
      "amenity/fast_food|Subway Sandwiches",
      "amenity/restaurant|Subway"
    ],
    "tags": {
      "amenity": "fast_food",
      "brand": "Subway",
      "brand:wikidata": "Q244457",
      "brand:wikipedia": "en:Subway (restaurant)",
      "cuisine": "sandwich",
      "name": "Subway",
      "takeaway": "yes"
    }
  },
  "amenity/fast_food|Supermac's": {
    "countryCodes": ["gb", "ie"],
    "match": ["amenity/fast_food|Supermacs"],
    "nocount": true,
    "tags": {
      "amenity": "fast_food",
      "brand": "Supermac's",
      "brand:wikidata": "Q7643750",
      "brand:wikipedia": "en:Supermac's",
      "cuisine": "burger",
      "name": "Supermac's",
      "takeaway": "yes"
    }
  },
  "amenity/fast_food|TCBY": {
    "nocount": true,
    "tags": {
      "amenity": "fast_food",
      "brand": "TCBY",
      "brand:wikidata": "Q7669631",
      "brand:wikipedia": "en:TCBY",
      "cuisine": "frozen_yogurt",
      "name": "TCBY",
      "takeaway": "yes"
    }
  },
  "amenity/fast_food|Taco Bell": {
    "count": 3859,
    "match": ["amenity/restaurant|Taco Bell"],
    "tags": {
      "amenity": "fast_food",
      "brand": "Taco Bell",
      "brand:wikidata": "Q752941",
      "brand:wikipedia": "en:Taco Bell",
      "cuisine": "tex-mex",
      "name": "Taco Bell",
      "takeaway": "yes"
    }
  },
  "amenity/fast_food|Taco Bueno": {
    "count": 82,
    "tags": {
      "amenity": "fast_food",
      "brand": "Taco Bueno",
      "brand:wikidata": "Q7673958",
      "brand:wikipedia": "en:Taco Bueno",
      "cuisine": "mexican",
      "name": "Taco Bueno",
      "takeaway": "yes"
    }
  },
  "amenity/fast_food|Taco Cabana": {
    "count": 76,
    "countryCodes": ["us"],
    "tags": {
      "amenity": "fast_food",
      "brand": "Taco Cabana",
      "brand:wikidata": "Q12070488",
      "brand:wikipedia": "en:Taco Cabana",
      "cuisine": "mexican",
      "name": "Taco Cabana",
      "takeaway": "yes"
    }
  },
  "amenity/fast_food|Taco Del Mar": {
    "count": 63,
    "tags": {
      "amenity": "fast_food",
      "brand": "Taco Del Mar",
      "brand:wikidata": "Q7673972",
      "brand:wikipedia": "en:Taco del Mar",
      "cuisine": "mexican",
      "name": "Taco Del Mar",
      "takeaway": "yes"
    }
  },
  "amenity/fast_food|Taco John's": {
    "count": 177,
    "tags": {
      "amenity": "fast_food",
      "brand": "Taco John's",
      "brand:wikidata": "Q7673962",
      "brand:wikipedia": "en:Taco John's",
      "cuisine": "mexican",
      "name": "Taco John's",
      "takeaway": "yes"
    }
  },
  "amenity/fast_food|Taco Time": {
    "count": 196,
    "tags": {
      "amenity": "fast_food",
      "brand": "Taco Time",
      "brand:wikidata": "Q7673969",
      "brand:wikipedia": "en:Taco Time",
      "cuisine": "mexican",
      "name": "Taco Time",
      "takeaway": "yes"
    }
  },
  "amenity/fast_food|Ted’s Hot Dogs": {
    "countryCodes": ["us"],
    "nocount": true,
    "tags": {
      "amenity": "fast_food",
      "brand": "Ted’s Hot Dogs",
      "brand:wikidata": "Q7692930",
      "brand:wikipedia": "en:Ted's Hot Dogs",
      "cuisine": "sausage",
      "name": "Ted’s Hot Dogs",
      "takeaway": "yes"
    }
  },
  "amenity/fast_food|Telepizza": {
    "count": 398,
    "match": ["amenity/restaurant|Telepizza"],
    "tags": {
      "amenity": "fast_food",
      "brand": "Telepizza",
      "brand:wikidata": "Q2699863",
      "brand:wikipedia": "en:Telepizza",
      "cuisine": "pizza",
      "name": "Telepizza",
      "takeaway": "yes"
    }
  },
  "amenity/fast_food|Texas Chicken": {
    "count": 53,
    "tags": {
      "amenity": "fast_food",
      "brand": "Texas Chicken",
      "cuisine": "chicken",
      "name": "Texas Chicken",
      "takeaway": "yes"
    }
  },
  "amenity/fast_food|Thai Express~(Singapore)": {
    "countryCodes": ["sg"],
    "nocount": true,
    "nomatch": [
      "amenity/fast_food|Thaï Express~(North America)"
    ],
    "tags": {
      "amenity": "fast_food",
      "brand": "Thai Express",
      "brand:wikidata": "Q7709119",
      "brand:wikipedia": "en:Thai Express",
      "cuisine": "thai",
      "name": "Thai Express",
      "takeaway": "yes"
    }
  },
  "amenity/fast_food|Thaï Express~(North America)": {
    "countryCodes": ["ca", "us"],
    "match": [
      "amenity/fast_food|Thai Express~(North America)"
    ],
    "nocount": true,
    "nomatch": [
      "amenity/fast_food|Thai Express~(Singapore)"
    ],
    "tags": {
      "amenity": "fast_food",
      "brand": "Thaï Express",
      "brand:wikidata": "Q7711610",
      "brand:wikipedia": "en:Thaï Express",
      "cuisine": "thai",
      "name": "Thaï Express",
      "takeaway": "yes"
    }
  },
  "amenity/fast_food|The Habit Burger Grill": {
    "countryCodes": ["us"],
    "match": [
      "amenity/fast_food|Habit Burger",
      "amenity/fast_food|The Habit Burger",
      "amenity/restaurant|Habit Burger",
      "amenity/restaurant|The Habit Burger",
      "amenity/restaurant|The Habit Burger Grill"
    ],
    "nocount": true,
    "tags": {
      "amenity": "fast_food",
      "brand": "The Habit Burger Grill",
      "brand:wikidata": "Q18158741",
      "brand:wikipedia": "en:The Habit Burger Grill",
      "cuisine": "burger",
      "name": "The Habit Burger Grill",
      "takeaway": "yes"
    }
  },
  "amenity/fast_food|The Pizza Company": {
    "count": 70,
    "tags": {
      "amenity": "fast_food",
      "brand": "The Pizza Company",
      "brand:wikidata": "Q2413520",
      "brand:wikipedia": "en:The Pizza Company",
      "cuisine": "pizza",
      "name": "The Pizza Company",
      "takeaway": "yes"
    }
  },
  "amenity/fast_food|Togo's": {
    "countryCodes": ["us"],
    "match": [
      "amenity/fast_food|Togos",
      "amenity/restaurant|Togo's",
      "amenity/restaurant|Togos"
    ],
    "nocount": true,
    "tags": {
      "amenity": "fast_food",
      "brand": "Togo's",
      "brand:wikidata": "Q3530375",
      "brand:wikipedia": "en:Togo's",
      "cuisine": "sandwich",
      "name": "Togo's",
      "takeaway": "yes"
    }
  },
  "amenity/fast_food|Veggie Grill": {
    "countryCodes": ["us"],
    "nocount": true,
    "tags": {
      "amenity": "fast_food",
      "brand": "Veggie Grill",
      "brand:wikidata": "Q18636427",
      "brand:wikipedia": "en:Veggie Grill",
      "cuisine": "american",
      "diet:vegan": "only",
      "name": "Veggie Grill",
      "takeaway": "yes"
    }
  },
  "amenity/fast_food|Wendy's": {
    "count": 3919,
    "match": [
      "amenity/fast_food|Wendys",
      "amenity/fast_food|Wendy’s",
      "amenity/restaurant|Wendy's"
    ],
    "tags": {
      "amenity": "fast_food",
      "brand": "Wendy's",
      "brand:wikidata": "Q550258",
      "brand:wikipedia": "en:Wendy's",
      "cuisine": "burger",
      "name": "Wendy's",
      "takeaway": "yes"
    }
  },
  "amenity/fast_food|Whataburger": {
    "count": 829,
    "tags": {
      "amenity": "fast_food",
      "brand": "Whataburger",
      "brand:wikidata": "Q376627",
      "brand:wikipedia": "en:Whataburger",
      "cuisine": "burger",
      "name": "Whataburger",
      "takeaway": "yes"
    }
  },
  "amenity/fast_food|Which Wich?": {
    "match": ["amenity/fast_food|Which Wich"],
    "nocount": true,
    "tags": {
      "amenity": "fast_food",
      "brand": "Which Wich?",
      "brand:wikidata": "Q7993556",
      "brand:wikipedia": "en:Which Wich?",
      "cuisine": "sandwich",
      "name": "Which Wich?",
      "takeaway": "yes"
    }
  },
  "amenity/fast_food|White Castle": {
    "count": 200,
    "tags": {
      "amenity": "fast_food",
      "brand": "White Castle",
      "brand:wikidata": "Q1244034",
      "brand:wikipedia": "en:White Castle (restaurant)",
      "cuisine": "burger",
      "name": "White Castle",
      "takeaway": "yes"
    }
  },
  "amenity/fast_food|Wienerschnitzel": {
    "count": 94,
    "countryCodes": ["us"],
    "tags": {
      "amenity": "fast_food",
      "brand": "Wienerschnitzel",
      "brand:wikidata": "Q324679",
      "brand:wikipedia": "en:Wienerschnitzel",
      "cuisine": "hot_dog",
      "name": "Wienerschnitzel",
      "takeaway": "yes"
    }
  },
  "amenity/fast_food|Wimpy": {
    "count": 179,
    "match": ["amenity/restaurant|Wimpy"],
    "tags": {
      "amenity": "fast_food",
      "brand": "Wimpy",
      "brand:wikidata": "Q2811992",
      "brand:wikipedia": "en:Wimpy (restaurant)",
      "cuisine": "burger",
      "name": "Wimpy",
      "takeaway": "yes"
    }
  },
  "amenity/fast_food|Xi'an Famous Foods": {
    "countryCodes": ["us"],
    "nocount": true,
    "tags": {
      "amenity": "fast_food",
      "brand": "Xi'an Famous Foods",
      "brand:wikidata": "Q8044020",
      "brand:wikipedia": "en:Xi'an Famous Foods",
      "cuisine": "chinese",
      "name": "Xi'an Famous Foods",
      "takeaway": "yes"
    }
  },
  "amenity/fast_food|Zaxby's": {
    "count": 296,
    "countryCodes": ["us"],
    "match": [
      "amenity/fast_food|Zaxbys",
      "amenity/restaurant|Zaxby's",
      "amenity/restaurant|Zaxbys"
    ],
    "tags": {
      "amenity": "fast_food",
      "brand": "Zaxby's",
      "brand:wikidata": "Q8067525",
      "brand:wikipedia": "en:Zaxby's",
      "cuisine": "chicken",
      "name": "Zaxby's",
      "takeaway": "yes"
    }
  },
  "amenity/fast_food|immergrün": {
    "countryCodes": ["de"],
    "match": ["amenity/fast_food|Immergün"],
    "nocount": true,
    "tags": {
      "amenity": "fast_food",
      "brand": "immergrün",
      "brand:wikidata": "Q62589254",
      "cuisine": "sandwich;salad;juice",
      "name": "immergün",
      "takeaway": "yes"
    }
  },
  "amenity/fast_food|Γρηγόρης": {
    "count": 81,
    "countryCodes": ["gr"],
    "tags": {
      "amenity": "fast_food",
      "brand": "Γρηγόρης",
      "brand:wikidata": "Q62273834",
      "cuisine": "sandwich",
      "name": "Γρηγόρης",
      "takeaway": "yes"
    }
  },
  "amenity/fast_food|Бургер Кинг": {
    "count": 533,
    "tags": {
      "amenity": "fast_food",
      "brand": "Бургер Кинг",
      "brand:en": "Burger King",
      "brand:wikidata": "Q177054",
      "brand:wikipedia": "en:Burger King",
      "cuisine": "burger",
      "name": "Бургер Кинг",
      "name:en": "Burger King",
      "takeaway": "yes"
    }
  },
  "amenity/fast_food|Домино’c Пицца": {
    "count": 51,
    "tags": {
      "amenity": "fast_food",
      "brand": "Домино’c Пицца",
      "name": "Домино’c Пицца",
      "takeaway": "yes"
    }
  },
  "amenity/fast_food|Крошка Картошка": {
    "count": 82,
    "countryCodes": ["ru"],
    "tags": {
      "amenity": "fast_food",
      "brand": "Крошка Картошка",
      "brand:wikidata": "Q4241838",
      "brand:wikipedia": "ru:Крошка Картошка",
      "cuisine": "potato",
      "name": "Крошка Картошка",
      "takeaway": "yes"
    }
  },
  "amenity/fast_food|Макдоналдс": {
    "count": 548,
    "tags": {
      "amenity": "fast_food",
      "brand": "Макдоналдс",
      "brand:en": "McDonald's",
      "brand:wikidata": "Q38076",
      "brand:wikipedia": "en:McDonald's",
      "cuisine": "burger",
      "name": "Макдоналдс",
      "name:en": "McDonald's",
      "takeaway": "yes"
    }
  },
  "amenity/fast_food|Папа Джонс": {
    "match": ["amenity/cafe|Папа Джонс"],
    "nocount": true,
    "tags": {
      "amenity": "fast_food",
      "brand": "Папа Джонс",
      "brand:en": "Papa John's",
      "brand:wikidata": "Q2759586",
      "brand:wikipedia": "ru:Papa John’s",
      "cuisine": "pizza",
      "name": "Папа Джонс",
      "name:en": "Papa John's",
      "takeaway": "yes"
    }
  },
  "amenity/fast_food|Робин Сдобин": {
    "count": 137,
    "countryCodes": ["ru"],
    "tags": {
      "amenity": "fast_food",
      "brand": "Робин Сдобин",
      "brand:wikidata": "Q62273880",
      "cuisine": "burger",
      "name": "Робин Сдобин",
      "takeaway": "yes"
    }
  },
  "amenity/fast_food|Русский Аппетит": {
    "count": 141,
    "countryCodes": ["ru"],
    "match": [
      "amenity/fast_food|Русский аппетит"
    ],
    "tags": {
      "amenity": "fast_food",
      "brand": "Русский Аппетит",
      "brand:wikidata": "Q62086063",
      "cuisine": "sandwich;salad;regional",
      "name": "Русский Аппетит",
      "takeaway": "yes"
    }
  },
  "amenity/fast_food|Стардог!s": {
    "count": 60,
    "countryCodes": ["ru"],
    "tags": {
      "amenity": "fast_food",
      "brand": "Стардог!s",
      "brand:en": "Stardog!s",
      "brand:wikidata": "Q4439856",
      "brand:wikipedia": "ru:Стардогс",
      "cuisine": "sausage",
      "name": "Стардог!s",
      "name:en": "Stardog!s",
      "takeaway": "yes"
    }
  },
  "amenity/fast_food|Суши Wok": {
    "count": 60,
    "countryCodes": ["ru", "ua"],
    "tags": {
      "amenity": "fast_food",
      "brand": "Суши Wok",
      "brand:en": "Sushi Wok",
      "brand:wikidata": "Q25444754",
      "brand:wikipedia": "uk:Суши Wok (мережа магазинів)",
      "cuisine": "asian",
      "name": "Суши Wok",
      "name:en": "Sushi Wok",
      "takeaway": "yes"
    }
  },
  "amenity/fast_food|Теремок": {
    "count": 177,
    "match": [
      "amenity/cafe|Теремок",
      "shop/convenience|Теремок"
    ],
    "tags": {
      "amenity": "fast_food",
      "brand": "Теремок",
      "brand:en": "Teremok",
      "brand:wikidata": "Q4455593",
      "brand:wikipedia": "ru:Теремок (сеть быстрого питания)",
      "cuisine": "crepe;russian",
      "name": "Теремок",
      "name:en": "Teremok",
      "takeaway": "yes"
    }
  },
  "amenity/fast_food|מקדונלד'ס": {
    "count": 82,
    "countryCodes": ["il"],
    "tags": {
      "amenity": "fast_food",
      "brand": "מקדונלד'ס",
      "brand:en": "McDonald's",
      "brand:he": "מקדונלד'ס",
      "brand:wikidata": "Q12061542",
      "brand:wikipedia": "en:McDonald's Israel",
      "cuisine": "burger",
      "name": "מקדונלד'ס",
      "name:en": "McDonald's",
      "name:he": "מקדונלד'ס",
      "takeaway": "yes"
    }
  },
  "amenity/fast_food|دجاج كنتاكي": {
    "count": 85,
    "tags": {
      "amenity": "fast_food",
      "brand": "دجاج كنتاكي",
      "brand:ar": "دجاج كنتاكي",
      "brand:en": "KFC",
      "brand:wikidata": "Q524757",
      "brand:wikipedia": "ar:دجاج كنتاكي",
      "cuisine": "chicken",
      "name": "دجاج كنتاكي",
      "name:ar": "دجاج كنتاكي",
      "name:en": "KFC",
      "takeaway": "yes"
    }
  },
  "amenity/fast_food|ماكدونالدز": {
    "count": 115,
    "tags": {
      "amenity": "fast_food",
      "brand": "ماكدونالدز",
      "brand:ar": "ماكدونالدز",
      "brand:en": "McDonald's",
      "brand:wikidata": "Q38076",
      "brand:wikipedia": "ar:ماكدونالدز",
      "cuisine": "burger",
      "name": "ماكدونالدز",
      "name:ar": "ماكدونالدز",
      "name:en": "McDonald's",
      "takeaway": "yes"
    }
  },
  "amenity/fast_food|かっぱ寿司": {
    "count": 97,
    "countryCodes": ["jp"],
    "tags": {
      "amenity": "fast_food",
      "brand": "かっぱ寿司",
      "brand:en": "Kappazushi",
      "brand:ja": "かっぱ寿司",
      "brand:wikidata": "Q11263916",
      "brand:wikipedia": "ja:かっぱ寿司",
      "cuisine": "sushi",
      "name": "かっぱ寿司",
      "name:en": "Kappazushi",
      "name:ja": "かっぱ寿司",
      "takeaway": "yes"
    }
  },
  "amenity/fast_food|かつや": {
    "count": 86,
    "countryCodes": ["jp"],
    "match": ["amenity/restaurant|かつや"],
    "tags": {
      "amenity": "fast_food",
      "brand": "かつや",
      "brand:en": "Katsuya",
      "brand:ja": "かつや",
      "brand:wikidata": "Q2855257",
      "brand:wikipedia": "ja:かつや",
      "cuisine": "fried_food",
      "name": "かつや",
      "name:en": "Katsuya",
      "name:ja": "かつや",
      "name:ko": "카쯔야",
      "name:zh": "吉豚屋",
      "takeaway": "yes"
    }
  },
  "amenity/fast_food|くら寿司": {
    "count": 123,
    "countryCodes": ["jp"],
    "match": ["amenity/restaurant|くら寿司"],
    "tags": {
      "amenity": "fast_food",
      "brand": "くら寿司",
      "brand:en": "Kurazushi",
      "brand:ja": "くら寿司",
      "brand:wikidata": "Q6445491",
      "brand:wikipedia": "ja:くらコーポレーション",
      "cuisine": "sushi",
      "name": "くら寿司",
      "name:en": "Kurazushi",
      "name:ja": "くら寿司",
      "takeaway": "yes"
    }
  },
  "amenity/fast_food|すき家": {
    "count": 706,
    "countryCodes": ["jp"],
    "match": ["amenity/restaurant|すき家"],
    "tags": {
      "amenity": "fast_food",
      "brand": "すき家",
      "brand:en": "Sukiya",
      "brand:ja": "すき家",
      "brand:wikidata": "Q6137375",
      "brand:wikipedia": "ja:すき家",
      "cuisine": "beef_bowl",
      "name": "すき家",
      "name:en": "Sukiya",
      "name:ja": "すき家",
      "takeaway": "yes"
    }
  },
  "amenity/fast_food|なか卯": {
    "count": 207,
    "countryCodes": ["jp"],
    "tags": {
      "amenity": "fast_food",
      "brand": "なか卯",
      "brand:en": "Nakau",
      "brand:ja": "なか卯",
      "brand:wikidata": "Q11274132",
      "brand:wikipedia": "ja:なか卯",
      "cuisine": "udon",
      "name": "なか卯",
      "name:en": "Nakau",
      "name:ja": "なか卯",
      "takeaway": "yes"
    }
  },
  "amenity/fast_food|はま寿司": {
    "count": 60,
    "countryCodes": ["jp"],
    "match": ["amenity/restaurant|はま寿司"],
    "tags": {
      "amenity": "fast_food",
      "brand": "はま寿司",
      "brand:en": "Hamazushi",
      "brand:ja": "はま寿司",
      "brand:wikidata": "Q17220385",
      "brand:wikipedia": "ja:はま寿司",
      "cuisine": "sushi",
      "name": "はま寿司",
      "name:en": "Hamazushi",
      "name:ja": "はま寿司",
      "takeaway": "yes"
    }
  },
  "amenity/fast_food|ほっかほっか亭": {
    "count": 79,
    "countryCodes": ["jp"],
    "tags": {
      "amenity": "fast_food",
      "brand": "ほっかほっか亭",
      "brand:en": "Hokka Hokka Tei",
      "brand:ja": "ほっかほっか亭",
      "brand:wikidata": "Q5878035",
      "brand:wikipedia": "ja:ほっかほっか亭",
      "cuisine": "japanese",
      "name": "ほっかほっか亭",
      "name:en": "Hokka Hokka Tei",
      "name:ja": "ほっかほっか亭",
      "takeaway": "yes"
    }
  },
  "amenity/fast_food|ほっともっと": {
    "count": 263,
    "countryCodes": ["jp"],
    "nomatch": ["shop/deli|ほっともっと"],
    "tags": {
      "amenity": "fast_food",
      "brand": "ほっともっと",
      "brand:en": "Hotto Motto",
      "brand:ja": "ほっともっと",
      "brand:wikidata": "Q10850949",
      "brand:wikipedia": "ja:ほっともっと",
      "cuisine": "japanese",
      "name": "ほっともっと",
      "name:en": "Hotto Motto",
      "name:ja": "ほっともっと",
      "takeaway": "yes"
    }
  },
  "amenity/fast_food|ゆで太郎": {
    "count": 52,
    "countryCodes": ["jp"],
    "tags": {
      "amenity": "fast_food",
      "brand": "ゆで太郎",
      "brand:en": "Yudetaro",
      "brand:ja": "ゆで太郎",
      "brand:wikidata": "Q11280824",
      "brand:wikipedia": "ja:ゆで太郎",
      "cuisine": "noodle",
      "name": "ゆで太郎",
      "name:en": "Yudetaro",
      "name:ja": "ゆで太郎",
      "takeaway": "yes"
    }
  },
  "amenity/fast_food|オリジン弁当": {
    "count": 96,
    "countryCodes": ["jp"],
    "tags": {
      "amenity": "fast_food",
      "brand": "オリジン弁当",
      "brand:en": "Origin Bentō",
      "brand:ja": "オリジン弁当",
      "brand:wikidata": "Q11292632",
      "brand:wikipedia": "ja:オリジン東秀",
      "cuisine": "japanese",
      "name": "オリジン弁当",
      "name:en": "Origin Bentō",
      "name:ja": "オリジン弁当",
      "takeaway": "yes"
    }
  },
  "amenity/fast_food|ケンタッキーフライドチキン": {
    "count": 385,
    "countryCodes": ["jp"],
    "tags": {
      "amenity": "fast_food",
      "brand": "ケンタッキーフライドチキン",
      "brand:en": "KFC",
      "brand:ja": "ケンタッキーフライドチキン",
      "brand:wikidata": "Q524757",
      "brand:wikipedia": "ja:KFCコーポレーション",
      "cuisine": "chicken",
      "name": "ケンタッキーフライドチキン",
      "name:en": "KFC",
      "name:ja": "ケンタッキーフライドチキン",
      "takeaway": "yes"
    }
  },
  "amenity/fast_food|サブウェイ": {
    "count": 72,
    "countryCodes": ["jp"],
    "tags": {
      "amenity": "fast_food",
      "brand": "サブウェイ",
      "brand:en": "Subway",
      "brand:ja": "サブウェイ",
      "brand:wikidata": "Q244457",
      "brand:wikipedia": "ja:サブウェイ",
      "cuisine": "sandwich",
      "name": "サブウェイ",
      "name:en": "Subway",
      "name:ja": "サブウェイ",
      "takeaway": "yes"
    }
  },
  "amenity/fast_food|スシロー": {
    "count": 125,
    "countryCodes": ["jp"],
    "match": ["amenity/restaurant|スシロー"],
    "tags": {
      "amenity": "fast_food",
      "brand": "スシロー",
      "brand:en": "Sushiro",
      "brand:ja": "スシロー",
      "brand:wikidata": "Q11257037",
      "brand:wikipedia": "ja:あきんどスシロー",
      "cuisine": "sushi",
      "name": "スシロー",
      "name:en": "Sushiro",
      "name:ja": "スシロー",
      "name:zh": "壽司郎",
      "takeaway": "yes"
    }
  },
  "amenity/fast_food|ドミノ・ピザ": {
    "countryCodes": ["jp"],
    "match": ["amenity/restaurant|ドミノ・ピザ"],
    "nocount": true,
    "tags": {
      "amenity": "fast_food",
      "brand": "ドミノ・ピザ",
      "brand:en": "Domino's Pizza",
      "brand:ja": "ドミノ・ピザ",
      "brand:wikidata": "Q839466",
      "brand:wikipedia": "ja:ドミノ・ピザ",
      "cuisine": "pizza",
      "name": "ドミノ・ピザ",
      "name:en": "Domino's Pizza",
      "name:ja": "ドミノ・ピザ",
      "takeaway": "yes"
    }
  },
  "amenity/fast_food|ピザハット": {
    "count": 58,
    "countryCodes": ["jp"],
    "tags": {
      "amenity": "fast_food",
      "brand": "ピザハット",
      "brand:en": "Pizza Hut",
      "brand:ja": "ピザハット",
      "brand:wikidata": "Q191615",
      "brand:wikipedia": "ja:ピザハット",
      "cuisine": "pizza",
      "name": "ピザハット",
      "name:en": "Pizza Hut",
      "name:ja": "ピザハット",
      "takeaway": "yes"
    }
  },
  "amenity/fast_food|ピザ・カリフォルニア": {
    "countryCodes": ["jp"],
    "match": ["amenity/fast_food|ピザ カリフォルニア"],
    "nocount": true,
    "tags": {
      "amenity": "fast_food",
      "brand": "ピザ・カリフォルニア",
      "brand:en": "Pizza California",
      "brand:ja": "ピザ・カリフォルニア",
      "brand:wikidata": "Q75324",
      "brand:wikipedia": "ja:ピザ・カリフォルニア",
      "cuisine": "pizza",
      "name": "ピザ・カリフォルニア",
      "name:en": "Pizza California",
      "name:ja": "ピザ・カリフォルニア",
      "takeaway": "yes"
    }
  },
  "amenity/fast_food|ピザーラ": {
    "countryCodes": ["jp"],
    "nocount": true,
    "tags": {
      "amenity": "fast_food",
      "brand": "ピザーラ",
      "brand:en": "Pizza-La",
      "brand:ja": "ピザーラ",
      "brand:wikidata": "Q7199948",
      "brand:wikipedia": "ja:ピザーラ",
      "cuisine": "pizza",
      "name": "ピザーラ",
      "name:en": "Pizza-La",
      "name:ja": "ピザーラ",
      "takeaway": "yes"
    }
  },
  "amenity/fast_food|フレッシュネスバーガー": {
    "countryCodes": ["jp"],
    "nocount": true,
    "tags": {
      "amenity": "fast_food",
      "brand": "フレッシュネスバーガー",
      "brand:en": "Freshness Burger",
      "brand:ja": "フレッシュネスバーガー",
      "brand:wikidata": "Q5503087",
      "brand:wikipedia": "ja:フレッシュネスバーガー",
      "cuisine": "burger",
      "name": "フレッシュネスバーガー",
      "name:en": "Freshness Burger",
      "name:ja": "フレッシュネスバーガー",
      "takeaway": "yes"
    }
  },
  "amenity/fast_food|マクドナルド": {
    "count": 1533,
    "countryCodes": ["jp"],
    "tags": {
      "amenity": "fast_food",
      "brand": "マクドナルド",
      "brand:en": "McDonald's",
      "brand:ja": "マクドナルド",
      "brand:wikidata": "Q38076",
      "brand:wikipedia": "ja:マクドナルド",
      "cuisine": "burger",
      "name": "マクドナルド",
      "name:en": "McDonald's",
      "name:ja": "マクドナルド",
      "takeaway": "yes"
    }
  },
  "amenity/fast_food|ミスタードーナツ": {
    "count": 229,
    "countryCodes": ["jp"],
    "tags": {
      "amenity": "fast_food",
      "brand": "ミスタードーナツ",
      "brand:en": "Mister Donut",
      "brand:ja": "ミスタードーナツ",
      "brand:wikidata": "Q1065819",
      "brand:wikipedia": "en:Mister Donut",
      "cuisine": "donut",
      "name": "ミスタードーナツ",
      "name:en": "Mister Donut",
      "name:ja": "ミスタードーナツ",
      "takeaway": "yes"
    }
  },
  "amenity/fast_food|モスバーガー": {
    "count": 615,
    "countryCodes": ["jp"],
    "tags": {
      "amenity": "fast_food",
      "brand": "モスバーガー",
      "brand:en": "MOS Burger",
      "brand:ja": "モスバーガー",
      "brand:wikidata": "Q1204169",
      "brand:wikipedia": "ja:モスバーガー",
      "cuisine": "burger",
      "name": "モスバーガー",
      "name:en": "MOS Burger",
      "name:ja": "モスバーガー",
      "takeaway": "yes"
    }
  },
  "amenity/fast_food|ラーメン二郎": {
    "countryCodes": ["jp"],
    "match": ["amenity/restaurant|ラーメン二郎"],
    "nocount": true,
    "tags": {
      "amenity": "fast_food",
      "brand": "ラーメン二郎",
      "brand:en": "Ramen Jiro",
      "brand:ja": "ラーメン二郎",
      "brand:wikidata": "Q11347765",
      "brand:wikipedia": "ja:ラーメン二郎",
      "cuisine": "ramen",
      "name": "ラーメン二郎",
      "name:en": "Ramen Jiro",
      "name:ja": "ラーメン二郎",
      "takeaway": "yes"
    }
  },
  "amenity/fast_food|ロッテリア": {
    "count": 115,
    "countryCodes": ["jp"],
    "tags": {
      "amenity": "fast_food",
      "brand": "ロッテリア",
      "brand:en": "Lotteria",
      "brand:ja": "ロッテリア",
      "brand:wikidata": "Q249525",
      "brand:wikipedia": "ja:ロッテリア",
      "cuisine": "burger",
      "name": "ロッテリア",
      "name:en": "Lotteria",
      "name:ja": "ロッテリア",
      "takeaway": "yes"
    }
  },
  "amenity/fast_food|吉野家": {
    "count": 553,
    "countryCodes": ["jp"],
    "match": ["amenity/restaurant|吉野家"],
    "tags": {
      "amenity": "fast_food",
      "brand": "吉野家",
      "brand:en": "Yoshinoya",
      "brand:ja": "吉野家",
      "brand:wikidata": "Q776272",
      "brand:wikipedia": "ja:吉野家",
      "cuisine": "beef_bowl",
      "name": "吉野家",
      "name:en": "Yoshinoya",
      "name:ja": "吉野家",
      "takeaway": "yes"
    }
  },
  "amenity/fast_food|富士そば": {
    "count": 60,
    "countryCodes": ["jp"],
    "tags": {
      "amenity": "fast_food",
      "brand": "富士そば",
      "brand:en": "Fuji Soba",
      "brand:ja": "富士そば",
      "brand:wikidata": "Q11414722",
      "brand:wikipedia": "ja:名代富士そば",
      "cuisine": "soba",
      "name": "富士そば",
      "name:en": "Fuji Soba",
      "name:ja": "富士そば",
      "takeaway": "yes"
    }
  },
  "amenity/fast_food|幸楽苑": {
    "count": 87,
    "countryCodes": ["jp"],
    "match": ["amenity/restaurant|幸楽苑"],
    "tags": {
      "amenity": "fast_food",
      "brand": "幸楽苑",
      "brand:en": "Kourakuen",
      "brand:ja": "幸楽苑",
      "brand:wikidata": "Q11484003",
      "brand:wikipedia": "ja:幸楽苑",
      "cuisine": "ramen",
      "name": "幸楽苑",
      "name:en": "Kourakuen",
      "name:ja": "幸楽苑",
      "takeaway": "yes"
    }
  },
  "amenity/fast_food|摩斯漢堡": {
    "count": 117,
    "countryCodes": [
      "cn",
      "hk",
      "mo",
      "sg",
      "tw"
    ],
    "tags": {
      "amenity": "fast_food",
      "brand": "摩斯漢堡",
      "brand:en": "MOS Burger",
      "brand:wikidata": "Q1204169",
      "brand:wikipedia": "zh:摩斯漢堡",
      "brand:zh": "摩斯漢堡",
      "cuisine": "burger",
      "name": "摩斯漢堡",
      "name:en": "MOS Burger",
      "name:zh": "摩斯漢堡",
      "takeaway": "yes"
    }
  },
  "amenity/fast_food|日高屋": {
    "count": 53,
    "tags": {
      "amenity": "fast_food",
      "brand": "日高屋",
      "name": "日高屋",
      "takeaway": "yes"
    }
  },
  "amenity/fast_food|松屋": {
    "count": 630,
    "countryCodes": [
      "cn",
      "hk",
      "jp",
      "mo",
      "sg",
      "tw"
    ],
    "tags": {
      "amenity": "fast_food",
      "brand": "松屋",
      "brand:en": "Matsuya Foods",
      "brand:wikidata": "Q848773",
      "brand:wikipedia": "ja:松屋フーズ",
      "cuisine": "japanese",
      "name": "松屋",
      "name:en": "Matsuya Foods",
      "takeaway": "yes"
    }
  },
  "amenity/fast_food|箱根そば": {
    "countryCodes": ["jp"],
    "nocount": true,
    "tags": {
      "amenity": "fast_food",
      "brand": "箱根そば",
      "brand:en": "Hakone Soba",
      "brand:ja": "箱根そば",
      "brand:wikidata": "Q11603345",
      "brand:wikipedia": "ja:箱根そば",
      "cuisine": "soba",
      "name": "箱根そば",
      "name:en": "Hakone Soba",
      "name:ja": "箱根そば",
      "takeaway": "yes"
    }
  },
  "amenity/fast_food|肯德基": {
    "count": 272,
    "countryCodes": [
      "cn",
      "hk",
      "mo",
      "sg",
      "tw"
    ],
    "tags": {
      "amenity": "fast_food",
      "brand": "肯德基",
      "brand:en": "KFC",
      "brand:wikidata": "Q524757",
      "brand:wikipedia": "zh:肯德基",
      "cuisine": "chicken",
      "name": "肯德基",
      "name:en": "KFC",
      "takeaway": "yes"
    }
  },
  "amenity/fast_food|麥當勞": {
    "count": 256,
    "countryCodes": ["hk", "mo", "tw"],
    "tags": {
      "amenity": "fast_food",
      "brand": "麥當勞",
      "brand:en": "McDonald's",
      "brand:wikidata": "Q38076",
      "brand:wikipedia": "zh_classical:麥當勞",
      "cuisine": "burger",
      "name": "麥當勞",
      "name:en": "McDonald's",
      "takeaway": "yes"
    }
  },
  "amenity/fast_food|麦当劳": {
    "count": 201,
    "countryCodes": ["cn", "sg"],
    "tags": {
      "amenity": "fast_food",
      "brand": "麦当劳",
      "brand:en": "McDonald's",
      "brand:wikidata": "Q38076",
      "brand:wikipedia": "zh:麦当劳",
      "cuisine": "burger",
      "name": "麦当劳",
      "name:en": "McDonald's",
      "takeaway": "yes"
    }
  },
  "amenity/fast_food|롯데리아": {
    "count": 141,
    "countryCodes": ["kr"],
    "tags": {
      "amenity": "fast_food",
      "brand": "롯데리아",
      "brand:en": "Lotteria",
      "brand:ko": "롯데리아",
      "brand:wikidata": "Q249525",
      "brand:wikipedia": "ko:롯데리아",
      "cuisine": "burger",
      "name": "롯데리아",
      "name:en": "Lotteria",
      "name:ko": "롯데리아",
      "takeaway": "yes"
    }
  },
  "amenity/fast_food|맘스터치": {
    "count": 54,
    "countryCodes": ["kr"],
    "tags": {
      "amenity": "fast_food",
      "brand": "맘스터치",
      "brand:ko": "맘스터치",
      "cuisine": "burger",
      "name": "맘스터치",
      "name:ko": "맘스터치",
      "takeaway": "yes"
    }
  },
  "amenity/fast_food|맥도날드": {
    "count": 70,
    "countryCodes": ["kr"],
    "tags": {
      "amenity": "fast_food",
      "brand": "맥도날드",
      "brand:ko": "맥도날드",
      "name": "맥도날드",
      "name:ko": "맥도날드",
      "takeaway": "yes"
    }
  }
}