{
  "brands/amenity/hospital": [
    {
      "displayName": "City Hospital",
      "id": "cityhospital-abc639",
      "locationSet": {"include": ["001"]},
      "tags": {
        "amenity": "hospital",
        "brand": "City Hospital",
        "name": "City Hospital"
      }
    },
    {
      "displayName": "Civil Hospital",
      "id": "civilhospital-abc639",
      "locationSet": {"include": ["001"]},
      "tags": {
        "amenity": "hospital",
        "brand": "Civil Hospital",
        "name": "Civil Hospital"
      }
    },
    {
      "displayName": "Cruz Roja",
      "id": "cruzroja-abc639",
      "locationSet": {"include": ["001"]},
      "tags": {
        "amenity": "hospital",
        "brand": "Cruz Roja",
        "name": "Cruz Roja"
      }
    },
    {
      "displayName": "ESI Hospital",
      "id": "esihospital-abc639",
      "locationSet": {"include": ["001"]},
      "tags": {
        "amenity": "hospital",
        "brand": "ESI Hospital",
        "name": "ESI Hospital"
      }
    },
    {
      "displayName": "Fortis Healthcare",
      "id": "fortishealthcare-895d2c",
      "locationSet": {"include": ["in"]},
      "tags": {
        "amenity": "hospital",
        "brand": "Fortis Healthcare",
        "brand:wikidata": "Q7810035",
        "brand:wikipedia": "en:Fortis Healthcare",
        "healthcare": "hospital",
        "name": "Fortis Healthcare"
      }
    },
    {
      "displayName": "IMSS",
      "id": "imss-abc639",
      "locationSet": {"include": ["001"]},
      "tags": {
        "amenity": "hospital",
        "brand": "IMSS",
        "name": "IMSS"
      }
    },
    {
      "displayName": "Krishna Hospital",
      "id": "krishnahospital-abc639",
      "locationSet": {"include": ["001"]},
      "tags": {
        "amenity": "hospital",
        "brand": "Krishna Hospital",
        "name": "Krishna Hospital"
      }
    },
    {
      "displayName": "Military Hospital",
      "id": "militaryhospital-abc639",
      "locationSet": {"include": ["001"]},
      "tags": {
        "amenity": "hospital",
        "brand": "Military Hospital",
        "name": "Military Hospital"
      }
    },
    {
      "displayName": "Railway Hospital",
      "id": "railwayhospital-abc639",
      "locationSet": {"include": ["001"]},
      "tags": {
        "amenity": "hospital",
        "brand": "Railway Hospital",
        "name": "Railway Hospital"
      }
    },
    {
      "displayName": "Sanjeevani Hospital",
      "id": "sanjeevanihospital-abc639",
      "locationSet": {"include": ["001"]},
      "tags": {
        "amenity": "hospital",
        "brand": "Sanjeevani Hospital",
        "name": "Sanjeevani Hospital"
      }
    },
    {
      "displayName": "Select Specialty Hospital",
      "id": "selectspecialtyhospital-246740",
      "locationSet": {"include": ["us"]},
      "matchNames": ["select speciality"],
      "tags": {
        "amenity": "hospital",
        "brand": "Select Specialty Hospital",
        "brand:wikidata": "Q66360902",
        "healthcare": "hospital",
        "name": "Select Specialty Hospital"
      }
    },
    {
      "displayName": "Shriners Hospital for Children",
      "id": "shrinershospitalsforchildren-246740",
      "locationSet": {"include": ["us"]},
      "matchNames": [
        "shriners burn hospital",
        "shriners hospital"
      ],
      "tags": {
        "amenity": "hospital",
        "brand": "Shriners Hospitals for Children",
        "brand:wikidata": "Q7504109",
        "brand:wikipedia": "en:Shriners Hospitals for Children",
        "healthcare": "hospital",
        "healthcare:speciality": "paediatrics",
        "name": "Shriners Hospitals for Children"
      }
    },
    {
      "displayName": "VA Medical Center",
      "id": "vamedicalcenter-246740",
      "locationSet": {"include": ["us"]},
      "matchNames": [
        "department of veterans affairs medical center",
        "veterans administration",
        "veterans administration hospital",
        "veterans administration medical center",
        "veterans affairs",
        "veterans affairs hospital",
        "veterans affairs medical center"
      ],
      "tags": {
        "amenity": "hospital",
        "brand": "VA",
        "brand:wikidata": "Q6580225",
        "brand:wikipedia": "en:Veterans Health Administration",
        "healthcare": "hospital",
        "healthcare:for": "veterans",
        "name": "VA Medical Center",
        "short_name": "VA"
      }
    },
    {
      "displayName": "Городская больница",
      "id": "a7af6a-abc639",
      "locationSet": {"include": ["001"]},
      "tags": {
        "amenity": "hospital",
        "brand": "Городская больница",
        "name": "Городская больница"
      }
    },
    {
      "displayName": "Детская больница",
      "id": "da1c9b-abc639",
      "locationSet": {"include": ["001"]},
      "tags": {
        "amenity": "hospital",
        "brand": "Детская больница",
        "name": "Детская больница"
      }
    },
    {
      "displayName": "Медпункт",
      "id": "4382ab-abc639",
      "locationSet": {"include": ["001"]},
      "tags": {
        "amenity": "hospital",
        "brand": "Медпункт",
        "name": "Медпункт"
      }
    },
    {
      "displayName": "Противотуберкулезный диспансер",
      "id": "af05e5-abc639",
      "locationSet": {"include": ["001"]},
      "tags": {
        "amenity": "hospital",
        "brand": "Противотуберкулезный диспансер",
        "name": "Противотуберкулезный диспансер"
      }
    },
    {
      "displayName": "Районная больница",
      "id": "bca383-abc639",
      "locationSet": {"include": ["001"]},
      "tags": {
        "amenity": "hospital",
        "brand": "Районная больница",
        "name": "Районная больница"
      }
    },
    {
      "displayName": "Роддом",
      "id": "dbf000-abc639",
      "locationSet": {"include": ["001"]},
      "tags": {
        "amenity": "hospital",
        "brand": "Роддом",
        "name": "Роддом"
      }
    },
    {
      "displayName": "Родильный дом",
      "id": "addbb5-abc639",
      "locationSet": {"include": ["001"]},
      "tags": {
        "amenity": "hospital",
        "brand": "Родильный дом",
        "name": "Родильный дом"
      }
    },
    {
      "displayName": "Скорая помощь",
      "id": "6824f8-abc639",
      "locationSet": {"include": ["001"]},
      "tags": {
        "amenity": "hospital",
        "brand": "Скорая помощь",
        "name": "Скорая помощь"
      }
    },
    {
      "displayName": "โรงพยาบาลส่งเสริมสุขภาพตำบล",
      "id": "2beb32-a3e71c",
      "locationSet": {"include": ["th"]},
      "tags": {
        "amenity": "hospital",
        "brand": "โรงพยาบาลส่งเสริมสุขภาพตำบล",
        "brand:th": "โรงพยาบาลส่งเสริมสุขภาพตำบล",
        "name": "โรงพยาบาลส่งเสริมสุขภาพตำบล",
        "name:th": "โรงพยาบาลส่งเสริมสุขภาพตำบล"
      }
    }
  ]
}