{
  "amenity/internet_cafe|アプレシオ": {
    "countryCodes": ["jp"],
    "tags": {
      "amenity": "internet_cafe",
      "brand": "アプレシオ",
      "brand:en": "Aprecio",
      "brand:ja": "アプレシオ",
      "brand:wikidata": "Q11284756",
      "brand:wikipedia": "ja:アプレシオ",
      "internet_access:fee": "yes",
      "name": "アプレシオ",
      "name:en": "Aprecio",
      "name:ja": "アプレシオ"
    }
  },
  "amenity/internet_cafe|コミック・バスター": {
    "countryCodes": ["jp"],
    "tags": {
      "amenity": "internet_cafe",
      "brand": "コミック・バスター",
      "brand:en": "Comic Buster",
      "brand:ja": "コミック・バスター",
      "brand:wikidata": "Q90413129",
      "internet_access:fee": "yes",
      "name": "コミック・バスター",
      "name:en": "Comic Buster",
      "name:ja": "コミック・バスター"
    }
  },
  "amenity/internet_cafe|マンボー": {
    "countryCodes": ["jp"],
    "matchNames": ["manboo"],
    "tags": {
      "amenity": "internet_cafe",
      "brand": "マンボー",
      "brand:en": "Manboo",
      "brand:ja": "マンボー",
      "brand:wikidata": "Q11341637",
      "brand:wikipedia": "ja:マンボー (インターネットカフェ)",
      "internet_access:fee": "yes",
      "name": "マンボー",
      "name:en": "Manboo",
      "name:ja": "マンボー"
    }
  },
  "amenity/internet_cafe|メディアカフェポパイ": {
    "countryCodes": ["jp"],
    "tags": {
      "amenity": "internet_cafe",
      "brand": "メディアカフェポパイ",
      "brand:en": "Media Cafe Popeye",
      "brand:ja": "メディアカフェポパイ",
      "brand:wikidata": "Q11343796",
      "brand:wikipedia": "ja:メディアカフェポパイ",
      "internet_access:fee": "yes",
      "name": "メディアカフェポパイ",
      "name:en": "Media Cafe Popeye",
      "name:ja": "メディアカフェポパイ"
    }
  },
  "amenity/internet_cafe|快活CLUB": {
    "countryCodes": ["jp"],
    "matchNames": ["快活クラブ"],
    "tags": {
      "alt_name": "快活クラブ",
      "amenity": "internet_cafe",
      "brand": "快活CLUB",
      "brand:en": "Kaikatsu Club",
      "brand:ja": "快活CLUB",
      "brand:wikidata": "Q88299591",
      "internet_access:fee": "yes",
      "name": "快活CLUB",
      "name:en": "Kaikatsu Club",
      "name:ja": "快活CLUB"
    }
  },
  "amenity/internet_cafe|自遊空間": {
    "countryCodes": ["jp"],
    "tags": {
      "alt_name:en": "Jiyu Kukan",
      "amenity": "internet_cafe",
      "brand": "自遊空間",
      "brand:en": "Space Create",
      "brand:ja": "自遊空間",
      "brand:wikidata": "Q88121843",
      "internet_access:fee": "yes",
      "name": "自遊空間",
      "name:en": "Space Create",
      "name:ja": "自遊空間"
    }
  }
}