{
  "amenity/karaoke_box|カラオケ館": {
    "countryCodes": ["jp"],
    "tags": {
      "amenity": "karaoke_box",
      "brand": "カラオケ館",
      "brand:en": "Karaoke-kan",
      "brand:ja": "カラオケ館",
      "brand:wikidata": "Q11294889",
      "brand:wikipedia": "ja:B&V",
      "fee": "yes",
      "name": "カラオケ館",
      "name:en": "Karaoke-kan",
      "name:ja": "カラオケ館"
    }
  },
  "amenity/karaoke_box|ジョイサウンド": {
    "countryCodes": ["jp"],
    "tags": {
      "amenity": "karaoke_box",
      "brand": "ジョイサウンド",
      "brand:en": "Joysound",
      "brand:ja": "ジョイサウンド",
      "brand:wikidata": "Q11226033",
      "brand:wikipedia": "ja:JOYSOUND",
      "fee": "yes",
      "name": "ジョイサウンド",
      "name:en": "Joysound",
      "name:ja": "ジョイサウンド"
    }
  },
  "amenity/karaoke_box|ビッグエコー": {
    "countryCodes": ["jp"],
    "tags": {
      "amenity": "karaoke_box",
      "brand": "ビッグエコー",
      "brand:en": "Big Echo",
      "brand:ja": "ビッグエコー",
      "brand:wikidata": "Q88117761",
      "fee": "yes",
      "name": "ビッグエコー",
      "name:en": "Big Echo",
      "name:ja": "ビッグエコー"
    }
  }
}