{
  "amenity/language_school|AEON": {
    "countryCodes": ["jp"],
    "tags": {
      "amenity": "language_school",
      "brand": "AEON",
      "brand:en": "Aeon",
      "brand:ja": "AEON",
      "brand:ja-Hira": "イーオン",
      "brand:ja-Latn": "AEON",
      "brand:wikidata": "Q5322655",
      "brand:wikipedia": "ja:イーオン",
      "language:en": "main",
      "name": "AEON",
      "name:en": "Aeon",
      "name:ja": "AEON",
      "name:ja-Hira": "イーオン",
      "name:ja-Latn": "AEON"
    }
  },
  "amenity/language_school|Berlitz": {
    "tags": {
      "amenity": "language_school",
      "brand": "Berlitz",
      "brand:wikidata": "Q821960",
      "brand:wikipedia": "en:Berlitz Corporation",
      "name": "Berlitz"
    }
  },
  "amenity/language_school|ECC外語学院": {
    "countryCodes": ["jp"],
    "tags": {
      "amenity": "language_school",
      "brand": "ECC外語学院",
      "brand:en": "ECC Foreign Language Institute",
      "brand:ja": "ECC外語学院",
      "brand:ja-Hira": "イーシーシーがいごがくいん",
      "brand:ja-Latn": "ECC Gaigo Gakuin",
      "brand:wikidata": "Q5322655",
      "brand:wikipedia": "ja:ECC総合教育機関",
      "language:en": "main",
      "name": "ECC外語学院",
      "name:en": "ECC Foreign Language Institute",
      "name:ja": "ECC外語学院",
      "name:ja-Hira": "イーシーシーがいごがくいん",
      "name:ja-Latn": "ECC Gaigo Gakuin",
      "short_name": "ECC",
      "short_name:en": "ECC",
      "short_name:ja": "ECC",
      "short_name:ja-Hira": "イーシーシー",
      "short_name:ja-Latn": "ECC"
    }
  },
  "amenity/language_school|ELS": {
    "countryCodes": [
      "ca",
      "in",
      "my",
      "pa",
      "sa",
      "tr",
      "us",
      "vn"
    ],
    "tags": {
      "amenity": "language_school",
      "brand": "ELS",
      "brand:en": "ELS",
      "brand:wikidata": "Q5323325",
      "brand:wikipedia": "en:ELS Language Centers",
      "language:en": "main",
      "name": "ELS",
      "name:en": "ELS",
      "official_name": "ELS Language Centers",
      "official_name:en": "ELS Language Centers"
    }
  },
  "amenity/language_school|GABA": {
    "countryCodes": ["jp"],
    "tags": {
      "amenity": "language_school",
      "brand": "GABA",
      "brand:en": "Gaba",
      "brand:ja": "GABA",
      "brand:ja-Kana": "ガバ",
      "brand:ja-Latn": "GABA",
      "brand:wikidata": "Q5515241",
      "brand:wikipedia": "ja:GABA (企業)",
      "language:en": "main",
      "name": "GABA",
      "name:en": "Gaba",
      "name:ja": "GABA",
      "name:ja-Kana": "ガバ",
      "name:ja-Latn": "GABA"
    }
  },
  "amenity/language_school|NOVA": {
    "countryCodes": ["jp"],
    "matchTags": [
      "amenity/college",
      "amenity/school"
    ],
    "tags": {
      "amenity": "language_school",
      "brand": "NOVA",
      "brand:en": "Nova",
      "brand:ja": "NOVA",
      "brand:ja-Hira": "ノヴァ",
      "brand:ja-Latn": "NOVA",
      "brand:wikidata": "Q7064000",
      "brand:wikipedia": "ja:NOVA",
      "language:en": "main",
      "name": "NOVA",
      "name:en": "Nova",
      "name:ja": "NOVA",
      "name:ja-Hira": "ノヴァ",
      "name:ja-Latn": "NOVA"
    }
  },
  "amenity/language_school|Shane English School": {
    "countryCodes": [
      "cn",
      "dz",
      "gb",
      "hk",
      "id",
      "kr",
      "pl",
      "th",
      "tw",
      "vn"
    ],
    "tags": {
      "amenity": "language_school",
      "brand": "Shane English School",
      "brand:en": "Shane English School",
      "brand:ja": "シェーン英会話",
      "brand:ja-Latn": "Shēn Eikaiwa",
      "brand:wikidata": "Q17054332",
      "brand:wikipedia": "en:Shane English School",
      "language:en": "main",
      "name": "Shane English School",
      "name:en": "Shane English School",
      "name:ja": "シェーン英会話",
      "name:ja-Latn": "Shēn Eikaiwa"
    }
  },
  "amenity/language_school|シェーン英会話": {
    "countryCodes": ["jp"],
    "tags": {
      "amenity": "language_school",
      "brand": "シェーン英会話",
      "brand:en": "Shane English School",
      "brand:ja": "シェーン英会話",
      "brand:ja-Latn": "Shēn Eikaiwa",
      "brand:wikidata": "Q17054332",
      "brand:wikipedia": "ja:シェーン英会話スクール",
      "language:en": "main",
      "name": "シェーン英会話",
      "name:en": "Shane English School",
      "name:ja": "シェーン英会話",
      "name:ja-Latn": "Shēn Eikaiwa"
    }
  },
  "amenity/language_school|セイハ英語学院": {
    "countryCodes": ["jp"],
    "tags": {
      "amenity": "language_school",
      "brand": "セイハ英語学院",
      "brand:en": "Seiha English Academy",
      "brand:ja": "セイハ英語学院",
      "brand:ja-Hani": "セイハえいごがくいん",
      "brand:ja-Latn": "Seiha Eigo Gakuin",
      "brand:wikidata": "Q7446694",
      "language:en": "main",
      "name": "セイハ英語学院",
      "name:en": "Seiha English Academy",
      "name:ja": "セイハ英語学院",
      "name:ja-Hani": "セイハえいごがくいん",
      "name:ja-Latn": "Seiha Eigo Gakuin"
    }
  },
  "amenity/language_school|ベルリッツ": {
    "countryCodes": ["jp"],
    "tags": {
      "amenity": "language_school",
      "brand": "ベルリッツ",
      "brand:en": "Berlitz",
      "brand:ja": "ベルリッツ",
      "brand:ja-Hira": "ベルリッツ",
      "brand:wikidata": "Q4892545",
      "brand:wikipedia": "ja:ベルリッツ・ジャパン",
      "name": "ベルリッツ",
      "name:en": "Berlitz",
      "name:ja": "ベルリッツ",
      "name:ja-Hira": "ベルリッツ"
    }
  },
  "amenity/language_school|ペッピーキッズクラブ": {
    "countryCodes": ["jp"],
    "tags": {
      "amenity": "language_school",
      "brand": "ペッピーキッズクラブ",
      "brand:en": "Peppy Kids Club",
      "brand:ja": "ペッピーキッズクラブ",
      "brand:ja-Latn": "Peppi Kizzu Kurabu",
      "brand:wikidata": "Q7166471",
      "brand:wikipedia": "ja:ペッピーキッズクラブ",
      "language:en": "main",
      "name": "ペッピーキッズクラブ",
      "name:en": "Peppy Kids Club",
      "name:ja": "ペッピーキッズクラブ",
      "name:ja-Latn": "Peppi Kizzu Kurabu"
    }
  }
}