{
  "amenity/parking|Diamond Parking": {
    "countryCodes": ["ca", "us"],
    "tags": {
      "amenity": "parking",
      "brand": "Diamond Parking",
      "brand:wikidata": "Q5270887",
      "brand:wikipedia": "en:Diamond Parking",
      "name": "Diamond Parking"
    }
  },
  "amenity/parking|Indigo": {
    "tags": {
      "amenity": "parking",
      "brand": "Indigo",
      "brand:wikidata": "Q3559970",
      "brand:wikipedia": "fr:Indigo (entreprise)",
      "fee": "yes",
      "name": "Indigo"
    }
  },
  "amenity/parking|NPC24H": {
    "countryCodes": ["jp"],
    "matchNames": ["日本パーキング"],
    "tags": {
      "amenity": "parking",
      "brand": "NPC",
      "brand:wikidata": "Q11506782",
      "brand:wikipedia": "ja:日本パーキング",
      "fee": "yes",
      "name": "NPC24H",
      "official_name": "日本パーキング"
    }
  },
  "amenity/parking|Parking Company of America": {
    "countryCodes": ["us"],
    "tags": {
      "amenity": "parking",
      "brand": "Parking Company of America",
      "brand:wikidata": "Q65491376",
      "fee": "yes",
      "name": "Parking Company of America",
      "short_name": "PCA"
    }
  },
  "amenity/parking|SP+": {
    "countryCodes": ["ca", "us"],
    "matchNames": [
      "central parking",
      "central parking system",
      "standard parking"
    ],
    "nomatch": ["amenity/fuel|SP"],
    "tags": {
      "alt_name": "SP Plus",
      "amenity": "parking",
      "brand": "SP+",
      "brand:wikidata": "Q7598289",
      "brand:wikipedia": "en:SP Plus Corporation",
      "fee": "yes",
      "name": "SP+"
    }
  },
  "amenity/parking|Wilson Parking": {
    "countryCodes": [
      "au",
      "cn",
      "hk",
      "ko",
      "nz",
      "sg"
    ],
    "matchNames": ["wilson"],
    "tags": {
      "amenity": "parking",
      "brand": "Wilson Parking",
      "brand:wikidata": "Q28448427",
      "brand:wikipedia": "en:Wilson Parking",
      "fee": "yes",
      "name": "Wilson Parking"
    }
  },
  "amenity/parking|アップルパーク": {
    "countryCodes": ["jp"],
    "tags": {
      "amenity": "parking",
      "brand": "アップルパーク",
      "brand:en": "Apple Park",
      "brand:ja": "アップルパーク",
      "brand:wikidata": "Q30923801",
      "brand:wikipedia": "ja:アップルパーク",
      "fee": "yes",
      "name": "アップルパーク",
      "name:en": "Apple Park",
      "name:ja": "アップルパーク"
    }
  },
  "amenity/parking|タイムズ": {
    "countryCodes": ["jp"],
    "matchNames": ["times 24th", "タイムズ24"],
    "tags": {
      "amenity": "parking",
      "brand": "タイムズ",
      "brand:en": "Times",
      "brand:ja": "タイムズ",
      "brand:wikidata": "Q11089693",
      "brand:wikipedia": "ja:パーク24",
      "fee": "yes",
      "name": "タイムズ",
      "name:en": "Times",
      "name:ja": "タイムズ"
    }
  },
  "amenity/parking|パラカ": {
    "countryCodes": ["jp"],
    "tags": {
      "amenity": "parking",
      "brand": "パラカ",
      "brand:en": "Paraca",
      "brand:ja": "パラカ",
      "brand:wikidata": "Q11329318",
      "brand:wikipedia": "ja:パラカ",
      "fee": "yes",
      "name": "パラカ",
      "name:en": "Paraca",
      "name:ja": "パラカ"
    }
  }
}