{
  "amenity/pharmacy|36,6": {
    "locationSet": {"include": ["ru"]},
    "matchNames": ["аптека 36,6"],
    "tags": {
      "amenity": "pharmacy",
      "brand": "36,6",
      "brand:wikidata": "Q226889",
      "brand:wikipedia": "ru:36,6 (аптечная сеть)",
      "healthcare": "pharmacy",
      "name": "36,6"
    }
  },
  "amenity/pharmacy|Agafarma": {
    "locationSet": {"include": ["br"]},
    "tags": {
      "amenity": "pharmacy",
      "brand": "Agafarma",
      "brand:wikidata": "Q93735939",
      "healthcare": "pharmacy",
      "name": "Agafarma"
    }
  },
  "amenity/pharmacy|Amavita": {
    "locationSet": {"include": ["ch"]},
    "tags": {
      "amenity": "pharmacy",
      "brand": "Amavita",
      "brand:wikidata": "Q93733901",
      "healthcare": "pharmacy",
      "name": "Amavita"
    }
  },
  "amenity/pharmacy|Amcal": {
    "locationSet": {"include": ["au"]},
    "matchNames": ["amcal pharmacy"],
    "tags": {
      "amenity": "pharmacy",
      "brand": "Amcal",
      "brand:wikidata": "Q63367373",
      "healthcare": "pharmacy",
      "name": "Amcal"
    }
  },
  "amenity/pharmacy|Anton et Willem": {
    "locationSet": {"include": ["fr"]},
    "tags": {
      "amenity": "pharmacy",
      "brand": "Anton & Willem",
      "brand:wikidata": "Q91330267",
      "healthcare": "pharmacy",
      "name": "Anton & Willem"
    }
  },
  "amenity/pharmacy|Apollo Pharmacy": {
    "locationSet": {"include": ["in"]},
    "nomatch": ["shop/optician|Apollo-Optik"],
    "tags": {
      "amenity": "pharmacy",
      "brand": "Apollo Pharmacy",
      "brand:wikidata": "Q62562612",
      "healthcare": "pharmacy",
      "name": "Apollo Pharmacy"
    }
  },
  "amenity/pharmacy|Apotek Hjärtat": {
    "locationSet": {"include": ["se"]},
    "tags": {
      "amenity": "pharmacy",
      "brand": "Apotek Hjärtat",
      "brand:wikidata": "Q10416114",
      "brand:wikipedia": "sv:Apotek Hjärtat",
      "healthcare": "pharmacy",
      "name": "Apotek Hjärtat"
    }
  },
  "amenity/pharmacy|Bartell Drugs": {
    "locationSet": {"include": ["us"]},
    "tags": {
      "amenity": "pharmacy",
      "brand": "Bartell Drugs",
      "brand:wikidata": "Q4865152",
      "brand:wikipedia": "en:Bartell Drugs",
      "healthcare": "pharmacy",
      "name": "Bartell Drugs"
    }
  },
  "amenity/pharmacy|Benavides": {
    "locationSet": {"include": ["mx"]},
    "tags": {
      "amenity": "pharmacy",
      "brand": "Benavides",
      "brand:wikidata": "Q5435613",
      "brand:wikipedia": "en:Farmacias Benavides",
      "healthcare": "pharmacy",
      "name": "Benavides"
    }
  },
  "amenity/pharmacy|Benu": {
    "locationSet": {"include": ["001"]},
    "tags": {
      "amenity": "pharmacy",
      "brand": "Benu",
      "brand:wikidata": "Q62562792",
      "healthcare": "pharmacy",
      "name": "Benu"
    }
  },
  "amenity/pharmacy|Blooms The Chemist": {
    "locationSet": {"include": ["au"]},
    "tags": {
      "amenity": "pharmacy",
      "brand": "Blooms The Chemist",
      "brand:wikidata": "Q63367543",
      "healthcare": "pharmacy",
      "name": "Blooms The Chemist",
      "shop": "chemist"
    }
  },
  "amenity/pharmacy|Boots": {
    "locationSet": {"include": ["gb"]},
    "matchNames": ["boots pharmacy"],
    "nomatch": ["shop/chemist|Boots"],
    "tags": {
      "amenity": "pharmacy",
      "brand": "Boots",
      "brand:wikidata": "Q6123139",
      "brand:wikipedia": "en:Boots UK",
      "healthcare": "pharmacy",
      "name": "Boots"
    }
  },
  "amenity/pharmacy|Boticas y Salud": {
    "locationSet": {"include": ["pe"]},
    "tags": {
      "amenity": "pharmacy",
      "brand": "Boticas y Salud",
      "brand:wikidata": "Q62563126",
      "healthcare": "pharmacy",
      "name": "Boticas y Salud"
    }
  },
  "amenity/pharmacy|Brookshire Brothers Pharmacy": {
    "locationSet": {"include": ["us"]},
    "tags": {
      "amenity": "pharmacy",
      "brand": "Brookshire Brothers Pharmacy",
      "brand:wikidata": "Q4975084",
      "brand:wikipedia": "en:Brookshire Brothers",
      "healthcare": "pharmacy",
      "name": "Brookshire Brothers Pharmacy"
    }
  },
  "amenity/pharmacy|Brookshire's Pharmacy": {
    "locationSet": {"include": ["us"]},
    "tags": {
      "amenity": "pharmacy",
      "brand": "Brookshire's Pharmacy",
      "healthcare": "pharmacy",
      "name": "Brookshire's Pharmacy"
    }
  },
  "amenity/pharmacy|Brunet": {
    "locationSet": {"include": ["001"]},
    "tags": {
      "amenity": "pharmacy",
      "brand": "Brunet",
      "healthcare": "pharmacy",
      "name": "Brunet"
    }
  },
  "amenity/pharmacy|CVS Pharmacy": {
    "locationSet": {"include": ["us"]},
    "nomatch": [
      "amenity/vending_machine|CVS Pharmacy",
      "shop/chemist|CVS Pharmacy"
    ],
    "tags": {
      "amenity": "pharmacy",
      "brand": "CVS Pharmacy",
      "brand:wikidata": "Q2078880",
      "brand:wikipedia": "en:CVS Pharmacy",
      "healthcare": "pharmacy",
      "name": "CVS Pharmacy",
      "short_name": "CVS"
    }
  },
  "amenity/pharmacy|Camelia": {
    "locationSet": {"include": ["lt"]},
    "tags": {
      "amenity": "pharmacy",
      "brand": "Camelia",
      "brand:wikidata": "Q15867413",
      "brand:wikipedia": "lt:Nemuno vaistinė",
      "healthcare": "pharmacy",
      "name": "Camelia"
    }
  },
  "amenity/pharmacy|Catena": {
    "locationSet": {"include": ["ro"]},
    "tags": {
      "amenity": "pharmacy",
      "brand": "Catena",
      "brand:wikidata": "Q24035728",
      "brand:wikipedia": "ro:Farmacia Catena",
      "healthcare": "pharmacy",
      "name": "Catena"
    }
  },
  "amenity/pharmacy|Chemist King Discount Pharmacy": {
    "locationSet": {"include": ["au"]},
    "matchNames": [
      "chemist king",
      "chemist king discount pharmacies"
    ],
    "tags": {
      "amenity": "pharmacy",
      "brand": "Chemist King Discount Pharmacy",
      "brand:wikidata": "Q63367667",
      "healthcare": "pharmacy",
      "name": "Chemist King Discount Pharmacy"
    }
  },
  "amenity/pharmacy|Chemist Warehouse": {
    "locationSet": {"include": ["au", "nz"]},
    "tags": {
      "amenity": "pharmacy",
      "brand": "Chemist Warehouse",
      "brand:wikidata": "Q48782120",
      "brand:wikipedia": "en:Chemist Warehouse",
      "healthcare": "pharmacy",
      "name": "Chemist Warehouse"
    }
  },
  "amenity/pharmacy|Clicks": {
    "locationSet": {"include": ["za"]},
    "tags": {
      "amenity": "pharmacy",
      "brand": "Clicks",
      "brand:wikidata": "Q62563622",
      "healthcare": "pharmacy",
      "name": "Clicks"
    }
  },
  "amenity/pharmacy|Cohens Chemist": {
    "locationSet": {"include": ["001"]},
    "tags": {
      "amenity": "pharmacy",
      "brand": "Cohens Chemist",
      "healthcare": "pharmacy",
      "name": "Cohens Chemist"
    }
  },
  "amenity/pharmacy|Coop Vitality": {
    "locationSet": {"include": ["ch"]},
    "tags": {
      "amenity": "pharmacy",
      "brand": "Coop Vitality",
      "healthcare": "pharmacy",
      "name": "Coop Vitality"
    }
  },
  "amenity/pharmacy|Costco Pharmacy": {
    "locationSet": {"include": ["us"]},
    "nomatch": [
      "amenity/fuel|Costco Gasoline",
      "shop/wholesale|Costco"
    ],
    "tags": {
      "amenity": "pharmacy",
      "brand": "Costco Pharmacy",
      "brand:wikidata": "Q715583",
      "brand:wikipedia": "en:Costco",
      "healthcare": "pharmacy",
      "name": "Costco Pharmacy"
    }
  },
  "amenity/pharmacy|Cruz Azul": {
    "locationSet": {"include": ["ec"]},
    "matchNames": ["farmacias cruz azul"],
    "tags": {
      "amenity": "pharmacy",
      "brand": "Cruz Azul",
      "brand:wikidata": "Q62108219",
      "healthcare": "pharmacy",
      "name": "Cruz Azul"
    }
  },
  "amenity/pharmacy|Cruz Verde": {
    "locationSet": {"include": ["cl"]},
    "matchNames": ["farmacias cruz verde"],
    "tags": {
      "amenity": "pharmacy",
      "brand": "Cruz Verde",
      "brand:wikidata": "Q5856071",
      "brand:wikipedia": "es:Farmacias Cruz Verde",
      "healthcare": "pharmacy",
      "name": "Cruz Verde"
    }
  },
  "amenity/pharmacy|Day Lewis Pharmacy": {
    "locationSet": {"include": ["gb"]},
    "tags": {
      "amenity": "pharmacy",
      "brand": "Day Lewis Pharmacy",
      "brand:wikidata": "Q62563772",
      "healthcare": "pharmacy",
      "name": "Day Lewis Pharmacy"
    }
  },
  "amenity/pharmacy|Dbam o Zdrowie": {
    "locationSet": {"include": ["pl"]},
    "tags": {
      "amenity": "pharmacy",
      "brand": "Dbam o Zdrowie",
      "brand:wikidata": "Q62563833",
      "healthcare": "pharmacy",
      "name": "Dbam o Zdrowie"
    }
  },
  "amenity/pharmacy|Dona": {
    "locationSet": {"include": ["ro"]},
    "tags": {
      "amenity": "pharmacy",
      "brand": "Dona",
      "healthcare": "pharmacy",
      "name": "Dona"
    }
  },
  "amenity/pharmacy|Dr. Max": {
    "locationSet": {
      "include": ["cz", "pl", "sk"]
    },
    "tags": {
      "amenity": "pharmacy",
      "brand": "Dr. Max",
      "brand:wikidata": "Q56317371",
      "brand:wikipedia": "fr:Dr.Max",
      "healthcare": "pharmacy",
      "name": "Dr. Max"
    }
  },
  "amenity/pharmacy|Droga Raia": {
    "locationSet": {"include": ["br"]},
    "tags": {
      "amenity": "pharmacy",
      "brand": "Droga Raia",
      "brand:wikidata": "Q10357101",
      "brand:wikipedia": "pt:RaiaDrogasil",
      "healthcare": "pharmacy",
      "name": "Droga Raia"
    }
  },
  "amenity/pharmacy|Drogaria São Paulo": {
    "locationSet": {"include": ["br"]},
    "tags": {
      "amenity": "pharmacy",
      "brand": "Drogaria São Paulo",
      "brand:wikidata": "Q5308184",
      "brand:wikipedia": "en:Grupo DPSP",
      "healthcare": "pharmacy",
      "name": "Drogaria São Paulo"
    }
  },
  "amenity/pharmacy|Drogasil": {
    "locationSet": {"include": ["br"]},
    "tags": {
      "amenity": "pharmacy",
      "brand": "Drogasil",
      "brand:wikidata": "Q5308185",
      "brand:wikipedia": "pt:Drogasil",
      "healthcare": "pharmacy",
      "name": "Drogasil",
      "wheelchair": "yes"
    }
  },
  "amenity/pharmacy|Duane Reade": {
    "locationSet": {"include": ["us"]},
    "tags": {
      "amenity": "pharmacy",
      "brand": "Duane Reade",
      "brand:wikidata": "Q5310380",
      "brand:wikipedia": "en:Duane Reade",
      "healthcare": "pharmacy",
      "name": "Duane Reade"
    }
  },
  "amenity/pharmacy|Eurovaistinė": {
    "locationSet": {"include": ["lt"]},
    "tags": {
      "amenity": "pharmacy",
      "brand": "Eurovaistinė",
      "brand:wikidata": "Q267205",
      "brand:wikipedia": "en:Euroapotheca",
      "healthcare": "pharmacy",
      "name": "Eurovaistinė"
    }
  },
  "amenity/pharmacy|Extrafarma": {
    "locationSet": {"include": ["br"]},
    "tags": {
      "amenity": "pharmacy",
      "brand": "Extrafarma",
      "brand:wikidata": "Q20055480",
      "brand:wikipedia": "pt:Extrafarma",
      "healthcare": "pharmacy",
      "name": "Extrafarma"
    }
  },
  "amenity/pharmacy|Familiprix": {
    "locationSet": {"include": ["ca"]},
    "tags": {
      "amenity": "pharmacy",
      "brand": "Familiprix",
      "brand:wikidata": "Q3064881",
      "brand:wikipedia": "fr:Familiprix",
      "healthcare": "pharmacy",
      "name": "Familiprix"
    }
  },
  "amenity/pharmacy|FarmaElías": {
    "locationSet": {"include": ["bo"]},
    "tags": {
      "amenity": "pharmacy",
      "brand": "FarmaElías",
      "brand:wikidata": "Q81969487",
      "healthcare": "pharmacy",
      "name": "FarmaElías"
    }
  },
  "amenity/pharmacy|Farmacenter~(Colombia)": {
    "locationSet": {"include": ["co"]},
    "tags": {
      "amenity": "pharmacy",
      "brand": "Farmacenter",
      "brand:wikidata": "Q62563928",
      "healthcare": "pharmacy",
      "name": "Farmacenter"
    }
  },
  "amenity/pharmacy|Farmacenter~(Paraguay)": {
    "locationSet": {"include": ["py"]},
    "tags": {
      "amenity": "pharmacy",
      "brand": "Farmacenter",
      "brand:wikidata": "",
      "healthcare": "pharmacy",
      "name": "Farmacenter"
    }
  },
  "amenity/pharmacy|Farmacia": {
    "locationSet": {"include": ["hr"]},
    "tags": {
      "amenity": "pharmacy",
      "brand": "Farmacia",
      "healthcare": "pharmacy",
      "name": "Farmacia"
    }
  },
  "amenity/pharmacy|Farmacia Benavides": {
    "locationSet": {"include": ["mx"]},
    "tags": {
      "amenity": "pharmacy",
      "brand": "Farmacia Benavides",
      "brand:wikidata": "Q5435613",
      "brand:wikipedia": "en:Farmacias Benavides",
      "healthcare": "pharmacy",
      "name": "Farmacia Benavides"
    }
  },
  "amenity/pharmacy|Farmacia Chávez": {
    "locationSet": {"include": ["bo"]},
    "tags": {
      "amenity": "pharmacy",
      "brand": "Farmacia Chávez",
      "brand:wikidata": "Q81969919",
      "healthcare": "pharmacy",
      "name": "Farmacia Chávez"
    }
  },
  "amenity/pharmacy|Farmacia Cruz Azul": {
    "locationSet": {"include": ["ec"]},
    "tags": {
      "amenity": "pharmacy",
      "brand": "Farmacia Cruz Azul",
      "healthcare": "pharmacy",
      "name": "Farmacia Cruz Azul"
    }
  },
  "amenity/pharmacy|Farmacia Familiei": {
    "locationSet": {"include": ["md"]},
    "tags": {
      "amenity": "pharmacy",
      "brand": "Farmacia Familiei",
      "healthcare": "pharmacy",
      "name": "Farmacia Familiei"
    }
  },
  "amenity/pharmacy|Farmacia Guadalajara": {
    "locationSet": {"include": ["mx"]},
    "matchNames": ["farmacias guadalajara"],
    "tags": {
      "amenity": "pharmacy",
      "brand": "Farmacia Guadalajara",
      "brand:wikidata": "Q5435609",
      "brand:wikipedia": "en:Farmacias Guadalajara",
      "healthcare": "pharmacy",
      "name": "Farmacia Guadalajara"
    }
  },
  "amenity/pharmacy|Farmacia Hipermaxi": {
    "locationSet": {"include": ["bo"]},
    "tags": {
      "amenity": "pharmacy",
      "brand": "Farmacia Hipermaxi",
      "brand:wikidata": "Q81970238",
      "healthcare": "pharmacy",
      "name": "Farmacia Hipermaxi"
    }
  },
  "amenity/pharmacy|Farmacias Ahumada": {
    "locationSet": {"include": ["001"]},
    "tags": {
      "amenity": "pharmacy",
      "brand": "Farmacias Ahumada",
      "brand:wikidata": "Q5856069",
      "brand:wikipedia": "es:Farmacias Ahumada",
      "healthcare": "pharmacy",
      "name": "Farmacias Ahumada"
    }
  },
  "amenity/pharmacy|Farmacias Benavides": {
    "locationSet": {"include": ["001"]},
    "tags": {
      "amenity": "pharmacy",
      "brand": "Farmacias Benavides",
      "healthcare": "pharmacy",
      "name": "Farmacias Benavides"
    }
  },
  "amenity/pharmacy|Farmacias Bolivia": {
    "locationSet": {"include": ["bo"]},
    "tags": {
      "amenity": "pharmacy",
      "brand": "Farmacias Bolivia",
      "brand:wikidata": "Q81970584",
      "healthcare": "pharmacy",
      "name": "Farmacias Bolivia"
    }
  },
  "amenity/pharmacy|Farmacias Económicas~(Ecuador)": {
    "locationSet": {"include": ["ec"]},
    "tags": {
      "amenity": "pharmacy",
      "brand": "Farmacias Económicas",
      "brand:wikidata": "Q62108380",
      "healthcare": "pharmacy",
      "name": "Farmacias Económicas"
    }
  },
  "amenity/pharmacy|Farmacias Económicas~(El Salvador)": {
    "locationSet": {"include": ["sv"]},
    "tags": {
      "amenity": "pharmacy",
      "brand": "Farmacias Económicas",
      "brand:wikidata": "Q62108397",
      "healthcare": "pharmacy",
      "name": "Farmacias Económicas"
    }
  },
  "amenity/pharmacy|Farmacias Similares": {
    "locationSet": {
      "include": ["cl", "gt", "mx"]
    },
    "matchNames": ["similares"],
    "tags": {
      "amenity": "pharmacy",
      "brand": "Farmacias Similares",
      "brand:wikidata": "Q62564610",
      "healthcare": "pharmacy",
      "name": "Farmacias Similares"
    }
  },
  "amenity/pharmacy|Farmacias del Ahorro": {
    "locationSet": {"include": ["mx"]},
    "matchNames": ["farmacia del ahorro"],
    "tags": {
      "amenity": "pharmacy",
      "brand": "Farmacias del Ahorro",
      "brand:wikidata": "Q62086647",
      "healthcare": "pharmacy",
      "name": "Farmacias del Ahorro"
    }
  },
  "amenity/pharmacy|Farmacias del Dr. Simi": {
    "locationSet": {
      "include": ["cl", "gt", "mx"]
    },
    "tags": {
      "amenity": "pharmacy",
      "brand": "Farmacias del Dr. Simi",
      "brand:wikidata": "Q62564610",
      "healthcare": "pharmacy",
      "name": "Farmacias del Dr. Simi"
    }
  },
  "amenity/pharmacy|Farmacity": {
    "locationSet": {"include": ["ra"]},
    "tags": {
      "amenity": "pharmacy",
      "brand": "Farmacity",
      "brand:wikidata": "Q5856076",
      "brand:wikipedia": "es:Farmacity",
      "healthcare": "pharmacy",
      "name": "Farmacity"
    }
  },
  "amenity/pharmacy|Farmacorp": {
    "locationSet": {"include": ["bo"]},
    "tags": {
      "amenity": "pharmacy",
      "brand": "Farmacorp",
      "brand:wikidata": "Q81968937",
      "healthcare": "pharmacy",
      "name": "Farmacorp"
    }
  },
  "amenity/pharmacy|Farmahorro": {
    "locationSet": {"include": ["001"]},
    "tags": {
      "amenity": "pharmacy",
      "brand": "Farmahorro",
      "brand:wikidata": "Q20015002",
      "brand:wikipedia": "es:Farmahorro",
      "healthcare": "pharmacy",
      "name": "Farmahorro"
    }
  },
  "amenity/pharmacy|Farmatodo": {
    "locationSet": {"include": ["001"]},
    "tags": {
      "amenity": "pharmacy",
      "brand": "Farmatodo",
      "brand:wikidata": "Q5856092",
      "brand:wikipedia": "es:Farmatodo",
      "healthcare": "pharmacy",
      "name": "Farmatodo"
    }
  },
  "amenity/pharmacy|Farmácia Popular": {
    "locationSet": {"include": ["001"]},
    "tags": {
      "amenity": "pharmacy",
      "brand": "Farmácia Popular",
      "healthcare": "pharmacy",
      "name": "Farmácia Popular"
    }
  },
  "amenity/pharmacy|Farmácia São João": {
    "locationSet": {"include": ["001"]},
    "tags": {
      "amenity": "pharmacy",
      "brand": "Farmácia São João",
      "healthcare": "pharmacy",
      "name": "Farmácia São João"
    }
  },
  "amenity/pharmacy|Felicia": {
    "locationSet": {"include": ["md"]},
    "tags": {
      "amenity": "pharmacy",
      "brand": "Felicia",
      "brand:wikidata": "Q62564805",
      "healthcare": "pharmacy",
      "name": "Felicia"
    }
  },
  "amenity/pharmacy|Fred Meyer Pharmacy": {
    "locationSet": {"include": ["us"]},
    "matchNames": ["fred meyer"],
    "nomatch": ["shop/supermarket|Fred Meyer"],
    "tags": {
      "amenity": "pharmacy",
      "brand": "Fred Meyer",
      "brand:wikidata": "Q5495932",
      "brand:wikipedia": "en:Fred Meyer",
      "healthcare": "pharmacy",
      "name": "Fred Meyer Pharmacy"
    }
  },
  "amenity/pharmacy|Fybeca": {
    "locationSet": {"include": ["ec"]},
    "tags": {
      "amenity": "pharmacy",
      "brand": "Fybeca",
      "brand:wikidata": "Q62564822",
      "healthcare": "pharmacy",
      "name": "Fybeca"
    }
  },
  "amenity/pharmacy|Generika": {
    "locationSet": {"include": ["ph"]},
    "matchNames": ["generika drugstore"],
    "tags": {
      "amenity": "pharmacy",
      "brand": "Generika",
      "brand:wikidata": "Q62564876",
      "healthcare": "pharmacy",
      "name": "Generika"
    }
  },
  "amenity/pharmacy|Gintarinė vaistinė": {
    "locationSet": {"include": ["lt"]},
    "tags": {
      "amenity": "pharmacy",
      "brand": "Gintarinė vaistinė",
      "brand:wikidata": "Q15857801",
      "brand:wikipedia": "lt:Gintarinė vaistinė",
      "healthcare": "pharmacy",
      "name": "Gintarinė vaistinė"
    }
  },
  "amenity/pharmacy|Gradska ljekarna Zagreb": {
    "locationSet": {"include": ["hr"]},
    "tags": {
      "amenity": "pharmacy",
      "brand": "Gradska ljekarna Zagreb",
      "healthcare": "pharmacy",
      "name": "Gradska ljekarna Zagreb"
    }
  },
  "amenity/pharmacy|Guardian~(Asia)": {
    "locationSet": {
      "include": [
        "bn",
        "id",
        "kh",
        "my",
        "sg",
        "vn"
      ]
    },
    "tags": {
      "amenity": "pharmacy",
      "brand": "Guardian",
      "brand:wikidata": "Q63371124",
      "brand:wikipedia": "ms:Guardian Malaysia",
      "healthcare": "pharmacy",
      "name": "Guardian"
    }
  },
  "amenity/pharmacy|Guardian~(Australia)": {
    "locationSet": {"include": ["au"]},
    "matchNames": [
      "guardian pharmacies",
      "guardian pharmacy"
    ],
    "tags": {
      "amenity": "pharmacy",
      "brand": "Guardian",
      "brand:wikidata": "Q63367814",
      "healthcare": "pharmacy",
      "name": "Guardian"
    }
  },
  "amenity/pharmacy|Guardian~(Canada)": {
    "locationSet": {"include": ["ca"]},
    "nomatch": [
      "amenity/pharmacy|Guardian~(Asia)",
      "amenity/pharmacy|Guardian~(Australia)"
    ],
    "tags": {
      "amenity": "pharmacy",
      "brand": "Guardian",
      "brand:wikidata": "Q65553864",
      "healthcare": "pharmacy",
      "name": "Guardian"
    }
  },
  "amenity/pharmacy|H-E-B Pharmacy": {
    "locationSet": {"include": ["us"]},
    "tags": {
      "amenity": "pharmacy",
      "brand": "H-E-B Pharmacy",
      "brand:wikidata": "Q830621",
      "brand:wikipedia": "en:H-E-B",
      "healthcare": "pharmacy",
      "name": "H-E-B Pharmacy"
    }
  },
  "amenity/pharmacy|Health Mart": {
    "locationSet": {"include": ["us"]},
    "matchNames": ["health mart pharmacy"],
    "tags": {
      "amenity": "pharmacy",
      "brand": "Health Mart",
      "brand:wikidata": "Q5690597",
      "brand:wikipedia": "en:Health Mart",
      "healthcare": "pharmacy",
      "name": "Health Mart"
    }
  },
  "amenity/pharmacy|Hy-Vee Pharmacy": {
    "locationSet": {"include": ["us"]},
    "tags": {
      "amenity": "pharmacy",
      "brand": "Hy-Vee Pharmacy",
      "brand:wikidata": "Q1639719",
      "brand:wikipedia": "en:Hy-Vee",
      "healthcare": "pharmacy",
      "name": "Hy-Vee Pharmacy"
    }
  },
  "amenity/pharmacy|I.D.A.": {
    "locationSet": {"include": ["ca"]},
    "tags": {
      "amenity": "pharmacy",
      "brand": "I.D.A.",
      "brand:wikidata": "Q65553883",
      "healthcare": "pharmacy",
      "name": "I.D.A."
    }
  },
  "amenity/pharmacy|Inkafarma": {
    "locationSet": {"include": ["pe"]},
    "tags": {
      "amenity": "pharmacy",
      "brand": "Inkafarma",
      "brand:wikidata": "Q10997748",
      "brand:wikipedia": "es:Inkafarma",
      "healthcare": "pharmacy",
      "name": "Inkafarma"
    }
  },
  "amenity/pharmacy|Jean Coutu": {
    "locationSet": {"include": ["ca"]},
    "tags": {
      "amenity": "pharmacy",
      "brand": "Jean Coutu",
      "brand:wikidata": "Q3117457",
      "brand:wikipedia": "fr:Groupe Jean Coutu",
      "healthcare": "pharmacy",
      "name": "Jean Coutu"
    }
  },
  "amenity/pharmacy|Kimia Farma": {
    "locationSet": {"include": ["id"]},
    "matchNames": ["apotek kimia farma"],
    "tags": {
      "amenity": "pharmacy",
      "brand": "Kimia Farma",
      "brand:wikidata": "Q11264892",
      "brand:wikipedia": "id:Kimia Farma",
      "healthcare": "pharmacy",
      "name": "Kimia Farma"
    }
  },
  "amenity/pharmacy|Kinney Drugs": {
    "locationSet": {"include": ["us"]},
    "tags": {
      "amenity": "pharmacy",
      "brand": "Kinney Drugs",
      "brand:wikidata": "Q6414090",
      "brand:wikipedia": "en:Kinney Drugs",
      "healthcare": "pharmacy",
      "name": "Kinney Drugs"
    }
  },
  "amenity/pharmacy|Kroger Pharmacy": {
    "locationSet": {"include": ["us"]},
    "tags": {
      "amenity": "pharmacy",
      "brand": "Kroger Pharmacy",
      "healthcare": "pharmacy",
      "name": "Kroger Pharmacy"
    }
  },
  "amenity/pharmacy|Kronans Apotek": {
    "locationSet": {"include": ["se"]},
    "tags": {
      "amenity": "pharmacy",
      "brand": "Kronans Apotek",
      "healthcare": "pharmacy",
      "name": "Kronans Apotek"
    }
  },
  "amenity/pharmacy|Lafayette": {
    "locationSet": {"include": ["fr"]},
    "matchNames": ["pharmacie lafayette"],
    "tags": {
      "amenity": "pharmacy",
      "brand": "Lafayette",
      "brand:wikidata": "Q91301346",
      "healthcare": "pharmacy",
      "name": "Lafayette"
    }
  },
  "amenity/pharmacy|Life Pharmacy": {
    "locationSet": {"include": ["001"]},
    "tags": {
      "amenity": "pharmacy",
      "brand": "Life Pharmacy",
      "healthcare": "pharmacy",
      "name": "Life Pharmacy"
    }
  },
  "amenity/pharmacy|Ljekarna Jadran": {
    "locationSet": {"include": ["hr"]},
    "tags": {
      "amenity": "pharmacy",
      "brand": "Ljekarna Jadran",
      "healthcare": "pharmacy",
      "name": "Ljekarna Jadran"
    }
  },
  "amenity/pharmacy|Ljekarna Joukhadar": {
    "locationSet": {"include": ["hr"]},
    "tags": {
      "amenity": "pharmacy",
      "brand": "Ljekarna Joukhadar",
      "healthcare": "pharmacy",
      "name": "Ljekarna Joukhadar"
    }
  },
  "amenity/pharmacy|Ljekarna Pablo": {
    "locationSet": {"include": ["hr"]},
    "tags": {
      "amenity": "pharmacy",
      "brand": "Ljekarna Pablo",
      "healthcare": "pharmacy",
      "name": "Ljekarna Pablo"
    }
  },
  "amenity/pharmacy|Lloyds Pharmacy": {
    "locationSet": {
      "include": ["be", "gb", "ie", "im"]
    },
    "matchNames": ["lloyds"],
    "tags": {
      "amenity": "pharmacy",
      "brand": "Lloyds Pharmacy",
      "brand:wikidata": "Q6662870",
      "brand:wikipedia": "en:LloydsPharmacy",
      "healthcare": "pharmacy",
      "name": "Lloyds Pharmacy"
    }
  },
  "amenity/pharmacy|Locatel": {
    "locationSet": {"include": ["001"]},
    "tags": {
      "amenity": "pharmacy",
      "brand": "Locatel",
      "healthcare": "pharmacy",
      "name": "Locatel"
    }
  },
  "amenity/pharmacy|London Drugs": {
    "locationSet": {"include": ["ca"]},
    "tags": {
      "amenity": "pharmacy",
      "brand": "London Drugs",
      "brand:wikidata": "Q3258955",
      "brand:wikipedia": "en:London Drugs",
      "healthcare": "pharmacy",
      "name": "London Drugs"
    }
  },
  "amenity/pharmacy|Longs Drugs~(Hawaii)": {
    "locationSet": {"include": ["us"]},
    "tags": {
      "amenity": "pharmacy",
      "brand": "Longs Drugs",
      "brand:wikidata": "Q16931196",
      "brand:wikipedia": "en:Longs Drugs",
      "healthcare": "pharmacy",
      "name": "Longs Drugs",
      "short_name": "Longs"
    }
  },
  "amenity/pharmacy|Mandis Pharm": {
    "locationSet": {"include": ["hr"]},
    "tags": {
      "amenity": "pharmacy",
      "brand": "Mandis Pharm",
      "healthcare": "pharmacy",
      "name": "Mandis Pharm"
    }
  },
  "amenity/pharmacy|Mannings": {
    "locationSet": {
      "include": ["cn", "hk", "mo"]
    },
    "tags": {
      "amenity": "pharmacy",
      "brand": "Mannings",
      "brand:wikidata": "Q13646560",
      "brand:wikipedia": "en:Mannings",
      "healthcare": "pharmacy",
      "name": "Mannings"
    }
  },
  "amenity/pharmacy|Marc's Pharmacy": {
    "locationSet": {"include": ["us"]},
    "nomatch": ["shop/supermarket|Marc's"],
    "tags": {
      "amenity": "pharmacy",
      "brand": "Marc's",
      "brand:wikidata": "Q17080259",
      "brand:wikipedia": "en:Marc's",
      "healthcare": "pharmacy",
      "name": "Marc's Pharmacy"
    }
  },
  "amenity/pharmacy|MedPlus": {
    "locationSet": {"include": ["in"]},
    "tags": {
      "amenity": "pharmacy",
      "brand": "MedPlus",
      "brand:wikidata": "Q65684234",
      "brand:wikipedia": "en:MedPlus",
      "healthcare": "pharmacy",
      "name": "MedPlus"
    }
  },
  "amenity/pharmacy|Mercury Drug": {
    "locationSet": {"include": ["ph"]},
    "tags": {
      "amenity": "pharmacy",
      "brand": "Mercury Drug",
      "brand:wikidata": "Q6818610",
      "brand:wikipedia": "en:Mercury Drug",
      "healthcare": "pharmacy",
      "name": "Mercury Drug"
    }
  },
  "amenity/pharmacy|Mifarma": {
    "locationSet": {"include": ["pe"]},
    "tags": {
      "amenity": "pharmacy",
      "brand": "Mifarma",
      "brand:wikidata": "Q62564998",
      "healthcare": "pharmacy",
      "name": "Mifarma"
    }
  },
  "amenity/pharmacy|Multipharma": {
    "locationSet": {"include": ["be"]},
    "tags": {
      "amenity": "pharmacy",
      "brand": "Multipharma",
      "brand:wikidata": "Q62565018",
      "healthcare": "pharmacy",
      "name": "Multipharma"
    }
  },
  "amenity/pharmacy|Mēness aptieka": {
    "locationSet": {"include": ["lv"]},
    "tags": {
      "amenity": "pharmacy",
      "brand": "Mēness aptieka",
      "brand:wikidata": "Q57583051",
      "healthcare": "pharmacy",
      "name": "Mēness aptieka"
    }
  },
  "amenity/pharmacy|Pague Menos": {
    "locationSet": {"include": ["br"]},
    "matchNames": ["farmácia pague menos"],
    "tags": {
      "amenity": "pharmacy",
      "brand": "Pague Menos",
      "brand:wikidata": "Q7124466",
      "brand:wikipedia": "pt:Pague Menos",
      "healthcare": "pharmacy",
      "name": "Pague Menos"
    }
  },
  "amenity/pharmacy|Panvel": {
    "locationSet": {"include": ["br"]},
    "tags": {
      "amenity": "pharmacy",
      "brand": "Panvel",
      "brand:wikidata": "Q10344254",
      "brand:wikipedia": "pt:Panvel",
      "healthcare": "pharmacy",
      "name": "Panvel"
    }
  },
  "amenity/pharmacy|Parafarmacia Conad": {
    "locationSet": {"include": ["001"]},
    "tags": {
      "amenity": "pharmacy",
      "brand": "Parafarmacia Conad",
      "healthcare": "pharmacy",
      "name": "Parafarmacia Conad"
    }
  },
  "amenity/pharmacy|PharmaChoice": {
    "locationSet": {"include": ["ca"]},
    "tags": {
      "amenity": "pharmacy",
      "brand": "PharmaChoice",
      "brand:wikidata": "Q7180716",
      "brand:wikipedia": "en:PharmaChoice",
      "healthcare": "pharmacy",
      "name": "PharmaChoice"
    }
  },
  "amenity/pharmacy|PharmaSave~(Australia)": {
    "locationSet": {"include": ["au"]},
    "nomatch": [
      "amenity/pharmacy|Pharmasave~(Canada)"
    ],
    "tags": {
      "amenity": "pharmacy",
      "brand": "PharmaSave",
      "brand:wikidata": "Q63367906",
      "healthcare": "pharmacy",
      "name": "PharmaSave"
    }
  },
  "amenity/pharmacy|Pharmacie Principale": {
    "locationSet": {"include": ["001"]},
    "tags": {
      "amenity": "pharmacy",
      "brand": "Pharmacie Principale",
      "brand:wikidata": "Q1547749",
      "brand:wikipedia": "fr:Groupe PP Holding",
      "healthcare": "pharmacy",
      "name": "Pharmacie Principale"
    }
  },
  "amenity/pharmacy|Pharmacy 4 Less": {
    "locationSet": {"include": ["au"]},
    "tags": {
      "amenity": "pharmacy",
      "brand": "Pharmacy 4 Less",
      "brand:wikidata": "Q63367608",
      "healthcare": "pharmacy",
      "name": "Pharmacy 4 Less"
    }
  },
  "amenity/pharmacy|Pharmaprix": {
    "locationSet": {"include": ["ca"]},
    "tags": {
      "amenity": "pharmacy",
      "brand": "Pharmaprix",
      "brand:wikidata": "Q1820137",
      "brand:wikipedia": "fr:Pharmaprix",
      "healthcare": "pharmacy",
      "name": "Pharmaprix"
    }
  },
  "amenity/pharmacy|Pharmasave~(Canada)": {
    "locationSet": {"include": ["ca"]},
    "nomatch": [
      "amenity/pharmacy|Pharmasave~(Australia)"
    ],
    "tags": {
      "amenity": "pharmacy",
      "brand": "Pharmasave",
      "brand:wikidata": "Q17093822",
      "brand:wikipedia": "en:Pharmasave",
      "healthcare": "pharmacy",
      "name": "Pharmasave"
    }
  },
  "amenity/pharmacy|Priceline Pharmacy": {
    "locationSet": {"include": ["au"]},
    "matchNames": ["priceline"],
    "tags": {
      "amenity": "pharmacy",
      "brand": "Priceline Pharmacy",
      "brand:wikidata": "Q7242652",
      "brand:wikipedia": "en:Priceline (Australia)",
      "healthcare": "pharmacy",
      "name": "Priceline Pharmacy"
    }
  },
  "amenity/pharmacy|Prima Pharme": {
    "locationSet": {"include": ["hr"]},
    "tags": {
      "amenity": "pharmacy",
      "brand": "Prima Pharme",
      "healthcare": "pharmacy",
      "name": "Prima Pharme"
    }
  },
  "amenity/pharmacy|Proxim": {
    "locationSet": {"include": ["001"]},
    "tags": {
      "amenity": "pharmacy",
      "brand": "Proxim",
      "healthcare": "pharmacy",
      "name": "Proxim"
    }
  },
  "amenity/pharmacy|Punto Farma~(Colombia)": {
    "locationSet": {"include": ["co"]},
    "tags": {
      "amenity": "pharmacy",
      "brand": "Punto Farma",
      "brand:wikidata": "Q62595271",
      "healthcare": "pharmacy",
      "name": "Punto Farma"
    }
  },
  "amenity/pharmacy|Punto Farma~(Honduras)": {
    "locationSet": {"include": ["hn"]},
    "tags": {
      "amenity": "pharmacy",
      "brand": "Punto Farma",
      "brand:wikidata": "Q62595229",
      "healthcare": "pharmacy",
      "name": "Punto Farma"
    }
  },
  "amenity/pharmacy|Punto Farma~(Paraguay)": {
    "locationSet": {"include": ["py"]},
    "tags": {
      "amenity": "pharmacy",
      "brand": "Punto Farma",
      "brand:wikidata": "Q62595220",
      "healthcare": "pharmacy",
      "name": "Punto Farma"
    }
  },
  "amenity/pharmacy|Remedy'sRx": {
    "locationSet": {"include": ["ca"]},
    "tags": {
      "amenity": "pharmacy",
      "brand": "Remedy'sRx",
      "brand:wikidata": "Q65553833",
      "healthcare": "pharmacy",
      "name": "Remedy'sRx"
    }
  },
  "amenity/pharmacy|Rexall": {
    "locationSet": {"include": ["ca", "us"]},
    "tags": {
      "amenity": "pharmacy",
      "brand": "Rexall",
      "brand:wikidata": "Q7319360",
      "brand:wikipedia": "en:Rexall",
      "healthcare": "pharmacy",
      "name": "Rexall"
    }
  },
  "amenity/pharmacy|Rite Aid": {
    "locationSet": {"include": ["us"]},
    "matchNames": ["rite aid pharmacy"],
    "nomatch": ["shop/chemist|Rite Aid"],
    "tags": {
      "amenity": "pharmacy",
      "brand": "Rite Aid",
      "brand:wikidata": "Q3433273",
      "brand:wikipedia": "en:Rite Aid",
      "healthcare": "pharmacy",
      "name": "Rite Aid"
    }
  },
  "amenity/pharmacy|Rose Pharmacy": {
    "locationSet": {"include": ["ph"]},
    "tags": {
      "amenity": "pharmacy",
      "brand": "Rose Pharmacy",
      "brand:wikidata": "Q62663208",
      "healthcare": "pharmacy",
      "name": "Rose Pharmacy"
    }
  },
  "amenity/pharmacy|Rowlands Pharmacy": {
    "locationSet": {"include": ["gb"]},
    "matchNames": ["rowlands"],
    "tags": {
      "amenity": "pharmacy",
      "brand": "Rowlands Pharmacy",
      "brand:wikidata": "Q62663235",
      "healthcare": "pharmacy",
      "name": "Rowlands Pharmacy"
    }
  },
  "amenity/pharmacy|Safeway": {
    "locationSet": {"include": ["us"]},
    "nomatch": [
      "amenity/fuel|Safeway",
      "shop/supermarket|Safeway"
    ],
    "tags": {
      "amenity": "pharmacy",
      "brand": "Safeway",
      "brand:wikidata": "Q1508234",
      "brand:wikipedia": "en:Safeway Inc.",
      "healthcare": "pharmacy",
      "name": "Safeway"
    }
  },
  "amenity/pharmacy|SalcoBrand": {
    "locationSet": {"include": ["cl"]},
    "matchNames": ["farmacias salcobrand"],
    "tags": {
      "amenity": "pharmacy",
      "brand": "SalcoBrand",
      "brand:wikidata": "Q2877054",
      "brand:wikipedia": "es:Farmacias Salcobrand",
      "healthcare": "pharmacy",
      "name": "SalcoBrand"
    }
  },
  "amenity/pharmacy|Sana Sana": {
    "locationSet": {"include": ["ec"]},
    "matchNames": ["farmacias sana sana"],
    "tags": {
      "amenity": "pharmacy",
      "brand": "Sana Sana",
      "brand:wikidata": "Q62564499",
      "healthcare": "pharmacy",
      "name": "Sana Sana"
    }
  },
  "amenity/pharmacy|Schneider": {
    "locationSet": {"include": ["sk"]},
    "tags": {
      "amenity": "pharmacy",
      "brand": "Schneider",
      "brand:wikidata": "Q93514377",
      "healthcare": "pharmacy",
      "name": "Schneider"
    }
  },
  "amenity/pharmacy|Sensiblu": {
    "locationSet": {"include": ["ro"]},
    "tags": {
      "amenity": "pharmacy",
      "brand": "Sensiblu",
      "brand:wikidata": "Q12740640",
      "brand:wikipedia": "ro:Sensiblu",
      "healthcare": "pharmacy",
      "name": "Sensiblu"
    }
  },
  "amenity/pharmacy|Shoppers Drug Mart": {
    "locationSet": {"include": ["ca"]},
    "tags": {
      "amenity": "pharmacy",
      "brand": "Shoppers Drug Mart",
      "brand:wikidata": "Q1820137",
      "brand:wikipedia": "en:Shoppers Drug Mart",
      "healthcare": "pharmacy",
      "name": "Shoppers Drug Mart"
    }
  },
  "amenity/pharmacy|South Star Drug": {
    "locationSet": {"include": ["ph"]},
    "tags": {
      "amenity": "pharmacy",
      "brand": "South Star Drug",
      "brand:wikidata": "Q7568544",
      "brand:wikipedia": "en:South Star Drug",
      "healthcare": "pharmacy",
      "name": "South Star Drug"
    }
  },
  "amenity/pharmacy|Superdrug": {
    "locationSet": {"include": ["gb"]},
    "nomatch": ["shop/chemist|Superdrug"],
    "tags": {
      "amenity": "pharmacy",
      "brand": "Superdrug",
      "brand:wikidata": "Q7643261",
      "brand:wikipedia": "en:Superdrug",
      "healthcare": "pharmacy",
      "name": "Superdrug"
    }
  },
  "amenity/pharmacy|São João": {
    "locationSet": {"include": ["br"]},
    "tags": {
      "amenity": "pharmacy",
      "brand": "São João",
      "brand:wikidata": "Q62663306",
      "healthcare": "pharmacy",
      "name": "São João"
    }
  },
  "amenity/pharmacy|Słoneczna": {
    "locationSet": {"include": ["pl"]},
    "tags": {
      "amenity": "pharmacy",
      "brand": "Słoneczna",
      "healthcare": "pharmacy",
      "name": "Słoneczna"
    }
  },
  "amenity/pharmacy|TGP": {
    "locationSet": {"include": ["ph"]},
    "tags": {
      "amenity": "pharmacy",
      "brand": "The Generics Pharmacy",
      "brand:wikidata": "Q61948677",
      "healthcare": "pharmacy",
      "name": "TGP",
      "official_name": "The Generics Pharmacy"
    }
  },
  "amenity/pharmacy|TerryWhite Chemmart": {
    "locationSet": {"include": ["au"]},
    "matchNames": [
      "terrywhite",
      "terrywhite chemist",
      "terrywhite chemists"
    ],
    "tags": {
      "amenity": "pharmacy",
      "brand": "TerryWhite Chemmart",
      "brand:wikidata": "Q24089773",
      "brand:wikipedia": "en:Terry White Chemmart",
      "healthcare": "pharmacy",
      "name": "TerryWhite Chemmart"
    }
  },
  "amenity/pharmacy|UFS": {
    "locationSet": {"include": ["au"]},
    "matchNames": ["ufs dispensaries"],
    "tags": {
      "amenity": "pharmacy",
      "brand": "UFS",
      "brand:wikidata": "Q63367573",
      "healthcare": "pharmacy",
      "name": "UFS"
    }
  },
  "amenity/pharmacy|Unichem Pharmacy": {
    "locationSet": {"include": ["nz"]},
    "tags": {
      "amenity": "pharmacy",
      "brand": "Unichem Pharmacy",
      "brand:wikidata": "Q62663379",
      "healthcare": "pharmacy",
      "name": "Unichem Pharmacy"
    }
  },
  "amenity/pharmacy|Uniprix": {
    "locationSet": {"include": ["ca"]},
    "tags": {
      "amenity": "pharmacy",
      "brand": "Uniprix",
      "brand:wikidata": "Q683265",
      "brand:wikipedia": "fr:Uniprix (pharmacies)",
      "healthcare": "pharmacy",
      "name": "Uniprix"
    }
  },
  "amenity/pharmacy|Vaše zdravlje": {
    "locationSet": {"include": ["hr"]},
    "tags": {
      "amenity": "pharmacy",
      "brand": "Vaše zdravlje",
      "healthcare": "pharmacy",
      "name": "Vaše zdravlje"
    }
  },
  "amenity/pharmacy|V・ドラッグ": {
    "locationSet": {"include": ["jp"]},
    "tags": {
      "amenity": "pharmacy",
      "brand": "V・ドラッグ",
      "brand:en": "V・Drug",
      "brand:ja": "V・ドラッグ",
      "brand:wikidata": "Q11367334",
      "brand:wikipedia": "ja:中部薬品",
      "healthcare": "pharmacy",
      "name": "V・ドラッグ",
      "name:en": "V・Drug",
      "name:ja": "V・ドラッグ"
    }
  },
  "amenity/pharmacy|Walgreens": {
    "locationSet": {"include": ["us"]},
    "matchNames": ["walgreens pharmacy"],
    "nomatch": ["shop/chemist|Walgreens"],
    "tags": {
      "amenity": "pharmacy",
      "brand": "Walgreens",
      "brand:wikidata": "Q1591889",
      "brand:wikipedia": "en:Walgreens",
      "healthcare": "pharmacy",
      "name": "Walgreens"
    }
  },
  "amenity/pharmacy|Walmart Pharmacy": {
    "locationSet": {"include": ["ca", "us"]},
    "matchNames": ["walmart"],
    "nomatch": [
      "amenity/fuel|Walmart",
      "shop/department_store|Walmart",
      "shop/garden_centre|Walmart Garden Center",
      "shop/supermarket|Walmart Neighborhood Market",
      "shop/supermarket|Walmart Supercenter",
      "shop/supermarket|Walmart Supercentre"
    ],
    "tags": {
      "amenity": "pharmacy",
      "brand": "Walmart",
      "brand:wikidata": "Q483551",
      "brand:wikipedia": "en:Walmart",
      "healthcare": "pharmacy",
      "name": "Walmart Pharmacy"
    }
  },
  "amenity/pharmacy|Watsons": {
    "locationSet": {"include": ["001"]},
    "nomatch": ["shop/chemist|Watsons"],
    "tags": {
      "amenity": "pharmacy",
      "brand": "Watsons",
      "brand:wikidata": "Q7974785",
      "brand:wikipedia": "en:Watsons",
      "healthcare": "pharmacy",
      "name": "Watsons"
    }
  },
  "amenity/pharmacy|Well Pharmacy": {
    "locationSet": {"include": ["gb"]},
    "matchNames": ["well"],
    "tags": {
      "amenity": "pharmacy",
      "brand": "Well Pharmacy",
      "brand:wikidata": "Q7726524",
      "brand:wikipedia": "en:Well Pharmacy",
      "healthcare": "pharmacy",
      "name": "Well Pharmacy"
    }
  },
  "amenity/pharmacy|Ziko Apteka": {
    "locationSet": {"include": ["pl"]},
    "tags": {
      "amenity": "pharmacy",
      "brand": "Ziko Apteka",
      "brand:wikidata": "Q63432892",
      "healthcare": "pharmacy",
      "name": "Ziko Apteka",
      "short_name": "Ziko"
    }
  },
  "amenity/pharmacy|А-мега": {
    "locationSet": {"include": ["001"]},
    "tags": {
      "amenity": "pharmacy",
      "brand": "А-мега",
      "healthcare": "pharmacy",
      "name": "А-мега"
    }
  },
  "amenity/pharmacy|А5": {
    "locationSet": {"include": ["ru"]},
    "tags": {
      "amenity": "pharmacy",
      "brand": "А5",
      "brand:wikidata": "Q62663476",
      "healthcare": "pharmacy",
      "name": "А5"
    }
  },
  "amenity/pharmacy|Алоэ": {
    "locationSet": {"include": ["001"]},
    "tags": {
      "amenity": "pharmacy",
      "brand": "Алоэ",
      "healthcare": "pharmacy",
      "name": "Алоэ"
    }
  },
  "amenity/pharmacy|Апрель": {
    "locationSet": {"include": ["001"]},
    "tags": {
      "amenity": "pharmacy",
      "brand": "Апрель",
      "healthcare": "pharmacy",
      "name": "Апрель"
    }
  },
  "amenity/pharmacy|Бажаємо здоров'я": {
    "locationSet": {"include": ["ua"]},
    "tags": {
      "amenity": "pharmacy",
      "brand": "Бажаємо здоров'я",
      "healthcare": "pharmacy",
      "name": "Бажаємо здоров'я"
    }
  },
  "amenity/pharmacy|Бережная аптека": {
    "locationSet": {"include": ["ru"]},
    "tags": {
      "amenity": "pharmacy",
      "brand": "Бережная аптека",
      "brand:wikidata": "Q62664194",
      "healthcare": "pharmacy",
      "name": "Бережная аптека"
    }
  },
  "amenity/pharmacy|Будь здоров": {
    "locationSet": {"include": ["ru", "ua"]},
    "tags": {
      "amenity": "pharmacy",
      "brand": "Будь здоров",
      "healthcare": "pharmacy",
      "name": "Будь здоров"
    }
  },
  "amenity/pharmacy|Вита": {
    "locationSet": {"include": ["ru"]},
    "tags": {
      "amenity": "pharmacy",
      "brand": "Вита",
      "healthcare": "pharmacy",
      "name": "Вита"
    }
  },
  "amenity/pharmacy|Горздрав": {
    "locationSet": {"include": ["ru"]},
    "tags": {
      "amenity": "pharmacy",
      "brand": "Горздрав",
      "healthcare": "pharmacy",
      "name": "Горздрав"
    }
  },
  "amenity/pharmacy|Добрая аптека": {
    "locationSet": {"include": ["ru"]},
    "tags": {
      "amenity": "pharmacy",
      "brand": "Добрая аптека",
      "healthcare": "pharmacy",
      "name": "Добрая аптека"
    }
  },
  "amenity/pharmacy|Доктор Столетов": {
    "locationSet": {"include": ["ru"]},
    "tags": {
      "amenity": "pharmacy",
      "brand": "Доктор Столетов",
      "healthcare": "pharmacy",
      "name": "Доктор Столетов"
    }
  },
  "amenity/pharmacy|Живика": {
    "locationSet": {"include": ["ru"]},
    "tags": {
      "amenity": "pharmacy",
      "brand": "Живика",
      "healthcare": "pharmacy",
      "name": "Живика"
    }
  },
  "amenity/pharmacy|Здоровье": {
    "locationSet": {
      "include": ["kz", "ru", "ua"]
    },
    "tags": {
      "amenity": "pharmacy",
      "brand": "Здоровье",
      "healthcare": "pharmacy",
      "name": "Здоровье"
    }
  },
  "amenity/pharmacy|Зеленая аптека": {
    "locationSet": {"include": ["by"]},
    "matchTags": ["shop/health_food"],
    "tags": {
      "amenity": "pharmacy",
      "brand": "Зеленая аптека",
      "healthcare": "pharmacy",
      "name": "Зеленая аптека"
    }
  },
  "amenity/pharmacy|Имплозия": {
    "locationSet": {"include": ["ru"]},
    "tags": {
      "amenity": "pharmacy",
      "brand": "Имплозия",
      "healthcare": "pharmacy",
      "name": "Имплозия"
    }
  },
  "amenity/pharmacy|Классика": {
    "locationSet": {"include": ["ru"]},
    "tags": {
      "amenity": "pharmacy",
      "brand": "Классика",
      "healthcare": "pharmacy",
      "name": "Классика"
    }
  },
  "amenity/pharmacy|Ладушка": {
    "locationSet": {"include": ["ru"]},
    "tags": {
      "amenity": "pharmacy",
      "brand": "Ладушка",
      "healthcare": "pharmacy",
      "name": "Ладушка"
    }
  },
  "amenity/pharmacy|Максавит": {
    "locationSet": {"include": ["ru"]},
    "tags": {
      "amenity": "pharmacy",
      "brand": "Максавит",
      "healthcare": "pharmacy",
      "name": "Максавит"
    }
  },
  "amenity/pharmacy|Марешки": {
    "locationSet": {"include": ["bg"]},
    "tags": {
      "amenity": "pharmacy",
      "brand": "Марешки",
      "healthcare": "pharmacy",
      "name": "Марешки"
    }
  },
  "amenity/pharmacy|Мед-сервіс": {
    "locationSet": {"include": ["ua"]},
    "tags": {
      "amenity": "pharmacy",
      "brand": "Мед-сервіс",
      "healthcare": "pharmacy",
      "name": "Мед-сервіс"
    }
  },
  "amenity/pharmacy|Медея": {
    "locationSet": {"include": ["001"]},
    "tags": {
      "amenity": "pharmacy",
      "brand": "Медея",
      "healthcare": "pharmacy",
      "name": "Медея"
    }
  },
  "amenity/pharmacy|Мелодия здоровья": {
    "locationSet": {"include": ["ru"]},
    "tags": {
      "amenity": "pharmacy",
      "brand": "Мелодия здоровья",
      "healthcare": "pharmacy",
      "name": "Мелодия здоровья"
    }
  },
  "amenity/pharmacy|Невис": {
    "locationSet": {"include": ["ru"]},
    "tags": {
      "amenity": "pharmacy",
      "brand": "Невис",
      "healthcare": "pharmacy",
      "name": "Невис"
    }
  },
  "amenity/pharmacy|Неофарм": {
    "locationSet": {"include": ["001"]},
    "tags": {
      "amenity": "pharmacy",
      "brand": "Неофарм",
      "healthcare": "pharmacy",
      "name": "Неофарм"
    }
  },
  "amenity/pharmacy|Норма": {
    "locationSet": {"include": ["ru"]},
    "tags": {
      "amenity": "pharmacy",
      "brand": "Норма",
      "healthcare": "pharmacy",
      "name": "Норма"
    }
  },
  "amenity/pharmacy|Озерки": {
    "locationSet": {"include": ["ru"]},
    "tags": {
      "amenity": "pharmacy",
      "brand": "Озерки",
      "healthcare": "pharmacy",
      "name": "Озерки"
    }
  },
  "amenity/pharmacy|Панацея": {
    "locationSet": {
      "include": ["kz", "ru", "ua"]
    },
    "tags": {
      "amenity": "pharmacy",
      "brand": "Панацея",
      "healthcare": "pharmacy",
      "name": "Панацея"
    }
  },
  "amenity/pharmacy|Первая помощь": {
    "locationSet": {"include": ["ru"]},
    "tags": {
      "amenity": "pharmacy",
      "brand": "Первая помощь",
      "healthcare": "pharmacy",
      "name": "Первая помощь"
    }
  },
  "amenity/pharmacy|Планета здоровья": {
    "locationSet": {"include": ["by", "ru"]},
    "tags": {
      "amenity": "pharmacy",
      "brand": "Планета здоровья",
      "healthcare": "pharmacy",
      "name": "Планета здоровья"
    }
  },
  "amenity/pharmacy|Подорожник": {
    "locationSet": {"include": ["ua"]},
    "tags": {
      "amenity": "pharmacy",
      "brand": "Подорожник",
      "healthcare": "pharmacy",
      "name": "Подорожник"
    }
  },
  "amenity/pharmacy|Пульс": {
    "locationSet": {"include": ["001"]},
    "tags": {
      "amenity": "pharmacy",
      "brand": "Пульс",
      "healthcare": "pharmacy",
      "name": "Пульс"
    }
  },
  "amenity/pharmacy|Радуга": {
    "locationSet": {"include": ["001"]},
    "tags": {
      "amenity": "pharmacy",
      "brand": "Радуга",
      "healthcare": "pharmacy",
      "name": "Радуга"
    }
  },
  "amenity/pharmacy|Ригла": {
    "locationSet": {"include": ["ru"]},
    "tags": {
      "amenity": "pharmacy",
      "brand": "Ригла",
      "brand:wikidata": "Q4394431",
      "brand:wikipedia": "ru:Ригла",
      "healthcare": "pharmacy",
      "name": "Ригла"
    }
  },
  "amenity/pharmacy|Семейная": {
    "locationSet": {"include": ["kz", "ru"]},
    "tags": {
      "amenity": "pharmacy",
      "brand": "Семейная",
      "healthcare": "pharmacy",
      "name": "Семейная"
    }
  },
  "amenity/pharmacy|Семейная аптека": {
    "locationSet": {"include": ["ru", "ua"]},
    "tags": {
      "amenity": "pharmacy",
      "brand": "Семейная аптека",
      "healthcare": "pharmacy",
      "name": "Семейная аптека"
    }
  },
  "amenity/pharmacy|Социальная аптека": {
    "locationSet": {"include": ["ru", "ua"]},
    "tags": {
      "amenity": "pharmacy",
      "brand": "Социальная аптека",
      "healthcare": "pharmacy",
      "name": "Социальная аптека"
    }
  },
  "amenity/pharmacy|Столички": {
    "locationSet": {"include": ["ru"]},
    "tags": {
      "amenity": "pharmacy",
      "brand": "Столички",
      "healthcare": "pharmacy",
      "name": "Столички"
    }
  },
  "amenity/pharmacy|Фармакопейка": {
    "locationSet": {"include": ["ru"]},
    "tags": {
      "amenity": "pharmacy",
      "brand": "Фармакопейка",
      "healthcare": "pharmacy",
      "name": "Фармакопейка"
    }
  },
  "amenity/pharmacy|Фармакор": {
    "locationSet": {"include": ["ru"]},
    "tags": {
      "amenity": "pharmacy",
      "brand": "Фармакор",
      "healthcare": "pharmacy",
      "name": "Фармакор"
    }
  },
  "amenity/pharmacy|Фармленд": {
    "locationSet": {"include": ["ru"]},
    "tags": {
      "amenity": "pharmacy",
      "brand": "Фармленд",
      "healthcare": "pharmacy",
      "name": "Фармленд"
    }
  },
  "amenity/pharmacy|Центральная аптека": {
    "locationSet": {
      "include": ["by", "kz", "ru", "uz"]
    },
    "tags": {
      "amenity": "pharmacy",
      "brand": "Центральная аптека",
      "healthcare": "pharmacy",
      "name": "Центральная аптека"
    }
  },
  "amenity/pharmacy|Экона": {
    "locationSet": {"include": ["001"]},
    "tags": {
      "amenity": "pharmacy",
      "brand": "Экона",
      "healthcare": "pharmacy",
      "name": "Экона"
    }
  },
  "amenity/pharmacy|סופר-פארם": {
    "locationSet": {"include": ["il"]},
    "tags": {
      "amenity": "pharmacy",
      "brand": "סופר-פארם",
      "brand:he": "סופר-פארם",
      "brand:wikidata": "Q13220217",
      "brand:wikipedia": "en:Super-Pharm",
      "healthcare": "pharmacy",
      "name": "סופר-פארם",
      "name:he": "סופר-פארם"
    }
  },
  "amenity/pharmacy|くすりの福太郎": {
    "locationSet": {"include": ["jp"]},
    "tags": {
      "amenity": "pharmacy",
      "brand": "くすりの福太郎",
      "brand:en": "Kusurino FUKUTARO",
      "brand:ja": "くすりの福太郎",
      "brand:wikidata": "Q17214460",
      "brand:wikipedia": "ja:くすりの福太郎",
      "healthcare": "pharmacy",
      "name": "くすりの福太郎",
      "name:en": "Kusurino Fukutaro",
      "name:ja": "くすりの福太郎"
    }
  },
  "amenity/pharmacy|さくら薬局": {
    "locationSet": {"include": ["jp"]},
    "tags": {
      "amenity": "pharmacy",
      "brand": "さくら薬局",
      "brand:ja": "さくら薬局",
      "brand:wikidata": "Q11299021",
      "brand:wikipedia": "ja:クラフト (ドラッグストア)",
      "healthcare": "pharmacy",
      "name": "さくら薬局",
      "name:en": "Sakura Pharmacy",
      "name:ja": "さくら薬局"
    }
  },
  "amenity/pharmacy|ぱぱす": {
    "locationSet": {"include": ["jp"]},
    "tags": {
      "amenity": "pharmacy",
      "brand": "ぱぱす",
      "brand:en": "Papasu",
      "brand:ja": "ぱぱす",
      "brand:wikidata": "Q11276061",
      "brand:wikipedia": "ja:ぱぱす",
      "healthcare": "pharmacy",
      "name": "ぱぱす",
      "name:en": "Papasu",
      "name:ja": "ぱぱす"
    }
  },
  "amenity/pharmacy|アイン薬局": {
    "locationSet": {"include": ["jp"]},
    "tags": {
      "amenity": "pharmacy",
      "brand": "アイン薬局",
      "brand:ja": "アイン薬局",
      "brand:wikidata": "Q11282518",
      "brand:wikipedia": "ja:アインファーマシーズ",
      "healthcare": "pharmacy",
      "name": "アイン薬局",
      "name:en": "Ain Pharmaciez",
      "name:ja": "アイン薬局"
    }
  },
  "amenity/pharmacy|ウェルパーク": {
    "locationSet": {"include": ["jp"]},
    "tags": {
      "amenity": "pharmacy",
      "brand": "ウェルパーク",
      "brand:ja": "ウェルパーク",
      "brand:wikidata": "Q11288610",
      "brand:wikipedia": "ja:ウェルパーク",
      "healthcare": "pharmacy",
      "name": "ウェルパーク",
      "name:en": "Welpark",
      "name:ja": "ウェルパーク"
    }
  },
  "amenity/pharmacy|ウエルシア": {
    "locationSet": {"include": ["jp"]},
    "tags": {
      "amenity": "pharmacy",
      "brand": "ウエルシア",
      "brand:en": "Welcia",
      "brand:ja": "ウエルシア",
      "brand:wikidata": "Q11288684",
      "brand:wikipedia": "ja:ウエルシアホールディングス",
      "healthcare": "pharmacy",
      "name": "ウエルシア",
      "name:en": "Welcia",
      "name:ja": "ウエルシア"
    }
  },
  "amenity/pharmacy|ウエルシア薬局": {
    "locationSet": {"include": ["jp"]},
    "tags": {
      "amenity": "pharmacy",
      "brand": "ウエルシア薬局",
      "brand:en": "Welcia Yakkyoku",
      "brand:ja": "ウエルシア薬局",
      "brand:wikidata": "Q11288687",
      "brand:wikipedia": "ja:ウエルシア薬局",
      "healthcare": "pharmacy",
      "name": "ウエルシア薬局",
      "name:en": "Welcia Yakkyoku",
      "name:ja": "ウエルシア薬局"
    }
  },
  "amenity/pharmacy|オーエスドラッグ": {
    "locationSet": {"include": ["jp"]},
    "matchNames": ["osドラッグ"],
    "tags": {
      "alt_name": "OSドラッグ",
      "amenity": "pharmacy",
      "brand": "オーエスドラッグ",
      "brand:en": "OS Drug",
      "brand:ja": "オーエスドラッグ",
      "brand:wikidata": "Q11407223",
      "brand:wikipedia": "ja:協和商事",
      "healthcare": "pharmacy",
      "name": "オーエスドラッグ",
      "name:en": "OS Drug",
      "name:ja": "オーエスドラッグ"
    }
  },
  "amenity/pharmacy|カワチ薬品": {
    "locationSet": {"include": ["jp"]},
    "tags": {
      "amenity": "pharmacy",
      "brand": "カワチ薬品",
      "brand:en": "Cawachi",
      "brand:ja": "カワチ薬品",
      "brand:wikidata": "Q11295397",
      "brand:wikipedia": "ja:カワチ薬品",
      "healthcare": "pharmacy",
      "name": "カワチ薬品",
      "name:en": "Cawachi",
      "name:ja": "カワチ薬品"
    }
  },
  "amenity/pharmacy|キリン堂": {
    "locationSet": {"include": ["jp"]},
    "tags": {
      "amenity": "pharmacy",
      "brand": "キリン堂",
      "brand:en": "Kirindo",
      "brand:ja": "キリン堂",
      "brand:wikidata": "Q11297751",
      "brand:wikipedia": "ja:キリン堂",
      "healthcare": "pharmacy",
      "name": "キリン堂",
      "name:en": "Kirindo",
      "name:ja": "キリン堂"
    }
  },
  "amenity/pharmacy|クオール": {
    "locationSet": {"include": ["jp"]},
    "tags": {
      "amenity": "pharmacy",
      "brand": "クオール",
      "brand:en": "Qol",
      "brand:ja": "クオール",
      "brand:wikidata": "Q88383318",
      "healthcare": "pharmacy",
      "name": "クオール",
      "name:en": "Qol",
      "name:ja": "クオール"
    }
  },
  "amenity/pharmacy|クスリのアオキ": {
    "locationSet": {"include": ["jp"]},
    "tags": {
      "amenity": "pharmacy",
      "brand": "クスリのアオキ",
      "brand:en": "Kusuri no Aoki",
      "brand:ja": "クスリのアオキ",
      "brand:wikidata": "Q11298661",
      "brand:wikipedia": "ja:クスリのアオキ",
      "healthcare": "pharmacy",
      "name": "クスリのアオキ",
      "name:en": "Kusuri no Aoki",
      "name:ja": "クスリのアオキ"
    }
  },
  "amenity/pharmacy|クリエイト": {
    "locationSet": {"include": ["jp"]},
    "tags": {
      "amenity": "pharmacy",
      "brand": "クリエイト",
      "brand:en": "Create",
      "brand:ja": "クリエイト",
      "brand:wikidata": "Q17215731",
      "brand:wikipedia": "ja:クリエイト",
      "healthcare": "pharmacy",
      "name": "クリエイト",
      "name:en": "Create",
      "name:ja": "クリエイト"
    }
  },
  "amenity/pharmacy|クリエイトSD": {
    "locationSet": {"include": ["jp"]},
    "tags": {
      "amenity": "pharmacy",
      "brand": "クリエイトSD",
      "brand:en": "CreateSD",
      "brand:ja": "クリエイトSD",
      "brand:wikidata": "Q11299163",
      "brand:wikipedia": "ja:クリエイトSDホールディングス",
      "healthcare": "pharmacy",
      "name": "クリエイトSD",
      "name:en": "CreateSD",
      "name:ja": "クリエイトSD"
    }
  },
  "amenity/pharmacy|コクミン": {
    "locationSet": {"include": ["jp"]},
    "tags": {
      "amenity": "pharmacy",
      "brand": "コクミン",
      "brand:en": "Kokumin",
      "brand:ja": "コクミン",
      "brand:wikidata": "Q11301923",
      "brand:wikipedia": "ja:コクミン",
      "healthcare": "pharmacy",
      "name": "コクミン",
      "name:en": "Kokumin",
      "name:ja": "コクミン",
      "official_name": "コクミンドラッグ",
      "official_name:en": "Kokumin Drug",
      "official_name:ja": "コクミンドラッグ"
    }
  },
  "amenity/pharmacy|ココカラファイン": {
    "locationSet": {"include": ["jp"]},
    "tags": {
      "amenity": "pharmacy",
      "brand": "ココカラファイン",
      "brand:en": "Cocokara Fine",
      "brand:ja": "ココカラファイン",
      "brand:wikidata": "Q11301948",
      "brand:wikipedia": "ja:ココカラファイン",
      "healthcare": "pharmacy",
      "name": "ココカラファイン",
      "name:en": "Cocokara Fine",
      "name:ja": "ココカラファイン"
    }
  },
  "amenity/pharmacy|サツドラ": {
    "locationSet": {"include": ["jp"]},
    "matchNames": ["サッポロドラッグストアー"],
    "tags": {
      "alt_name:en": "Satsudora",
      "amenity": "pharmacy",
      "brand": "サツドラ",
      "brand:en": "Sapporo Drug Store",
      "brand:ja": "サツドラ",
      "brand:wikidata": "Q11304804",
      "healthcare": "pharmacy",
      "name": "サツドラ",
      "name:en": "Sapporo Drug Store",
      "name:ja": "サツドラ"
    }
  },
  "amenity/pharmacy|サンドラッグ": {
    "locationSet": {"include": ["jp"]},
    "tags": {
      "amenity": "pharmacy",
      "brand": "サンドラッグ",
      "brand:en": "Sundrug",
      "brand:ja": "サンドラッグ",
      "brand:wikidata": "Q11305867",
      "brand:wikipedia": "ja:サンドラッグ",
      "healthcare": "pharmacy",
      "name": "サンドラッグ",
      "name:en": "Sundrug",
      "name:ja": "サンドラッグ"
    }
  },
  "amenity/pharmacy|スギ薬局": {
    "locationSet": {"include": ["jp"]},
    "nomatch": ["shop/chemist|スギ薬局"],
    "tags": {
      "amenity": "pharmacy",
      "brand": "スギ薬局",
      "brand:en": "Sugi Pharmacy",
      "brand:ja": "スギ薬局",
      "brand:wikidata": "Q11311460",
      "brand:wikipedia": "ja:スギ薬局",
      "healthcare": "pharmacy",
      "name": "スギ薬局",
      "name:en": "Sugi Pharmacy",
      "name:ja": "スギ薬局"
    }
  },
  "amenity/pharmacy|セイジョー": {
    "locationSet": {"include": ["jp"]},
    "tags": {
      "amenity": "pharmacy",
      "brand": "セイジョー",
      "brand:en": "Seijo",
      "brand:ja": "セイジョー",
      "brand:wikidata": "Q11314133",
      "brand:wikipedia": "ja:セイジョー",
      "healthcare": "pharmacy",
      "name": "セイジョー",
      "name:en": "Seijo",
      "name:ja": "セイジョー"
    }
  },
  "amenity/pharmacy|ダイコクドラッグ": {
    "locationSet": {"include": ["jp"]},
    "tags": {
      "amenity": "pharmacy",
      "brand": "ダイコクドラッグ",
      "brand:en": "Daikoku Drug",
      "brand:ja": "ダイコクドラッグ",
      "brand:wikidata": "Q11316754",
      "brand:wikipedia": "ja:ダイコク",
      "healthcare": "pharmacy",
      "name": "ダイコクドラッグ",
      "name:en": "Daikoku Drug",
      "name:ja": "ダイコクドラッグ"
    }
  },
  "amenity/pharmacy|ツルハドラッグ": {
    "locationSet": {"include": ["jp"]},
    "tags": {
      "amenity": "pharmacy",
      "brand": "ツルハドラッグ",
      "brand:en": "Tsuruha",
      "brand:ja": "ツルハドラッグ",
      "brand:wikidata": "Q11318826",
      "brand:wikipedia": "ja:ツルハ",
      "healthcare": "pharmacy",
      "name": "ツルハドラッグ",
      "name:en": "Tsuruha",
      "name:ja": "ツルハドラッグ"
    }
  },
  "amenity/pharmacy|トモズ": {
    "locationSet": {"include": ["jp"]},
    "matchNames": ["トモズエキスプレス"],
    "tags": {
      "amenity": "pharmacy",
      "brand": "トモズ",
      "brand:en": "Tomod's",
      "brand:ja": "トモズ",
      "brand:wikidata": "Q7820097",
      "brand:wikipedia": "ja:トモズ",
      "healthcare": "pharmacy",
      "name": "トモズ",
      "name:en": "Tomod's",
      "name:ja": "トモズ"
    }
  },
  "amenity/pharmacy|ドラッグイレブン": {
    "locationSet": {"include": ["jp"]},
    "tags": {
      "amenity": "pharmacy",
      "brand": "ドラッグイレブン",
      "brand:en": "Drug Eleven",
      "brand:ja": "ドラッグイレブン",
      "brand:wikidata": "Q11323075",
      "brand:wikipedia": "ja:ドラッグイレブン",
      "healthcare": "pharmacy",
      "name": "ドラッグイレブン",
      "name:en": "Drug Eleven",
      "name:ja": "ドラッグイレブン"
    }
  },
  "amenity/pharmacy|ドラッグセイムス": {
    "locationSet": {"include": ["jp"]},
    "tags": {
      "amenity": "pharmacy",
      "brand": "ドラッグセイムス",
      "brand:en": "Seims",
      "brand:ja": "ドラッグセイムス",
      "brand:wikidata": "Q11456137",
      "brand:wikipedia": "ja:富士薬品",
      "healthcare": "pharmacy",
      "name": "ドラッグセイムス",
      "name:en": "Drug Seims",
      "name:ja": "ドラッグセイムス"
    }
  },
  "amenity/pharmacy|ハックドラッグ": {
    "locationSet": {"include": ["jp"]},
    "tags": {
      "amenity": "pharmacy",
      "brand": "ウエルシア",
      "brand:en": "Welcia",
      "brand:ja": "ウエルシア",
      "brand:wikidata": "Q11288684",
      "brand:wikipedia": "ja:ウエルシアホールディングス",
      "healthcare": "pharmacy",
      "name": "ハックドラッグ",
      "name:en": "Hack Drug",
      "name:ja": "ハックドラッグ"
    }
  },
  "amenity/pharmacy|マツモトキヨシ": {
    "locationSet": {"include": ["jp"]},
    "tags": {
      "amenity": "pharmacy",
      "brand": "マツモトキヨシ",
      "brand:en": "Matsukiyo",
      "brand:ja": "マツモトキヨシ",
      "brand:wikidata": "Q8014776",
      "brand:wikipedia": "ja:マツモトキヨシ",
      "healthcare": "pharmacy",
      "name": "マツモトキヨシ",
      "name:en": "Matsukiyo",
      "name:ja": "マツモトキヨシ"
    }
  },
  "amenity/pharmacy|丁丁藥局": {
    "locationSet": {"include": ["001"]},
    "nomatch": ["shop/chemist|丁丁藥局"],
    "tags": {
      "amenity": "pharmacy",
      "brand": "丁丁藥局",
      "healthcare": "pharmacy",
      "name": "丁丁藥局"
    }
  },
  "amenity/pharmacy|屈臣氏": {
    "locationSet": {"include": ["001"]},
    "nomatch": ["shop/chemist|屈臣氏"],
    "tags": {
      "amenity": "pharmacy",
      "brand": "屈臣氏",
      "healthcare": "pharmacy",
      "name": "屈臣氏"
    }
  },
  "amenity/pharmacy|杏林堂": {
    "locationSet": {"include": ["jp"]},
    "tags": {
      "amenity": "pharmacy",
      "brand": "杏林堂",
      "brand:en": "Kyorindo",
      "brand:ja": "杏林堂",
      "brand:wikidata": "Q11522605",
      "brand:wikipedia": "ja:杏林堂",
      "healthcare": "pharmacy",
      "name": "杏林堂",
      "name:en": "Kyorindo",
      "name:ja": "杏林堂"
    }
  }
}