{
  "amenity/post_box|Deutsche Post": {
    "count": 181,
    "countryCodes": ["de"],
    "match": [
      "amenity/post_box|Deutsche Post AG"
    ],
    "nomatch": [
      "amenity/post_office|Deutsche Post"
    ],
    "tags": {
      "amenity": "post_box",
      "brand": "Deutsche Post",
      "brand:wikidata": "Q157645",
      "brand:wikipedia": "en:Deutsche Post",
      "name": "Deutsche Post"
    }
  },
  "amenity/post_box|USPS": {
    "count": 176,
    "countryCodes": ["us"],
    "nomatch": ["amenity/post_office|USPS"],
    "tags": {
      "amenity": "post_box",
      "brand": "USPS",
      "brand:wikidata": "Q668687",
      "brand:wikipedia": "en:United States Postal Service",
      "name": "USPS",
      "operator": "USPS"
    }
  },
  "amenity/post_box|差出箱13号": {
    "count": 52,
    "tags": {
      "amenity": "post_box",
      "brand": "差出箱13号",
      "name": "差出箱13号"
    }
  },
  "amenity/post_box|郵便ポスト": {
    "count": 110,
    "countryCodes": ["jp"],
    "tags": {
      "amenity": "post_box",
      "brand": "郵便ポスト",
      "brand:ja": "郵便ポスト",
      "name": "郵便ポスト",
      "name:ja": "郵便ポスト"
    }
  }
}