{
  "amenity/post_office|Australia Post": {
    "countryCodes": ["au"],
    "tags": {
      "amenity": "post_office",
      "brand": "Australia Post",
      "brand:wikidata": "Q1142936",
      "brand:wikipedia": "en:Australia Post",
      "name": "Australia Post"
    }
  },
  "amenity/post_office|CTT": {
    "countryCodes": ["mo"],
    "tags": {
      "amenity": "post_office",
      "brand": "CTT",
      "brand:wikidata": "Q909429",
      "brand:wikipedia": "en:CTT (Macau)",
      "name": "CTT"
    }
  },
  "amenity/post_office|Canada Post": {
    "countryCodes": ["ca"],
    "tags": {
      "amenity": "post_office",
      "brand": "Canada Post",
      "brand:wikidata": "Q1032001",
      "brand:wikipedia": "en:Canada Post",
      "name": "Canada Post"
    }
  },
  "amenity/post_office|Chilexpress": {
    "tags": {
      "amenity": "post_office",
      "brand": "Chilexpress",
      "name": "Chilexpress"
    }
  },
  "amenity/post_office|Correios": {
    "countryCodes": ["br"],
    "tags": {
      "amenity": "post_office",
      "brand": "Correios",
      "brand:wikidata": "Q3375004",
      "brand:wikipedia": "en:Correios",
      "name": "Correios"
    }
  },
  "amenity/post_office|Correo Argentino": {
    "countryCodes": ["ar"],
    "tags": {
      "amenity": "post_office",
      "brand": "Correo Argentino",
      "brand:wikidata": "Q4036566",
      "brand:wikipedia": "en:Correo Argentino",
      "name": "Correo Argentino"
    }
  },
  "amenity/post_office|Correos de Chile": {
    "countryCodes": ["cl"],
    "tags": {
      "amenity": "post_office",
      "brand": "Correos de Chile",
      "brand:wikidata": "Q5172893",
      "brand:wikipedia": "en:Correos de Chile",
      "name": "Correos de Chile"
    }
  },
  "amenity/post_office|Correos de Costa Rica": {
    "countryCodes": ["cr"],
    "tags": {
      "amenity": "post_office",
      "brand": "Correos de Costa Rica",
      "brand:wikidata": "Q5172894",
      "brand:wikipedia": "en:Correos de Costa Rica",
      "name": "Correos de Costa Rica"
    }
  },
  "amenity/post_office|DHL": {
    "matchNames": ["dhl paketshop"],
    "tags": {
      "amenity": "post_office",
      "brand": "DHL",
      "brand:wikidata": "Q489815",
      "brand:wikipedia": "en:DHL Express",
      "name": "DHL",
      "operator": "DHL"
    }
  },
  "amenity/post_office|DPD Paketshop": {
    "tags": {
      "amenity": "post_office",
      "brand": "DPD Paketshop",
      "brand:wikidata": "Q541030",
      "brand:wikipedia": "en:DPDgroup",
      "name": "DPD Paketshop"
    }
  },
  "amenity/post_office|Deutsche Post": {
    "countryCodes": ["de"],
    "matchNames": [
      "deutsche post ag",
      "deutsche post filiale"
    ],
    "tags": {
      "amenity": "post_office",
      "brand": "Deutsche Post",
      "brand:wikidata": "Q157645",
      "brand:wikipedia": "en:Deutsche Post",
      "name": "Deutsche Post"
    }
  },
  "amenity/post_office|Fancourier": {
    "countryCodes": ["ro"],
    "tags": {
      "amenity": "post_office",
      "brand": "Fancourier",
      "brand:wikidata": "Q12727984",
      "brand:wikipedia": "ro:FAN Courier Express",
      "name": "Fancourier"
    }
  },
  "amenity/post_office|FedEx": {
    "tags": {
      "amenity": "post_office",
      "brand": "FedEx",
      "brand:wikidata": "Q459477",
      "brand:wikipedia": "en:FedEx",
      "name": "FedEx"
    }
  },
  "amenity/post_office|Hermes Paketshop": {
    "matchNames": ["hermes"],
    "tags": {
      "amenity": "post_office",
      "brand": "Hermes Paketshop",
      "brand:wikidata": "Q1613532",
      "brand:wikipedia": "en:Hermes Group",
      "name": "Hermes Paketshop"
    }
  },
  "amenity/post_office|LBC": {
    "countryCodes": ["ph"],
    "matchNames": ["lbc express"],
    "tags": {
      "amenity": "post_office",
      "brand": "LBC",
      "brand:wikidata": "Q17075584",
      "brand:wikipedia": "en:LBC Express",
      "name": "LBC"
    }
  },
  "amenity/post_office|La Poste": {
    "tags": {
      "amenity": "post_office",
      "brand": "La Poste",
      "brand:wikidata": "Q373724",
      "brand:wikipedia": "fr:La Poste (entreprise française)",
      "name": "La Poste"
    }
  },
  "amenity/post_office|MRW": {
    "tags": {
      "amenity": "post_office",
      "brand": "MRW",
      "brand:wikidata": "Q23767821",
      "brand:wikipedia": "es:MRW",
      "name": "MRW"
    }
  },
  "amenity/post_office|OCA": {
    "tags": {
      "amenity": "post_office",
      "brand": "OCA",
      "name": "OCA"
    }
  },
  "amenity/post_office|Oficina de Correos": {
    "matchNames": ["correos"],
    "tags": {
      "amenity": "post_office",
      "brand": "Oficina de Correos",
      "brand:wikidata": "Q776605",
      "brand:wikipedia": "es:Correos (España)",
      "name": "Oficina de Correos"
    }
  },
  "amenity/post_office|PTT": {
    "tags": {
      "amenity": "post_office",
      "brand": "PTT",
      "name": "PTT"
    }
  },
  "amenity/post_office|Poczta Polska": {
    "countryCodes": ["pl"],
    "tags": {
      "amenity": "post_office",
      "brand": "Poczta Polska",
      "brand:wikidata": "Q168833",
      "brand:wikipedia": "pl:Poczta Polska",
      "name": "Poczta Polska"
    }
  },
  "amenity/post_office|PostalAnnex": {
    "countryCodes": ["us"],
    "matchNames": ["postal annex"],
    "matchTags": ["shop/post_office"],
    "tags": {
      "amenity": "post_office",
      "brand": "PostalAnnex",
      "brand:wikidata": "Q61960357",
      "name": "PostalAnnex"
    }
  },
  "amenity/post_office|Poste Italiane": {
    "countryCodes": ["it"],
    "tags": {
      "amenity": "post_office",
      "brand": "Poste Italiane",
      "brand:wikidata": "Q495026",
      "brand:wikipedia": "en:Poste italiane",
      "name": "Poste Italiane"
    }
  },
  "amenity/post_office|Serpost": {
    "countryCodes": ["pe"],
    "matchNames": ["servicios postales del perú"],
    "matchTags": ["shop/post_office"],
    "tags": {
      "amenity": "post_office",
      "brand": "Serpost",
      "brand:wikidata": "Q19521863",
      "brand:wikipedia": "es:Servicios Postales del Perú",
      "name": "Serpost"
    }
  },
  "amenity/post_office|Servientrega": {
    "tags": {
      "amenity": "post_office",
      "brand": "Servientrega",
      "name": "Servientrega"
    }
  },
  "amenity/post_office|Slovenská pošta": {
    "countryCodes": ["sk"],
    "tags": {
      "amenity": "post_office",
      "brand": "Slovenská pošta",
      "brand:wikidata": "Q1191849",
      "brand:wikipedia": "en:Slovenská pošta",
      "name": "Slovenská pošta"
    }
  },
  "amenity/post_office|The UPS Store": {
    "matchNames": ["ups", "ups store"],
    "matchTags": ["shop/copyshop"],
    "tags": {
      "amenity": "post_office",
      "brand": "The UPS Store",
      "brand:wikidata": "Q7771029",
      "brand:wikipedia": "en:The UPS Store",
      "name": "The UPS Store"
    }
  },
  "amenity/post_office|US Post Office": {
    "countryCodes": ["us"],
    "matchNames": [
      "u.s. post office",
      "united states post office",
      "united states postal service",
      "usps"
    ],
    "tags": {
      "amenity": "post_office",
      "brand": "US Post Office",
      "brand:wikidata": "Q668687",
      "brand:wikipedia": "en:United States Postal Service",
      "name": "US Post Office",
      "operator": "USPS"
    }
  },
  "amenity/post_office|ΕΛΤΑ": {
    "countryCodes": ["gr"],
    "tags": {
      "amenity": "post_office",
      "brand": "ΕΛΤΑ",
      "brand:wikidata": "Q1275135",
      "brand:wikipedia": "el:Ελληνικά Ταχυδρομεία",
      "name": "ΕΛΤΑ"
    }
  },
  "amenity/post_office|Белпошта": {
    "countryCodes": ["by"],
    "matchNames": ["белпочта"],
    "tags": {
      "amenity": "post_office",
      "brand": "Белпошта",
      "brand:be": "Белпошта",
      "brand:en": "Belposhta",
      "brand:ru": "Белпочта",
      "brand:wikidata": "Q2662336",
      "brand:wikipedia": "be:Белпошта",
      "name": "Белпошта",
      "name:be": "Белпошта",
      "name:en": "Belposhta",
      "name:ru": "Белпочта"
    }
  },
  "amenity/post_office|Казпочта": {
    "countryCodes": ["kz"],
    "tags": {
      "amenity": "post_office",
      "brand": "Казпочта",
      "brand:wikidata": "Q746263",
      "brand:wikipedia": "ru:Казпочта",
      "name": "Казпочта"
    }
  },
  "amenity/post_office|Нова Пошта №1": {
    "countryCodes": ["ua"],
    "tags": {
      "amenity": "post_office",
      "brand": "Нова Пошта №1",
      "brand:wikidata": "Q12133863",
      "brand:wikipedia": "uk:Нова пошта",
      "name": "Нова Пошта №1"
    }
  },
  "amenity/post_office|Нова Пошта №2": {
    "tags": {
      "amenity": "post_office",
      "brand": "Нова Пошта №2",
      "name": "Нова Пошта №2"
    }
  },
  "amenity/post_office|Нова Пошта №3": {
    "tags": {
      "amenity": "post_office",
      "brand": "Нова Пошта №3",
      "name": "Нова Пошта №3"
    }
  },
  "amenity/post_office|Нова Пошта №4": {
    "tags": {
      "amenity": "post_office",
      "brand": "Нова Пошта №4",
      "name": "Нова Пошта №4"
    }
  },
  "amenity/post_office|Почта России": {
    "countryCodes": ["ru"],
    "tags": {
      "amenity": "post_office",
      "brand": "Почта России",
      "brand:wikidata": "Q1502763",
      "brand:wikipedia": "ru:Почта России",
      "name": "Почта России"
    }
  },
  "amenity/post_office|СДЭК": {
    "tags": {
      "amenity": "post_office",
      "brand": "СДЭК",
      "brand:wikidata": "Q28665980",
      "brand:wikipedia": "ru:СДЭК",
      "name": "СДЭК"
    }
  },
  "amenity/post_office|Укрпошта": {
    "countryCodes": ["ua"],
    "tags": {
      "amenity": "post_office",
      "brand": "Укрпошта",
      "brand:wikidata": "Q2470783",
      "brand:wikipedia": "en:Ukrposhta",
      "name": "Укрпошта"
    }
  },
  "amenity/post_office|中国邮政": {
    "countryCodes": ["cn"],
    "tags": {
      "amenity": "post_office",
      "brand": "中国邮政",
      "brand:en": "China Post",
      "brand:wikidata": "Q1066476",
      "brand:wikipedia": "en:China Post",
      "name": "中国邮政",
      "name:en": "China Post"
    }
  }
}