{
  "amenity/prep_school|Huntington Learning Center": {
    "locationSet": {"include": ["us"]},
    "matchNames": ["huntington"],
    "tags": {
      "amenity": "prep_school",
      "brand": "Huntington Learning Center",
      "brand:wikidata": "Q5945399",
      "brand:wikipedia": "en:Huntington Learning Center",
      "name": "Huntington Learning Center"
    }
  },
  "amenity/prep_school|KUMON~(Japan)": {
    "locationSet": {"include": ["jp"]},
    "matchNames": ["くもん", "公文"],
    "tags": {
      "amenity": "prep_school",
      "brand": "KUMON",
      "brand:wikidata": "Q142054",
      "brand:wikipedia": "ja:日本公文教育研究会",
      "name": "KUMON",
      "name:ja": "公文",
      "name:ja-Hira": "くもん",
      "name:ja-Latn": "KUMON"
    }
  },
  "amenity/prep_school|Kumon~(International)": {
    "locationSet": {"include": ["001"]},
    "matchNames": ["kumon learning center"],
    "tags": {
      "amenity": "prep_school",
      "brand": "Kumon",
      "brand:wikidata": "Q142054",
      "brand:wikipedia": "en:Kumon",
      "name": "Kumon"
    }
  },
  "amenity/prep_school|Mathnasium": {
    "locationSet": {"include": ["ca", "us"]},
    "matchNames": ["mathnasium learning center"],
    "matchTags": [
      "office/educational_institution"
    ],
    "tags": {
      "amenity": "prep_school",
      "brand": "Mathnasium",
      "brand:wikidata": "Q6787302",
      "brand:wikipedia": "en:Mathnasium",
      "name": "Mathnasium"
    }
  },
  "amenity/prep_school|Russian School of Mathematics": {
    "locationSet": {"include": ["us"]},
    "matchNames": [
      "rsm",
      "russian school of math"
    ],
    "tags": {
      "amenity": "prep_school",
      "brand": "Russian School of Mathematics",
      "brand:wikidata": "Q7382122",
      "brand:wikipedia": "en:Russian School of Mathematics",
      "name": "Russian School of Mathematics"
    }
  },
  "amenity/prep_school|Schülerhilfe": {
    "locationSet": {"include": ["at", "de"]},
    "tags": {
      "amenity": "prep_school",
      "brand": "Schülerhilfe",
      "brand:wikidata": "Q2259702",
      "brand:wikipedia": "de:Schülerhilfe",
      "name": "Schülerhilfe"
    }
  },
  "amenity/prep_school|Studienkreis": {
    "locationSet": {
      "include": ["at", "ch", "de", "lu"]
    },
    "tags": {
      "amenity": "prep_school",
      "brand": "Studienkreis",
      "brand:wikidata": "Q2358555",
      "brand:wikipedia": "de:Studienkreis",
      "name": "Studienkreis"
    }
  },
  "amenity/prep_school|Sylvan": {
    "locationSet": {"include": ["us"]},
    "matchNames": ["sylvan learning"],
    "tags": {
      "alt_name": "Sylvan Learning Center",
      "amenity": "prep_school",
      "brand": "Sylvan",
      "brand:wikidata": "Q7660663",
      "brand:wikipedia": "en:Sylvan Learning",
      "name": "Sylvan"
    }
  },
  "amenity/prep_school|栄光ゼミナール": {
    "locationSet": {"include": ["jp"]},
    "matchNames": ["eikoh"],
    "tags": {
      "amenity": "prep_school",
      "brand": "栄光ゼミナール",
      "brand:ja": "栄光ゼミナール",
      "brand:ja-Hira": "えいこうゼミナール",
      "brand:ja-Latn": "Eikō Zemināru",
      "brand:wikidata": "Q11535632",
      "brand:wikipedia": "ja:栄光ゼミナール",
      "name": "栄光ゼミナール",
      "name:en": "Eikoh Seminar",
      "name:ja": "栄光ゼミナール",
      "name:ja-Hira": "えいこうゼミナール",
      "name:ja-Latn": "Eikō Zemināru"
    }
  }
}