{
  "amenity/pub|Ezītis miglā": {
    "countryCodes": ["lv"],
    "tags": {
      "amenity": "pub",
      "brand": "Ezītis miglā",
      "name": "Ezītis miglā"
    }
  },
  "amenity/pub|Walkabout": {
    "countryCodes": ["gb"],
    "tags": {
      "amenity": "pub",
      "brand": "Walkabout",
      "brand:wikidata": "Q7962149",
      "brand:wikipedia": "en:Walkabout (pub chain)",
      "name": "Walkabout"
    }
  },
  "amenity/pub|はなの舞": {
    "countryCodes": ["jp"],
    "tags": {
      "amenity": "pub",
      "brand": "はなの舞",
      "brand:en": "Hananomai",
      "brand:ja": "はなの舞",
      "brand:wikidata": "Q88384850",
      "name": "はなの舞",
      "name:en": "Hananomai",
      "name:ja": "はなの舞"
    }
  },
  "amenity/pub|白木屋": {
    "countryCodes": ["ja"],
    "tags": {
      "amenity": "pub",
      "brand": "白木屋",
      "brand:en": "Shirokiya",
      "brand:ja": "白木屋",
      "brand:wikidata": "Q489746",
      "brand:wikipedia": "ja:白木屋 (居酒屋)",
      "name": "白木屋",
      "name:en": "Shirokiya",
      "name:ja": "白木屋"
    }
  },
  "amenity/pub|笑笑": {
    "countryCodes": ["ja"],
    "tags": {
      "amenity": "pub",
      "brand": "笑笑",
      "brand:en": "Warawara",
      "brand:ja": "笑笑",
      "brand:wikidata": "Q87214327",
      "name": "笑笑",
      "name:en": "Warawara",
      "name:ja": "笑笑"
    }
  },
  "amenity/pub|魚民": {
    "countryCodes": ["ja"],
    "tags": {
      "amenity": "pub",
      "brand": "魚民",
      "brand:en": "Uotami",
      "brand:ja": "魚民",
      "brand:wikidata": "Q11673981",
      "name": "魚民",
      "name:en": "Uotami",
      "name:ja": "魚民"
    }
  }
}