{
  "amenity/restaurant|100 Montaditos": {
    "locationSet": {
      "include": ["es", "it", "pt"]
    },
    "tags": {
      "amenity": "restaurant",
      "brand": "100 Montaditos",
      "brand:wikidata": "Q8355805",
      "brand:wikipedia": "en:Cervecería 100 Montaditos",
      "cuisine": "sandwich",
      "name": "100 Montaditos"
    }
  },
  "amenity/restaurant|3 Brewers~(On)": {
    "locationSet": {"include": ["ca"]},
    "tags": {
      "amenity": "restaurant",
      "brand": "3 Brasseurs",
      "brand:wikidata": "Q3230326",
      "brand:wikipedia": "fr:Les 3 Brasseurs",
      "cuisine": "burger;pizza;seafood",
      "name": "3 Brewers",
      "name:fr": "3 Brasseurs",
      "official_name": "Les 3 Brasseurs"
    }
  },
  "amenity/restaurant|ASK Italian": {
    "locationSet": {"include": ["gb"]},
    "tags": {
      "amenity": "restaurant",
      "brand": "ASK Italian",
      "brand:wikidata": "Q4807056",
      "brand:wikipedia": "en:ASK Italian",
      "cuisine": "italian",
      "name": "ASK Italian"
    }
  },
  "amenity/restaurant|Amici's East Coast Pizzeria": {
    "locationSet": {"include": ["us"]},
    "tags": {
      "amenity": "restaurant",
      "brand": "Amici",
      "brand:wikidata": "Q66133409",
      "cuisine": "pizza",
      "name": "Amici"
    }
  },
  "amenity/restaurant|Applebee's": {
    "locationSet": {"include": ["001"]},
    "matchNames": [
      "applebees bar and grill",
      "applebees grill and bar",
      "applebees neighborhood bar and grill"
    ],
    "tags": {
      "amenity": "restaurant",
      "brand": "Applebee's Neighborhood Grill & Bar",
      "brand:wikidata": "Q621532",
      "brand:wikipedia": "en:Applebee's",
      "cuisine": "american",
      "name": "Applebee's",
      "official_name": "Applebee's Neighborhood Grill & Bar"
    }
  },
  "amenity/restaurant|Arooga's": {
    "locationSet": {"include": ["us"]},
    "tags": {
      "amenity": "restaurant",
      "brand": "Arooga's",
      "brand:wikidata": "Q72963322",
      "cuisine": "american",
      "name": "Arooga's",
      "official_name": "Arooga's Grille House and Sports Bar"
    }
  },
  "amenity/restaurant|Au Bureau": {
    "locationSet": {"include": ["fr"]},
    "tags": {
      "amenity": "restaurant",
      "brand": "Au Bureau",
      "cuisine": "french;american;european",
      "name": "Au Bureau"
    }
  },
  "amenity/restaurant|Autogrill": {
    "locationSet": {
      "include": ["at", "es", "fr", "it"]
    },
    "tags": {
      "amenity": "restaurant",
      "brand": "Autogrill",
      "brand:wikidata": "Q786790",
      "brand:wikipedia": "en:Autogrill",
      "cuisine": "italian;regional",
      "name": "Autogrill"
    }
  },
  "amenity/restaurant|BBB": {
    "locationSet": {"include": ["il"]},
    "tags": {
      "alt_name": "Burgus Burger Bar",
      "alt_name:en": "Burgus Burger Bar",
      "amenity": "restaurant",
      "brand": "Burgus Burger Bar",
      "brand:en": "Burgus Burger Bar",
      "brand:wikidata": "Q64760094",
      "cuisine": "burger",
      "name": "BBB",
      "name:en": "BBB"
    }
  },
  "amenity/restaurant|BJ's": {
    "locationSet": {"include": ["us"]},
    "tags": {
      "amenity": "restaurant",
      "brand": "BJ's",
      "brand:wikidata": "Q4835755",
      "brand:wikipedia": "en:BJ's Restaurants",
      "cuisine": "american",
      "name": "BJ's",
      "official_name": "BJ's Restaurant & Brewhouse"
    }
  },
  "amenity/restaurant|Bella Italia": {
    "locationSet": {"include": ["gb"]},
    "tags": {
      "amenity": "restaurant",
      "brand": "Bella Italia",
      "brand:wikidata": "Q4883362",
      "brand:wikipedia": "en:Bella Italia",
      "cuisine": "italian",
      "name": "Bella Italia"
    }
  },
  "amenity/restaurant|Benihana": {
    "locationSet": {
      "include": [
        "aw",
        "br",
        "ca",
        "pa",
        "sv",
        "us"
      ]
    },
    "matchNames": ["benihana of tokyo"],
    "tags": {
      "amenity": "restaurant",
      "brand": "Benihana",
      "brand:wikidata": "Q4887996",
      "brand:wikipedia": "en:Benihana",
      "cuisine": "japanese;teppanyaki;steak",
      "name": "Benihana"
    }
  },
  "amenity/restaurant|Bertucci's": {
    "locationSet": {"include": ["us"]},
    "tags": {
      "amenity": "restaurant",
      "brand": "Bertucci's",
      "brand:wikidata": "Q4895917",
      "brand:wikipedia": "en:Bertucci's",
      "cuisine": "pizza;italian",
      "name": "Bertucci's"
    }
  },
  "amenity/restaurant|Big Boy": {
    "locationSet": {"include": ["001"]},
    "tags": {
      "amenity": "restaurant",
      "brand": "Big Boy",
      "brand:wikidata": "Q4386779",
      "brand:wikipedia": "en:Big Boy Restaurants",
      "cuisine": "burger",
      "name": "Big Boy",
      "official_name": "Big Boy Restaurant & Bakery"
    }
  },
  "amenity/restaurant|Bill's": {
    "locationSet": {"include": ["gb"]},
    "matchTags": ["amenity/bar", "amenity/pub"],
    "tags": {
      "amenity": "restaurant",
      "brand": "Bill's",
      "brand:wikidata": "Q47012702",
      "brand:wikipedia": "en:Bill's",
      "cuisine": "british",
      "name": "Bill's"
    }
  },
  "amenity/restaurant|Black": {
    "locationSet": {"include": ["il"]},
    "tags": {
      "amenity": "restaurant",
      "brand": "Black Bar Burger",
      "brand:en": "Black Bar Burger",
      "brand:he": "בלאק בורגר",
      "brand:wikidata": "Q64760158",
      "cuisine": "burger",
      "name": "Black",
      "name:en": "Black",
      "name:he": "בלאק"
    }
  },
  "amenity/restaurant|Black Angus": {
    "locationSet": {"include": ["us"]},
    "tags": {
      "amenity": "restaurant",
      "brand": "Black Angus",
      "brand:wikidata": "Q4920269",
      "brand:wikipedia": "en:Black Angus Steakhouse",
      "cuisine": "steakhouse",
      "name": "Black Angus"
    }
  },
  "amenity/restaurant|Black Bear Diner": {
    "locationSet": {"include": ["us"]},
    "tags": {
      "amenity": "restaurant",
      "brand": "Black Bear Diner",
      "brand:wikidata": "Q4920343",
      "brand:wikipedia": "en:Black Bear Diner",
      "cuisine": "american",
      "name": "Black Bear Diner"
    }
  },
  "amenity/restaurant|Blaze Pizza": {
    "locationSet": {
      "include": ["bh", "ca", "kw", "sa", "us"]
    },
    "tags": {
      "amenity": "restaurant",
      "brand": "Blaze Pizza",
      "brand:wikidata": "Q23016666",
      "brand:wikipedia": "en:Blaze Pizza",
      "cuisine": "pizza",
      "name": "Blaze Pizza"
    }
  },
  "amenity/restaurant|Bob Evans": {
    "locationSet": {"include": ["us"]},
    "tags": {
      "amenity": "restaurant",
      "brand": "Bob Evans",
      "brand:wikidata": "Q4932386",
      "brand:wikipedia": "en:Bob Evans Restaurants",
      "cuisine": "american",
      "name": "Bob Evans"
    }
  },
  "amenity/restaurant|Bonanza Steakhouse": {
    "locationSet": {"include": ["us"]},
    "matchNames": ["bonanza"],
    "tags": {
      "amenity": "restaurant",
      "brand": "Bonanza Steakhouse",
      "brand:wikidata": "Q64045992",
      "cuisine": "american;steak;buffet",
      "name": "Bonanza Steakhouse"
    }
  },
  "amenity/restaurant|Bonchon Chicken": {
    "locationSet": {
      "include": [
        "bh",
        "kh",
        "kr",
        "kw",
        "my",
        "ph",
        "sg",
        "th",
        "us"
      ]
    },
    "tags": {
      "amenity": "restaurant",
      "brand": "Bonchon Chicken",
      "brand:wikidata": "Q4941248",
      "brand:wikipedia": "en:Bonchon Chicken",
      "cuisine": "chicken;korean;sushi",
      "name": "Bonchon Chicken"
    }
  },
  "amenity/restaurant|Bonefish Grill": {
    "locationSet": {"include": ["us"]},
    "tags": {
      "amenity": "restaurant",
      "brand": "Bonefish Grill",
      "brand:wikidata": "Q4941599",
      "brand:wikipedia": "en:Bonefish Grill",
      "cuisine": "seafood",
      "name": "Bonefish Grill"
    }
  },
  "amenity/restaurant|Boston Pizza": {
    "locationSet": {"include": ["ca", "us"]},
    "tags": {
      "amenity": "restaurant",
      "brand": "Boston Pizza",
      "brand:wikidata": "Q894578",
      "brand:wikipedia": "en:Boston Pizza",
      "cuisine": "pizza",
      "name": "Boston Pizza"
    }
  },
  "amenity/restaurant|Bravo": {
    "locationSet": {"include": ["us"]},
    "nomatch": ["shop/supermarket|Bravo"],
    "tags": {
      "alt_name": "Bravo Cucina Italiana",
      "amenity": "restaurant",
      "brand": "Bravo",
      "brand:wikidata": "Q64055574",
      "cuisine": "italian",
      "name": "Bravo"
    }
  },
  "amenity/restaurant|Brewers Fayre": {
    "locationSet": {"include": ["gb"]},
    "matchTags": ["amenity/pub"],
    "tags": {
      "amenity": "restaurant",
      "brand": "Brewers Fayre",
      "brand:wikidata": "Q4962678",
      "brand:wikipedia": "en:Brewers Fayre",
      "cuisine": "british",
      "name": "Brewers Fayre"
    }
  },
  "amenity/restaurant|Brio": {
    "locationSet": {"include": ["us"]},
    "tags": {
      "alt_name": "Brio Tuscan Grille",
      "amenity": "restaurant",
      "brand": "Brio",
      "brand:wikidata": "Q64055835",
      "cuisine": "italian",
      "name": "Brio"
    }
  },
  "amenity/restaurant|Bubba Gump Shrimp Company": {
    "locationSet": {
      "include": [
        "ca",
        "co",
        "gb",
        "hk",
        "id",
        "jp",
        "mp",
        "mx",
        "ph",
        "us"
      ]
    },
    "tags": {
      "amenity": "restaurant",
      "brand": "Bubba Gump Shrimp Company",
      "brand:wikidata": "Q50024",
      "brand:wikipedia": "en:Bubba Gump Shrimp Company",
      "cuisine": "seafood",
      "name": "Bubba Gump Shrimp Company"
    }
  },
  "amenity/restaurant|Buca di Beppo": {
    "locationSet": {"include": ["us"]},
    "tags": {
      "amenity": "restaurant",
      "brand": "Buca di Beppo",
      "brand:wikidata": "Q4982340",
      "brand:wikipedia": "en:Buca di Beppo",
      "cuisine": "italian",
      "name": "Buca di Beppo"
    }
  },
  "amenity/restaurant|Bucking Bull": {
    "locationSet": {"include": ["au"]},
    "tags": {
      "amenity": "restaurant",
      "brand": "Bucking Bull",
      "brand:wikidata": "Q18208286",
      "brand:wikipedia": "en:Bucking Bull",
      "cuisine": "steak_house",
      "name": "Bucking Bull"
    }
  },
  "amenity/restaurant|Buffalo Grill": {
    "locationSet": {"include": ["es", "fr"]},
    "tags": {
      "amenity": "restaurant",
      "brand": "Buffalo Grill",
      "brand:wikidata": "Q944655",
      "brand:wikipedia": "en:Buffalo Grill",
      "cuisine": "steak_house",
      "name": "Buffalo Grill"
    }
  },
  "amenity/restaurant|Buffalo Wild Wings": {
    "locationSet": {"include": ["001"]},
    "tags": {
      "amenity": "restaurant",
      "brand": "Buffalo Wild Wings",
      "brand:wikidata": "Q509255",
      "brand:wikipedia": "en:Buffalo Wild Wings",
      "cuisine": "wings",
      "name": "Buffalo Wild Wings"
    }
  },
  "amenity/restaurant|Buffalo Wings & Rings": {
    "locationSet": {"include": ["us"]},
    "tags": {
      "amenity": "restaurant",
      "brand": "Buffalo Wings & Rings",
      "brand:wikidata": "Q4985900",
      "brand:wikipedia": "en:Buffalo Wings & Rings",
      "cuisine": "wings",
      "name": "Buffalo Wings & Rings",
      "takeaway": "yes"
    }
  },
  "amenity/restaurant|Byron": {
    "locationSet": {"include": ["gb"]},
    "tags": {
      "amenity": "restaurant",
      "brand": "Byron",
      "brand:wikidata": "Q16828673",
      "brand:wikipedia": "en:Byron Hamburgers",
      "cuisine": "burger",
      "name": "Byron"
    }
  },
  "amenity/restaurant|Cafe Rio": {
    "locationSet": {"include": ["us"]},
    "tags": {
      "amenity": "restaurant",
      "brand": "Cafe Rio",
      "brand:wikidata": "Q5017108",
      "brand:wikipedia": "en:Cafe Rio",
      "cuisine": "mexican",
      "name": "Cafe Rio"
    }
  },
  "amenity/restaurant|Café Rouge": {
    "locationSet": {"include": ["gb"]},
    "tags": {
      "amenity": "restaurant",
      "brand": "Café Rouge",
      "brand:wikidata": "Q5017261",
      "brand:wikipedia": "en:Café Rouge",
      "cuisine": "french",
      "name": "Café Rouge"
    }
  },
  "amenity/restaurant|California Pizza Kitchen": {
    "locationSet": {"include": ["001"]},
    "tags": {
      "amenity": "restaurant",
      "brand": "California Pizza Kitchen",
      "brand:wikidata": "Q15109854",
      "brand:wikipedia": "en:California Pizza Kitchen",
      "cuisine": "pizza",
      "name": "California Pizza Kitchen"
    }
  },
  "amenity/restaurant|Campanile": {
    "locationSet": {
      "include": ["fr", "gb", "nl"]
    },
    "tags": {
      "amenity": "restaurant",
      "brand": "Campanile",
      "brand:wikidata": "Q2412064",
      "brand:wikipedia": "fr:Campanile (chaîne d'hôtels)",
      "cuisine": "french",
      "name": "Campanile"
    }
  },
  "amenity/restaurant|Carluccio's": {
    "locationSet": {"include": ["gb"]},
    "tags": {
      "amenity": "restaurant",
      "brand": "Carluccio's",
      "brand:wikidata": "Q25111797",
      "brand:wikipedia": "en:Carluccio's Ltd",
      "cuisine": "italian",
      "name": "Carluccio's"
    }
  },
  "amenity/restaurant|Carrabba's Italian Grill": {
    "locationSet": {"include": ["us"]},
    "tags": {
      "amenity": "restaurant",
      "brand": "Carrabba's Italian Grill",
      "brand:wikidata": "Q5045999",
      "brand:wikipedia": "en:Carrabba's Italian Grill",
      "cuisine": "italian",
      "name": "Carrabba's Italian Grill"
    }
  },
  "amenity/restaurant|Cheddar's": {
    "locationSet": {"include": ["us"]},
    "tags": {
      "amenity": "restaurant",
      "brand": "Cheddar's",
      "brand:wikidata": "Q5089187",
      "brand:wikipedia": "en:Cheddar's Scratch Kitchen",
      "cuisine": "american",
      "name": "Cheddar's",
      "official_name": "Cheddar's Scratch Kitchen"
    }
  },
  "amenity/restaurant|Cheeburger Cheeburger": {
    "locationSet": {
      "include": ["ca", "sa", "us"]
    },
    "tags": {
      "amenity": "restaurant",
      "brand": "Cheeburger Cheeburger",
      "brand:wikidata": "Q5089247",
      "brand:wikipedia": "en:Cheeburger Cheeburger",
      "cuisine": "burger",
      "name": "Cheeburger Cheeburger"
    }
  },
  "amenity/restaurant|Chevys": {
    "locationSet": {"include": ["us"]},
    "tags": {
      "amenity": "restaurant",
      "brand": "Chevys Fresh Mex",
      "brand:wikidata": "Q5094466",
      "brand:wikipedia": "en:Chevys Fresh Mex",
      "cuisine": "mexican",
      "name": "Chevys",
      "official_name": "Chevys Fresh Mex"
    }
  },
  "amenity/restaurant|Chili's": {
    "locationSet": {"include": ["001"]},
    "tags": {
      "amenity": "restaurant",
      "brand": "Chili's",
      "brand:wikidata": "Q1072948",
      "brand:wikipedia": "en:Chili's",
      "cuisine": "tex-mex",
      "name": "Chili's",
      "official_name": "Chili's Grill & Bar"
    }
  },
  "amenity/restaurant|Chiquito": {
    "locationSet": {"include": ["gb"]},
    "tags": {
      "amenity": "restaurant",
      "brand": "Chiquito",
      "brand:wikidata": "Q5101775",
      "brand:wikipedia": "en:Chiquito (restaurant)",
      "cuisine": "tex-mex",
      "name": "Chiquito"
    }
  },
  "amenity/restaurant|Chopped Leaf": {
    "locationSet": {"include": ["001"]},
    "tags": {
      "amenity": "restaurant",
      "brand": "Chopped Leaf",
      "cuisine": "salad",
      "name": "Chopped Leaf"
    }
  },
  "amenity/restaurant|Chuck E. Cheese's": {
    "locationSet": {"include": ["ca", "us"]},
    "matchNames": ["chuck e cheese"],
    "matchTags": ["leisure/amusement_arcade"],
    "tags": {
      "amenity": "restaurant",
      "brand": "Chuck E. Cheese's",
      "brand:wikidata": "Q2438391",
      "brand:wikipedia": "en:Chuck E. Cheese's",
      "cuisine": "pizza",
      "leisure": "amusement_arcade",
      "name": "Chuck E. Cheese's"
    }
  },
  "amenity/restaurant|Chuy's": {
    "locationSet": {"include": ["us"]},
    "tags": {
      "amenity": "restaurant",
      "brand": "Chuy's",
      "brand:wikidata": "Q5118415",
      "brand:wikipedia": "en:Chuy's",
      "cuisine": "tex-mex",
      "name": "Chuy's"
    }
  },
  "amenity/restaurant|Cici's Pizza": {
    "locationSet": {"include": ["us"]},
    "tags": {
      "amenity": "restaurant",
      "brand": "Cici's Pizza",
      "brand:wikidata": "Q2972189",
      "brand:wikipedia": "en:Cicis",
      "cuisine": "pizza;buffet",
      "name": "Cici's Pizza"
    }
  },
  "amenity/restaurant|Claim Jumper": {
    "locationSet": {"include": ["us"]},
    "tags": {
      "amenity": "restaurant",
      "brand": "Claim Jumper",
      "brand:wikidata": "Q5125081",
      "brand:wikipedia": "en:Claim Jumper",
      "cuisine": "american",
      "name": "Claim Jumper"
    }
  },
  "amenity/restaurant|Coast to Coast": {
    "locationSet": {"include": ["gb"]},
    "tags": {
      "amenity": "restaurant",
      "brand": "Coast to Coast",
      "brand:wikidata": "Q22000729",
      "brand:wikipedia": "en:Coast to Coast (restaurant)",
      "cuisine": "american",
      "name": "Coast to Coast"
    }
  },
  "amenity/restaurant|Coop Restaurant": {
    "locationSet": {"include": ["001"]},
    "tags": {
      "amenity": "restaurant",
      "brand": "Coop Restaurant",
      "name": "Coop Restaurant"
    }
  },
  "amenity/restaurant|Copeland's": {
    "locationSet": {"include": ["us"]},
    "tags": {
      "amenity": "restaurant",
      "brand": "Copeland's",
      "brand:wikidata": "Q5168346",
      "brand:wikipedia": "en:Copeland's",
      "cuisine": "american",
      "name": "Copeland's"
    }
  },
  "amenity/restaurant|Cora~(Quebec)": {
    "locationSet": {"include": ["ca"]},
    "nomatch": [
      "amenity/restaurant|Cora~(non-Quebec)",
      "shop/supermarket|Cora"
    ],
    "tags": {
      "amenity": "restaurant",
      "brand": "Cora",
      "brand:wikidata": "Q2996960",
      "brand:wikipedia": "fr:Cora (chaîne de restaurants)",
      "cuisine": "breakfast",
      "name": "Cora"
    }
  },
  "amenity/restaurant|Cora~(non-Quebec)": {
    "locationSet": {"include": ["ca"]},
    "nomatch": [
      "amenity/restaurant|Cora~(Quebec)",
      "shop/supermarket|Cora"
    ],
    "tags": {
      "amenity": "restaurant",
      "brand": "Cora",
      "brand:wikidata": "Q2996960",
      "brand:wikipedia": "en:Cora (restaurant)",
      "cuisine": "breakfast",
      "name": "Cora"
    }
  },
  "amenity/restaurant|Cosmo": {
    "locationSet": {"include": ["gb", "ie"]},
    "nomatch": ["amenity/fuel|Cosmo"],
    "tags": {
      "amenity": "restaurant",
      "brand": "Cosmo",
      "brand:wikidata": "Q5174239",
      "brand:wikipedia": "en:Cosmo (restaurant)",
      "cuisine": "international",
      "name": "Cosmo"
    }
  },
  "amenity/restaurant|Country Pride": {
    "locationSet": {"include": ["us"]},
    "matchNames": ["country pride restaurant"],
    "tags": {
      "amenity": "restaurant",
      "brand": "Country Pride",
      "brand:wikidata": "Q64051992",
      "cuisine": "american",
      "name": "Country Pride"
    }
  },
  "amenity/restaurant|Country Waffles": {
    "locationSet": {"include": ["us"]},
    "tags": {
      "amenity": "restaurant",
      "brand": "Country Waffles",
      "brand:wikidata": "Q86151490",
      "cuisine": "breakfast",
      "name": "Country Waffles"
    }
  },
  "amenity/restaurant|Courtepaille": {
    "locationSet": {"include": ["fr"]},
    "tags": {
      "amenity": "restaurant",
      "brand": "Courtepaille",
      "brand:wikidata": "Q3116688",
      "brand:wikipedia": "fr:Grill Courtepaille",
      "cuisine": "french",
      "name": "Courtepaille"
    }
  },
  "amenity/restaurant|Cracker Barrel": {
    "locationSet": {"include": ["us"]},
    "nomatch": ["shop/gift|Cracker Barrel"],
    "tags": {
      "amenity": "restaurant",
      "brand": "Cracker Barrel",
      "brand:wikidata": "Q4492609",
      "brand:wikipedia": "en:Cracker Barrel",
      "cuisine": "american",
      "name": "Cracker Barrel",
      "official_name": "Cracker Barrel Old Country Store"
    }
  },
  "amenity/restaurant|Côte Brasserie": {
    "locationSet": {"include": ["gb"]},
    "tags": {
      "amenity": "restaurant",
      "brand": "Côte Brasserie",
      "brand:wikidata": "Q48699908",
      "brand:wikipedia": "en:Côte",
      "cuisine": "french",
      "name": "Côte Brasserie"
    }
  },
  "amenity/restaurant|Dave & Buster's": {
    "locationSet": {"include": ["us"]},
    "matchTags": ["leisure/amusement_arcade"],
    "tags": {
      "amenity": "restaurant",
      "brand": "Dave & Buster's",
      "brand:wikidata": "Q5228205",
      "brand:wikipedia": "en:Dave & Buster's",
      "cuisine": "american",
      "leisure": "amusement_arcade",
      "name": "Dave & Buster's"
    }
  },
  "amenity/restaurant|Denny's": {
    "locationSet": {"include": ["001"]},
    "tags": {
      "amenity": "restaurant",
      "brand": "Denny's",
      "brand:wikidata": "Q1189695",
      "brand:wikipedia": "en:Denny's",
      "cuisine": "american",
      "name": "Denny's"
    }
  },
  "amenity/restaurant|Dickey's Barbecue Pit": {
    "locationSet": {"include": ["us"]},
    "matchNames": ["dickeys barbecue"],
    "tags": {
      "amenity": "restaurant",
      "brand": "Dickey's Barbecue Pit",
      "brand:wikidata": "Q19880747",
      "brand:wikipedia": "en:Dickey's Barbecue Pit",
      "cuisine": "barbecue",
      "name": "Dickey's Barbecue Pit"
    }
  },
  "amenity/restaurant|Din Tai Fung": {
    "locationSet": {
      "include": [
        "ae",
        "au",
        "gb",
        "hk",
        "id",
        "jp",
        "kr",
        "mo",
        "my",
        "ph",
        "sg",
        "th",
        "tw",
        "us"
      ]
    },
    "tags": {
      "amenity": "restaurant",
      "brand": "Din Tai Fung",
      "brand:wikidata": "Q699142",
      "brand:wikipedia": "en:Din Tai Fung",
      "cuisine": "taiwanese",
      "name": "Din Tai Fung",
      "name:zh": "鼎泰丰"
    }
  },
  "amenity/restaurant|Donatos Pizza": {
    "locationSet": {"include": ["us"]},
    "matchNames": ["donatos"],
    "tags": {
      "amenity": "restaurant",
      "brand": "Donatos Pizza",
      "brand:wikidata": "Q1240741",
      "brand:wikipedia": "en:Donatos Pizza",
      "cuisine": "pizza",
      "name": "Donatos Pizza",
      "takeaway": "yes"
    }
  },
  "amenity/restaurant|East Side Mario's": {
    "locationSet": {"include": ["ca"]},
    "tags": {
      "amenity": "restaurant",
      "brand": "East Side Mario's",
      "brand:wikidata": "Q5329375",
      "brand:wikipedia": "en:East Side Mario's",
      "cuisine": "italian",
      "name": "East Side Mario's"
    }
  },
  "amenity/restaurant|Eat'n Park": {
    "locationSet": {"include": ["us"]},
    "tags": {
      "amenity": "restaurant",
      "brand": "Eat'n Park",
      "brand:wikidata": "Q5331211",
      "brand:wikipedia": "en:Eat'n Park",
      "cuisine": "american",
      "name": "Eat'n Park"
    }
  },
  "amenity/restaurant|Elephant Bar": {
    "locationSet": {"include": ["us"]},
    "tags": {
      "amenity": "restaurant",
      "brand": "Elephant Bar",
      "brand:wikidata": "Q5359302",
      "brand:wikipedia": "en:Elephant Bar",
      "cuisine": "american",
      "name": "Elephant Bar"
    }
  },
  "amenity/restaurant|Famous Dave's": {
    "locationSet": {"include": ["us"]},
    "matchNames": ["famous daves bbq"],
    "tags": {
      "amenity": "restaurant",
      "brand": "Famous Dave's",
      "brand:wikidata": "Q5433448",
      "brand:wikipedia": "en:Famous Dave's",
      "cuisine": "barbecue",
      "name": "Famous Dave's"
    }
  },
  "amenity/restaurant|Fatz": {
    "locationSet": {"include": ["us"]},
    "tags": {
      "amenity": "restaurant",
      "brand": "Fatz",
      "brand:wikidata": "Q5424504",
      "brand:wikipedia": "en:Fatz",
      "cuisine": "american",
      "name": "Fatz"
    }
  },
  "amenity/restaurant|Fernandez": {
    "locationSet": {"include": ["gb"]},
    "tags": {
      "amenity": "restaurant",
      "brand": "Fernandez",
      "cuisine": "steak",
      "name": "Fernandez"
    }
  },
  "amenity/restaurant|First Watch": {
    "locationSet": {"include": ["us"]},
    "tags": {
      "amenity": "restaurant",
      "brand": "First Watch",
      "brand:wikidata": "Q5454064",
      "brand:wikipedia": "en:First Watch (restaurant chain)",
      "cuisine": "american;breakfast",
      "name": "First Watch"
    }
  },
  "amenity/restaurant|Flunch": {
    "locationSet": {"include": ["fr"]},
    "tags": {
      "amenity": "restaurant",
      "brand": "Flunch",
      "brand:wikidata": "Q629326",
      "brand:wikipedia": "en:Flunch",
      "cuisine": "french",
      "name": "Flunch"
    }
  },
  "amenity/restaurant|Foster's Hollywood": {
    "locationSet": {"include": ["es"]},
    "tags": {
      "amenity": "restaurant",
      "brand": "Foster's Hollywood",
      "brand:wikidata": "Q5864366",
      "brand:wikipedia": "en:Foster's Hollywood",
      "cuisine": "american",
      "name": "Foster's Hollywood"
    }
  },
  "amenity/restaurant|Frankie & Benny's": {
    "locationSet": {"include": ["gb"]},
    "tags": {
      "amenity": "restaurant",
      "brand": "Frankie & Benny's",
      "brand:wikidata": "Q5490892",
      "brand:wikipedia": "en:Frankie & Benny's",
      "cuisine": "american",
      "name": "Frankie & Benny's"
    }
  },
  "amenity/restaurant|Freshii": {
    "locationSet": {"include": ["ca", "us"]},
    "tags": {
      "amenity": "restaurant",
      "brand": "Freshii",
      "brand:wikidata": "Q5503051",
      "brand:wikipedia": "en:Freshii",
      "cuisine": "salad",
      "name": "Freshii"
    }
  },
  "amenity/restaurant|Friendly's": {
    "locationSet": {"include": ["us"]},
    "tags": {
      "amenity": "restaurant",
      "brand": "Friendly's",
      "brand:wikidata": "Q1464513",
      "brand:wikipedia": "en:Friendly's",
      "cuisine": "american",
      "name": "Friendly's"
    }
  },
  "amenity/restaurant|Frisch's Big Boy": {
    "locationSet": {"include": ["us"]},
    "tags": {
      "amenity": "restaurant",
      "brand": "Frisch's Big Boy",
      "brand:wikidata": "Q5504660",
      "brand:wikipedia": "en:Frisch's",
      "cuisine": "burger",
      "name": "Frisch's Big Boy",
      "takeaway": "yes"
    }
  },
  "amenity/restaurant|Fuddruckers": {
    "locationSet": {"include": ["001"]},
    "tags": {
      "amenity": "restaurant",
      "brand": "Fuddruckers",
      "brand:wikidata": "Q5507056",
      "brand:wikipedia": "en:Fuddruckers",
      "cuisine": "burger",
      "name": "Fuddruckers"
    }
  },
  "amenity/restaurant|Gatti's Pizza": {
    "locationSet": {"include": ["us"]},
    "tags": {
      "amenity": "restaurant",
      "brand": "Gatti's Pizza",
      "brand:wikidata": "Q5527509",
      "brand:wikipedia": "en:Gatti's Pizza",
      "cuisine": "pizza",
      "name": "Gatti's Pizza"
    }
  },
  "amenity/restaurant|Giordano's Pizzeria": {
    "locationSet": {"include": ["us"]},
    "tags": {
      "amenity": "restaurant",
      "brand": "Giordano's Pizzeria",
      "brand:wikidata": "Q5563393",
      "brand:wikipedia": "en:Giordano's Pizzeria",
      "cuisine": "pizza",
      "name": "Giordano's Pizzeria"
    }
  },
  "amenity/restaurant|Godfather's Pizza": {
    "locationSet": {"include": ["us"]},
    "tags": {
      "amenity": "restaurant",
      "brand": "Godfather's Pizza",
      "brand:wikidata": "Q5576353",
      "brand:wikipedia": "en:Godfather's Pizza",
      "cuisine": "pizza",
      "name": "Godfather's Pizza"
    }
  },
  "amenity/restaurant|Golden Corral": {
    "locationSet": {"include": ["us"]},
    "matchNames": [
      "golden corral buffet",
      "golden corral buffet and grill"
    ],
    "tags": {
      "amenity": "restaurant",
      "brand": "Golden Corral",
      "brand:wikidata": "Q4039560",
      "brand:wikipedia": "en:Golden Corral",
      "cuisine": "american;buffet",
      "name": "Golden Corral"
    }
  },
  "amenity/restaurant|Gourmet Burger Kitchen": {
    "locationSet": {
      "include": ["gb", "gr", "ie"]
    },
    "tags": {
      "amenity": "restaurant",
      "brand": "Gourmet Burger Kitchen",
      "brand:wikidata": "Q5588445",
      "brand:wikipedia": "en:Gourmet Burger Kitchen",
      "cuisine": "burger",
      "name": "Gourmet Burger Kitchen",
      "short_name": "GBK"
    }
  },
  "amenity/restaurant|Grotto Pizza": {
    "locationSet": {"include": ["us"]},
    "tags": {
      "amenity": "restaurant",
      "brand": "Grotto Pizza",
      "brand:wikidata": "Q20709024",
      "brand:wikipedia": "en:Grotto Pizza",
      "cuisine": "pizza",
      "name": "Grotto Pizza"
    }
  },
  "amenity/restaurant|Gusto~(United Kingdom)": {
    "locationSet": {"include": ["gb"]},
    "tags": {
      "amenity": "restaurant",
      "brand": "Gusto",
      "brand:wikidata": "Q66087781",
      "cuisine": "italian",
      "name": "Gusto"
    }
  },
  "amenity/restaurant|Guzman y Gomez": {
    "locationSet": {
      "include": ["au", "jp", "sg"]
    },
    "tags": {
      "amenity": "restaurant",
      "brand": "Guzman y Gomez",
      "brand:wikidata": "Q23019759",
      "brand:wikipedia": "en:Guzman y Gomez",
      "cuisine": "mexican",
      "name": "Guzman y Gomez"
    }
  },
  "amenity/restaurant|Handmade Burger Co.": {
    "locationSet": {"include": ["gb"]},
    "matchNames": ["handmade burger company"],
    "tags": {
      "amenity": "restaurant",
      "brand": "Handmade Burger Co.",
      "brand:wikidata": "Q56154673",
      "brand:wikipedia": "en:Handmade Burger Co",
      "cuisine": "burger",
      "name": "Handmade Burger Co."
    }
  },
  "amenity/restaurant|Hans im Glück": {
    "locationSet": {
      "include": ["at", "ch", "de", "sg"]
    },
    "tags": {
      "amenity": "restaurant",
      "brand": "Hans im Glück",
      "brand:wikidata": "Q22569868",
      "brand:wikipedia": "de:Hans im Glück (Restaurantkette)",
      "cuisine": "burger",
      "name": "Hans im Glück"
    }
  },
  "amenity/restaurant|Happy's Pizza": {
    "locationSet": {"include": ["us"]},
    "tags": {
      "amenity": "restaurant",
      "brand": "Happy's Pizza",
      "brand:wikidata": "Q5652393",
      "brand:wikipedia": "en:Happy's Pizza",
      "cuisine": "pizza",
      "name": "Happy's Pizza"
    }
  },
  "amenity/restaurant|Hard Rock Cafe": {
    "locationSet": {"include": ["001"]},
    "tags": {
      "amenity": "restaurant",
      "brand": "Hard Rock Cafe",
      "brand:wikidata": "Q918151",
      "brand:wikipedia": "en:Hard Rock Cafe",
      "cuisine": "american",
      "name": "Hard Rock Cafe"
    }
  },
  "amenity/restaurant|Harvester": {
    "locationSet": {"include": ["gb"]},
    "matchTags": ["amenity/pub"],
    "tags": {
      "amenity": "restaurant",
      "brand": "Harvester",
      "brand:wikidata": "Q5676915",
      "brand:wikipedia": "en:Harvester (restaurant)",
      "cuisine": "american",
      "name": "Harvester"
    }
  },
  "amenity/restaurant|Hippopotamus": {
    "locationSet": {"include": ["fr"]},
    "tags": {
      "amenity": "restaurant",
      "brand": "Hippopotamus",
      "brand:wikidata": "Q3136174",
      "brand:wikipedia": "fr:Hippopotamus (restaurant)",
      "cuisine": "steak_house",
      "name": "Hippopotamus"
    }
  },
  "amenity/restaurant|Hog's Australia's Steakhouse": {
    "locationSet": {"include": ["au"]},
    "tags": {
      "amenity": "restaurant",
      "brand": "Hog's Australia's Steakhouse",
      "brand:wikidata": "Q5876920",
      "brand:wikipedia": "en:Hog's Australia's Steakhouse",
      "cuisine": "steak_house",
      "name": "Hog's Australia's Steakhouse"
    }
  },
  "amenity/restaurant|Hooters": {
    "locationSet": {"include": ["001"]},
    "tags": {
      "amenity": "restaurant",
      "brand": "Hooters",
      "brand:wikidata": "Q1025921",
      "brand:wikipedia": "en:Hooters",
      "cuisine": "burger",
      "name": "Hooters"
    }
  },
  "amenity/restaurant|House of Blues": {
    "locationSet": {"include": ["001"]},
    "tags": {
      "amenity": "restaurant",
      "brand": "House of Blues",
      "brand:wikidata": "Q648898",
      "brand:wikipedia": "en:House of Blues",
      "cuisine": "american",
      "name": "House of Blues"
    }
  },
  "amenity/restaurant|Huddle House": {
    "locationSet": {"include": ["us"]},
    "tags": {
      "amenity": "restaurant",
      "brand": "Huddle House",
      "brand:wikidata": "Q5928324",
      "brand:wikipedia": "en:Huddle House",
      "cuisine": "american",
      "name": "Huddle House"
    }
  },
  "amenity/restaurant|Husky House": {
    "locationSet": {"include": ["ca"]},
    "nomatch": [
      "amenity/fuel|Husky",
      "shop/convenience|Husky"
    ],
    "tags": {
      "amenity": "restaurant",
      "brand": "Husky",
      "brand:wikidata": "Q702049",
      "brand:wikipedia": "en:Husky Energy",
      "cuisine": "diner",
      "name": "Husky House"
    }
  },
  "amenity/restaurant|IHOP": {
    "locationSet": {"include": ["001"]},
    "matchNames": [
      "international house of pancakes"
    ],
    "tags": {
      "amenity": "restaurant",
      "brand": "IHOP",
      "brand:wikidata": "Q1185675",
      "brand:wikipedia": "en:IHOP",
      "cuisine": "breakfast;pancake",
      "name": "IHOP"
    }
  },
  "amenity/restaurant|IL Патио": {
    "locationSet": {"include": ["ru"]},
    "tags": {
      "amenity": "restaurant",
      "brand": "IL Патио",
      "brand:wikidata": "Q4397763",
      "brand:wikipedia": "en:Росинтер",
      "cuisine": "italian",
      "name": "IL Патио"
    }
  },
  "amenity/restaurant|Iron Skillet": {
    "locationSet": {"include": ["us"]},
    "matchNames": ["iron skillet restaurant"],
    "tags": {
      "amenity": "restaurant",
      "brand": "Iron Skillet",
      "brand:wikidata": "Q64052855",
      "cuisine": "american;buffet",
      "name": "Iron Skillet"
    }
  },
  "amenity/restaurant|Jack Astor's": {
    "locationSet": {"include": ["ca", "us"]},
    "tags": {
      "amenity": "restaurant",
      "brand": "Jack Astor's",
      "brand:wikidata": "Q6111066",
      "brand:wikipedia": "en:Jack Astor's Bar and Grill",
      "cuisine": "american",
      "name": "Jack Astor's"
    }
  },
  "amenity/restaurant|Jason's Deli": {
    "locationSet": {"include": ["us"]},
    "tags": {
      "amenity": "restaurant",
      "brand": "Jason's Deli",
      "brand:wikidata": "Q16997641",
      "brand:wikipedia": "en:Jason's Deli",
      "cuisine": "sandwich",
      "name": "Jason's Deli"
    }
  },
  "amenity/restaurant|Jet's Pizza": {
    "locationSet": {"include": ["us"]},
    "tags": {
      "amenity": "restaurant",
      "brand": "Jet's Pizza",
      "brand:wikidata": "Q16997713",
      "brand:wikipedia": "en:Jet's Pizza",
      "cuisine": "pizza",
      "name": "Jet's Pizza"
    }
  },
  "amenity/restaurant|Jinya Ramen Bar": {
    "locationSet": {"include": ["ca", "us"]},
    "tags": {
      "amenity": "restaurant",
      "brand": "Jinya Ramen Bar",
      "brand:wikidata": "Q16997755",
      "brand:wikipedia": "en:Jinya Ramen Bar",
      "cuisine": "ramen",
      "name": "Jinya Ramen Bar"
    }
  },
  "amenity/restaurant|Joe's Crab Shack": {
    "locationSet": {"include": ["us"]},
    "tags": {
      "amenity": "restaurant",
      "brand": "Joe's Crab Shack",
      "brand:wikidata": "Q6208210",
      "brand:wikipedia": "en:Joe's Crab Shack",
      "cuisine": "seafood",
      "name": "Joe's Crab Shack"
    }
  },
  "amenity/restaurant|Johnny Carino's": {
    "locationSet": {"include": ["us"]},
    "matchNames": ["carinios"],
    "tags": {
      "amenity": "restaurant",
      "brand": "Johnny Carino's",
      "brand:wikidata": "Q5039637",
      "brand:wikipedia": "en:Carino's Italian",
      "cuisine": "italian",
      "name": "Johnny Carino's"
    }
  },
  "amenity/restaurant|Johnny Rockets": {
    "locationSet": {"include": ["001"]},
    "matchNames": ["johnny rocket"],
    "tags": {
      "amenity": "restaurant",
      "brand": "Johnny Rockets",
      "brand:wikidata": "Q1051593",
      "brand:wikipedia": "en:Johnny Rockets",
      "cuisine": "burger",
      "name": "Johnny Rockets"
    }
  },
  "amenity/restaurant|Kelsey's": {
    "locationSet": {"include": ["ca"]},
    "tags": {
      "amenity": "restaurant",
      "brand": "Kelsey's",
      "brand:wikidata": "Q6386459",
      "brand:wikipedia": "en:Kelseys Original Roadhouse",
      "cuisine": "american",
      "name": "Kelsey's"
    }
  },
  "amenity/restaurant|Kona Grill": {
    "locationSet": {"include": ["us"]},
    "tags": {
      "amenity": "restaurant",
      "brand": "Kona Grill",
      "brand:wikidata": "Q6428706",
      "brand:wikipedia": "en:Kona Grill",
      "cuisine": "sushi;cocktails",
      "name": "Kona Grill"
    }
  },
  "amenity/restaurant|L'Atelier": {
    "locationSet": {"include": ["001"]},
    "tags": {
      "amenity": "restaurant",
      "brand": "L'Atelier",
      "cuisine": "french",
      "name": "L'Atelier"
    }
  },
  "amenity/restaurant|L'Osteria": {
    "locationSet": {
      "include": [
        "at",
        "ch",
        "cz",
        "de",
        "fr",
        "gb",
        "nl"
      ]
    },
    "tags": {
      "amenity": "restaurant",
      "brand": "L'Osteria",
      "brand:wikidata": "Q17323478",
      "brand:wikipedia": "de:L’Osteria",
      "cuisine": "italian",
      "name": "L'Osteria"
    }
  },
  "amenity/restaurant|La Boucherie": {
    "locationSet": {"include": ["fr"]},
    "tags": {
      "amenity": "restaurant",
      "brand": "La Boucherie",
      "brand:wikidata": "Q21427479",
      "brand:wikipedia": "fr:La Boucherie (restaurant)",
      "cuisine": "steak_house",
      "name": "La Boucherie"
    }
  },
  "amenity/restaurant|La Cage": {
    "locationSet": {"include": ["ca"]},
    "matchNames": ["la cage aux sports"],
    "tags": {
      "amenity": "restaurant",
      "brand": "La Cage",
      "brand:wikidata": "Q3206980",
      "brand:wikipedia": "fr:La Cage aux Sports",
      "cuisine": "burger;chicken;sandwich;fish;pasta",
      "name": "La Cage"
    }
  },
  "amenity/restaurant|LaRosa's Pizzeria": {
    "locationSet": {"include": ["us"]},
    "tags": {
      "amenity": "restaurant",
      "brand": "LaRosa's Pizzeria",
      "brand:wikidata": "Q6460833",
      "brand:wikipedia": "en:LaRosa's Pizzeria",
      "cuisine": "pizza",
      "name": "LaRosa's Pizzeria",
      "takeaway": "yes"
    }
  },
  "amenity/restaurant|Ledo Pizza": {
    "locationSet": {"include": ["us"]},
    "tags": {
      "amenity": "restaurant",
      "brand": "Ledo Pizza",
      "brand:wikidata": "Q6512734",
      "brand:wikipedia": "en:Ledo Pizza",
      "cuisine": "pizza;pasta",
      "name": "Ledo Pizza"
    }
  },
  "amenity/restaurant|Legal Sea Foods": {
    "locationSet": {"include": ["us"]},
    "tags": {
      "amenity": "restaurant",
      "brand": "Legal Sea Foods",
      "brand:wikidata": "Q6517417",
      "brand:wikipedia": "en:Legal Sea Foods",
      "cuisine": "seafood",
      "name": "Legal Sea Foods"
    }
  },
  "amenity/restaurant|Les 3 Brasseurs~(Qc,Br,Fr)": {
    "locationSet": {
      "include": ["br", "ca", "fr"]
    },
    "matchNames": ["3 brasseurs"],
    "tags": {
      "amenity": "restaurant",
      "brand": "3 Brasseurs",
      "brand:wikidata": "Q3230326",
      "brand:wikipedia": "fr:Les 3 Brasseurs",
      "cuisine": "burger;pizza;seafood",
      "name": "3 Brasseurs",
      "name:en": "3 Brewers",
      "official_name": "Les 3 Brasseurs"
    }
  },
  "amenity/restaurant|Logan's Roadhouse": {
    "locationSet": {"include": ["us"]},
    "tags": {
      "amenity": "restaurant",
      "brand": "Logan's Roadhouse",
      "brand:wikidata": "Q6666872",
      "brand:wikipedia": "en:Logan's Roadhouse",
      "cuisine": "american",
      "name": "Logan's Roadhouse"
    }
  },
  "amenity/restaurant|LongHorn Steakhouse": {
    "locationSet": {"include": ["us"]},
    "tags": {
      "amenity": "restaurant",
      "brand": "LongHorn Steakhouse",
      "brand:wikidata": "Q3259007",
      "brand:wikipedia": "en:LongHorn Steakhouse",
      "cuisine": "steak_house",
      "name": "LongHorn Steakhouse"
    }
  },
  "amenity/restaurant|Lou Malnati's Pizzeria": {
    "locationSet": {"include": ["us"]},
    "tags": {
      "amenity": "restaurant",
      "brand": "Lou Malnati's Pizzeria",
      "brand:wikidata": "Q6685628",
      "brand:wikipedia": "en:Lou Malnati's Pizzeria",
      "cuisine": "pizza",
      "name": "Lou Malnati's Pizzeria"
    }
  },
  "amenity/restaurant|Loving Hut": {
    "locationSet": {"include": ["001"]},
    "tags": {
      "amenity": "restaurant",
      "brand": "Loving Hut",
      "brand:wikidata": "Q3491655",
      "brand:wikipedia": "en:Loving Hut",
      "cuisine": "international",
      "diet:vegan": "only",
      "diet:vegetarian": "only",
      "name": "Loving Hut"
    }
  },
  "amenity/restaurant|Luby's": {
    "locationSet": {"include": ["us"]},
    "tags": {
      "amenity": "restaurant",
      "brand": "Luby's",
      "brand:wikidata": "Q6695701",
      "brand:wikipedia": "en:Luby's",
      "cuisine": "american",
      "name": "Luby's"
    }
  },
  "amenity/restaurant|Léon de Bruxelles": {
    "locationSet": {"include": ["fr"]},
    "tags": {
      "amenity": "restaurant",
      "brand": "Léon de Bruxelles",
      "brand:wikidata": "Q21041507",
      "brand:wikipedia": "en:Léon de Bruxelles",
      "cuisine": "friture",
      "name": "Léon de Bruxelles"
    }
  },
  "amenity/restaurant|MK Restaurants": {
    "locationSet": {"include": ["th"]},
    "tags": {
      "amenity": "restaurant",
      "brand": "MK Restaurants",
      "brand:wikidata": "Q62075359",
      "cuisine": "thai",
      "name": "MK Restaurants"
    }
  },
  "amenity/restaurant|Mad Mex Fresh Mexican": {
    "locationSet": {"include": ["au", "nz"]},
    "tags": {
      "amenity": "restaurant",
      "brand": "Mad Mex Fresh Mexican Grill",
      "brand:wikidata": "Q19589766",
      "brand:wikipedia": "en:Mad Mex Fresh Mexican Grill",
      "cuisine": "mexican",
      "name": "Mad Mex Fresh Mexican Grill"
    }
  },
  "amenity/restaurant|Maquis Restaurant": {
    "locationSet": {"include": ["001"]},
    "tags": {
      "amenity": "restaurant",
      "brand": "Maquis Restaurant",
      "name": "Maquis Restaurant"
    }
  },
  "amenity/restaurant|Marco's Pizza": {
    "locationSet": {"include": ["us"]},
    "tags": {
      "amenity": "restaurant",
      "brand": "Marco's Pizza",
      "brand:wikidata": "Q6757382",
      "brand:wikipedia": "en:Marco's Pizza",
      "cuisine": "pizza",
      "name": "Marco's Pizza"
    }
  },
  "amenity/restaurant|Marie Callender's": {
    "locationSet": {"include": ["mx", "us"]},
    "matchNames": [
      "marie calendar",
      "marie calendar's",
      "marie callendar's"
    ],
    "tags": {
      "amenity": "restaurant",
      "brand": "Marie Callender's",
      "brand:wikidata": "Q6762784",
      "brand:wikipedia": "en:Marie Callender's",
      "cuisine": "american",
      "name": "Marie Callender's"
    }
  },
  "amenity/restaurant|Max's Restaurant": {
    "locationSet": {"include": ["ph"]},
    "matchNames": ["max's"],
    "tags": {
      "amenity": "restaurant",
      "brand": "Max's Restaurant",
      "brand:wikidata": "Q6794477",
      "brand:wikipedia": "en:Max's Restaurant",
      "cuisine": "asian",
      "name": "Max's Restaurant"
    }
  },
  "amenity/restaurant|McAlister's Deli": {
    "locationSet": {"include": ["us"]},
    "tags": {
      "amenity": "restaurant",
      "brand": "McAlister's Deli",
      "brand:wikidata": "Q17020829",
      "brand:wikipedia": "en:McAlister's Deli",
      "cuisine": "sandwich",
      "name": "McAlister's Deli"
    }
  },
  "amenity/restaurant|McCormick & Schmick's": {
    "locationSet": {"include": ["us"]},
    "matchNames": [
      "mccormick and schmick",
      "mccormick and schmicks grill"
    ],
    "tags": {
      "amenity": "restaurant",
      "brand": "McCormick & Schmick's",
      "brand:wikidata": "Q6800562",
      "brand:wikipedia": "en:McCormick & Schmick's",
      "cuisine": "seafood;steak",
      "name": "McCormick & Schmick's"
    }
  },
  "amenity/restaurant|Mellow Mushroom": {
    "locationSet": {"include": ["us"]},
    "tags": {
      "amenity": "restaurant",
      "brand": "Mellow Mushroom",
      "brand:wikidata": "Q17021360",
      "brand:wikipedia": "en:Mellow Mushroom",
      "cuisine": "pizza",
      "name": "Mellow Mushroom"
    }
  },
  "amenity/restaurant|Migros Restaurant": {
    "locationSet": {"include": ["001"]},
    "tags": {
      "amenity": "restaurant",
      "brand": "Migros Restaurant",
      "cuisine": "international",
      "name": "Migros Restaurant"
    }
  },
  "amenity/restaurant|Mikes": {
    "locationSet": {"include": ["ca"]},
    "tags": {
      "amenity": "restaurant",
      "brand": "Mikes",
      "brand:wikidata": "Q3313615",
      "brand:wikipedia": "fr:Mikes",
      "cuisine": "pizza;pasta;sandwich",
      "name": "Mikes"
    }
  },
  "amenity/restaurant|Miller & Carter": {
    "locationSet": {"include": ["gb"]},
    "tags": {
      "amenity": "restaurant",
      "brand": "Miller & Carter",
      "brand:wikidata": "Q87067401",
      "cuisine": "steak",
      "name": "Miller & Carter"
    }
  },
  "amenity/restaurant|Mimi's Cafe": {
    "locationSet": {"include": ["us"]},
    "tags": {
      "amenity": "restaurant",
      "brand": "Mimi's Cafe",
      "brand:wikidata": "Q17022081",
      "brand:wikipedia": "en:Mimi's Cafe",
      "cuisine": "french",
      "name": "Mimi's Cafe"
    }
  },
  "amenity/restaurant|Montana's": {
    "locationSet": {"include": ["ca"]},
    "tags": {
      "amenity": "restaurant",
      "brand": "Montana's",
      "brand:wikidata": "Q17022490",
      "brand:wikipedia": "en:Montana's BBQ & Bar",
      "cuisine": "barbecue",
      "name": "Montana's",
      "official_name": "Montana's BBQ & Bar"
    }
  },
  "amenity/restaurant|Morton's The Steakhouse": {
    "locationSet": {"include": ["us"]},
    "matchNames": ["mortons"],
    "tags": {
      "amenity": "restaurant",
      "brand": "Morton's The Steakhouse",
      "brand:wikidata": "Q17022759",
      "brand:wikipedia": "en:Morton's The Steakhouse",
      "cuisine": "steak_house",
      "name": "Morton's The Steakhouse"
    }
  },
  "amenity/restaurant|Moses": {
    "locationSet": {"include": ["il"]},
    "tags": {
      "amenity": "restaurant",
      "brand": "Moses",
      "brand:en": "Moses",
      "brand:he": "מוזס",
      "brand:wikidata": "Q64760150",
      "cuisine": "burger",
      "name": "Moses",
      "name:en": "Moses",
      "name:he": "מוזס"
    }
  },
  "amenity/restaurant|Mountain Mike's": {
    "locationSet": {"include": ["us"]},
    "tags": {
      "alt_name": "Mountain Mike's Pizza",
      "amenity": "restaurant",
      "brand": "Mountain Mike's",
      "brand:wikidata": "Q6925120",
      "brand:wikipedia": "en:Mountain Mike's Pizza",
      "cuisine": "pizza",
      "name": "Mountain Mike's",
      "takeaway": "yes"
    }
  },
  "amenity/restaurant|Mr. Greek": {
    "locationSet": {"include": ["ca"]},
    "tags": {
      "amenity": "restaurant",
      "brand": "Mr. Greek",
      "brand:wikidata": "Q6928719",
      "brand:wikipedia": "en:Mr. Greek",
      "cuisine": "greek",
      "name": "Mr. Greek"
    }
  },
  "amenity/restaurant|Nando's": {
    "locationSet": {"include": ["001"]},
    "tags": {
      "amenity": "restaurant",
      "brand": "Nando's",
      "brand:wikidata": "Q3472954",
      "brand:wikipedia": "en:Nando's",
      "cuisine": "chicken;portuguese",
      "name": "Nando's"
    }
  },
  "amenity/restaurant|Noodles & Company": {
    "locationSet": {"include": ["us"]},
    "matchNames": [
      "noodles and co",
      "noodles co",
      "noodles company"
    ],
    "tags": {
      "amenity": "restaurant",
      "brand": "Noodles & Company",
      "brand:wikidata": "Q7049673",
      "brand:wikipedia": "en:Noodles & Company",
      "cuisine": "pasta",
      "name": "Noodles & Company"
    }
  },
  "amenity/restaurant|Norky's": {
    "locationSet": {"include": ["pe"]},
    "tags": {
      "amenity": "restaurant",
      "brand": "Norky's",
      "cuisine": "peruvian",
      "name": "Norky's"
    }
  },
  "amenity/restaurant|O'Charley's": {
    "locationSet": {"include": ["us"]},
    "tags": {
      "amenity": "restaurant",
      "brand": "O'Charley's",
      "brand:wikidata": "Q7071703",
      "brand:wikipedia": "en:O'Charley's",
      "cuisine": "american",
      "name": "O'Charley's"
    }
  },
  "amenity/restaurant|Ocean Basket": {
    "locationSet": {"include": ["za"]},
    "tags": {
      "amenity": "restaurant",
      "brand": "Ocean Basket",
      "brand:wikidata": "Q62075311",
      "cuisine": "seafood",
      "name": "Ocean Basket"
    }
  },
  "amenity/restaurant|Old Chicago": {
    "locationSet": {"include": ["us"]},
    "tags": {
      "amenity": "restaurant",
      "brand": "Old Chicago",
      "brand:wikidata": "Q64411347",
      "cuisine": "pizza",
      "name": "Old Chicago",
      "official_name": "Old Chicago Pizza & Taproom"
    }
  },
  "amenity/restaurant|Old Country Buffet": {
    "locationSet": {"include": ["us"]},
    "tags": {
      "amenity": "restaurant",
      "brand": "Old Country Buffet",
      "brand:wikidata": "Q75243208",
      "cuisine": "american",
      "name": "Old Country Buffet"
    }
  },
  "amenity/restaurant|Old Wild West": {
    "locationSet": {"include": ["it"]},
    "tags": {
      "amenity": "restaurant",
      "brand": "Old Wild West",
      "brand:wikidata": "Q25402475",
      "brand:wikipedia": "it:Old Wild West",
      "cuisine": "american",
      "name": "Old Wild West"
    }
  },
  "amenity/restaurant|Olive Garden": {
    "locationSet": {"include": ["001"]},
    "tags": {
      "amenity": "restaurant",
      "brand": "Olive Garden",
      "brand:wikidata": "Q3045312",
      "brand:wikipedia": "en:Olive Garden",
      "cuisine": "italian",
      "name": "Olive Garden"
    }
  },
  "amenity/restaurant|On The Border": {
    "locationSet": {"include": ["us"]},
    "tags": {
      "amenity": "restaurant",
      "brand": "On The Border",
      "brand:wikidata": "Q7091305",
      "brand:wikipedia": "en:On the Border Mexican Grill & Cantina",
      "cuisine": "tex-mex",
      "name": "On The Border",
      "official_name": "On The Border Mexican Grill & Cantina"
    }
  },
  "amenity/restaurant|Osmow's": {
    "locationSet": {"include": ["ca"]},
    "tags": {
      "amenity": "restaurant",
      "brand": "Osmow's",
      "name": "Osmow's"
    }
  },
  "amenity/restaurant|Outback Steakhouse": {
    "locationSet": {"include": ["001"]},
    "tags": {
      "amenity": "restaurant",
      "brand": "Outback Steakhouse",
      "brand:wikidata": "Q1064893",
      "brand:wikipedia": "en:Outback Steakhouse",
      "cuisine": "american;steak",
      "name": "Outback Steakhouse"
    }
  },
  "amenity/restaurant|P.F. Chang's": {
    "locationSet": {"include": ["mx", "us"]},
    "matchNames": ["pf chang"],
    "tags": {
      "amenity": "restaurant",
      "brand": "P.F. Chang's",
      "brand:wikidata": "Q5360181",
      "brand:wikipedia": "en:P. F. Chang's China Bistro",
      "cuisine": "asian",
      "name": "P.F. Chang's",
      "official_name": "P.F. Chang's China Bistro"
    }
  },
  "amenity/restaurant|Papa Gino's": {
    "locationSet": {"include": ["us"]},
    "tags": {
      "amenity": "restaurant",
      "brand": "Papa Gino's",
      "brand:wikidata": "Q7132333",
      "brand:wikipedia": "en:Papa Gino's",
      "cuisine": "pizza",
      "name": "Papa Gino's"
    }
  },
  "amenity/restaurant|PappaRich": {
    "locationSet": {"include": ["001"]},
    "tags": {
      "amenity": "restaurant",
      "brand": "PappaRich",
      "brand:wikidata": "Q95721282",
      "brand:wikipedia": "ms:PappaRich",
      "cuisine": "malaysian",
      "name": "PappaRich"
    }
  },
  "amenity/restaurant|Pardos Chicken": {
    "locationSet": {"include": ["pe"]},
    "tags": {
      "amenity": "restaurant",
      "brand": "Pardos Chicken",
      "brand:wikidata": "Q17624435",
      "brand:wikipedia": "en:Pardos chicken",
      "cuisine": "peruvian",
      "name": "Pardos Chicken"
    }
  },
  "amenity/restaurant|Pei Wei": {
    "locationSet": {"include": ["us"]},
    "matchNames": ["pei wei asian diner"],
    "tags": {
      "amenity": "restaurant",
      "brand": "Pei Wei",
      "brand:wikidata": "Q7160898",
      "brand:wikipedia": "en:Pei Wei Asian Diner",
      "cuisine": "asian",
      "name": "Pei Wei"
    }
  },
  "amenity/restaurant|Pepper Lunch": {
    "locationSet": {"include": ["001"]},
    "matchNames": ["ペッパーランチ"],
    "tags": {
      "amenity": "restaurant",
      "brand": "Pepper Lunch",
      "brand:wikidata": "Q1016072",
      "brand:wikipedia": "en:Pepper Lunch",
      "cuisine": "steak",
      "name": "Pepper Lunch"
    }
  },
  "amenity/restaurant|Perkins": {
    "locationSet": {"include": ["us"]},
    "tags": {
      "amenity": "restaurant",
      "brand": "Perkins",
      "brand:wikidata": "Q7169056",
      "brand:wikipedia": "en:Perkins Restaurant and Bakery",
      "cuisine": "american",
      "name": "Perkins",
      "official_name": "Perkins Restaurant and Bakery"
    }
  },
  "amenity/restaurant|Peter Pane": {
    "locationSet": {"include": ["at", "de"]},
    "tags": {
      "amenity": "restaurant",
      "brand": "Peter Pane",
      "brand:wikidata": "Q66084419",
      "cuisine": "burger",
      "name": "Peter Pane"
    }
  },
  "amenity/restaurant|Peter Piper Pizza": {
    "locationSet": {"include": ["us"]},
    "tags": {
      "amenity": "restaurant",
      "brand": "Peter Piper Pizza",
      "brand:wikidata": "Q7176401",
      "cuisine": "pizza",
      "name": "Peter Piper Pizza"
    }
  },
  "amenity/restaurant|Phở 24": {
    "locationSet": {"include": ["vn"]},
    "tags": {
      "amenity": "restaurant",
      "brand": "Phở 24",
      "brand:wikidata": "Q63863118",
      "cuisine": "vietnamese;noodle",
      "name": "Phở 24",
      "name:en": "Pho 24",
      "name:vi": "Phở 24"
    }
  },
  "amenity/restaurant|Phở Hòa": {
    "locationSet": {
      "include": [
        "ca",
        "id",
        "kr",
        "ms",
        "ph",
        "tw",
        "us"
      ]
    },
    "tags": {
      "alt_name": "Phở Hoà",
      "alt_name:en": "Pho Hoa",
      "alt_name:vi": "Phở Hoà",
      "amenity": "restaurant",
      "brand": "Phở Hòa",
      "brand:wikidata": "Q55629932",
      "brand:wikipedia": "en:Phở Hòa",
      "cuisine": "vietnamese;noodle",
      "name": "Phở Hòa",
      "name:vi": "Phở Hòa"
    }
  },
  "amenity/restaurant|Pieology Pizzeria": {
    "locationSet": {"include": ["us"]},
    "matchNames": ["pieology"],
    "tags": {
      "amenity": "restaurant",
      "brand": "Pieology Pizzeria",
      "brand:wikidata": "Q60746053",
      "brand:wikipedia": "en:Pieology",
      "cuisine": "pizza",
      "name": "Pieology Pizzeria"
    }
  },
  "amenity/restaurant|Pizza Delight": {
    "locationSet": {"include": ["ca"]},
    "tags": {
      "amenity": "restaurant",
      "brand": "Pizza Delight",
      "brand:wikidata": "Q3389502",
      "brand:wikipedia": "en:Pizza Delight",
      "cuisine": "pizza",
      "name": "Pizza Delight"
    }
  },
  "amenity/restaurant|Pizza Factory": {
    "locationSet": {"include": ["us"]},
    "tags": {
      "amenity": "restaurant",
      "brand": "Pizza Factory",
      "brand:wikidata": "Q39054369",
      "brand:wikipedia": "en:Pizza Factory",
      "cuisine": "pizza",
      "name": "Pizza Factory"
    }
  },
  "amenity/restaurant|Pizza Hut": {
    "locationSet": {"include": ["001"]},
    "nomatch": [
      "amenity/fast_food|Pizza Hut Express"
    ],
    "tags": {
      "amenity": "restaurant",
      "brand": "Pizza Hut",
      "brand:wikidata": "Q191615",
      "brand:wikipedia": "en:Pizza Hut",
      "cuisine": "pizza",
      "name": "Pizza Hut"
    }
  },
  "amenity/restaurant|Pizza Paï": {
    "locationSet": {"include": ["fr"]},
    "nomatch": ["amenity/fast_food|Pizza Paï"],
    "tags": {
      "amenity": "restaurant",
      "brand": "Pizza Paï",
      "brand:wikidata": "Q3389501",
      "brand:wikipedia": "fr:PizzaPai",
      "cuisine": "pizza",
      "name": "Pizza Paï"
    }
  },
  "amenity/restaurant|Pizza Ranch": {
    "locationSet": {"include": ["us"]},
    "tags": {
      "amenity": "restaurant",
      "brand": "Pizza Ranch",
      "brand:wikidata": "Q7199978",
      "brand:wikipedia": "en:Pizza Ranch",
      "cuisine": "pizza",
      "name": "Pizza Ranch"
    }
  },
  "amenity/restaurant|Pizza Roma": {
    "locationSet": {"include": ["001"]},
    "tags": {
      "amenity": "restaurant",
      "brand": "Pizza Roma",
      "cuisine": "pizza",
      "name": "Pizza Roma"
    }
  },
  "amenity/restaurant|PizzaExpress": {
    "locationSet": {"include": ["001"]},
    "tags": {
      "amenity": "restaurant",
      "brand": "PizzaExpress",
      "brand:wikidata": "Q662845",
      "brand:wikipedia": "en:PizzaExpress",
      "cuisine": "pizza",
      "name": "PizzaExpress"
    }
  },
  "amenity/restaurant|Poivre Rouge": {
    "locationSet": {"include": ["fr"]},
    "tags": {
      "amenity": "restaurant",
      "brand": "Poivre Rouge",
      "brand:wikidata": "Q7316076",
      "brand:wikipedia": "fr:Poivre Rouge (restauration)",
      "cuisine": "french",
      "name": "Poivre Rouge"
    }
  },
  "amenity/restaurant|Ponderosa Steakhouse": {
    "locationSet": {
      "include": ["ae", "eg", "qa", "tw", "us"]
    },
    "matchNames": ["ponderosa"],
    "tags": {
      "amenity": "restaurant",
      "brand": "Ponderosa Steakhouse",
      "brand:wikidata": "Q64038204",
      "cuisine": "american;steak;buffet",
      "name": "Ponderosa Steakhouse"
    }
  },
  "amenity/restaurant|Prezzo": {
    "locationSet": {"include": ["gb"]},
    "tags": {
      "amenity": "restaurant",
      "brand": "Prezzo",
      "brand:wikidata": "Q7242489",
      "brand:wikipedia": "en:Prezzo (restaurant)",
      "cuisine": "italian",
      "name": "Prezzo"
    }
  },
  "amenity/restaurant|Primavera": {
    "locationSet": {"include": ["001"]},
    "tags": {
      "amenity": "restaurant",
      "brand": "Primavera",
      "name": "Primavera"
    }
  },
  "amenity/restaurant|Quaker Steak & Lube": {
    "locationSet": {"include": ["us"]},
    "tags": {
      "amenity": "restaurant",
      "brand": "Quaker Steak & Lube",
      "brand:wikidata": "Q7268570",
      "brand:wikipedia": "en:Quaker Steak & Lube",
      "cuisine": "wings",
      "name": "Quaker Steak & Lube"
    }
  },
  "amenity/restaurant|Rainforest Cafe": {
    "locationSet": {"include": ["us"]},
    "tags": {
      "amenity": "restaurant",
      "brand": "Rainforest Cafe",
      "brand:wikidata": "Q3391111",
      "brand:wikipedia": "en:Rainforest Cafe",
      "cuisine": "american",
      "name": "Rainforest Cafe"
    }
  },
  "amenity/restaurant|Red Lobster": {
    "locationSet": {"include": ["001"]},
    "tags": {
      "amenity": "restaurant",
      "brand": "Red Lobster",
      "brand:wikidata": "Q846301",
      "brand:wikipedia": "en:Red Lobster",
      "cuisine": "seafood",
      "name": "Red Lobster"
    }
  },
  "amenity/restaurant|Red Robin": {
    "locationSet": {"include": ["ca", "us"]},
    "tags": {
      "amenity": "restaurant",
      "brand": "Red Robin",
      "brand:wikidata": "Q7304886",
      "brand:wikipedia": "en:Red Robin",
      "cuisine": "burger",
      "name": "Red Robin",
      "official_name": "Red Robin Gourmet Burgers and Brews"
    }
  },
  "amenity/restaurant|Ristorante Del Arte": {
    "locationSet": {"include": ["fr"]},
    "tags": {
      "amenity": "restaurant",
      "brand": "Ristorante Del Arte",
      "brand:wikidata": "Q89208262",
      "cuisine": "italian",
      "name": "restaurant"
    }
  },
  "amenity/restaurant|Romano's Macaroni Grill": {
    "locationSet": {"include": ["us"]},
    "tags": {
      "amenity": "restaurant",
      "brand": "Romano's Macaroni Grill",
      "brand:wikidata": "Q7362714",
      "brand:wikipedia": "en:Romano's Macaroni Grill",
      "cuisine": "italian",
      "name": "Romano's Macaroni Grill"
    }
  },
  "amenity/restaurant|Round Table Pizza": {
    "locationSet": {"include": ["us"]},
    "matchNames": ["round table"],
    "tags": {
      "amenity": "restaurant",
      "brand": "Round Table Pizza",
      "brand:wikidata": "Q7371139",
      "brand:wikipedia": "en:Round Table Pizza",
      "cuisine": "pizza",
      "name": "Round Table Pizza"
    }
  },
  "amenity/restaurant|Royal": {
    "locationSet": {"include": ["001"]},
    "tags": {
      "amenity": "restaurant",
      "brand": "Royal",
      "name": "Royal"
    }
  },
  "amenity/restaurant|Ruby Tuesday": {
    "locationSet": {"include": ["001"]},
    "tags": {
      "amenity": "restaurant",
      "brand": "Ruby Tuesday",
      "brand:wikidata": "Q7376400",
      "brand:wikipedia": "en:Ruby Tuesday (restaurant)",
      "cuisine": "american",
      "name": "Ruby Tuesday"
    }
  },
  "amenity/restaurant|Ruth's Chris Steak House": {
    "locationSet": {
      "include": ["ca", "mx", "us"]
    },
    "tags": {
      "amenity": "restaurant",
      "brand": "Ruth's Chris Steak House",
      "brand:wikidata": "Q7382829",
      "brand:wikipedia": "en:Ruth's Chris Steak House",
      "cuisine": "american",
      "name": "Ruth's Chris Steak House"
    }
  },
  "amenity/restaurant|Saltgrass Steak House": {
    "locationSet": {"include": ["us"]},
    "matchNames": ["saltgrass"],
    "tags": {
      "amenity": "restaurant",
      "brand": "Saltgrass Steak House",
      "brand:wikidata": "Q7406113",
      "brand:wikipedia": "en:Saltgrass Steak House",
      "cuisine": "steak_house",
      "name": "Saltgrass Steak House"
    }
  },
  "amenity/restaurant|Sausalitos": {
    "locationSet": {"include": ["de"]},
    "matchTags": ["amenity/bar"],
    "tags": {
      "amenity": "restaurant",
      "brand": "Sausalitos",
      "brand:wikidata": "Q2227783",
      "brand:wikipedia": "de:Sausalitos",
      "cuisine": "mexican",
      "name": "Sausalitos"
    }
  },
  "amenity/restaurant|Scores": {
    "locationSet": {"include": ["ca"]},
    "tags": {
      "amenity": "restaurant",
      "brand": "Scores",
      "brand:wikidata": "Q3476059",
      "brand:wikipedia": "fr:Scores",
      "cuisine": "chicken;barbecue",
      "name": "Scores"
    }
  },
  "amenity/restaurant|Shakey's": {
    "locationSet": {"include": ["001"]},
    "tags": {
      "amenity": "restaurant",
      "brand": "Shakey's",
      "brand:wikidata": "Q6134929",
      "brand:wikipedia": "en:Shakey's Pizza",
      "cuisine": "pizza",
      "name": "Shakey's"
    }
  },
  "amenity/restaurant|Shari's": {
    "locationSet": {"include": ["us"]},
    "tags": {
      "amenity": "restaurant",
      "brand": "Shari's",
      "brand:wikidata": "Q7489612",
      "brand:wikipedia": "en:Shari's Cafe & Pies",
      "cuisine": "american",
      "name": "Shari's"
    }
  },
  "amenity/restaurant|Shingle Inn": {
    "locationSet": {"include": ["au"]},
    "tags": {
      "amenity": "restaurant",
      "brand": "Shingle Inn",
      "brand:wikidata": "Q7497463",
      "brand:wikipedia": "en:Shingle Inn",
      "cuisine": "bakery",
      "name": "Shingle Inn"
    }
  },
  "amenity/restaurant|Shoney's": {
    "locationSet": {"include": ["us"]},
    "tags": {
      "amenity": "restaurant",
      "brand": "Shoney's",
      "brand:wikidata": "Q7500392",
      "brand:wikipedia": "en:Shoney's",
      "cuisine": "american",
      "name": "Shoney's"
    }
  },
  "amenity/restaurant|Sizzler": {
    "locationSet": {"include": ["001"]},
    "tags": {
      "amenity": "restaurant",
      "brand": "Sizzler",
      "brand:wikidata": "Q1848822",
      "brand:wikipedia": "en:Sizzler",
      "cuisine": "steak_house",
      "name": "Sizzler"
    }
  },
  "amenity/restaurant|Skyline Chili": {
    "locationSet": {"include": ["us"]},
    "tags": {
      "amenity": "restaurant",
      "brand": "Skyline Chili",
      "brand:wikidata": "Q151224",
      "brand:wikipedia": "en:Skyline Chili",
      "cuisine": "chili",
      "name": "Skyline Chili",
      "takeaway": "yes"
    }
  },
  "amenity/restaurant|Smitty's": {
    "locationSet": {"include": ["ca", "us"]},
    "tags": {
      "amenity": "restaurant",
      "brand": "Smitty's",
      "brand:wikidata": "Q7545728",
      "brand:wikipedia": "en:Smitty's",
      "cuisine": "pancake",
      "name": "Smitty's"
    }
  },
  "amenity/restaurant|Snappy Tomato Pizza": {
    "locationSet": {"include": ["gb", "us"]},
    "tags": {
      "amenity": "restaurant",
      "brand": "Snappy Tomato Pizza",
      "brand:wikidata": "Q7547352",
      "brand:wikipedia": "en:Snappy Tomato Pizza",
      "cuisine": "pizza",
      "name": "Snappy Tomato Pizza",
      "takeaway": "yes"
    }
  },
  "amenity/restaurant|Sonny's BBQ": {
    "locationSet": {"include": ["us"]},
    "tags": {
      "amenity": "restaurant",
      "brand": "Sonny's BBQ",
      "brand:wikidata": "Q7561989",
      "brand:wikipedia": "en:Sonny's BBQ",
      "cuisine": "bbq",
      "name": "Sonny's BBQ"
    }
  },
  "amenity/restaurant|Spudbar": {
    "locationSet": {"include": ["au"]},
    "tags": {
      "amenity": "restaurant",
      "brand": "Spudbar",
      "brand:wikidata": "Q19589778",
      "brand:wikipedia": "en:Spudbar",
      "cuisine": "baked_potato",
      "name": "Spudbar"
    }
  },
  "amenity/restaurant|Spur": {
    "locationSet": {"include": ["za"]},
    "matchNames": ["spur steak ranches"],
    "tags": {
      "amenity": "restaurant",
      "brand": "Spur",
      "brand:wikidata": "Q7581546",
      "brand:wikipedia": "en:Spur Steak Ranches",
      "cuisine": "steak_house",
      "name": "Spur"
    }
  },
  "amenity/restaurant|St-Hubert": {
    "locationSet": {"include": ["ca"]},
    "nomatch": [
      "amenity/fast_food|St-Hubert Express"
    ],
    "tags": {
      "amenity": "restaurant",
      "brand": "St-Hubert",
      "brand:wikidata": "Q3495225",
      "brand:wikipedia": "fr:St-Hubert (restaurant)",
      "cuisine": "chicken;barbecue",
      "name": "St-Hubert"
    }
  },
  "amenity/restaurant|St. Louis Bar & Grill": {
    "locationSet": {"include": ["ca"]},
    "tags": {
      "amenity": "restaurant",
      "brand": "St. Louis Bar & Grill",
      "brand:wikidata": "Q65567668",
      "cuisine": "chicken",
      "name": "St. Louis Bar & Grill"
    }
  },
  "amenity/restaurant|Stoney River": {
    "locationSet": {"include": ["us"]},
    "tags": {
      "amenity": "restaurant",
      "brand": "Stoney River",
      "brand:wikidata": "Q7619422",
      "brand:wikipedia": "en:Stoney River Legendary Steaks",
      "cuisine": "steak_house",
      "name": "Stoney River"
    }
  },
  "amenity/restaurant|Sunset Grill": {
    "locationSet": {"include": ["ca", "us"]},
    "tags": {
      "amenity": "restaurant",
      "brand": "Sunset Grill",
      "brand:wikidata": "Q62112489",
      "brand:wikipedia": "en:Sunset Grill (Canadian restaurant chain)",
      "cuisine": "american",
      "name": "Sunset Grill"
    }
  },
  "amenity/restaurant|Swiss Chalet": {
    "locationSet": {"include": ["ca"]},
    "tags": {
      "amenity": "restaurant",
      "brand": "Swiss Chalet",
      "brand:wikidata": "Q2372909",
      "brand:wikipedia": "en:Swiss Chalet",
      "cuisine": "chicken",
      "name": "Swiss Chalet"
    }
  },
  "amenity/restaurant|TGI Friday's": {
    "locationSet": {"include": ["001"]},
    "tags": {
      "amenity": "restaurant",
      "brand": "TGI Friday's",
      "brand:wikidata": "Q1524184",
      "brand:wikipedia": "en:TGI Fridays",
      "cuisine": "american",
      "name": "TGI Friday's"
    }
  },
  "amenity/restaurant|Ted's Montana Grill": {
    "locationSet": {"include": ["us"]},
    "tags": {
      "amenity": "restaurant",
      "brand": "Ted's Montana Grill",
      "brand:wikidata": "Q16953170",
      "brand:wikipedia": "en:Ted's Montana Grill",
      "cuisine": "american",
      "name": "Ted's Montana Grill"
    }
  },
  "amenity/restaurant|Tempero Manero": {
    "locationSet": {"include": ["br"]},
    "tags": {
      "amenity": "restaurant",
      "brand": "Tempero Manero",
      "cuisine": "brazilian",
      "name": "Tempero Manero"
    }
  },
  "amenity/restaurant|Texas Roadhouse": {
    "locationSet": {"include": ["us"]},
    "tags": {
      "amenity": "restaurant",
      "brand": "Texas Roadhouse",
      "brand:wikidata": "Q7707945",
      "brand:wikipedia": "en:Texas Roadhouse",
      "cuisine": "steak_house",
      "name": "Texas Roadhouse"
    }
  },
  "amenity/restaurant|The Cheesecake Factory": {
    "locationSet": {"include": ["us"]},
    "tags": {
      "alt_name": "Cheesecake Factory",
      "amenity": "restaurant",
      "brand": "The Cheesecake Factory",
      "brand:wikidata": "Q1045842",
      "brand:wikipedia": "en:The Cheesecake Factory",
      "cuisine": "american",
      "name": "The Cheesecake Factory"
    }
  },
  "amenity/restaurant|The Counter": {
    "locationSet": {"include": ["us"]},
    "tags": {
      "amenity": "restaurant",
      "brand": "The Counter",
      "brand:wikidata": "Q7727763",
      "brand:wikipedia": "en:The Counter",
      "cuisine": "burger",
      "name": "The Counter"
    }
  },
  "amenity/restaurant|The Keg": {
    "locationSet": {"include": ["ca", "us"]},
    "matchNames": ["keg"],
    "tags": {
      "amenity": "restaurant",
      "brand": "The Keg",
      "brand:wikidata": "Q7744066",
      "brand:wikipedia": "en:The Keg",
      "cuisine": "steak_house",
      "name": "The Keg"
    }
  },
  "amenity/restaurant|The Melting Pot": {
    "locationSet": {"include": ["us"]},
    "tags": {
      "alt_name": "Melting Pot",
      "amenity": "restaurant",
      "brand": "The Melting Pot",
      "brand:wikidata": "Q7750948",
      "brand:wikipedia": "en:The Melting Pot (restaurant)",
      "cuisine": "fondue",
      "name": "The Melting Pot"
    }
  },
  "amenity/restaurant|The Original Pancake House": {
    "locationSet": {
      "include": ["jp", "kr", "us"]
    },
    "matchNames": ["original pancake house"],
    "tags": {
      "amenity": "restaurant",
      "brand": "The Original Pancake House",
      "brand:wikidata": "Q7755384",
      "brand:wikipedia": "en:The Original Pancake House",
      "cuisine": "breakfast;pancake",
      "name": "The Original Pancake House"
    }
  },
  "amenity/restaurant|Tijuana Flats": {
    "locationSet": {"include": ["us"]},
    "tags": {
      "amenity": "restaurant",
      "brand": "Tijuana Flats",
      "brand:wikidata": "Q7801833",
      "brand:wikipedia": "en:Tijuana Flats",
      "cuisine": "mexican",
      "name": "Tijuana Flats"
    }
  },
  "amenity/restaurant|Tinseltown": {
    "locationSet": {"include": ["gb"]},
    "tags": {
      "amenity": "restaurant",
      "brand": "Tinseltown",
      "cuisine": "american",
      "name": "Tinseltown"
    }
  },
  "amenity/restaurant|Toby Carvery": {
    "locationSet": {"include": ["gb"]},
    "matchTags": ["amenity/pub"],
    "tags": {
      "amenity": "restaurant",
      "brand": "Toby Carvery",
      "brand:wikidata": "Q7811777",
      "brand:wikipedia": "en:Toby Carvery",
      "cuisine": "british",
      "name": "Toby Carvery"
    }
  },
  "amenity/restaurant|Toks": {
    "locationSet": {"include": ["mx"]},
    "tags": {
      "amenity": "restaurant",
      "brand": "Toks",
      "brand:wikidata": "Q48835586",
      "brand:wikipedia": "en:Toks",
      "cuisine": "mexican",
      "name": "Toks"
    }
  },
  "amenity/restaurant|Tony Roma's": {
    "locationSet": {"include": ["001"]},
    "matchNames": ["tony roma"],
    "tags": {
      "amenity": "restaurant",
      "brand": "Tony Roma's",
      "brand:wikidata": "Q2213883",
      "brand:wikipedia": "en:Tony Roma's",
      "cuisine": "barbecue",
      "name": "Tony Roma's"
    }
  },
  "amenity/restaurant|Topper's Pizza~(Canada)": {
    "locationSet": {"include": ["ca"]},
    "tags": {
      "amenity": "restaurant",
      "brand": "Topper's Pizza",
      "brand:wikidata": "Q7825105",
      "brand:wikipedia": "en:Topper's Pizza (Canadian restaurant)",
      "cuisine": "pizza",
      "name": "Topper's Pizza"
    }
  },
  "amenity/restaurant|Toppers Pizza~(USA)": {
    "locationSet": {"include": ["us"]},
    "tags": {
      "amenity": "restaurant",
      "brand": "Toppers Pizza",
      "brand:wikidata": "Q7825113",
      "brand:wikipedia": "en:Toppers Pizza (American restaurant)",
      "cuisine": "pizza",
      "name": "Toppers Pizza"
    }
  },
  "amenity/restaurant|Unos": {
    "locationSet": {"include": ["001"]},
    "tags": {
      "amenity": "restaurant",
      "brand": "Unos",
      "brand:wikidata": "Q7897209",
      "brand:wikipedia": "en:Uno Pizzeria & Grill",
      "cuisine": "pizza",
      "name": "Unos"
    }
  },
  "amenity/restaurant|Vapiano": {
    "locationSet": {"include": ["001"]},
    "tags": {
      "amenity": "restaurant",
      "brand": "Vapiano",
      "brand:wikidata": "Q506252",
      "brand:wikipedia": "en:Vapiano",
      "cuisine": "italian",
      "name": "Vapiano"
    }
  },
  "amenity/restaurant|Victoria": {
    "locationSet": {"include": ["001"]},
    "tags": {
      "amenity": "restaurant",
      "brand": "Victoria",
      "name": "Victoria"
    }
  },
  "amenity/restaurant|Village Inn": {
    "locationSet": {"include": ["us"]},
    "tags": {
      "amenity": "restaurant",
      "brand": "Village Inn",
      "brand:wikidata": "Q7930659",
      "brand:wikipedia": "en:Village Inn",
      "cuisine": "american",
      "name": "Village Inn"
    }
  },
  "amenity/restaurant|Vips~(Asia)": {
    "locationSet": {"include": ["cn", "kr"]},
    "tags": {
      "amenity": "restaurant",
      "brand": "Vips",
      "brand:wikidata": "Q12599540",
      "brand:wikipedia": "ko:빕스",
      "cuisine": "salad;steak_house",
      "name": "Vips"
    }
  },
  "amenity/restaurant|Vips~(Mexico)": {
    "locationSet": {"include": ["mx"]},
    "tags": {
      "amenity": "restaurant",
      "brand": "Vips",
      "brand:wikidata": "Q48783378",
      "brand:wikipedia": "es:Vips",
      "cuisine": "mexican",
      "name": "Vips"
    }
  },
  "amenity/restaurant|Vips~(Spain)": {
    "locationSet": {"include": ["es"]},
    "tags": {
      "amenity": "restaurant",
      "brand": "Vips",
      "brand:wikidata": "Q66087862",
      "cuisine": "international",
      "name": "Vips"
    }
  },
  "amenity/restaurant|Waffle House": {
    "locationSet": {"include": ["us"]},
    "tags": {
      "amenity": "restaurant",
      "brand": "Waffle House",
      "brand:wikidata": "Q1701206",
      "brand:wikipedia": "en:Waffle House",
      "cuisine": "american",
      "name": "Waffle House",
      "opening_hours": "24/7"
    }
  },
  "amenity/restaurant|Wagamama": {
    "locationSet": {"include": ["001"]},
    "tags": {
      "amenity": "restaurant",
      "brand": "Wagamama",
      "brand:wikidata": "Q503715",
      "brand:wikipedia": "en:Wagamama",
      "cuisine": "asian",
      "name": "Wagamama"
    }
  },
  "amenity/restaurant|Wasabi": {
    "locationSet": {"include": ["001"]},
    "tags": {
      "amenity": "restaurant",
      "brand": "Wasabi",
      "brand:wikidata": "Q23891278",
      "brand:wikipedia": "en:Wasabi (restaurant)",
      "cuisine": "japanese",
      "name": "Wasabi"
    }
  },
  "amenity/restaurant|Western Sizzlin'": {
    "locationSet": {"include": ["us"]},
    "matchNames": ["western sizzling"],
    "tags": {
      "amenity": "restaurant",
      "brand": "Western Sizzlin'",
      "brand:wikidata": "Q7988295",
      "brand:wikipedia": "en:Western Sizzlin'",
      "cuisine": "american;steak",
      "name": "Western Sizzlin'"
    }
  },
  "amenity/restaurant|White Spot": {
    "locationSet": {"include": ["ca"]},
    "tags": {
      "amenity": "restaurant",
      "brand": "White Spot",
      "brand:wikidata": "Q7995414",
      "brand:wikipedia": "en:White Spot",
      "cuisine": "burger",
      "name": "White Spot"
    }
  },
  "amenity/restaurant|Wild Wing": {
    "locationSet": {"include": ["ca"]},
    "tags": {
      "amenity": "restaurant",
      "brand": "Wild Wing",
      "brand:wikidata": "Q8000869",
      "brand:wikipedia": "en:Wild Wing Restaurants",
      "cuisine": "chicken",
      "name": "Wild Wing"
    }
  },
  "amenity/restaurant|Wildwood": {
    "locationSet": {"include": ["gb"]},
    "tags": {
      "amenity": "restaurant",
      "brand": "Wildwood",
      "brand:wikidata": "Q85300869",
      "cuisine": "grill;pasta;pizza",
      "name": "Wildwood"
    }
  },
  "amenity/restaurant|YO! Sushi": {
    "locationSet": {"include": ["gb"]},
    "tags": {
      "amenity": "restaurant",
      "brand": "YO! Sushi",
      "brand:wikidata": "Q3105441",
      "brand:wikipedia": "en:YO! Sushi",
      "cuisine": "sushi",
      "name": "YO! Sushi"
    }
  },
  "amenity/restaurant|Yard House": {
    "locationSet": {"include": ["us"]},
    "tags": {
      "alcohol": "yes",
      "amenity": "restaurant",
      "brand": "Yard House",
      "brand:wikidata": "Q21189156",
      "brand:wikipedia": "en:Yard House",
      "cuisine": "american",
      "name": "Yard House"
    }
  },
  "amenity/restaurant|Zambrero": {
    "locationSet": {
      "include": ["au", "ie", "nl", "th", "us"]
    },
    "tags": {
      "amenity": "restaurant",
      "brand": "Zambrero",
      "brand:wikidata": "Q18636431",
      "brand:wikipedia": "en:Zambrero",
      "cuisine": "mexican",
      "name": "Zambrero"
    }
  },
  "amenity/restaurant|Zizzi": {
    "locationSet": {"include": ["gb"]},
    "tags": {
      "amenity": "restaurant",
      "brand": "Zizzi",
      "brand:wikidata": "Q8072944",
      "brand:wikipedia": "en:Zizzi",
      "cuisine": "italian",
      "name": "Zizzi"
    }
  },
  "amenity/restaurant|bd's Mongolian Grill": {
    "locationSet": {"include": ["mn", "us"]},
    "matchNames": ["bd mongolian grill"],
    "tags": {
      "amenity": "restaurant",
      "brand": "bd's Mongolian Grill",
      "brand:wikidata": "Q69890408",
      "cuisine": "mongolian_bbq",
      "name": "bd's Mongolian Grill"
    }
  },
  "amenity/restaurant|dean&david": {
    "locationSet": {
      "include": ["at", "ch", "de", "lu", "qa"]
    },
    "tags": {
      "amenity": "restaurant",
      "brand": "dean&david",
      "brand:wikidata": "Q66132404",
      "cuisine": "salad;sandwich",
      "name": "dean&david"
    }
  },
  "amenity/restaurant|Евразия~(Russia)": {
    "locationSet": {"include": ["ru"]},
    "tags": {
      "amenity": "restaurant",
      "brand": "Евразия",
      "brand:wikidata": "Q66087936",
      "cuisine": "international",
      "name": "Евразия"
    }
  },
  "amenity/restaurant|Евразия~(Ukraine)": {
    "locationSet": {"include": ["ua"]},
    "matchNames": ["євразія"],
    "tags": {
      "amenity": "restaurant",
      "brand": "Євразія",
      "brand:ru": "Евразия",
      "brand:ua": "Євразія",
      "brand:wikidata": "Q66088028",
      "cuisine": "western;japanese",
      "name": "Євразія",
      "name:ru": "Евразия",
      "name:ua": "Євразія"
    }
  },
  "amenity/restaurant|Планета Суши": {
    "locationSet": {"include": ["ru"]},
    "tags": {
      "amenity": "restaurant",
      "brand": "Планета Суши",
      "brand:wikidata": "Q62739250",
      "cuisine": "sushi",
      "name": "Планета Суши",
      "name:en": "Planet Sushi"
    }
  },
  "amenity/restaurant|Тануки": {
    "locationSet": {"include": ["kz", "ru"]},
    "tags": {
      "amenity": "restaurant",
      "brand": "Тануки",
      "brand:wikidata": "Q62758690",
      "cuisine": "japanese",
      "name": "Тануки",
      "name:en": "Tanuki",
      "name:ru": "Тануки"
    }
  },
  "amenity/restaurant|Якитория": {
    "locationSet": {"include": ["ru"]},
    "tags": {
      "amenity": "restaurant",
      "brand": "Якитория",
      "brand:wikidata": "Q66088063",
      "cuisine": "japanese;international",
      "name": "Якитория"
    }
  },
  "amenity/restaurant|בורגר סאלון": {
    "locationSet": {"include": ["il"]},
    "tags": {
      "amenity": "restaurant",
      "brand": "בורגר סאלון",
      "brand:en": "Burger Saloon",
      "brand:he": "בורגר סאלון",
      "brand:wikidata": "Q64760057",
      "cuisine": "burger",
      "name": "בורגר סאלון",
      "name:en": "Burger Saloon",
      "name:he": "בורגר סאלון"
    }
  },
  "amenity/restaurant|あさくま": {
    "locationSet": {"include": ["jp"]},
    "tags": {
      "amenity": "restaurant",
      "brand": "あさくま",
      "brand:en": "Asakuma",
      "brand:ja": "あさくま",
      "brand:wikidata": "Q11257174",
      "brand:wikipedia": "ja:あさくま",
      "cuisine": "steak_house",
      "name": "あさくま",
      "name:en": "Asakuma",
      "name:ja": "あさくま"
    }
  },
  "amenity/restaurant|いきなり！ステーキ": {
    "locationSet": {"include": ["jp"]},
    "tags": {
      "amenity": "restaurant",
      "brand": "いきなり！ステーキ",
      "brand:en": "Ikinari Steak",
      "brand:ja": "いきなり！ステーキ",
      "brand:wikidata": "Q21652405",
      "brand:wikipedia": "ja:いきなり!ステーキ",
      "cuisine": "steak_house",
      "name": "いきなり！ステーキ",
      "name:en": "Ikinari Steak",
      "name:ja": "いきなり！ステーキ"
    }
  },
  "amenity/restaurant|ぎょうざの満洲": {
    "locationSet": {"include": ["jp"]},
    "tags": {
      "amenity": "restaurant",
      "brand": "ぎょうざの満洲",
      "brand:en": "Gyoza no Mansyu",
      "brand:ja": "ぎょうざの満洲",
      "brand:wikidata": "Q11265292",
      "brand:wikipedia": "ja:ぎょうざの満洲",
      "cuisine": "chinese;gyoza",
      "name": "ぎょうざの満洲",
      "name:en": "Gyoza no Mansyu",
      "name:ja": "ぎょうざの満洲"
    }
  },
  "amenity/restaurant|しゃぶ葉": {
    "locationSet": {"include": ["jp"]},
    "tags": {
      "amenity": "restaurant",
      "brand": "しゃぶ葉",
      "brand:ja": "しゃぶ葉",
      "brand:wikidata": "Q87724264",
      "cuisine": "buffet",
      "name": "しゃぶ葉",
      "name:en": "Syabuyo",
      "name:ja": "しゃぶ葉"
    }
  },
  "amenity/restaurant|すたみな太郎": {
    "locationSet": {"include": ["jp"]},
    "tags": {
      "amenity": "restaurant",
      "brand": "すたみな太郎",
      "brand:en": "Stamina Taro",
      "brand:ja": "すたみな太郎",
      "brand:wikidata": "Q11269733",
      "brand:wikipedia": "ja:すたみな太郎",
      "cuisine": "barbecue",
      "name": "すたみな太郎",
      "name:en": "Stamina Taro",
      "name:ja": "すたみな太郎"
    }
  },
  "amenity/restaurant|とんでん": {
    "locationSet": {"include": ["jp"]},
    "tags": {
      "amenity": "restaurant",
      "brand": "とんでん",
      "brand:en": "Tonden",
      "brand:ja": "とんでん",
      "brand:wikidata": "Q11273585",
      "brand:wikipedia": "jp:とんでん",
      "name": "とんでん",
      "name:en": "Tonden",
      "name:ja": "とんでん"
    }
  },
  "amenity/restaurant|はなまるうどん": {
    "locationSet": {"include": ["jp"]},
    "tags": {
      "amenity": "restaurant",
      "brand": "はなまるうどん",
      "brand:en": "Hanamarūdon",
      "brand:ja": "はなまるうどん",
      "brand:wikidata": "Q11275674",
      "brand:wikipedia": "ja:はなまるうどん",
      "cuisine": "japanese;udon",
      "name": "はなまるうどん",
      "name:en": "Hanamarūdon",
      "name:ja": "はなまるうどん"
    }
  },
  "amenity/restaurant|びっくりドンキー": {
    "locationSet": {"include": ["jp"]},
    "tags": {
      "amenity": "restaurant",
      "brand": "びっくりドンキー",
      "brand:en": "Bikkuri Donkey",
      "brand:ja": "びっくりドンキー",
      "brand:wikidata": "Q11276815",
      "brand:wikipedia": "ja:びっくりドンキー",
      "cuisine": "burger",
      "name": "びっくりドンキー",
      "name:en": "Bikkuri Donkey",
      "name:ja": "びっくりドンキー"
    }
  },
  "amenity/restaurant|やよい軒": {
    "locationSet": {"include": ["jp"]},
    "tags": {
      "amenity": "restaurant",
      "brand": "やよい軒",
      "brand:en": "Yayoiken",
      "brand:ja": "やよい軒",
      "brand:wikidata": "Q11280577",
      "brand:wikipedia": "ja:やよい軒",
      "cuisine": "japanese",
      "name": "やよい軒",
      "name:en": "Yayoiken",
      "name:ja": "やよい軒"
    }
  },
  "amenity/restaurant|れんげ食堂": {
    "locationSet": {"include": ["jp"]},
    "tags": {
      "amenity": "restaurant",
      "brand": "れんげ食堂",
      "brand:en": "Renge Shokudo",
      "brand:ja": "れんげ食堂",
      "brand:wikidata": "Q92662226",
      "cuisine": "japanese",
      "name": "れんげ食堂",
      "name:en": "Renge Shokudo",
      "name:ja": "れんげ食堂"
    }
  },
  "amenity/restaurant|カプリチョーザ": {
    "locationSet": {"include": ["jp"]},
    "tags": {
      "amenity": "restaurant",
      "brand": "カプリチョーザ",
      "brand:en": "Capricciosa",
      "brand:ja": "カプリチョーザ",
      "brand:wikidata": "Q11294660",
      "brand:wikipedia": "ja:カプリチョーザ",
      "cuisine": "italian",
      "name": "カプリチョーザ",
      "name:en": "Capricciosa",
      "name:ja": "カプリチョーザ"
    }
  },
  "amenity/restaurant|ガスト": {
    "locationSet": {"include": ["jp"]},
    "nomatch": ["amenity/fast_food|Sガスト"],
    "tags": {
      "amenity": "restaurant",
      "brand": "ガスト",
      "brand:en": "Gusto",
      "brand:ja": "ガスト",
      "brand:wikidata": "Q87724117",
      "cuisine": "western;japanese",
      "name": "ガスト",
      "name:en": "Gusto",
      "name:ja": "ガスト"
    }
  },
  "amenity/restaurant|ココス": {
    "locationSet": {"include": ["jp"]},
    "tags": {
      "amenity": "restaurant",
      "brand": "ココス",
      "brand:en": "Coco's",
      "brand:ja": "ココス",
      "brand:wikidata": "Q11301951",
      "brand:wikipedia": "ja:ココスジャパン",
      "cuisine": "western;japanese",
      "name": "ココス",
      "name:en": "Coco's",
      "name:ja": "ココス"
    }
  },
  "amenity/restaurant|サイゼリヤ": {
    "locationSet": {"include": ["jp"]},
    "tags": {
      "amenity": "restaurant",
      "brand": "サイゼリヤ",
      "brand:en": "Saizeriya",
      "brand:ja": "サイゼリヤ",
      "brand:wikidata": "Q886564",
      "brand:wikipedia": "en:Saizeriya",
      "cuisine": "italian",
      "name": "サイゼリヤ",
      "name:en": "Saizeriya",
      "name:ja": "サイゼリヤ"
    }
  },
  "amenity/restaurant|サガミ": {
    "locationSet": {"include": ["jp"]},
    "tags": {
      "amenity": "restaurant",
      "brand": "サガミ",
      "brand:en": "Sagami",
      "brand:ja": "サガミ",
      "brand:wikidata": "Q11304417",
      "brand:wikipedia": "ja:サガミホールディングス",
      "cuisine": "japanese",
      "name": "サガミ",
      "name:en": "Sagami",
      "name:ja": "サガミ"
    }
  },
  "amenity/restaurant|ジョイフル": {
    "locationSet": {"include": ["jp"]},
    "tags": {
      "amenity": "restaurant",
      "brand": "ジョイフル",
      "brand:en": "Joyfull",
      "brand:ja": "ジョイフル",
      "brand:wikidata": "Q11310517",
      "brand:wikipedia": "ja:ジョイフル",
      "cuisine": "western",
      "name": "ジョイフル",
      "name:en": "Joyfull",
      "name:ja": "ジョイフル"
    }
  },
  "amenity/restaurant|ジョナサン": {
    "locationSet": {"include": ["jp"]},
    "tags": {
      "amenity": "restaurant",
      "brand": "ジョナサン",
      "brand:en": "Jonathan's",
      "brand:ja": "ジョナサン",
      "brand:wikidata": "Q11310628",
      "brand:wikipedia": "ja:ジョナサン (ファミリーレストラン)",
      "cuisine": "italian;japanese",
      "name": "ジョナサン",
      "name:en": "Jonathan's",
      "name:ja": "ジョナサン"
    }
  },
  "amenity/restaurant|ジョリーパスタ": {
    "locationSet": {"include": ["jp"]},
    "tags": {
      "amenity": "restaurant",
      "brand": "ジョリーパスタ",
      "brand:en": "Jolly-Pasta",
      "brand:ja": "ジョリーパスタ",
      "brand:wikidata": "Q10852718",
      "brand:wikipedia": "ja:ジョリーパスタ",
      "cuisine": "pasta",
      "name": "ジョリーパスタ",
      "name:en": "Jolly-Pasta",
      "name:ja": "ジョリーパスタ"
    }
  },
  "amenity/restaurant|ステーキのどん": {
    "locationSet": {"include": ["jp"]},
    "tags": {
      "amenity": "restaurant",
      "brand": "ステーキのどん",
      "brand:en": "Steak Don",
      "brand:ja": "ステーキのどん",
      "brand:wikidata": "Q92770815",
      "cuisine": "steak",
      "name": "ステーキのどん",
      "name:en": "Steak Don",
      "name:ja": "ステーキのどん"
    }
  },
  "amenity/restaurant|ステーキガスト": {
    "locationSet": {"include": ["jp"]},
    "tags": {
      "amenity": "restaurant",
      "brand": "ステーキガスト",
      "brand:en": "Steak Gusto",
      "brand:ja": "ステーキガスト",
      "brand:wikidata": "Q92599119",
      "cuisine": "steak",
      "name": "ステーキガスト",
      "name:en": "Steak Gusto",
      "name:ja": "ステーキガスト"
    }
  },
  "amenity/restaurant|デニーズ": {
    "locationSet": {"include": ["jp"]},
    "tags": {
      "amenity": "restaurant",
      "brand": "デニーズ",
      "brand:en": "Denny's",
      "brand:ja": "デニーズ",
      "brand:wikidata": "Q11320661",
      "brand:wikipedia": "ja:デニーズ (日本)",
      "cuisine": "western;japanese",
      "name": "デニーズ",
      "name:en": "Denny's",
      "name:ja": "デニーズ"
    }
  },
  "amenity/restaurant|バーミヤン": {
    "locationSet": {"include": ["jp"]},
    "tags": {
      "amenity": "restaurant",
      "brand": "バーミヤン",
      "brand:en": "Bamiyan",
      "brand:ja": "バーミヤン",
      "brand:wikidata": "Q11328598",
      "brand:wikipedia": "ja:バーミヤン (レストランチェーン)",
      "cuisine": "chinese",
      "name": "バーミヤン",
      "name:en": "Bamiyan",
      "name:ja": "バーミヤン"
    }
  },
  "amenity/restaurant|ビッグボーイ": {
    "locationSet": {"include": ["jp"]},
    "tags": {
      "amenity": "restaurant",
      "brand": "ビッグボーイ",
      "brand:en": "Big Boy Restaurants",
      "brand:ja": "ビッグボーイ",
      "brand:wikidata": "Q4386779",
      "brand:wikipedia": "en:Big Boy Restaurants",
      "cuisine": "burger",
      "name": "ビッグボーイ",
      "name:en": "Big Boy Restaurants",
      "name:ja": "ビッグボーイ"
    }
  },
  "amenity/restaurant|リンガーハット": {
    "locationSet": {"include": ["jp"]},
    "tags": {
      "amenity": "restaurant",
      "brand": "リンガーハット",
      "brand:en": "Ringer Hut",
      "brand:ja": "リンガーハット",
      "brand:wikidata": "Q7334856",
      "brand:wikipedia": "en:Ringer Hut",
      "cuisine": "japanese",
      "name": "リンガーハット",
      "name:en": "Ringer Hut",
      "name:ja": "リンガーハット"
    }
  },
  "amenity/restaurant|ロイヤルホスト": {
    "locationSet": {"include": ["jp"]},
    "tags": {
      "amenity": "restaurant",
      "brand": "ロイヤルホスト",
      "brand:en": "Royal Host",
      "brand:ja": "ロイヤルホスト",
      "brand:wikidata": "Q11120884",
      "brand:wikipedia": "ja:ロイヤルホスト",
      "cuisine": "japanese;italian;french",
      "name": "ロイヤルホスト",
      "name:en": "Royal Host",
      "name:ja": "ロイヤルホスト"
    }
  },
  "amenity/restaurant|一風堂": {
    "locationSet": {"include": ["jp"]},
    "tags": {
      "amenity": "restaurant",
      "brand": "町田商店",
      "brand:en": "Machida Shouten",
      "brand:ja": "町田商店",
      "brand:wikidata": "Q88318612",
      "cuisine": "noodle",
      "name": "町田商店",
      "name:en": "Machida Shouten",
      "name:ja": "町田商店"
    }
  },
  "amenity/restaurant|三媽臭臭鍋": {
    "locationSet": {"include": ["tw"]},
    "tags": {
      "amenity": "restaurant",
      "brand": "三媽臭臭鍋",
      "cuisine": "taiwanese",
      "name": "三媽臭臭鍋",
      "name:zh": "三媽臭臭鍋"
    }
  },
  "amenity/restaurant|丸亀製麺": {
    "locationSet": {"include": ["jp"]},
    "tags": {
      "amenity": "restaurant",
      "brand": "丸亀製麺",
      "brand:en": "Marugame Seimen",
      "brand:ja": "丸亀製麺",
      "brand:wikidata": "Q10877253",
      "brand:wikipedia": "ja:丸亀製麺",
      "cuisine": "noodle",
      "name": "丸亀製麺",
      "name:en": "Marugame Seimen",
      "name:ja": "丸亀製麺"
    }
  },
  "amenity/restaurant|元気寿司": {
    "locationSet": {"include": ["jp"]},
    "tags": {
      "amenity": "restaurant",
      "brand": "元気寿司",
      "brand:en": "Genki Sushi",
      "brand:ja": "元気寿司",
      "brand:wikidata": "Q5533323",
      "brand:wikipedia": "ja:元気寿司",
      "cuisine": "sushi",
      "name": "元気寿司",
      "name:en": "Genki Sushi",
      "name:ja": "元気寿司"
    }
  },
  "amenity/restaurant|八方雲集": {
    "locationSet": {"include": ["cn", "tw"]},
    "tags": {
      "amenity": "restaurant",
      "brand": "八方雲集",
      "brand:en": "Eight Way",
      "brand:wikidata": "Q28417381",
      "brand:wikipedia": "zh:八方雲集",
      "brand:zh": "八方雲集",
      "cuisine": "chinese",
      "name": "八方雲集",
      "name:en": "Eight Way",
      "name:zh": "八方雲集"
    }
  },
  "amenity/restaurant|和幸": {
    "locationSet": {"include": ["jp"]},
    "tags": {
      "amenity": "restaurant",
      "brand": "和幸",
      "brand:en": "Wako",
      "brand:ja": "和幸",
      "brand:wikidata": "Q11417251",
      "brand:wikipedia": "ja:和幸商事",
      "cuisine": "japanese",
      "name": "和幸",
      "name:en": "Wako",
      "name:ja": "和幸"
    }
  },
  "amenity/restaurant|和食さと": {
    "locationSet": {"include": ["jp"]},
    "matchNames": ["さと"],
    "tags": {
      "amenity": "restaurant",
      "brand": "和食さと",
      "brand:en": "Washoku Sato",
      "brand:ja": "和食さと",
      "brand:wikidata": "Q11304897",
      "brand:wikipedia": "ja:SRSホールディングス",
      "cuisine": "japanese",
      "name": "和食さと",
      "name:en": "Washoku Sato",
      "name:ja": "和食さと"
    }
  },
  "amenity/restaurant|夢庵": {
    "locationSet": {"include": ["jp"]},
    "tags": {
      "amenity": "restaurant",
      "brand": "夢庵",
      "brand:en": "Yumean",
      "brand:ja": "夢庵",
      "brand:wikidata": "Q11253593",
      "brand:wikipedia": "ja:すかいらーく",
      "cuisine": "japanese",
      "name": "夢庵",
      "name:en": "Yumean",
      "name:ja": "夢庵"
    }
  },
  "amenity/restaurant|大戸屋": {
    "locationSet": {"include": ["jp"]},
    "tags": {
      "amenity": "restaurant",
      "brand": "大戸屋",
      "brand:en": "Ootoya",
      "brand:ja": "大戸屋",
      "brand:wikidata": "Q11435522",
      "brand:wikipedia": "ja:大戸屋ホールディングス",
      "cuisine": "japanese",
      "name": "大戸屋",
      "name:en": "Ootoya",
      "name:ja": "大戸屋"
    }
  },
  "amenity/restaurant|大阪王将": {
    "locationSet": {"include": ["jp"]},
    "tags": {
      "amenity": "restaurant",
      "brand": "大阪王将",
      "brand:en": "Osaka Ohsho",
      "brand:ja": "大阪王将",
      "brand:wikidata": "Q48743717",
      "brand:wikipedia": "ja:大阪王将",
      "cuisine": "japanese;chinese",
      "name": "大阪王将",
      "name:en": "Osaka Ohsho",
      "name:ja": "大阪王将"
    }
  },
  "amenity/restaurant|天下一品": {
    "locationSet": {"include": ["jp"]},
    "tags": {
      "amenity": "restaurant",
      "brand": "天下一品",
      "brand:en": "Tenkaippin",
      "brand:wikidata": "Q11442172",
      "brand:wikipedia": "en:Tenkaippin",
      "cuisine": "ramen",
      "name": "天下一品",
      "name:en": "Tenkaippin"
    }
  },
  "amenity/restaurant|安楽亭": {
    "locationSet": {"include": ["jp"]},
    "tags": {
      "amenity": "restaurant",
      "brand": "安楽亭",
      "brand:en": "Anrakutei",
      "brand:wikidata": "Q11450866",
      "brand:wikipedia": "ja:安楽亭",
      "cuisine": "barbecue",
      "name": "安楽亭",
      "name:en": "Anrakutei"
    }
  },
  "amenity/restaurant|弘爺漢堡": {
    "locationSet": {"include": ["tw"]},
    "tags": {
      "amenity": "restaurant",
      "brand": "弘爺漢堡",
      "cuisine": "american;breakfast",
      "name": "弘爺漢堡",
      "name:en": "Hong Ya Hambuger"
    }
  },
  "amenity/restaurant|必胜客": {
    "locationSet": {"include": ["001"]},
    "tags": {
      "amenity": "restaurant",
      "brand": "必胜客",
      "name": "必胜客"
    }
  },
  "amenity/restaurant|木曽路": {
    "locationSet": {"include": ["jp"]},
    "tags": {
      "amenity": "restaurant",
      "brand": "木曽路",
      "brand:en": "Kisoji",
      "brand:ja": "木曽路",
      "brand:wikidata": "Q11518589",
      "brand:wikipedia": "ja:木曽路 (企業)",
      "cuisine": "japanese",
      "name": "木曽路",
      "name:en": "Kisoji",
      "name:ja": "木曽路"
    }
  },
  "amenity/restaurant|永和豆浆": {
    "locationSet": {"include": ["cn"]},
    "tags": {
      "amenity": "restaurant",
      "brand": "永和豆浆",
      "brand:en": "Yonghe Soy Milk",
      "cuisine": "chinese;breakfast",
      "name": "永和豆浆",
      "name:en": "Yonghe Soy Milk"
    }
  },
  "amenity/restaurant|海底捞火锅": {
    "locationSet": {"include": ["cn"]},
    "tags": {
      "amenity": "restaurant",
      "brand": "海底捞火锅",
      "brand:en": "Hai Di Lao Hot Pot",
      "brand:wikidata": "Q5638920",
      "brand:wikipedia": "zh:海底捞",
      "cuisine": "chinese",
      "name": "海底捞火锅",
      "name:en": "Hai Di Lao Hot Pot"
    }
  },
  "amenity/restaurant|牛角": {
    "locationSet": {"include": ["jp"]},
    "tags": {
      "amenity": "restaurant",
      "brand": "牛角",
      "brand:en": "Gyū-Kaku",
      "brand:wikidata": "Q11349387",
      "brand:wikipedia": "en:Gyu-Kaku",
      "cuisine": "barbecue",
      "name": "牛角",
      "name:en": "Gyū-Kaku"
    }
  },
  "amenity/restaurant|華屋与兵衛": {
    "locationSet": {"include": ["jp"]},
    "tags": {
      "amenity": "restaurant",
      "brand": "華屋与兵衛",
      "brand:en": "Hanaya Yohei",
      "brand:ja": "華屋与兵衛",
      "brand:wikidata": "Q11620063",
      "brand:wikipedia": "ja:華屋与兵衛 (レストラン)",
      "cuisine": "japanese",
      "name": "華屋与兵衛",
      "name:en": "Hanaya Yohei",
      "name:ja": "華屋与兵衛"
    }
  },
  "amenity/restaurant|餃子の王将": {
    "locationSet": {"include": ["jp"]},
    "tags": {
      "amenity": "restaurant",
      "brand": "餃子の王将",
      "brand:en": "Gyoza no Ohsho",
      "brand:ja": "餃子の王将",
      "brand:wikidata": "Q11666805",
      "brand:wikipedia": "en:Gyoza no Ohsho",
      "cuisine": "chinese;gyoza",
      "name": "餃子の王将",
      "name:en": "Gyoza no Ohsho",
      "name:ja": "餃子の王将"
    }
  },
  "amenity/restaurant|麥味登": {
    "locationSet": {"include": ["tw"]},
    "tags": {
      "amenity": "restaurant",
      "brand": "麥味登",
      "cuisine": "american;breakfast",
      "name": "麥味登",
      "name:en": "My Warn Day Care & Brunch"
    }
  },
  "amenity/restaurant|바다횟집": {
    "locationSet": {"include": ["kr"]},
    "tags": {
      "amenity": "restaurant",
      "brand": "바다횟집",
      "brand:en": "Bada Fish Restaurant",
      "brand:ko": "바다횟집",
      "cuisine": "fish",
      "name": "바다횟집",
      "name:en": "Bada Fish Restaurant",
      "name:ko": "바다횟집"
    }
  },
  "amenity/restaurant|빕스": {
    "locationSet": {"include": ["kr"]},
    "tags": {
      "amenity": "restaurant",
      "brand": "빕스",
      "brand:en": "Vips",
      "brand:ko": "빕스",
      "brand:wikidata": "Q12599540",
      "brand:wikipedia": "ko:빕스",
      "cuisine": "salad;steak_house",
      "name": "빕스",
      "name:en": "Vips",
      "name:ko": "빕스"
    }
  }
}