{
  "amenity/social_centre|American Legion Hall": {
    "countryCodes": ["us"],
    "matchNames": ["american legion"],
    "tags": {
      "amenity": "social_centre",
      "brand": "American Legion",
      "brand:wikidata": "Q468865",
      "brand:wikipedia": "en:American Legion",
      "name": "American Legion Hall",
      "social_centre:for": "veterans"
    }
  },
  "amenity/social_centre|Eagles Lodge": {
    "countryCodes": ["us"],
    "matchNames": ["aeries", "eagles", "foe"],
    "tags": {
      "alt_name": "Aeries Lodge",
      "amenity": "social_centre",
      "brand": "Fraternal Order of Eagles",
      "brand:wikidata": "Q5493810",
      "brand:wikipedia": "en:Fraternal Order of Eagles",
      "name": "Eagles Lodge",
      "official_name": "Fraternal Order of Eagles"
    }
  },
  "amenity/social_centre|Elks Lodge": {
    "countryCodes": ["us"],
    "matchNames": ["bpoe", "elks"],
    "tags": {
      "amenity": "social_centre",
      "brand": "Benevolent and Protective Order of Elks",
      "brand:wikidata": "Q2895789",
      "brand:wikipedia": "en:Benevolent and Protective Order of Elks",
      "name": "Elks Lodge",
      "official_name": "Benevolent and Protective Order of Elks"
    }
  },
  "amenity/social_centre|Moose Lodge": {
    "countryCodes": ["bm", "ca", "us"],
    "matchNames": ["moose"],
    "tags": {
      "amenity": "social_centre",
      "brand": "Loyal Order of Moose",
      "brand:wikidata": "Q6908585",
      "brand:wikipedia": "en:Loyal Order of Moose",
      "name": "Moose Lodge",
      "official_name": "Loyal Order of Moose"
    }
  },
  "amenity/social_centre|Odd Fellows Hall": {
    "matchNames": [
      "ioof",
      "odd fellow",
      "odd fellows"
    ],
    "tags": {
      "amenity": "social_centre",
      "brand": "Independent Order of Odd Fellows",
      "brand:wikidata": "Q1425508",
      "brand:wikipedia": "en:Independent Order of Odd Fellows",
      "name": "Odd Fellows Hall",
      "official_name": "Independent Order of Odd Fellows"
    }
  },
  "amenity/social_centre|Royal Canadian Legion" : {
    "countrycodes": ["ca"],
    "tags": {
      "amenity": "social_centre",
      "brand": "Royal Canadian Legion",
      "brand:wikidata": "Q3270231",
      "brand:wikipedia": "Royal Canadian Legion"
    }
  },  
  "amenity/social_centre|VFW Post": {
    "countryCodes": [
      "de",
      "jp",
      "kr",
      "ph",
      "th",
      "us"
    ],
    "matchNames": ["vfw"],
    "tags": {
      "amenity": "social_centre",
      "brand": "Veterans of Foreign Wars of the United States",
      "brand:wikidata": "Q3556413",
      "brand:wikipedia": "en:Veterans of Foreign Wars",
      "name": "VFW Post",
      "name:en": "VFW Post",
      "official_name": "Veterans of Foreign Wars of the United States",
      "social_centre:for": "veterans"
    }
  }
}
