{
  "amenity/social_facility|Boys & Girls Club": {
    "countryCodes": ["us"],
    "tags": {
      "amenity": "social_facility",
      "brand": "Boys & Girls Club",
      "brand:wikidata": "Q2923055",
      "brand:wikipedia": "en:Boys & Girls Clubs of America",
      "name": "Boys & Girls Club",
      "social_facility": "outreach",
      "social_facility:for": "children"
    }
  },
  "amenity/social_facility|ONCE": {
    "countryCodes": ["es"],
    "nomatch": ["shop/lottery|ONCE"],
    "tags": {
      "amenity": "social_facility",
      "brand": "ONCE",
      "brand:wikidata": "Q1750397",
      "brand:wikipedia": "es:Organización Nacional de Ciegos Españoles",
      "name": "ONCE",
      "official_name": "Organización Nacional de Ciegos Españoles",
      "social_facility": "outreach",
      "social_facility:for": "blind"
    }
  },
  "amenity/social_facility|Vet Center": {
    "countryCodes": ["us"],
    "tags": {
      "amenity": "social_facility",
      "brand": "VA",
      "brand:wikidata": "Q6580225",
      "brand:wikipedia": "en:Veterans Health Administration",
      "healthcare": "counselling",
      "healthcare:counselling": "psychiatry",
      "healthcare:for": "veterans",
      "name": "Vet Center",
      "social_facility": "healthcare;outreach",
      "social_facility:for": "veterans"
    }
  },
  "amenity/social_facility|ツクイ": {
    "countryCodes": ["jp"],
    "tags": {
      "amenity": "social_facility",
      "brand": "ツクイ",
      "brand:en": "Tsukui",
      "brand:ja": "ツクイ",
      "brand:wikidata": "Q11318724",
      "brand:wikipedia": "ja:ツクイ",
      "name": "ツクイ",
      "name:en": "Tsukui",
      "name:ja": "ツクイ",
      "social_facility": "day_care",
      "social_facility:for": "senior"
    }
  },
  "amenity/social_facility|レコードブック": {
    "countryCodes": ["jp"],
    "tags": {
      "amenity": "social_facility",
      "brand": "レコードブック",
      "brand:en": "Record Book",
      "brand:ja": "レコードブック",
      "brand:wikidata": "Q91915310",
      "name": "レコードブック",
      "name:en": "Record Book",
      "name:ja": "レコードブック",
      "social_facility": "day_care",
      "social_facility:for": "senior"
    }
  }
}