{
  "amenity/university|DeVry University": {
    "countryCodes": ["us"],
    "tags": {
      "amenity": "university",
      "brand": "DeVry University",
      "brand:wikidata": "Q3298441",
      "brand:wikipedia": "en:DeVry University",
      "name": "DeVry University",
      "short_name": "DeVry"
    }
  },
  "amenity/university|Strayer University": {
    "countryCodes": ["us"],
    "tags": {
      "amenity": "university",
      "brand": "Strayer University",
      "brand:wikidata": "Q7622587",
      "brand:wikipedia": "en:Strayer University",
      "name": "Strayer University",
      "short_name": "Strayer"
    }
  },
  "amenity/university|University of Phoenix": {
    "countryCodes": ["us"],
    "tags": {
      "amenity": "university",
      "brand": "University of Phoenix",
      "brand:wikidata": "Q1889100",
      "brand:wikipedia": "en:University of Phoenix",
      "name": "University of Phoenix",
      "short_name": "UOPX"
    }
  },
  "amenity/university|De Montfort University": {
    "countryCodes": ["gb"],
    "tags": {
      "amenity": "university",
      "brand": "De Montfort University",
      "brand:wikidata": "Q3551402",
      "brand:wikipedia": "en:De Montfort University",
      "name": "De Montfort University",
      "short_name": "DMU"
    }
  },
  "amenity/university|University of Leicester": {
    "countryCodes": ["gb"],
    "tags": {
      "amenity": "university",
      "brand": "University of Leicester",
      "brand:wikidata": "Q1333399",
      "brand:wikipedia": "en:University of Leicester",
      "name": "University of Leicester",
      "short_name": "UL"
    }
  }
}