{
  "amenity/vehicle_inspection|Autosur": {
    "locationSet": {"include": ["fr"]},
    "tags": {
      "amenity": "vehicle_inspection",
      "brand": "Autosur",
      "brand:wikidata": "Q64224807",
      "name": "Autosur"
    }
  },
  "amenity/vehicle_inspection|Autovision": {
    "locationSet": {"include": ["fr"]},
    "tags": {
      "amenity": "vehicle_inspection",
      "brand": "Autovision",
      "brand:wikidata": "Q64224842",
      "name": "Autovision"
    }
  },
  "amenity/vehicle_inspection|Dekra": {
    "locationSet": {"include": ["de", "fr"]},
    "tags": {
      "amenity": "vehicle_inspection",
      "brand": "Dekra",
      "brand:wikidata": "Q383711",
      "brand:wikipedia": "en:Dekra",
      "name": "Dekra",
      "official_name": "Dekra Automotive"
    }
  },
  "amenity/vehicle_inspection|Sécuritest": {
    "locationSet": {"include": ["fr"]},
    "tags": {
      "amenity": "vehicle_inspection",
      "brand": "Sécuritest",
      "brand:wikidata": "Q64224992",
      "name": "Sécuritest"
    }
  },
  "amenity/vehicle_inspection|TÜV Hanse": {
    "locationSet": {"include": ["de"]},
    "tags": {
      "amenity": "vehicle_inspection",
      "brand": "TÜV Hanse",
      "brand:wikidata": "Q2463537",
      "brand:wikipedia": "de:TÜV Hanse",
      "name": "TÜV Hanse",
      "short_name": "TÜV"
    }
  },
  "amenity/vehicle_inspection|TÜV Hessen": {
    "locationSet": {"include": ["de"]},
    "tags": {
      "amenity": "vehicle_inspection",
      "brand": "TÜV Hessen",
      "brand:wikidata": "Q2463542",
      "brand:wikipedia": "de:TÜV Hessen",
      "name": "TÜV Hessen",
      "short_name": "TÜV"
    }
  },
  "amenity/vehicle_inspection|TÜV Nord": {
    "locationSet": {"include": ["de"]},
    "tags": {
      "amenity": "vehicle_inspection",
      "brand": "TÜV Nord",
      "brand:wikidata": "Q2463547",
      "brand:wikipedia": "de:TÜV Nord",
      "name": "TÜV Nord",
      "short_name": "TÜV"
    }
  },
  "amenity/vehicle_inspection|TÜV Rheinland": {
    "locationSet": {"include": ["de"]},
    "tags": {
      "amenity": "vehicle_inspection",
      "brand": "TÜV Rheinland",
      "brand:wikidata": "Q632391",
      "brand:wikipedia": "de:TÜV Rheinland",
      "name": "TÜV Rheinland",
      "short_name": "TÜV"
    }
  },
  "amenity/vehicle_inspection|TÜV Saarland": {
    "locationSet": {"include": ["de"]},
    "tags": {
      "amenity": "vehicle_inspection",
      "brand": "TÜV Saarland",
      "brand:wikidata": "Q996314",
      "brand:wikipedia": "de:TÜV Saarland",
      "name": "TÜV Saarland",
      "short_name": "TÜV"
    }
  },
  "amenity/vehicle_inspection|TÜV Süd": {
    "locationSet": {"include": ["de"]},
    "tags": {
      "amenity": "vehicle_inspection",
      "brand": "TÜV Süd",
      "brand:wikidata": "Q880718",
      "brand:wikipedia": "de:TÜV Süd",
      "name": "TÜV Süd",
      "short_name": "TÜV"
    }
  },
  "amenity/vehicle_inspection|TÜV Thüringen": {
    "locationSet": {"include": ["de"]},
    "tags": {
      "amenity": "vehicle_inspection",
      "brand": "TÜV Thüringen",
      "brand:wikidata": "Q2463551",
      "brand:wikipedia": "de:TÜV Thüringen",
      "name": "TÜV Thüringen",
      "short_name": "TÜV"
    }
  }
}