{
  "brands/amenity/vending_machine": [
    {
      "displayName": "Amazon Hub ロッカー",
      "id": "amazonhubロッカー-bf11a2",
      "locationSet": {"include": ["jp"]},
      "matchNames": [
        "amazon ロッカー",
        "アマゾン・ハブ・ロッカー"
      ],
      "oldid": "amenity/vending_machine|Amazon Hub ロッカー",
      "tags": {
        "amenity": "vending_machine",
        "brand": "Amazon Hub ロッカー",
        "brand:en": "Amazon Hub Locker",
        "brand:ja": "Amazon Hub ロッカー",
        "brand:wikidata": "Q16974764",
        "brand:wikipedia": "ja:Amazonロッカー",
        "name": "Amazon Hub ロッカー",
        "name:en": "Amazon Hub Locker",
        "name:ja": "Amazon Hub ロッカー",
        "vending": "parcel_pickup"
      }
    },
    {
      "displayName": "Amazon Locker",
      "id": "amazonlocker-52a344",
      "locationSet": {
        "include": ["de", "gb", "us"]
      },
      "oldid": "amenity/vending_machine|Amazon Locker",
      "tags": {
        "amenity": "vending_machine",
        "brand": "Amazon Locker",
        "brand:wikidata": "Q16974764",
        "brand:wikipedia": "en:Amazon Locker",
        "name": "Amazon Locker",
        "vending": "parcel_pickup"
      }
    },
    {
      "displayName": "AmeriGas",
      "id": "amerigas-7e3927",
      "locationSet": {"include": ["us"]},
      "oldid": "amenity/vending_machine|AmeriGas",
      "tags": {
        "amenity": "vending_machine",
        "brand": "AmeriGas",
        "brand:wikidata": "Q23130318",
        "fuel:lpg": "yes",
        "name": "AmeriGas",
        "vending": "gas"
      }
    },
    {
      "displayName": "Automat ŚKUP",
      "id": "automatskup-bd9635",
      "locationSet": {"include": ["pl"]},
      "oldid": "amenity/vending_machine|Automat ŚKUP",
      "tags": {
        "amenity": "vending_machine",
        "brand": "Automat ŚKUP",
        "brand:wikidata": "Q24945427",
        "brand:wikipedia": "pl:Śląska Karta Usług Publicznych",
        "name": "Automat ŚKUP",
        "vending": "public_transport_tickets"
      }
    },
    {
      "displayName": "Best Buy Express",
      "id": "bestbuyexpress-7e3927",
      "locationSet": {"include": ["us"]},
      "oldid": "amenity/vending_machine|Best Buy Express",
      "tags": {
        "amenity": "vending_machine",
        "brand": "Best Buy Express",
        "brand:wikidata": "Q533415",
        "name": "Best Buy Express",
        "vending": "electronics"
      }
    },
    {
      "displayName": "BKK-automata",
      "id": "bkkautomata-1490d1",
      "locationSet": {"include": ["hu"]},
      "oldid": "amenity/vending_machine|BKK-automata",
      "tags": {
        "amenity": "vending_machine",
        "brand": "BKK-automata",
        "brand:wikidata": "Q608917",
        "brand:wikipedia": "hu:Budapesti Közlekedési Központ",
        "name": "BKK-automata",
        "vending": "public_transport_tickets"
      }
    },
    {
      "displayName": "Blue Rhino",
      "id": "bluerhino-7e3927",
      "locationSet": {"include": ["us"]},
      "oldid": "amenity/vending_machine|Blue Rhino",
      "tags": {
        "amenity": "vending_machine",
        "brand": "Blue Rhino",
        "brand:wikidata": "Q65681213",
        "fuel:lpg": "yes",
        "name": "Blue Rhino",
        "vending": "gas"
      }
    },
    {
      "displayName": "CVS Pharmacy",
      "id": "cvspharmacy-7e3927",
      "locationSet": {"include": ["us"]},
      "oldid": "amenity/vending_machine|CVS Pharmacy",
      "tags": {
        "amenity": "vending_machine",
        "brand": "CVS Pharmacy",
        "brand:wikidata": "Q2078880",
        "brand:wikipedia": "en:CVS Pharmacy",
        "name": "CVS Pharmacy",
        "short_name": "CVS",
        "vending": "chemist"
      }
    },
    {
      "displayName": "DHL Packstation",
      "id": "dhlpackstation-a242c5",
      "locationSet": {"include": ["de"]},
      "matchTags": ["amenity/post_box"],
      "oldid": "amenity/vending_machine|DHL Packstation",
      "tags": {
        "amenity": "vending_machine",
        "brand": "Packstation",
        "brand:wikidata": "Q1766703",
        "brand:wikipedia": "en:Packstation",
        "name": "DHL Packstation",
        "vending": "parcel_pickup;parcel_mail_in"
      }
    },
    {
      "displayName": "DHL Paketbox",
      "id": "dhlpaketbox-a242c5",
      "locationSet": {"include": ["de"]},
      "oldid": "amenity/vending_machine|DHL Paketbox",
      "tags": {
        "amenity": "vending_machine",
        "brand": "Paketbox",
        "brand:wikidata": "Q2046604",
        "brand:wikipedia": "de:Paketbox",
        "name": "DHL Paketbox",
        "vending": "parcel_mail_in"
      }
    },
    {
      "displayName": "Dog-Station",
      "id": "dogstation-a8978b",
      "locationSet": {
        "include": ["at", "de", "dk"]
      },
      "oldid": "amenity/vending_machine|Dog-Station",
      "tags": {
        "amenity": "vending_machine",
        "brand": "Dog-Station",
        "brand:wikidata": "Q63720061",
        "name": "Dog-Station",
        "vending": "excrement_bags"
      }
    },
    {
      "displayName": "Foxpost",
      "id": "foxpost-1490d1",
      "locationSet": {"include": ["hu"]},
      "oldid": "amenity/vending_machine|Foxpost",
      "tags": {
        "amenity": "vending_machine",
        "brand": "Foxpost",
        "name": "Foxpost",
        "vending": "parcel_pickup"
      }
    },
    {
      "displayName": "Home City Ice",
      "id": "homecityice-7e3927",
      "locationSet": {"include": ["us"]},
      "oldid": "amenity/vending_machine|Home City Ice",
      "tags": {
        "amenity": "vending_machine",
        "brand": "Home City Ice",
        "brand:wikidata": "Q5888287",
        "name": "Home City Ice",
        "vending": "ice_cubes"
      }
    },
    {
      "displayName": "JT",
      "id": "jt-bf11a2",
      "locationSet": {"include": ["jp"]},
      "oldid": "amenity/vending_machine|JT",
      "tags": {
        "amenity": "vending_machine",
        "brand": "JT",
        "brand:wikidata": "Q898568",
        "brand:wikipedia": "ja:日本たばこ産業",
        "name": "JT",
        "official_name": "日本たばこ産業",
        "official_name:en": "Japan Tobacco",
        "vending": "cigarettes"
      }
    },
    {
      "displayName": "KKM",
      "id": "kkm-bd9635",
      "locationSet": {"include": ["pl"]},
      "oldid": "amenity/vending_machine|KKM",
      "tags": {
        "amenity": "vending_machine",
        "brand": "KKM",
        "brand:wikidata": "Q57515549",
        "name": "KKM",
        "vending": "public_transport_tickets"
      }
    },
    {
      "displayName": "Ozon Box",
      "id": "ozonbox-eb9a2c",
      "locationSet": {"include": ["ru"]},
      "matchNames": ["постамат ozon box"],
      "matchTags": ["amenity/post_box"],
      "oldid": "amenity/vending_machine|Ozon Box",
      "tags": {
        "amenity": "vending_machine",
        "brand": "Ozon Box",
        "brand:wikidata": "Q2365235",
        "brand:wikipedia": "ru:Ozon.ru",
        "name": "Ozon Box",
        "vending": "parcel_pickup"
      }
    },
    {
      "displayName": "Paczkomat InPost",
      "id": "paczkomatinpost-bd9635",
      "locationSet": {"include": ["pl"]},
      "oldid": "amenity/vending_machine|Paczkomat InPost",
      "tags": {
        "amenity": "vending_machine",
        "brand": "InPost",
        "brand:wikidata": "Q3182097",
        "brand:wikipedia": "pl:InPost",
        "name": "Paczkomat InPost",
        "vending": "parcel_pickup;parcel_mail_in"
      }
    },
    {
      "displayName": "ParkPlus (Calgary)",
      "id": "parkplus-b46c08",
      "locationSet": {"include": ["ca"]},
      "oldid": "amenity/vending_machine|ParkPlus~(Calgary)",
      "tags": {
        "amenity": "vending_machine",
        "brand": "ParkPlus",
        "brand:wikidata": "Q63719595",
        "name": "ParkPlus",
        "vending": "parking_tickets"
      }
    },
    {
      "displayName": "PUDOステーション",
      "id": "pudoステーション-bf11a2",
      "locationSet": {"include": ["jp"]},
      "matchTags": ["amenity/post_box"],
      "oldid": "amenity/vending_machine|PUDOステーション",
      "tags": {
        "alt_name": "プドー・ステーション",
        "amenity": "vending_machine",
        "brand": "プドー",
        "brand:en": "PUDO",
        "brand:ja": "プドー",
        "brand:wikidata": "Q86738066",
        "brand:wikipedia": "ja:Packcity Japan",
        "name": "PUDOステーション",
        "name:en": "PUDO Station",
        "name:ja": "PUDOステーション",
        "vending": "parcel_pickup"
      }
    },
    {
      "displayName": "Redbox",
      "id": "redbox-7e3927",
      "locationSet": {"include": ["us"]},
      "oldid": "amenity/vending_machine|Redbox",
      "tags": {
        "amenity": "vending_machine",
        "brand": "Redbox",
        "brand:wikidata": "Q7305489",
        "brand:wikipedia": "en:Redbox",
        "name": "Redbox",
        "vending": "movies"
      }
    },
    {
      "displayName": "Reddy Ice",
      "id": "reddyice-7e3927",
      "locationSet": {"include": ["us"]},
      "oldid": "amenity/vending_machine|Reddy Ice",
      "tags": {
        "amenity": "vending_machine",
        "brand": "Reddy Ice",
        "brand:wikidata": "Q7305666",
        "brand:wikipedia": "en:Reddy Ice",
        "name": "Reddy Ice",
        "vending": "ice_cubes"
      }
    },
    {
      "displayName": "Robidog",
      "id": "robidog-742585",
      "locationSet": {"include": ["ch"]},
      "oldid": "amenity/vending_machine|Robidog",
      "tags": {
        "amenity": "vending_machine",
        "brand": "Robidog",
        "brand:wikidata": "Q2159689",
        "brand:wikipedia": "de:Robidog",
        "name": "Robidog",
        "vending": "excrement_bags"
      }
    },
    {
      "displayName": "Smartpost",
      "id": "smartpost-7a60d4",
      "locationSet": {"include": ["fi"]},
      "matchTags": ["amenity/post_box"],
      "oldid": "amenity/vending_machine|Smartpost",
      "tags": {
        "amenity": "vending_machine",
        "brand": "Smartpost",
        "brand:wikidata": "Q7543889",
        "brand:wikipedia": "fi:SmartPOST",
        "name": "Smartpost",
        "vending": "parcel_pickup;parcel_mail_in"
      }
    },
    {
      "displayName": "UCC",
      "id": "ucc-bf11a2",
      "locationSet": {"include": ["jp"]},
      "matchNames": ["ucc上島珈琲"],
      "oldid": "amenity/vending_machine|UCC",
      "tags": {
        "amenity": "vending_machine",
        "brand": "UCC",
        "brand:wikidata": "Q1185060",
        "brand:wikipedia": "ja:UCC上島珈琲",
        "name": "UCC",
        "official_name": "上島珈琲",
        "official_name:en": "Ueshima Coffee",
        "official_name:ja": "上島珈琲",
        "vending": "coffee"
      }
    },
    {
      "displayName": "VVO Fahrausweise",
      "id": "vvofahrausweise-a242c5",
      "locationSet": {"include": ["de"]},
      "oldid": "amenity/vending_machine|VVO Fahrausweise",
      "tags": {
        "amenity": "vending_machine",
        "brand": "VVO Fahrausweise",
        "name": "VVO Fahrausweise",
        "vending": "public_transport_tickets"
      }
    },
    {
      "displayName": "Ключ здоровья",
      "id": "кnючздоровья-eb9a2c",
      "locationSet": {"include": ["ru"]},
      "matchTags": ["shop/water"],
      "oldid": "amenity/vending_machine|Ключ здоровья",
      "tags": {
        "amenity": "vending_machine",
        "brand": "Ключ здоровья",
        "name": "Ключ здоровья",
        "vending": "water"
      }
    },
    {
      "displayName": "アキュア",
      "id": "アキュア-bf11a2",
      "locationSet": {"include": ["jp"]},
      "matchNames": ["acureの自販機"],
      "oldid": "amenity/vending_machine|アキュア",
      "tags": {
        "amenity": "vending_machine",
        "brand": "アキュア",
        "brand:en": "Acure",
        "brand:ja": "アキュア",
        "brand:wikidata": "Q11226260",
        "brand:wikipedia": "ja:JR東日本ウォータービジネス",
        "name": "アキュア",
        "name:en": "Acure",
        "name:ja": "アキュア"
      }
    },
    {
      "displayName": "アサヒビール",
      "id": "アサヒビール-bf11a2",
      "locationSet": {"include": ["jp"]},
      "oldid": "amenity/vending_machine|アサヒビール",
      "tags": {
        "alt_name:en": "Asahi Beer",
        "amenity": "vending_machine",
        "brand": "アサヒビール",
        "brand:en": "Asahi Breweries",
        "brand:ja": "アサヒビール",
        "brand:wikidata": "Q720479",
        "brand:wikipedia": "ja:アサヒビール",
        "drink:brewery": "yes",
        "name": "アサヒビール",
        "name:en": "Asahi Breweries",
        "name:ja": "アサヒビール",
        "vending": "drinks"
      }
    },
    {
      "displayName": "アペックス",
      "id": "アペックス-bf11a2",
      "locationSet": {"include": ["jp"]},
      "oldid": "amenity/vending_machine|アペックス",
      "tags": {
        "amenity": "vending_machine",
        "brand": "アペックス",
        "brand:en": "Apex",
        "brand:ja": "アペックス",
        "brand:wikidata": "Q11284782",
        "brand:wikipedia": "ja:アペックス (企業)",
        "name": "アペックス",
        "name:en": "Apex",
        "name:ja": "アペックス",
        "vending": "coffee"
      }
    },
    {
      "displayName": "い・ろ・は・す",
      "id": "いろはす-bf11a2",
      "locationSet": {"include": ["jp"]},
      "matchNames": ["i・lohas"],
      "oldid": "amenity/vending_machine|い・ろ・は・す",
      "tags": {
        "alt_name:en": "ILOHAS",
        "amenity": "vending_machine",
        "brand": "い・ろ・は・す",
        "brand:en": "I Lohas",
        "brand:ja": "い・ろ・は・す",
        "brand:wikidata": "Q11260234",
        "brand:wikipedia": "ja:い・ろ・は・す",
        "drink:water": "yes",
        "name": "い・ろ・は・す",
        "name:en": "I Lohas",
        "name:ja": "い・ろ・は・す",
        "vending": "drinks"
      }
    },
    {
      "displayName": "カップヌードル",
      "id": "カップヌードル-bf11a2",
      "locationSet": {"include": ["jp"]},
      "oldid": "amenity/vending_machine|カップヌードル",
      "tags": {
        "amenity": "vending_machine",
        "brand": "カップヌードル",
        "brand:en": "Cup Noodle",
        "brand:ja": "カップヌードル",
        "brand:wikidata": "Q1143401",
        "brand:wikipedia": "ja:カップヌードル",
        "name": "カップヌードル",
        "name:en": "Cup Noodle",
        "name:ja": "カップヌードル",
        "vending": "food"
      }
    },
    {
      "displayName": "カルピス",
      "id": "カルピス-bf11a2",
      "locationSet": {"include": ["jp"]},
      "oldid": "amenity/vending_machine|カルピス",
      "tags": {
        "alt_name:en": "Calpico",
        "amenity": "vending_machine",
        "brand": "カルピス",
        "brand:en": "Calpis",
        "brand:ja": "カルピス",
        "brand:wikidata": "Q1027454",
        "brand:wikipedia": "ja:カルピス",
        "name": "カルピス",
        "name:en": "Calpis",
        "name:ja": "カルピス",
        "vending": "drinks"
      }
    },
    {
      "displayName": "キリンビール",
      "id": "キリンビール-bf11a2",
      "locationSet": {"include": ["jp"]},
      "oldid": "amenity/vending_machine|キリンビール",
      "tags": {
        "alt_name:en": "Kirin Beer",
        "amenity": "vending_machine",
        "brand": "キリンビール",
        "brand:en": "Kirin Brewery",
        "brand:ja": "キリンビール",
        "brand:wikidata": "Q13403399",
        "brand:wikipedia": "ja:麒麟麦酒",
        "drink:brewery": "yes",
        "name": "キリンビール",
        "name:en": "Kirin Brewery",
        "name:ja": "キリンビール",
        "official_name": "麒麟麦酒",
        "vending": "drinks"
      }
    },
    {
      "displayName": "キリンビバレッジ",
      "id": "キリンビバレッジ-bf11a2",
      "locationSet": {"include": ["jp"]},
      "oldid": "amenity/vending_machine|キリンビバレッジ",
      "tags": {
        "alt_name": "キリンBV",
        "amenity": "vending_machine",
        "brand": "キリンビバレッジ",
        "brand:en": "Kirin Beverage",
        "brand:ja": "キリンビバレッジ",
        "brand:wikidata": "Q1833953",
        "brand:wikipedia": "ja:キリンビバレッジ",
        "drink:tea": "yes",
        "name": "キリンビバレッジ",
        "name:en": "Kirin Beverage",
        "name:ja": "キリンビバレッジ",
        "vending": "drinks"
      }
    },
    {
      "displayName": "コカ・コーラ",
      "id": "コカコーラ-bf11a2",
      "locationSet": {"include": ["jp"]},
      "oldid": "amenity/vending_machine|コカ・コーラ",
      "tags": {
        "amenity": "vending_machine",
        "brand": "コカ・コーラ",
        "brand:en": "Coca-Cola",
        "brand:ja": "コカ・コーラ",
        "brand:wikidata": "Q2813",
        "brand:wikipedia": "ja:コカ・コーラ",
        "drink:cola": "yes",
        "name": "コカ・コーラ",
        "name:en": "Coca-Cola",
        "name:ja": "コカ・コーラ",
        "vending": "drinks"
      }
    },
    {
      "displayName": "サントリー",
      "id": "サントリー-bf11a2",
      "locationSet": {"include": ["jp"]},
      "oldid": "amenity/vending_machine|サントリー",
      "tags": {
        "amenity": "vending_machine",
        "brand": "サントリー",
        "brand:en": "Suntory",
        "brand:ja": "サントリー",
        "brand:wikidata": "Q1345267",
        "brand:wikipedia": "ja:サントリー",
        "name": "サントリー",
        "name:en": "Suntory",
        "name:ja": "サントリー",
        "vending": "drinks"
      }
    },
    {
      "displayName": "ジョージア",
      "id": "ジョージア-bf11a2",
      "locationSet": {"include": ["jp"]},
      "oldid": "amenity/vending_machine|ジョージア",
      "tags": {
        "amenity": "vending_machine",
        "brand": "ジョージア",
        "brand:en": "Georgia",
        "brand:ja": "ジョージア",
        "brand:wikidata": "Q5547323",
        "brand:wikipedia": "ja:ジョージア (缶コーヒー)",
        "name": "ジョージア",
        "name:en": "Georgia",
        "name:ja": "ジョージア",
        "vending": "coffee"
      }
    },
    {
      "displayName": "セブンティーンアイス",
      "id": "セブンティーンアイス-bf11a2",
      "locationSet": {"include": ["jp"]},
      "oldid": "amenity/vending_machine|セブンティーンアイス",
      "tags": {
        "amenity": "vending_machine",
        "brand": "セブンティーンアイス",
        "brand:en": "Seventeen Ice",
        "brand:ja": "セブンティーンアイス",
        "brand:wikidata": "Q11314427",
        "brand:wikipedia": "ja:セブンティーンアイス",
        "name": "セブンティーンアイス",
        "name:en": "Seventeen Ice",
        "name:ja": "セブンティーンアイス",
        "vending": "ice_cream"
      }
    },
    {
      "displayName": "ダイドードリンコ",
      "id": "ダイドードリンコ-bf11a2",
      "locationSet": {"include": ["jp"]},
      "matchNames": ["dydoドリンコ"],
      "oldid": "amenity/vending_machine|ダイドードリンコ",
      "tags": {
        "amenity": "vending_machine",
        "brand": "ダイドー",
        "brand:en": "DyDo",
        "brand:ja": "ダイドー",
        "brand:wikidata": "Q11316814",
        "brand:wikipedia": "ja:ダイドードリンコ",
        "drink:soft_drink": "yes",
        "name": "ダイドードリンコ",
        "name:en": "DyDo Drinco",
        "name:ja": "ダイドードリンコ",
        "vending": "drinks"
      }
    },
    {
      "displayName": "だし道楽",
      "id": "だし道楽-bf11a2",
      "locationSet": {"include": ["jp"]},
      "oldid": "amenity/vending_machine|だし道楽",
      "tags": {
        "amenity": "vending_machine",
        "brand": "だし道楽",
        "brand:en": "Dashi Douraku",
        "brand:ja": "だし道楽",
        "brand:wikidata": "Q60989429",
        "brand:wikipedia": "ja:だし道楽",
        "drink:brewery": "yes",
        "name": "だし道楽",
        "name:en": "Dashi Douraku",
        "name:ja": "だし道楽",
        "vending": "food"
      }
    },
    {
      "displayName": "チェリオ",
      "id": "チェリオ-bf11a2",
      "locationSet": {"include": ["jp"]},
      "oldid": "amenity/vending_machine|チェリオ",
      "tags": {
        "amenity": "vending_machine",
        "brand": "チェリオ",
        "brand:en": "Cheerio",
        "brand:ja": "チェリオ",
        "brand:wikidata": "Q5089350",
        "brand:wikipedia": "ja:チェリオ",
        "drink:soft_drink": "yes",
        "name": "チェリオ",
        "name:en": "Cheerio",
        "name:ja": "チェリオ",
        "vending": "drinks"
      }
    },
    {
      "displayName": "ドール",
      "id": "ドール-bf11a2",
      "locationSet": {"include": ["jp"]},
      "oldid": "amenity/vending_machine|ドール",
      "tags": {
        "amenity": "vending_machine",
        "brand": "ドール",
        "brand:en": "Dole",
        "brand:ja": "ドール",
        "brand:wikidata": "Q492747",
        "brand:wikipedia": "ja:ドール・フード・カンパニー",
        "name": "ドール",
        "name:en": "Dole",
        "name:ja": "ドール",
        "vending": "food"
      }
    },
    {
      "displayName": "ニチレイフーズ",
      "id": "ニチレイフーズ-bf11a2",
      "locationSet": {"include": ["jp"]},
      "oldid": "amenity/vending_machine|ニチレイフーズ",
      "tags": {
        "alt_name:en": "Nichirei 24 Hour Hot Menu Casual Frozen Foods",
        "amenity": "vending_machine",
        "brand": "ニチレイフーズ",
        "brand:en": "Nichirei Foods",
        "brand:ja": "ニチレイフーズ",
        "brand:wikidata": "Q4921527",
        "brand:wikipedia": "ja:ニチレイ",
        "name": "ニチレイフーズ",
        "name:en": "Nichirei Foods",
        "name:ja": "ニチレイフーズ",
        "vending": "food"
      }
    },
    {
      "displayName": "はこぽす",
      "id": "はこぽす-bf11a2",
      "locationSet": {"include": ["jp"]},
      "matchTags": ["amenity/post_box"],
      "oldid": "amenity/vending_machine|はこぽす",
      "tags": {
        "amenity": "vending_machine",
        "brand": "はこぽす",
        "brand:en": "Hakopost",
        "brand:ja": "はこぽす",
        "brand:wikidata": "Q11509261",
        "brand:wikipedia": "ja:日本郵便輸送",
        "name": "はこぽす",
        "name:en": "Hakopost",
        "name:ja": "はこぽす",
        "vending": "parcel_pickup"
      }
    },
    {
      "displayName": "ポッカサッポロ",
      "id": "ポッカサッポロ-bf11a2",
      "locationSet": {"include": ["jp"]},
      "matchNames": ["pokka sapporo"],
      "oldid": "amenity/vending_machine|ポッカサッポロ",
      "tags": {
        "amenity": "vending_machine",
        "brand": "ポッカサッポロ",
        "brand:en": "Pokka Sapporo",
        "brand:ja": "ポッカサッポロ",
        "brand:wikidata": "Q7208665",
        "brand:wikipedia": "ja:ポッカサッポロフード&ビバレッジ",
        "name": "ポッカサッポロ",
        "name:en": "Pokka Sapporo",
        "name:ja": "ポッカサッポロ",
        "vending": "water;food"
      }
    },
    {
      "displayName": "メトロの缶詰",
      "id": "メトロの缶詰-bf11a2",
      "locationSet": {"include": ["jp"]},
      "oldid": "amenity/vending_machine|メトロの缶詰",
      "tags": {
        "alt_name:en": "Metocan Shop",
        "amenity": "vending_machine",
        "brand": "メトロの缶詰",
        "brand:en": "Metro Commerce",
        "brand:ja": "メトロの缶詰",
        "brand:wikidata": "Q11343895",
        "brand:wikipedia": "ja:メトロコマース",
        "name": "メトロの缶詰",
        "name:en": "Metro Commerce",
        "name:ja": "メトロの缶詰",
        "vending": "gift"
      }
    },
    {
      "displayName": "ヤクルト",
      "id": "ヤクルト-bf11a2",
      "locationSet": {"include": ["jp"]},
      "oldid": "amenity/vending_machine|ヤクルト",
      "tags": {
        "amenity": "vending_machine",
        "brand": "ヤクルト",
        "brand:en": "Yakult",
        "brand:ja": "ヤクルト",
        "brand:wikidata": "Q16172223",
        "brand:wikipedia": "ja:ヤクルト本社",
        "drink:milk": "yes",
        "name": "ヤクルト",
        "name:en": "Yakult",
        "name:ja": "ヤクルト",
        "vending": "milk"
      }
    },
    {
      "displayName": "ロッテアイス",
      "id": "ロッテアイス-bf11a2",
      "locationSet": {"include": ["jp"]},
      "oldid": "amenity/vending_machine|ロッテアイス",
      "tags": {
        "amenity": "vending_machine",
        "brand": "ロッテアイス",
        "brand:en": "Lotte Ice Cream",
        "brand:ja": "ロッテアイス",
        "brand:wikidata": "Q24886018",
        "brand:wikipedia": "ja:ロッテアイス",
        "name": "ロッテアイス",
        "name:en": "Lotte Ice Cream",
        "name:ja": "ロッテアイス",
        "vending": "ice_cream"
      }
    },
    {
      "displayName": "伊藤園",
      "id": "伊藤園-bf11a2",
      "locationSet": {"include": ["jp"]},
      "matchNames": ["ito en"],
      "oldid": "amenity/vending_machine|伊藤園",
      "tags": {
        "alt_name:en": "ITOEN",
        "amenity": "vending_machine",
        "brand": "伊藤園",
        "brand:en": "Ito En",
        "brand:ja": "伊藤園",
        "brand:wikidata": "Q3079325",
        "brand:wikipedia": "ja:伊藤園",
        "drink:tea": "yes",
        "name": "伊藤園",
        "name:en": "Ito En",
        "name:ja": "伊藤園",
        "vending": "drinks"
      }
    },
    {
      "displayName": "大塚食品",
      "id": "大塚食品-bf11a2",
      "locationSet": {"include": ["jp"]},
      "oldid": "amenity/vending_machine|大塚食品",
      "tags": {
        "amenity": "vending_machine",
        "brand": "大塚",
        "brand:en": "Otsuka",
        "brand:ja": "大塚",
        "brand:wikidata": "Q11434124",
        "brand:wikipedia": "ja:大塚食品",
        "name": "大塚食品",
        "name:en": "Otsuka Foods",
        "name:ja": "大塚食品",
        "vending": "food"
      }
    },
    {
      "displayName": "明治",
      "id": "明治-bf11a2",
      "locationSet": {"include": ["jp"]},
      "oldid": "amenity/vending_machine|明治",
      "tags": {
        "amenity": "vending_machine",
        "brand": "明治",
        "brand:en": "Meiji",
        "brand:ja": "明治",
        "brand:wikidata": "Q11512281",
        "brand:wikipedia": "ja:明治 (企業)",
        "name": "明治",
        "name:en": "Meiji",
        "name:ja": "明治",
        "vending": "food"
      }
    }
  ]
}